{"pageProps":{"stateName":"Rhode-island","cityName":"manville","nearbyCities":[{"city":"Albion","state_name":"Rhode Island","lat":41.95221,"lng":-71.4559,"zip":"02802","miles_from_dt":1.4},{"city":"Woonsocket","state_name":"Rhode Island","lat":42.00103,"lng":-71.49923,"zip":"02895","miles_from_dt":2.72},{"city":"Cumberland","state_name":"Rhode Island","lat":41.97025,"lng":-71.41978,"zip":"02864","miles_from_dt":2.93},{"city":"North Smithfield","state_name":"Rhode Island","lat":41.97285,"lng":-71.55027,"zip":"02896","miles_from_dt":3.84},{"city":"Lincoln","state_name":"Rhode Island","lat":41.91251,"lng":-71.44822,"zip":"02865","miles_from_dt":3.93},{"city":"Smithfield","state_name":"Rhode Island","lat":41.90615,"lng":-71.52365,"zip":"02917","miles_from_dt":4.77},{"city":"Forestdale","state_name":"Rhode Island","lat":41.99934,"lng":-71.56322,"zip":"02824","miles_from_dt":5.05},{"city":"Blackstone","state_name":"Massachusetts","lat":42.0399,"lng":-71.53125,"zip":"01504","miles_from_dt":5.86},{"city":"Slatersville","state_name":"Rhode Island","lat":41.99801,"lng":-71.58301,"zip":"02876","miles_from_dt":5.94},{"city":"Sheldonville","state_name":"Massachusetts","lat":42.0348,"lng":-71.386,"zip":"02070","miles_from_dt":6.67},{"city":"Central Falls","state_name":"Rhode Island","lat":41.89005,"lng":-71.39336,"zip":"02863","miles_from_dt":6.74},{"city":"North Attleboro","state_name":"Massachusetts","lat":41.97004,"lng":-71.33586,"zip":"02760","miles_from_dt":7.24},{"city":"Millville","state_name":"Massachusetts","lat":42.03906,"lng":-71.57767,"zip":"01529","miles_from_dt":7.28},{"city":"Greenville","state_name":"Rhode Island","lat":41.87672,"lng":-71.56065,"zip":"02828","miles_from_dt":7.51},{"city":"North Attleboro","state_name":"Massachusetts","lat":41.9793,"lng":-71.33143,"zip":"02761","miles_from_dt":7.52},{"city":"Providence","state_name":"Rhode Island","lat":41.86058,"lng":-71.43539,"zip":"02904","miles_from_dt":7.54},{"city":"North Providence","state_name":"Rhode Island","lat":41.85467,"lng":-71.47325,"zip":"02911","miles_from_dt":7.65},{"city":"Harmony","state_name":"Rhode Island","lat":41.89377,"lng":-71.59129,"zip":"02829","miles_from_dt":7.72},{"city":"Bellingham","state_name":"Massachusetts","lat":42.0777,"lng":-71.47407,"zip":"02019","miles_from_dt":7.74},{"city":"Plainville","state_name":"Massachusetts","lat":42.01409,"lng":-71.33642,"zip":"02762","miles_from_dt":7.94},{"city":"Pawtucket","state_name":"Rhode Island","lat":41.87036,"lng":-71.38855,"zip":"02860","miles_from_dt":7.97},{"city":"Pawtucket","state_name":"Rhode Island","lat":41.87112,"lng":-71.37567,"zip":"02862","miles_from_dt":8.33},{"city":"Wrentham","state_name":"Massachusetts","lat":42.05129,"lng":-71.35522,"zip":"02093","miles_from_dt":8.59},{"city":"Providence","state_name":"Rhode Island","lat":41.84386,"lng":-71.43499,"zip":"02918","miles_from_dt":8.66},{"city":"Attleboro Falls","state_name":"Massachusetts","lat":41.96666,"lng":-71.30743,"zip":"02763","miles_from_dt":8.7},{"city":"Pawtucket","state_name":"Rhode Island","lat":41.87863,"lng":-71.35228,"zip":"02861","miles_from_dt":8.76},{"city":"Glendale","state_name":"Rhode Island","lat":41.98248,"lng":-71.64539,"zip":"02826","miles_from_dt":8.79},{"city":"Mapleville","state_name":"Rhode Island","lat":41.9433,"lng":-71.64581,"zip":"02839","miles_from_dt":8.87},{"city":"Oakland","state_name":"Rhode Island","lat":41.96354,"lng":-71.64893,"zip":"02858","miles_from_dt":8.89},{"city":"Harrisville","state_name":"Rhode Island","lat":41.98016,"lng":-71.6484,"zip":"02830","miles_from_dt":8.92},{"city":"Providence","state_name":"Rhode Island","lat":41.83877,"lng":-71.43926,"zip":"02908","miles_from_dt":8.95},{"city":"Franklin","state_name":"Massachusetts","lat":42.08622,"lng":-71.41126,"zip":"02038","miles_from_dt":8.98},{"city":"Mendon","state_name":"Massachusetts","lat":42.09301,"lng":-71.55146,"zip":"01756","miles_from_dt":9.61},{"city":"Attleboro","state_name":"Massachusetts","lat":41.93108,"lng":-71.29499,"zip":"02703","miles_from_dt":9.64},{"city":"Providence","state_name":"Rhode Island","lat":41.83964,"lng":-71.38963,"zip":"02906","miles_from_dt":9.77},{"city":"Johnston","state_name":"Rhode Island","lat":41.82733,"lng":-71.52002,"zip":"02919","miles_from_dt":9.8},{"city":"Providence","state_name":"Rhode Island","lat":41.82682,"lng":-71.408,"zip":"02901","miles_from_dt":10.2},{"city":"Providence","state_name":"Rhode Island","lat":41.81825,"lng":-71.45078,"zip":"02909","miles_from_dt":10.25},{"city":"Providence","state_name":"Rhode Island","lat":41.82272,"lng":-71.42064,"zip":"02940","miles_from_dt":10.26},{"city":"Providence","state_name":"Rhode Island","lat":41.82783,"lng":-71.39959,"zip":"02912","miles_from_dt":10.29},{"city":"Providence","state_name":"Rhode Island","lat":41.82468,"lng":-71.41079,"zip":"02902","miles_from_dt":10.29},{"city":"Uxbridge","state_name":"Massachusetts","lat":42.05895,"lng":-71.63741,"zip":"01569","miles_from_dt":10.51},{"city":"Rumford","state_name":"Rhode Island","lat":41.84438,"lng":-71.35258,"zip":"02916","miles_from_dt":10.52},{"city":"Providence","state_name":"Rhode Island","lat":41.81902,"lng":-71.41003,"zip":"02903","miles_from_dt":10.67},{"city":"Hopedale","state_name":"Massachusetts","lat":42.12477,"lng":-71.535,"zip":"01747","miles_from_dt":11.4},{"city":"Providence","state_name":"Rhode Island","lat":41.79867,"lng":-71.42581,"zip":"02907","miles_from_dt":11.81},{"city":"East Providence","state_name":"Rhode Island","lat":41.81326,"lng":-71.36608,"zip":"02914","miles_from_dt":11.95},{"city":"Seekonk","state_name":"Massachusetts","lat":41.83787,"lng":-71.31736,"zip":"02771","miles_from_dt":12.03},{"city":"North Uxbridge","state_name":"Massachusetts","lat":42.09026,"lng":-71.63989,"zip":"01538","miles_from_dt":12.04},{"city":"Chartley","state_name":"Massachusetts","lat":41.96733,"lng":-71.24163,"zip":"02712","miles_from_dt":12.09},{"city":"Chepachet","state_name":"Rhode Island","lat":41.89959,"lng":-71.69888,"zip":"02814","miles_from_dt":12.34},{"city":"North Scituate","state_name":"Rhode Island","lat":41.82705,"lng":-71.63083,"zip":"02857","miles_from_dt":12.44},{"city":"Linwood","state_name":"Massachusetts","lat":42.09899,"lng":-71.64296,"zip":"01525","miles_from_dt":12.59},{"city":"Norfolk","state_name":"Massachusetts","lat":42.11632,"lng":-71.32952,"zip":"02056","miles_from_dt":12.86},{"city":"Providence","state_name":"Rhode Island","lat":41.78769,"lng":-71.39886,"zip":"02905","miles_from_dt":12.91},{"city":"Medway","state_name":"Massachusetts","lat":42.15352,"lng":-71.42906,"zip":"02053","miles_from_dt":13.2},{"city":"Cranston","state_name":"Rhode Island","lat":41.77552,"lng":-71.43564,"zip":"02910","miles_from_dt":13.28},{"city":"Milford","state_name":"Massachusetts","lat":42.15723,"lng":-71.51978,"zip":"01757","miles_from_dt":13.42},{"city":"Foxboro","state_name":"Massachusetts","lat":42.06266,"lng":-71.24613,"zip":"02035","miles_from_dt":13.61},{"city":"Cranston","state_name":"Rhode Island","lat":41.76719,"lng":-71.4655,"zip":"02920","miles_from_dt":13.7},{"city":"Mansfield","state_name":"Massachusetts","lat":42.01626,"lng":-71.21868,"zip":"02048","miles_from_dt":13.72},{"city":"Pascoag","state_name":"Rhode Island","lat":41.9665,"lng":-71.7464,"zip":"02859","miles_from_dt":13.91},{"city":"West Millbury","state_name":"Massachusetts","lat":42.12631,"lng":-71.64613,"zip":"01586","miles_from_dt":14.12},{"city":"Cranston","state_name":"Rhode Island","lat":41.76292,"lng":-71.51571,"zip":"02921","miles_from_dt":14.13},{"city":"South Walpole","state_name":"Massachusetts","lat":42.10392,"lng":-71.27002,"zip":"02071","miles_from_dt":14.28},{"city":"Whitinsville","state_name":"Massachusetts","lat":42.11837,"lng":-71.66836,"zip":"01588","miles_from_dt":14.45},{"city":"Rehoboth","state_name":"Massachusetts","lat":41.84394,"lng":-71.24559,"zip":"02769","miles_from_dt":14.56},{"city":"Riverside","state_name":"Rhode Island","lat":41.77725,"lng":-71.34906,"zip":"02915","miles_from_dt":14.56},{"city":"Northbridge","state_name":"Massachusetts","lat":42.13991,"lng":-71.64433,"zip":"01534","miles_from_dt":14.82},{"city":"Norton","state_name":"Massachusetts","lat":41.96402,"lng":-71.18418,"zip":"02766","miles_from_dt":15.05},{"city":"Millis","state_name":"Massachusetts","lat":42.1693,"lng":-71.36261,"zip":"02054","miles_from_dt":15.23},{"city":"Warwick","state_name":"Rhode Island","lat":41.74909,"lng":-71.41123,"zip":"02888","miles_from_dt":15.31},{"city":"Douglas","state_name":"Massachusetts","lat":42.0528,"lng":-71.75106,"zip":"01516","miles_from_dt":15.37},{"city":"Upton","state_name":"Massachusetts","lat":42.17694,"lng":-71.60516,"zip":"01568","miles_from_dt":16.03},{"city":"Holliston","state_name":"Massachusetts","lat":42.19775,"lng":-71.44499,"zip":"01746","miles_from_dt":16.11},{"city":"Clayville","state_name":"Rhode Island","lat":41.77723,"lng":-71.66177,"zip":"02815","miles_from_dt":16.14},{"city":"Hope","state_name":"Rhode Island","lat":41.74461,"lng":-71.58442,"zip":"02831","miles_from_dt":16.24},{"city":"Manchaug","state_name":"Massachusetts","lat":42.08955,"lng":-71.74667,"zip":"01526","miles_from_dt":16.34},{"city":"Fiskeville","state_name":"Rhode Island","lat":41.73328,"lng":-71.54479,"zip":"02823","miles_from_dt":16.41},{"city":"Walpole","state_name":"Massachusetts","lat":42.14689,"lng":-71.25916,"zip":"02081","miles_from_dt":16.78},{"city":"Barrington","state_name":"Rhode Island","lat":41.7443,"lng":-71.31453,"zip":"02806","miles_from_dt":17.4},{"city":"Medfield","state_name":"Massachusetts","lat":42.1848,"lng":-71.30501,"zip":"02052","miles_from_dt":17.51},{"city":"South Grafton","state_name":"Massachusetts","lat":42.17496,"lng":-71.67762,"zip":"01560","miles_from_dt":17.78},{"city":"North Dighton","state_name":"Massachusetts","lat":41.8562,"lng":-71.16022,"zip":"02764","miles_from_dt":17.96},{"city":"Warwick","state_name":"Rhode Island","lat":41.70493,"lng":-71.45892,"zip":"02886","miles_from_dt":18.01},{"city":"Sharon","state_name":"Massachusetts","lat":42.10778,"lng":-71.18183,"zip":"02067","miles_from_dt":18.05},{"city":"Foster","state_name":"Rhode Island","lat":41.78212,"lng":-71.72596,"zip":"02825","miles_from_dt":18.06},{"city":"Hopkinton","state_name":"Massachusetts","lat":42.2255,"lng":-71.53781,"zip":"01748","miles_from_dt":18.22},{"city":"Easton","state_name":"Massachusetts","lat":42.02385,"lng":-71.12922,"zip":"02334","miles_from_dt":18.32},{"city":"Sutton","state_name":"Massachusetts","lat":42.13387,"lng":-71.75179,"zip":"01590","miles_from_dt":18.33},{"city":"Warwick","state_name":"Rhode Island","lat":41.70268,"lng":-71.42316,"zip":"02887","miles_from_dt":18.35},{"city":"Warwick","state_name":"Rhode Island","lat":41.70602,"lng":-71.39106,"zip":"02889","miles_from_dt":18.44},{"city":"West Warwick","state_name":"Rhode Island","lat":41.69856,"lng":-71.51566,"zip":"02893","miles_from_dt":18.54},{"city":"Thompson","state_name":"Connecticut","lat":41.96895,"lng":-71.83927,"zip":"06277","miles_from_dt":18.7},{"city":"East Walpole","state_name":"Massachusetts","lat":42.15489,"lng":-71.2155,"zip":"02032","miles_from_dt":18.73},{"city":"Taunton","state_name":"Massachusetts","lat":41.90743,"lng":-71.11939,"zip":"02780","miles_from_dt":18.82},{"city":"East Killingly","state_name":"Connecticut","lat":41.84743,"lng":-71.80701,"zip":"06243","miles_from_dt":18.9},{"city":"Woodville","state_name":"Massachusetts","lat":42.23233,"lng":-71.55963,"zip":"01784","miles_from_dt":18.91},{"city":"Sherborn","state_name":"Massachusetts","lat":42.23416,"lng":-71.37532,"zip":"01770","miles_from_dt":19.25},{"city":"Grafton","state_name":"Massachusetts","lat":42.20077,"lng":-71.67892,"zip":"01519","miles_from_dt":19.29},{"city":"North Easton","state_name":"Massachusetts","lat":42.05519,"lng":-71.12071,"zip":"02356","miles_from_dt":19.32},{"city":"South Easton","state_name":"Massachusetts","lat":42.01954,"lng":-71.10381,"zip":"02375","miles_from_dt":19.54},{"city":"Dighton","state_name":"Massachusetts","lat":41.81681,"lng":-71.15064,"zip":"02715","miles_from_dt":19.68},{"city":"Warren","state_name":"Rhode Island","lat":41.72821,"lng":-71.26287,"zip":"02885","miles_from_dt":19.74},{"city":"Swansea","state_name":"Massachusetts","lat":41.75699,"lng":-71.21208,"zip":"02777","miles_from_dt":19.82},{"city":"Webster","state_name":"Massachusetts","lat":42.05206,"lng":-71.8485,"zip":"01570","miles_from_dt":20.07},{"city":"Ashland","state_name":"Massachusetts","lat":42.25726,"lng":-71.46867,"zip":"01721","miles_from_dt":20.14},{"city":"Coventry","state_name":"Rhode Island","lat":41.69035,"lng":-71.61954,"zip":"02816","miles_from_dt":20.38},{"city":"Dayville","state_name":"Connecticut","lat":41.85635,"lng":-71.84904,"zip":"06241","miles_from_dt":20.64},{"city":"North Scituate","state_name":"Massachusetts","lat":42.18687,"lng":-71.20406,"zip":"02060","miles_from_dt":20.72},{"city":"Putnam","state_name":"Connecticut","lat":41.90898,"lng":-71.87181,"zip":"06260","miles_from_dt":20.75},{"city":"Ballouville","state_name":"Connecticut","lat":41.87311,"lng":-71.8635,"zip":"06233","miles_from_dt":20.95},{"city":"Norwood","state_name":"Massachusetts","lat":42.18563,"lng":-71.19464,"zip":"02062","miles_from_dt":20.99},{"city":"Dover","state_name":"Massachusetts","lat":42.2366,"lng":-71.28421,"zip":"02030","miles_from_dt":21.15},{"city":"North Grafton","state_name":"Massachusetts","lat":42.23189,"lng":-71.69219,"zip":"01536","miles_from_dt":21.47},{"city":"Grosvenor Dale","state_name":"Connecticut","lat":41.96956,"lng":-71.8943,"zip":"06246","miles_from_dt":21.53},{"city":"North Easton","state_name":"Massachusetts","lat":42.06224,"lng":-71.07751,"zip":"02357","miles_from_dt":21.58},{"city":"Millbury","state_name":"Massachusetts","lat":42.19228,"lng":-71.77397,"zip":"01527","miles_from_dt":21.89},{"city":"Raynham","state_name":"Massachusetts","lat":41.93939,"lng":-71.05191,"zip":"02767","miles_from_dt":21.94},{"city":"Framingham","state_name":"Massachusetts","lat":42.28242,"lng":-71.43428,"zip":"01702","miles_from_dt":21.98},{"city":"Stoughton","state_name":"Massachusetts","lat":42.1192,"lng":-71.10189,"zip":"02072","miles_from_dt":21.99},{"city":"North Grosvenordale","state_name":"Connecticut","lat":41.98791,"lng":-71.90299,"zip":"06255","miles_from_dt":22.03},{"city":"Westborough","state_name":"Massachusetts","lat":42.26815,"lng":-71.61402,"zip":"01581","miles_from_dt":22.05},{"city":"Somerset","state_name":"Massachusetts","lat":41.76073,"lng":-71.14444,"zip":"02726","miles_from_dt":22.2},{"city":"Oxford","state_name":"Massachusetts","lat":42.11649,"lng":-71.85819,"zip":"01540","miles_from_dt":22.24},{"city":"Bristol","state_name":"Rhode Island","lat":41.68266,"lng":-71.26938,"zip":"02809","miles_from_dt":22.25},{"city":"Westwood","state_name":"Massachusetts","lat":42.22024,"lng":-71.21057,"zip":"02090","miles_from_dt":22.26},{"city":"East Greenwich","state_name":"Rhode Island","lat":41.64214,"lng":-71.49307,"zip":"02818","miles_from_dt":22.34},{"city":"Raynham Center","state_name":"Massachusetts","lat":41.92912,"lng":-71.0417,"zip":"02768","miles_from_dt":22.53},{"city":"Fayville","state_name":"Massachusetts","lat":42.29155,"lng":-71.50101,"zip":"01745","miles_from_dt":22.54},{"city":"Berkley","state_name":"Massachusetts","lat":41.83492,"lng":-71.07543,"zip":"02779","miles_from_dt":22.55},{"city":"Greene","state_name":"Rhode Island","lat":41.69792,"lng":-71.73847,"zip":"02827","miles_from_dt":22.9},{"city":"Natick","state_name":"Massachusetts","lat":42.28436,"lng":-71.34966,"zip":"01760","miles_from_dt":22.95},{"city":"Danielson","state_name":"Connecticut","lat":41.79116,"lng":-71.85711,"zip":"06239","miles_from_dt":23.04},{"city":"Somerset","state_name":"Massachusetts","lat":41.71253,"lng":-71.18426,"zip":"02725","miles_from_dt":23.07},{"city":"Canton","state_name":"Massachusetts","lat":42.17504,"lng":-71.12645,"zip":"02021","miles_from_dt":23.08},{"city":"Southborough","state_name":"Massachusetts","lat":42.30144,"lng":-71.5304,"zip":"01772","miles_from_dt":23.35},{"city":"West Bridgewater","state_name":"Massachusetts","lat":42.02139,"lng":-71.0267,"zip":"02379","miles_from_dt":23.47},{"city":"Brockton","state_name":"Massachusetts","lat":42.07791,"lng":-71.04223,"zip":"02301","miles_from_dt":23.65},{"city":"Rogers","state_name":"Connecticut","lat":41.83738,"lng":-71.90444,"zip":"06263","miles_from_dt":23.78},{"city":"Fabyan","state_name":"Connecticut","lat":42.01424,"lng":-71.93716,"zip":"06245","miles_from_dt":23.97},{"city":"Sterling","state_name":"Connecticut","lat":41.72708,"lng":-71.81679,"zip":"06377","miles_from_dt":24.07},{"city":"Worcester","state_name":"Massachusetts","lat":42.22684,"lng":-71.79037,"zip":"01607","miles_from_dt":24.21},{"city":"Framingham","state_name":"Massachusetts","lat":42.31823,"lng":-71.44266,"zip":"01704","miles_from_dt":24.41},{"city":"Dudley","state_name":"Massachusetts","lat":42.05501,"lng":-71.93519,"zip":"01571","miles_from_dt":24.42},{"city":"Wellesley","state_name":"Massachusetts","lat":42.29455,"lng":-71.29859,"zip":"02482","miles_from_dt":24.48},{"city":"Brockton","state_name":"Massachusetts","lat":42.08167,"lng":-71.02597,"zip":"02304","miles_from_dt":24.52},{"city":"Needham","state_name":"Massachusetts","lat":42.27615,"lng":-71.24387,"zip":"02492","miles_from_dt":24.54},{"city":"Framingham","state_name":"Massachusetts","lat":42.32025,"lng":-71.43949,"zip":"01705","miles_from_dt":24.56},{"city":"Avon","state_name":"Massachusetts","lat":42.12666,"lng":-71.04922,"zip":"02322","miles_from_dt":24.62},{"city":"Brockton","state_name":"Massachusetts","lat":42.08318,"lng":-71.02462,"zip":"02305","miles_from_dt":24.62},{"city":"Quinebaug","state_name":"Connecticut","lat":42.01871,"lng":-71.94959,"zip":"06262","miles_from_dt":24.64},{"city":"Dedham","state_name":"Massachusetts","lat":42.24664,"lng":-71.17992,"zip":"02027","miles_from_dt":24.67},{"city":"Framingham","state_name":"Massachusetts","lat":42.32195,"lng":-71.43796,"zip":"01701","miles_from_dt":24.68},{"city":"Fall River","state_name":"Massachusetts","lat":41.69952,"lng":-71.15515,"zip":"02722","miles_from_dt":24.73},{"city":"Framingham","state_name":"Massachusetts","lat":42.32301,"lng":-71.44179,"zip":"01703","miles_from_dt":24.74},{"city":"Dedham","state_name":"Massachusetts","lat":42.24665,"lng":-71.1777,"zip":"02026","miles_from_dt":24.74},{"city":"Worcester","state_name":"Massachusetts","lat":42.25085,"lng":-71.7683,"zip":"01604","miles_from_dt":24.76},{"city":"Fall River","state_name":"Massachusetts","lat":41.68372,"lng":-71.17949,"zip":"02724","miles_from_dt":24.76},{"city":"Assonet","state_name":"Massachusetts","lat":41.78452,"lng":-71.06112,"zip":"02702","miles_from_dt":24.79},{"city":"Auburn","state_name":"Massachusetts","lat":42.19689,"lng":-71.84549,"zip":"01501","miles_from_dt":24.81},{"city":"East Taunton","state_name":"Massachusetts","lat":41.86902,"lng":-71.01128,"zip":"02718","miles_from_dt":24.88},{"city":"Fall River","state_name":"Massachusetts","lat":41.73095,"lng":-71.10932,"zip":"02720","miles_from_dt":24.91},{"city":"South Woodstock","state_name":"Connecticut","lat":41.9302,"lng":-71.95897,"zip":"06267","miles_from_dt":24.99},{"city":"Brockton","state_name":"Massachusetts","lat":42.08476,"lng":-71.01516,"zip":"02303","miles_from_dt":25.12},{"city":"Shrewsbury","state_name":"Massachusetts","lat":42.28419,"lng":-71.71558,"zip":"01545","miles_from_dt":25.2},{"city":"West Greenwich","state_name":"Rhode Island","lat":41.6291,"lng":-71.66711,"zip":"02817","miles_from_dt":25.22},{"city":"Prudence Island","state_name":"Rhode Island","lat":41.61718,"lng":-71.32886,"zip":"02872","miles_from_dt":25.22},{"city":"Babson Park","state_name":"Massachusetts","lat":42.29777,"lng":-71.26887,"zip":"02457","miles_from_dt":25.29},{"city":"North Oxford","state_name":"Massachusetts","lat":42.16177,"lng":-71.89217,"zip":"01537","miles_from_dt":25.32},{"city":"Readville","state_name":"Massachusetts","lat":42.23508,"lng":-71.13447,"zip":"02137","miles_from_dt":25.59},{"city":"Oneco","state_name":"Connecticut","lat":41.68394,"lng":-71.79881,"zip":"06373","miles_from_dt":25.59},{"city":"East Woodstock","state_name":"Connecticut","lat":41.98632,"lng":-71.97448,"zip":"06244","miles_from_dt":25.7},{"city":"Pomfret","state_name":"Connecticut","lat":41.88554,"lng":-71.96353,"zip":"06258","miles_from_dt":25.71},{"city":"Bridgewater","state_name":"Massachusetts","lat":41.97272,"lng":-70.97498,"zip":"02324","miles_from_dt":25.82},{"city":"Worcester","state_name":"Massachusetts","lat":42.24645,"lng":-71.80968,"zip":"01610","miles_from_dt":25.88},{"city":"Wellesley Hills","state_name":"Massachusetts","lat":42.31064,"lng":-71.27779,"zip":"02481","miles_from_dt":25.91},{"city":"Fall River","state_name":"Massachusetts","lat":41.69237,"lng":-71.1309,"zip":"02723","miles_from_dt":25.95},{"city":"Brockton","state_name":"Massachusetts","lat":42.08792,"lng":-70.99864,"zip":"02302","miles_from_dt":25.99},{"city":"Worcester","state_name":"Massachusetts","lat":42.27687,"lng":-71.76122,"zip":"01655","miles_from_dt":26},{"city":"North Kingstown","state_name":"Rhode Island","lat":41.58809,"lng":-71.46094,"zip":"02852","miles_from_dt":26.06},{"city":"Northborough","state_name":"Massachusetts","lat":42.32314,"lng":-71.64621,"zip":"01532","miles_from_dt":26.18},{"city":"Fall River","state_name":"Massachusetts","lat":41.67451,"lng":-71.14869,"zip":"02721","miles_from_dt":26.26},{"city":"Needham Heights","state_name":"Massachusetts","lat":42.29959,"lng":-71.2317,"zip":"02494","miles_from_dt":26.26},{"city":"Randolph","state_name":"Massachusetts","lat":42.17506,"lng":-71.05011,"zip":"02368","miles_from_dt":26.26},{"city":"Worcester","state_name":"Massachusetts","lat":42.26092,"lng":-71.79949,"zip":"01614","miles_from_dt":26.3},{"city":"Bridgewater","state_name":"Massachusetts","lat":41.98875,"lng":-70.96449,"zip":"02325","miles_from_dt":26.41},{"city":"Worcester","state_name":"Massachusetts","lat":42.2621,"lng":-71.80145,"zip":"01608","miles_from_dt":26.42},{"city":"Shrewsbury","state_name":"Massachusetts","lat":42.29182,"lng":-71.74599,"zip":"01546","miles_from_dt":26.44},{"city":"Worcester","state_name":"Massachusetts","lat":42.26574,"lng":-71.79653,"zip":"01613","miles_from_dt":26.46},{"city":"Elmwood","state_name":"Massachusetts","lat":42.01183,"lng":-70.96402,"zip":"02337","miles_from_dt":26.57},{"city":"Moosup","state_name":"Connecticut","lat":41.69836,"lng":-71.85016,"zip":"06354","miles_from_dt":26.69},{"city":"Marlborough","state_name":"Massachusetts","lat":42.3494,"lng":-71.54681,"zip":"01752","miles_from_dt":26.74},{"city":"Hyde Park","state_name":"Massachusetts","lat":42.25505,"lng":-71.12662,"zip":"02136","miles_from_dt":26.87},{"city":"Worcester","state_name":"Massachusetts","lat":42.24373,"lng":-71.84429,"zip":"01603","miles_from_dt":26.95},{"city":"West Roxbury","state_name":"Massachusetts","lat":42.27931,"lng":-71.16072,"zip":"02132","miles_from_dt":27.05},{"city":"Wauregan","state_name":"Connecticut","lat":41.74418,"lng":-71.90981,"zip":"06387","miles_from_dt":27.09},{"city":"Worcester","state_name":"Massachusetts","lat":42.27022,"lng":-71.80933,"zip":"01615","miles_from_dt":27.11},{"city":"Worcester","state_name":"Massachusetts","lat":42.2711,"lng":-71.80974,"zip":"01601","miles_from_dt":27.17},{"city":"Holbrook","state_name":"Massachusetts","lat":42.14733,"lng":-71.00484,"zip":"02343","miles_from_dt":27.3},{"city":"Newton Upper Falls","state_name":"Massachusetts","lat":42.31274,"lng":-71.21981,"zip":"02464","miles_from_dt":27.35},{"city":"Pomfret Center","state_name":"Connecticut","lat":41.8703,"lng":-71.99248,"zip":"06259","miles_from_dt":27.41},{"city":"Brooklyn","state_name":"Connecticut","lat":41.78938,"lng":-71.95266,"zip":"06234","miles_from_dt":27.41},{"city":"Worcester","state_name":"Massachusetts","lat":42.2927,"lng":-71.77904,"zip":"01653","miles_from_dt":27.42},{"city":"Worcester","state_name":"Massachusetts","lat":42.28979,"lng":-71.78802,"zip":"01605","miles_from_dt":27.52},{"city":"Milton","state_name":"Massachusetts","lat":42.23854,"lng":-71.08464,"zip":"02186","miles_from_dt":27.57},{"city":"Rochdale","state_name":"Massachusetts","lat":42.20241,"lng":-71.90995,"zip":"01542","miles_from_dt":27.65},{"city":"Newton Lower Falls","state_name":"Massachusetts","lat":42.33102,"lng":-71.25599,"zip":"02462","miles_from_dt":27.65},{"city":"Central Village","state_name":"Connecticut","lat":41.72845,"lng":-71.91008,"zip":"06332","miles_from_dt":27.73},{"city":"Woodstock","state_name":"Connecticut","lat":41.97253,"lng":-72.01458,"zip":"06281","miles_from_dt":27.73},{"city":"Wayland","state_name":"Massachusetts","lat":42.3583,"lng":-71.35895,"zip":"01778","miles_from_dt":27.77},{"city":"Charlton","state_name":"Massachusetts","lat":42.13509,"lng":-71.96803,"zip":"01507","miles_from_dt":27.87},{"city":"Newton Highlands","state_name":"Massachusetts","lat":42.31693,"lng":-71.20875,"zip":"02461","miles_from_dt":27.88},{"city":"East Bridgewater","state_name":"Massachusetts","lat":42.03521,"lng":-70.94235,"zip":"02333","miles_from_dt":27.9},{"city":"Cherry Valley","state_name":"Massachusetts","lat":42.23945,"lng":-71.87702,"zip":"01611","miles_from_dt":27.96},{"city":"Lakeville","state_name":"Massachusetts","lat":41.87731,"lng":-70.94643,"zip":"02348","miles_from_dt":27.98},{"city":"Waban","state_name":"Massachusetts","lat":42.32777,"lng":-71.23142,"zip":"02468","miles_from_dt":27.99},{"city":"Newton Center","state_name":"Massachusetts","lat":42.31515,"lng":-71.19174,"zip":"02459","miles_from_dt":28.21},{"city":"Lakeville","state_name":"Massachusetts","lat":41.83101,"lng":-70.9594,"zip":"02347","miles_from_dt":28.22},{"city":"Roslindale","state_name":"Massachusetts","lat":42.28392,"lng":-71.12468,"zip":"02131","miles_from_dt":28.45},{"city":"Worcester","state_name":"Massachusetts","lat":42.27219,"lng":-71.84946,"zip":"01602","miles_from_dt":28.56},{"city":"Worcester","state_name":"Massachusetts","lat":42.28592,"lng":-71.82853,"zip":"01609","miles_from_dt":28.58},{"city":"Abington","state_name":"Massachusetts","lat":42.11805,"lng":-70.95905,"zip":"02351","miles_from_dt":28.62},{"city":"Weston","state_name":"Massachusetts","lat":42.35893,"lng":-71.30009,"zip":"02493","miles_from_dt":28.62},{"city":"Exeter","state_name":"Rhode Island","lat":41.56736,"lng":-71.63348,"zip":"02822","miles_from_dt":28.65},{"city":"Portsmouth","state_name":"Rhode Island","lat":41.58384,"lng":-71.2564,"zip":"02871","miles_from_dt":28.69},{"city":"Whitman","state_name":"Massachusetts","lat":42.08,"lng":-70.93993,"zip":"02382","miles_from_dt":28.71},{"city":"Auburndale","state_name":"Massachusetts","lat":42.34541,"lng":-71.24759,"zip":"02466","miles_from_dt":28.73},{"city":"Nonantum","state_name":"Massachusetts","lat":42.33205,"lng":-71.20748,"zip":"02495","miles_from_dt":28.82},{"city":"Milton Village","state_name":"Massachusetts","lat":42.26069,"lng":-71.07867,"zip":"02187","miles_from_dt":28.85},{"city":"Abington","state_name":"Connecticut","lat":41.84652,"lng":-72.01367,"zip":"06230","miles_from_dt":28.9},{"city":"New Town","state_name":"Massachusetts","lat":42.33357,"lng":-71.20411,"zip":"02456","miles_from_dt":28.99},{"city":"Sudbury","state_name":"Massachusetts","lat":42.38456,"lng":-71.42316,"zip":"01776","miles_from_dt":29.05},{"city":"Middleboro","state_name":"Massachusetts","lat":41.89422,"lng":-70.92082,"zip":"02344","miles_from_dt":29.05},{"city":"Worcester","state_name":"Massachusetts","lat":42.31367,"lng":-71.79614,"zip":"01606","miles_from_dt":29.11},{"city":"Tiverton","state_name":"Rhode Island","lat":41.60905,"lng":-71.17413,"zip":"02878","miles_from_dt":29.13},{"city":"Mattapan","state_name":"Massachusetts","lat":42.27588,"lng":-71.0918,"zip":"02126","miles_from_dt":29.14},{"city":"Chestnut Hill","state_name":"Massachusetts","lat":42.31725,"lng":-71.16096,"zip":"02467","miles_from_dt":29.18},{"city":"Braintree","state_name":"Massachusetts","lat":42.20118,"lng":-71.00511,"zip":"02185","miles_from_dt":29.18},{"city":"East Freetown","state_name":"Massachusetts","lat":41.75405,"lng":-70.98312,"zip":"02717","miles_from_dt":29.33},{"city":"Charlton City","state_name":"Massachusetts","lat":42.15139,"lng":-71.9896,"zip":"01508","miles_from_dt":29.35},{"city":"Charlton Depot","state_name":"Massachusetts","lat":42.173,"lng":-71.97562,"zip":"01509","miles_from_dt":29.4},{"city":"Braintree","state_name":"Massachusetts","lat":42.20386,"lng":-71.0022,"zip":"02184","miles_from_dt":29.41},{"city":"Hudson","state_name":"Massachusetts","lat":42.38868,"lng":-71.54648,"zip":"01749","miles_from_dt":29.43},{"city":"Southbridge","state_name":"Massachusetts","lat":42.06039,"lng":-72.03377,"zip":"01550","miles_from_dt":29.43},{"city":"West Newton","state_name":"Massachusetts","lat":42.34969,"lng":-71.22646,"zip":"02465","miles_from_dt":29.46},{"city":"Slocum","state_name":"Rhode Island","lat":41.53651,"lng":-71.52724,"zip":"02877","miles_from_dt":29.72},{"city":"Boylston","state_name":"Massachusetts","lat":42.35633,"lng":-71.72123,"zip":"01505","miles_from_dt":29.76},{"city":"Middleboro","state_name":"Massachusetts","lat":41.87098,"lng":-70.90838,"zip":"02349","miles_from_dt":29.99}],"targetCityZipCode":"02838","targetCityState":"Rhode Island"},"__N_SSG":true}