{"pageProps":{"stateName":"Rhode-island","cityName":"warwick","nearbyCities":[{"city":"Warwick","state_name":"Rhode Island","lat":41.70268,"lng":-71.42316,"zip":"02887","miles_from_dt":1.86},{"city":"West Warwick","state_name":"Rhode Island","lat":41.69856,"lng":-71.51566,"zip":"02893","miles_from_dt":2.97},{"city":"Warwick","state_name":"Rhode Island","lat":41.70602,"lng":-71.39106,"zip":"02889","miles_from_dt":3.51},{"city":"Warwick","state_name":"Rhode Island","lat":41.74909,"lng":-71.41123,"zip":"02888","miles_from_dt":3.92},{"city":"Cranston","state_name":"Rhode Island","lat":41.76719,"lng":-71.4655,"zip":"02920","miles_from_dt":4.31},{"city":"East Greenwich","state_name":"Rhode Island","lat":41.64214,"lng":-71.49307,"zip":"02818","miles_from_dt":4.68},{"city":"Fiskeville","state_name":"Rhode Island","lat":41.73328,"lng":-71.54479,"zip":"02823","miles_from_dt":4.85},{"city":"Cranston","state_name":"Rhode Island","lat":41.76292,"lng":-71.51571,"zip":"02921","miles_from_dt":4.96},{"city":"Cranston","state_name":"Rhode Island","lat":41.77552,"lng":-71.43564,"zip":"02910","miles_from_dt":5.02},{"city":"Providence","state_name":"Rhode Island","lat":41.78769,"lng":-71.39886,"zip":"02905","miles_from_dt":6.5},{"city":"Providence","state_name":"Rhode Island","lat":41.79867,"lng":-71.42581,"zip":"02907","miles_from_dt":6.69},{"city":"Hope","state_name":"Rhode Island","lat":41.74461,"lng":-71.58442,"zip":"02831","miles_from_dt":7.04},{"city":"Riverside","state_name":"Rhode Island","lat":41.77725,"lng":-71.34906,"zip":"02915","miles_from_dt":7.56},{"city":"Providence","state_name":"Rhode Island","lat":41.81825,"lng":-71.45078,"zip":"02909","miles_from_dt":7.83},{"city":"Barrington","state_name":"Rhode Island","lat":41.7443,"lng":-71.31453,"zip":"02806","miles_from_dt":7.94},{"city":"North Kingstown","state_name":"Rhode Island","lat":41.58809,"lng":-71.46094,"zip":"02852","miles_from_dt":8.06},{"city":"Providence","state_name":"Rhode Island","lat":41.81902,"lng":-71.41003,"zip":"02903","miles_from_dt":8.27},{"city":"Providence","state_name":"Rhode Island","lat":41.82272,"lng":-71.42064,"zip":"02940","miles_from_dt":8.37},{"city":"Coventry","state_name":"Rhode Island","lat":41.69035,"lng":-71.61954,"zip":"02816","miles_from_dt":8.37},{"city":"Providence","state_name":"Rhode Island","lat":41.82468,"lng":-71.41079,"zip":"02902","miles_from_dt":8.63},{"city":"Providence","state_name":"Rhode Island","lat":41.82682,"lng":-71.408,"zip":"02901","miles_from_dt":8.81},{"city":"East Providence","state_name":"Rhode Island","lat":41.81326,"lng":-71.36608,"zip":"02914","miles_from_dt":8.88},{"city":"Providence","state_name":"Rhode Island","lat":41.82783,"lng":-71.39959,"zip":"02912","miles_from_dt":9.02},{"city":"Johnston","state_name":"Rhode Island","lat":41.82733,"lng":-71.52002,"zip":"02919","miles_from_dt":9.02},{"city":"Prudence Island","state_name":"Rhode Island","lat":41.61718,"lng":-71.32886,"zip":"02872","miles_from_dt":9.05},{"city":"Providence","state_name":"Rhode Island","lat":41.83877,"lng":-71.43926,"zip":"02908","miles_from_dt":9.29},{"city":"Providence","state_name":"Rhode Island","lat":41.84386,"lng":-71.43499,"zip":"02918","miles_from_dt":9.67},{"city":"Bristol","state_name":"Rhode Island","lat":41.68266,"lng":-71.26938,"zip":"02809","miles_from_dt":9.92},{"city":"Providence","state_name":"Rhode Island","lat":41.83964,"lng":-71.38963,"zip":"02906","miles_from_dt":9.96},{"city":"Warren","state_name":"Rhode Island","lat":41.72821,"lng":-71.26287,"zip":"02885","miles_from_dt":10.26},{"city":"North Providence","state_name":"Rhode Island","lat":41.85467,"lng":-71.47325,"zip":"02911","miles_from_dt":10.36},{"city":"Providence","state_name":"Rhode Island","lat":41.86058,"lng":-71.43539,"zip":"02904","miles_from_dt":10.81},{"city":"Rumford","state_name":"Rhode Island","lat":41.84438,"lng":-71.35258,"zip":"02916","miles_from_dt":11.08},{"city":"Clayville","state_name":"Rhode Island","lat":41.77723,"lng":-71.66177,"zip":"02815","miles_from_dt":11.61},{"city":"Seekonk","state_name":"Massachusetts","lat":41.83787,"lng":-71.31736,"zip":"02771","miles_from_dt":11.73},{"city":"Pawtucket","state_name":"Rhode Island","lat":41.87036,"lng":-71.38855,"zip":"02860","miles_from_dt":11.98},{"city":"West Greenwich","state_name":"Rhode Island","lat":41.6291,"lng":-71.66711,"zip":"02817","miles_from_dt":11.98},{"city":"Slocum","state_name":"Rhode Island","lat":41.53651,"lng":-71.52724,"zip":"02877","miles_from_dt":12.15},{"city":"North Scituate","state_name":"Rhode Island","lat":41.82705,"lng":-71.63083,"zip":"02857","miles_from_dt":12.24},{"city":"Pawtucket","state_name":"Rhode Island","lat":41.87112,"lng":-71.37567,"zip":"02862","miles_from_dt":12.25},{"city":"Greenville","state_name":"Rhode Island","lat":41.87672,"lng":-71.56065,"zip":"02828","miles_from_dt":12.97},{"city":"Saunderstown","state_name":"Rhode Island","lat":41.51543,"lng":-71.46985,"zip":"02874","miles_from_dt":13.09},{"city":"Exeter","state_name":"Rhode Island","lat":41.56736,"lng":-71.63348,"zip":"02822","miles_from_dt":13.11},{"city":"Pawtucket","state_name":"Rhode Island","lat":41.87863,"lng":-71.35228,"zip":"02861","miles_from_dt":13.19},{"city":"Central Falls","state_name":"Rhode Island","lat":41.89005,"lng":-71.39336,"zip":"02863","miles_from_dt":13.22},{"city":"Swansea","state_name":"Massachusetts","lat":41.75699,"lng":-71.21208,"zip":"02777","miles_from_dt":13.26},{"city":"Portsmouth","state_name":"Rhode Island","lat":41.58384,"lng":-71.2564,"zip":"02871","miles_from_dt":13.41},{"city":"Jamestown","state_name":"Rhode Island","lat":41.51479,"lng":-71.37742,"zip":"02835","miles_from_dt":13.78},{"city":"Somerset","state_name":"Massachusetts","lat":41.71253,"lng":-71.18426,"zip":"02725","miles_from_dt":14.21},{"city":"Smithfield","state_name":"Rhode Island","lat":41.90615,"lng":-71.52365,"zip":"02917","miles_from_dt":14.28},{"city":"Lincoln","state_name":"Rhode Island","lat":41.91251,"lng":-71.44822,"zip":"02865","miles_from_dt":14.34},{"city":"Greene","state_name":"Rhode Island","lat":41.69792,"lng":-71.73847,"zip":"02827","miles_from_dt":14.47},{"city":"Fall River","state_name":"Massachusetts","lat":41.68372,"lng":-71.17949,"zip":"02724","miles_from_dt":14.53},{"city":"Rehoboth","state_name":"Massachusetts","lat":41.84394,"lng":-71.24559,"zip":"02769","miles_from_dt":14.61},{"city":"Harmony","state_name":"Rhode Island","lat":41.89377,"lng":-71.59129,"zip":"02829","miles_from_dt":14.72},{"city":"Foster","state_name":"Rhode Island","lat":41.78212,"lng":-71.72596,"zip":"02825","miles_from_dt":14.79},{"city":"Newport","state_name":"Rhode Island","lat":41.51261,"lng":-71.32522,"zip":"02841","miles_from_dt":14.97},{"city":"Fall River","state_name":"Massachusetts","lat":41.69952,"lng":-71.15515,"zip":"02722","miles_from_dt":15.72},{"city":"Kingston","state_name":"Rhode Island","lat":41.4825,"lng":-71.52694,"zip":"02881","miles_from_dt":15.75},{"city":"West Kingston","state_name":"Rhode Island","lat":41.50226,"lng":-71.60174,"zip":"02892","miles_from_dt":15.82},{"city":"Middletown","state_name":"Rhode Island","lat":41.51739,"lng":-71.27667,"zip":"02842","miles_from_dt":16.02},{"city":"Tiverton","state_name":"Rhode Island","lat":41.60905,"lng":-71.17413,"zip":"02878","miles_from_dt":16.16},{"city":"Fall River","state_name":"Massachusetts","lat":41.67451,"lng":-71.14869,"zip":"02721","miles_from_dt":16.19},{"city":"Somerset","state_name":"Massachusetts","lat":41.76073,"lng":-71.14444,"zip":"02726","miles_from_dt":16.71},{"city":"Wyoming","state_name":"Rhode Island","lat":41.52184,"lng":-71.67166,"zip":"02898","miles_from_dt":16.76},{"city":"Fall River","state_name":"Massachusetts","lat":41.69237,"lng":-71.1309,"zip":"02723","miles_from_dt":16.99},{"city":"Albion","state_name":"Rhode Island","lat":41.95221,"lng":-71.4559,"zip":"02802","miles_from_dt":17.07},{"city":"Newport","state_name":"Rhode Island","lat":41.47838,"lng":-71.31993,"zip":"02840","miles_from_dt":17.21},{"city":"Peace Dale","state_name":"Rhode Island","lat":41.45165,"lng":-71.50128,"zip":"02883","miles_from_dt":17.62},{"city":"Oneco","state_name":"Connecticut","lat":41.68394,"lng":-71.79881,"zip":"06373","miles_from_dt":17.64},{"city":"Dighton","state_name":"Massachusetts","lat":41.81681,"lng":-71.15064,"zip":"02715","miles_from_dt":17.7},{"city":"Attleboro","state_name":"Massachusetts","lat":41.93108,"lng":-71.29499,"zip":"02703","miles_from_dt":17.75},{"city":"Manville","state_name":"Rhode Island","lat":41.96552,"lng":-71.47628,"zip":"02838","miles_from_dt":18.01},{"city":"Fall River","state_name":"Massachusetts","lat":41.73095,"lng":-71.10932,"zip":"02720","miles_from_dt":18.17},{"city":"Chepachet","state_name":"Rhode Island","lat":41.89959,"lng":-71.69888,"zip":"02814","miles_from_dt":18.28},{"city":"Cumberland","state_name":"Rhode Island","lat":41.97025,"lng":-71.41978,"zip":"02864","miles_from_dt":18.42},{"city":"Sterling","state_name":"Connecticut","lat":41.72708,"lng":-71.81679,"zip":"06377","miles_from_dt":18.57},{"city":"North Dighton","state_name":"Massachusetts","lat":41.8562,"lng":-71.16022,"zip":"02764","miles_from_dt":18.63},{"city":"Carolina","state_name":"Rhode Island","lat":41.47625,"lng":-71.66094,"zip":"02812","miles_from_dt":18.94},{"city":"Mapleville","state_name":"Rhode Island","lat":41.9433,"lng":-71.64581,"zip":"02839","miles_from_dt":19.07},{"city":"North Smithfield","state_name":"Rhode Island","lat":41.97285,"lng":-71.55027,"zip":"02896","miles_from_dt":19.08},{"city":"Shannock","state_name":"Rhode Island","lat":41.46052,"lng":-71.63848,"zip":"02875","miles_from_dt":19.26},{"city":"Narragansett","state_name":"Rhode Island","lat":41.4253,"lng":-71.46816,"zip":"02882","miles_from_dt":19.3},{"city":"North Attleboro","state_name":"Massachusetts","lat":41.97004,"lng":-71.33586,"zip":"02760","miles_from_dt":19.37},{"city":"Kenyon","state_name":"Rhode Island","lat":41.45145,"lng":-71.62027,"zip":"02836","miles_from_dt":19.39},{"city":"Wakefield","state_name":"Rhode Island","lat":41.42333,"lng":-71.48416,"zip":"02880","miles_from_dt":19.48},{"city":"Wakefield","state_name":"Rhode Island","lat":41.42865,"lng":-71.53837,"zip":"02879","miles_from_dt":19.51},{"city":"Hope Valley","state_name":"Rhode Island","lat":41.50469,"lng":-71.72807,"zip":"02832","miles_from_dt":19.63},{"city":"Attleboro Falls","state_name":"Massachusetts","lat":41.96666,"lng":-71.30743,"zip":"02763","miles_from_dt":19.68},{"city":"Adamsville","state_name":"Rhode Island","lat":41.544,"lng":-71.13778,"zip":"02801","miles_from_dt":20},{"city":"North Attleboro","state_name":"Massachusetts","lat":41.9793,"lng":-71.33143,"zip":"02761","miles_from_dt":20.05},{"city":"Little Compton","state_name":"Rhode Island","lat":41.51524,"lng":-71.16455,"zip":"02837","miles_from_dt":20.1},{"city":"Moosup","state_name":"Connecticut","lat":41.69836,"lng":-71.85016,"zip":"06354","miles_from_dt":20.24},{"city":"Oakland","state_name":"Rhode Island","lat":41.96354,"lng":-71.64893,"zip":"02858","miles_from_dt":20.37},{"city":"East Killingly","state_name":"Connecticut","lat":41.84743,"lng":-71.80701,"zip":"06243","miles_from_dt":20.5},{"city":"Woonsocket","state_name":"Rhode Island","lat":42.00103,"lng":-71.49923,"zip":"02895","miles_from_dt":20.54},{"city":"Rockville","state_name":"Rhode Island","lat":41.5257,"lng":-71.77734,"zip":"02873","miles_from_dt":20.61},{"city":"Westport","state_name":"Massachusetts","lat":41.59967,"lng":-71.08266,"zip":"02790","miles_from_dt":20.79},{"city":"Forestdale","state_name":"Rhode Island","lat":41.99934,"lng":-71.56322,"zip":"02824","miles_from_dt":21.02},{"city":"Voluntown","state_name":"Connecticut","lat":41.58188,"lng":-71.83139,"zip":"06384","miles_from_dt":21.07},{"city":"Slatersville","state_name":"Rhode Island","lat":41.99801,"lng":-71.58301,"zip":"02876","miles_from_dt":21.22},{"city":"Assonet","state_name":"Massachusetts","lat":41.78452,"lng":-71.06112,"zip":"02702","miles_from_dt":21.28},{"city":"Chartley","state_name":"Massachusetts","lat":41.96733,"lng":-71.24163,"zip":"02712","miles_from_dt":21.3},{"city":"Harrisville","state_name":"Rhode Island","lat":41.98016,"lng":-71.6484,"zip":"02830","miles_from_dt":21.36},{"city":"Danielson","state_name":"Connecticut","lat":41.79116,"lng":-71.85711,"zip":"06239","miles_from_dt":21.42},{"city":"Glendale","state_name":"Rhode Island","lat":41.98248,"lng":-71.64539,"zip":"02826","miles_from_dt":21.44},{"city":"Wood River Junction","state_name":"Rhode Island","lat":41.44761,"lng":-71.69759,"zip":"02894","miles_from_dt":21.64},{"city":"Berkley","state_name":"Massachusetts","lat":41.83492,"lng":-71.07543,"zip":"02779","miles_from_dt":21.75},{"city":"Plainville","state_name":"Massachusetts","lat":42.01409,"lng":-71.33642,"zip":"02762","miles_from_dt":22.25},{"city":"Taunton","state_name":"Massachusetts","lat":41.90743,"lng":-71.11939,"zip":"02780","miles_from_dt":22.42},{"city":"Hopkinton","state_name":"Rhode Island","lat":41.48117,"lng":-71.77787,"zip":"02833","miles_from_dt":22.62},{"city":"Dayville","state_name":"Connecticut","lat":41.85635,"lng":-71.84904,"zip":"06241","miles_from_dt":22.7},{"city":"Norton","state_name":"Massachusetts","lat":41.96402,"lng":-71.18418,"zip":"02766","miles_from_dt":22.82},{"city":"Sheldonville","state_name":"Massachusetts","lat":42.0348,"lng":-71.386,"zip":"02070","miles_from_dt":23.08},{"city":"Westport Point","state_name":"Massachusetts","lat":41.52262,"lng":-71.08266,"zip":"02791","miles_from_dt":23.2},{"city":"North Dartmouth","state_name":"Massachusetts","lat":41.6577,"lng":-71.01202,"zip":"02747","miles_from_dt":23.35},{"city":"Pascoag","state_name":"Rhode Island","lat":41.9665,"lng":-71.7464,"zip":"02859","miles_from_dt":23.37},{"city":"Central Village","state_name":"Connecticut","lat":41.72845,"lng":-71.91008,"zip":"06332","miles_from_dt":23.39},{"city":"Blackstone","state_name":"Massachusetts","lat":42.0399,"lng":-71.53125,"zip":"01504","miles_from_dt":23.42},{"city":"Wauregan","state_name":"Connecticut","lat":41.74418,"lng":-71.90981,"zip":"06387","miles_from_dt":23.47},{"city":"Plainfield","state_name":"Connecticut","lat":41.6798,"lng":-71.91441,"zip":"06374","miles_from_dt":23.63},{"city":"Millville","state_name":"Massachusetts","lat":42.03906,"lng":-71.57767,"zip":"01529","miles_from_dt":23.86},{"city":"Ballouville","state_name":"Connecticut","lat":41.87311,"lng":-71.8635,"zip":"06233","miles_from_dt":23.9},{"city":"Charlestown","state_name":"Rhode Island","lat":41.3971,"lng":-71.67003,"zip":"02813","miles_from_dt":23.9},{"city":"Wrentham","state_name":"Massachusetts","lat":42.05129,"lng":-71.35522,"zip":"02093","miles_from_dt":24.5},{"city":"Ashaway","state_name":"Rhode Island","lat":41.43546,"lng":-71.77196,"zip":"02804","miles_from_dt":24.68},{"city":"Rogers","state_name":"Connecticut","lat":41.83738,"lng":-71.90444,"zip":"06263","miles_from_dt":24.77},{"city":"Mansfield","state_name":"Massachusetts","lat":42.01626,"lng":-71.21868,"zip":"02048","miles_from_dt":24.81},{"city":"East Freetown","state_name":"Massachusetts","lat":41.75405,"lng":-70.98312,"zip":"02717","miles_from_dt":24.83},{"city":"Dartmouth","state_name":"Massachusetts","lat":41.57117,"lng":-71.00266,"zip":"02714","miles_from_dt":25.36},{"city":"Bradford","state_name":"Rhode Island","lat":41.40606,"lng":-71.74802,"zip":"02808","miles_from_dt":25.5},{"city":"Putnam","state_name":"Connecticut","lat":41.90898,"lng":-71.87181,"zip":"06260","miles_from_dt":25.55},{"city":"Bellingham","state_name":"Massachusetts","lat":42.0777,"lng":-71.47407,"zip":"02019","miles_from_dt":25.74},{"city":"East Taunton","state_name":"Massachusetts","lat":41.86902,"lng":-71.01128,"zip":"02718","miles_from_dt":25.75},{"city":"Uxbridge","state_name":"Massachusetts","lat":42.05895,"lng":-71.63741,"zip":"01569","miles_from_dt":26.11},{"city":"Brooklyn","state_name":"Connecticut","lat":41.78938,"lng":-71.95266,"zip":"06234","miles_from_dt":26.18},{"city":"Franklin","state_name":"Massachusetts","lat":42.08622,"lng":-71.41126,"zip":"02038","miles_from_dt":26.43},{"city":"New Bedford","state_name":"Massachusetts","lat":41.70284,"lng":-70.94695,"zip":"02745","miles_from_dt":26.48},{"city":"Raynham Center","state_name":"Massachusetts","lat":41.92912,"lng":-71.0417,"zip":"02768","miles_from_dt":26.52},{"city":"Raynham","state_name":"Massachusetts","lat":41.93939,"lng":-71.05191,"zip":"02767","miles_from_dt":26.52},{"city":"Jewett City","state_name":"Connecticut","lat":41.58873,"lng":-71.94854,"zip":"06351","miles_from_dt":26.58},{"city":"South Dartmouth","state_name":"Massachusetts","lat":41.56096,"lng":-70.97963,"zip":"02748","miles_from_dt":26.73},{"city":"New Bedford","state_name":"Massachusetts","lat":41.66474,"lng":-70.945,"zip":"02746","miles_from_dt":26.73},{"city":"Thompson","state_name":"Connecticut","lat":41.96895,"lng":-71.83927,"zip":"06277","miles_from_dt":26.78},{"city":"North Stonington","state_name":"Connecticut","lat":41.46966,"lng":-71.87546,"zip":"06359","miles_from_dt":27.01},{"city":"Foxboro","state_name":"Massachusetts","lat":42.06266,"lng":-71.24613,"zip":"02035","miles_from_dt":27.02},{"city":"Mendon","state_name":"Massachusetts","lat":42.09301,"lng":-71.55146,"zip":"01756","miles_from_dt":27.21},{"city":"New Bedford","state_name":"Massachusetts","lat":41.63989,"lng":-70.94,"zip":"02741","miles_from_dt":27.22},{"city":"Lakeville","state_name":"Massachusetts","lat":41.83101,"lng":-70.9594,"zip":"02347","miles_from_dt":27.24},{"city":"New Bedford","state_name":"Massachusetts","lat":41.63802,"lng":-70.93839,"zip":"02740","miles_from_dt":27.33},{"city":"New Bedford","state_name":"Massachusetts","lat":41.63792,"lng":-70.92952,"zip":"02742","miles_from_dt":27.78},{"city":"Easton","state_name":"Massachusetts","lat":42.02385,"lng":-71.12922,"zip":"02334","miles_from_dt":27.82},{"city":"Canterbury","state_name":"Connecticut","lat":41.69717,"lng":-72.00109,"zip":"06331","miles_from_dt":28.05},{"city":"North Uxbridge","state_name":"Massachusetts","lat":42.09026,"lng":-71.63989,"zip":"01538","miles_from_dt":28.18},{"city":"Douglas","state_name":"Massachusetts","lat":42.0528,"lng":-71.75106,"zip":"01516","miles_from_dt":28.35},{"city":"South Easton","state_name":"Massachusetts","lat":42.01954,"lng":-71.10381,"zip":"02375","miles_from_dt":28.41},{"city":"Linwood","state_name":"Massachusetts","lat":42.09899,"lng":-71.64296,"zip":"01525","miles_from_dt":28.8},{"city":"Acushnet","state_name":"Massachusetts","lat":41.71323,"lng":-70.90054,"zip":"02743","miles_from_dt":28.88},{"city":"Pomfret","state_name":"Connecticut","lat":41.88554,"lng":-71.96353,"zip":"06258","miles_from_dt":28.89},{"city":"Grosvenor Dale","state_name":"Connecticut","lat":41.96956,"lng":-71.8943,"zip":"06246","miles_from_dt":28.96},{"city":"Lakeville","state_name":"Massachusetts","lat":41.87731,"lng":-70.94643,"zip":"02348","miles_from_dt":29.02},{"city":"New Bedford","state_name":"Massachusetts","lat":41.60789,"lng":-70.91286,"zip":"02744","miles_from_dt":29.05},{"city":"Norfolk","state_name":"Massachusetts","lat":42.11632,"lng":-71.32952,"zip":"02056","miles_from_dt":29.17},{"city":"South Walpole","state_name":"Massachusetts","lat":42.10392,"lng":-71.27002,"zip":"02071","miles_from_dt":29.21},{"city":"Hopedale","state_name":"Massachusetts","lat":42.12477,"lng":-71.535,"zip":"01747","miles_from_dt":29.24},{"city":"Westerly","state_name":"Rhode Island","lat":41.36043,"lng":-71.79429,"zip":"02891","miles_from_dt":29.46},{"city":"North Easton","state_name":"Massachusetts","lat":42.05519,"lng":-71.12071,"zip":"02356","miles_from_dt":29.81},{"city":"Pomfret Center","state_name":"Connecticut","lat":41.8703,"lng":-71.99248,"zip":"06259","miles_from_dt":29.83}],"targetCityZipCode":"02886","targetCityState":"Rhode Island"},"__N_SSG":true}