{"pageProps":{"stateName":"Rhode-island","cityName":"westerly","nearbyCities":[{"city":"Pawcatuck","state_name":"Connecticut","lat":41.36685,"lng":-71.85826,"zip":"06379","miles_from_dt":3.36},{"city":"Bradford","state_name":"Rhode Island","lat":41.40606,"lng":-71.74802,"zip":"02808","miles_from_dt":3.96},{"city":"Ashaway","state_name":"Rhode Island","lat":41.43546,"lng":-71.77196,"zip":"02804","miles_from_dt":5.31},{"city":"Stonington","state_name":"Connecticut","lat":41.38039,"lng":-71.91376,"zip":"06378","miles_from_dt":6.36},{"city":"Charlestown","state_name":"Rhode Island","lat":41.3971,"lng":-71.67003,"zip":"02813","miles_from_dt":6.94},{"city":"Wood River Junction","state_name":"Rhode Island","lat":41.44761,"lng":-71.69759,"zip":"02894","miles_from_dt":7.84},{"city":"Hopkinton","state_name":"Rhode Island","lat":41.48117,"lng":-71.77787,"zip":"02833","miles_from_dt":8.38},{"city":"North Stonington","state_name":"Connecticut","lat":41.46966,"lng":-71.87546,"zip":"06359","miles_from_dt":8.64},{"city":"Old Mystic","state_name":"Connecticut","lat":41.39059,"lng":-71.96288,"zip":"06372","miles_from_dt":9.01},{"city":"Mystic","state_name":"Connecticut","lat":41.36857,"lng":-71.97426,"zip":"06355","miles_from_dt":9.37},{"city":"West Mystic","state_name":"Connecticut","lat":41.35056,"lng":-71.9825,"zip":"06388","miles_from_dt":9.81},{"city":"Hope Valley","state_name":"Rhode Island","lat":41.50469,"lng":-71.72807,"zip":"02832","miles_from_dt":10.53},{"city":"Carolina","state_name":"Rhode Island","lat":41.47625,"lng":-71.66094,"zip":"02812","miles_from_dt":10.58},{"city":"Shannock","state_name":"Rhode Island","lat":41.46052,"lng":-71.63848,"zip":"02875","miles_from_dt":10.64},{"city":"Kenyon","state_name":"Rhode Island","lat":41.45145,"lng":-71.62027,"zip":"02836","miles_from_dt":11.01},{"city":"Rockville","state_name":"Rhode Island","lat":41.5257,"lng":-71.77734,"zip":"02873","miles_from_dt":11.44},{"city":"Mashantucket","state_name":"Connecticut","lat":41.46473,"lng":-71.97281,"zip":"06338","miles_from_dt":11.74},{"city":"Fishers Island","state_name":"New York","lat":41.27027,"lng":-71.98886,"zip":"06390","miles_from_dt":11.88},{"city":"Ledyard","state_name":"Connecticut","lat":41.44408,"lng":-71.99851,"zip":"06339","miles_from_dt":12.08},{"city":"Wyoming","state_name":"Rhode Island","lat":41.52184,"lng":-71.67166,"zip":"02898","miles_from_dt":12.83},{"city":"Groton","state_name":"Connecticut","lat":41.35643,"lng":-72.04477,"zip":"06340","miles_from_dt":13.03},{"city":"West Kingston","state_name":"Rhode Island","lat":41.50226,"lng":-71.60174,"zip":"02892","miles_from_dt":13.99},{"city":"Wakefield","state_name":"Rhode Island","lat":41.42865,"lng":-71.53837,"zip":"02879","miles_from_dt":14.11},{"city":"Gales Ferry","state_name":"Connecticut","lat":41.42943,"lng":-72.06247,"zip":"06335","miles_from_dt":14.73},{"city":"Voluntown","state_name":"Connecticut","lat":41.58188,"lng":-71.83139,"zip":"06384","miles_from_dt":15.4},{"city":"Preston","state_name":"Connecticut","lat":41.52281,"lng":-72.00072,"zip":"06365","miles_from_dt":15.51},{"city":"Groton","state_name":"Connecticut","lat":41.40194,"lng":-72.08928,"zip":"06349","miles_from_dt":15.6},{"city":"New London","state_name":"Connecticut","lat":41.35026,"lng":-72.10225,"zip":"06320","miles_from_dt":16.03},{"city":"Kingston","state_name":"Rhode Island","lat":41.4825,"lng":-71.52694,"zip":"02881","miles_from_dt":16.24},{"city":"Peace Dale","state_name":"Rhode Island","lat":41.45165,"lng":-71.50128,"zip":"02883","miles_from_dt":16.47},{"city":"Exeter","state_name":"Rhode Island","lat":41.56736,"lng":-71.63348,"zip":"02822","miles_from_dt":16.54},{"city":"Wakefield","state_name":"Rhode Island","lat":41.42333,"lng":-71.48416,"zip":"02880","miles_from_dt":16.69},{"city":"Block Island","state_name":"Rhode Island","lat":41.17762,"lng":-71.57854,"zip":"02807","miles_from_dt":16.89},{"city":"Quaker Hill","state_name":"Connecticut","lat":41.40544,"lng":-72.12554,"zip":"06375","miles_from_dt":17.49},{"city":"Narragansett","state_name":"Rhode Island","lat":41.4253,"lng":-71.46816,"zip":"02882","miles_from_dt":17.53},{"city":"Jewett City","state_name":"Connecticut","lat":41.58873,"lng":-71.94854,"zip":"06351","miles_from_dt":17.67},{"city":"Uncasville","state_name":"Connecticut","lat":41.46137,"lng":-72.11762,"zip":"06382","miles_from_dt":18.19},{"city":"Slocum","state_name":"Rhode Island","lat":41.53651,"lng":-71.52724,"zip":"02877","miles_from_dt":18.44},{"city":"Waterford","state_name":"Connecticut","lat":41.35735,"lng":-72.15581,"zip":"06385","miles_from_dt":18.8},{"city":"Montville","state_name":"Connecticut","lat":41.45612,"lng":-72.13928,"zip":"06353","miles_from_dt":19.1},{"city":"Taftville","state_name":"Connecticut","lat":41.56533,"lng":-72.05308,"zip":"06380","miles_from_dt":19.5},{"city":"West Greenwich","state_name":"Rhode Island","lat":41.6291,"lng":-71.66711,"zip":"02817","miles_from_dt":19.68},{"city":"Saunderstown","state_name":"Rhode Island","lat":41.51543,"lng":-71.46985,"zip":"02874","miles_from_dt":19.96},{"city":"Norwich","state_name":"Connecticut","lat":41.54883,"lng":-72.08914,"zip":"06360","miles_from_dt":20.08},{"city":"Versailles","state_name":"Connecticut","lat":41.60059,"lng":-72.04304,"zip":"06383","miles_from_dt":21.01},{"city":"Oakdale","state_name":"Connecticut","lat":41.46541,"lng":-72.18659,"zip":"06370","miles_from_dt":21.63},{"city":"Yantic","state_name":"Connecticut","lat":41.56036,"lng":-72.12338,"zip":"06389","miles_from_dt":21.96},{"city":"Niantic","state_name":"Connecticut","lat":41.32711,"lng":-72.21478,"zip":"06357","miles_from_dt":21.99},{"city":"Oneco","state_name":"Connecticut","lat":41.68394,"lng":-71.79881,"zip":"06373","miles_from_dt":22.33},{"city":"Plainfield","state_name":"Connecticut","lat":41.6798,"lng":-71.91441,"zip":"06374","miles_from_dt":22.9},{"city":"Montauk","state_name":"New York","lat":41.04458,"lng":-71.9518,"zip":"11954","miles_from_dt":23.29},{"city":"North Kingstown","state_name":"Rhode Island","lat":41.58809,"lng":-71.46094,"zip":"02852","miles_from_dt":23.37},{"city":"Bozrah","state_name":"Connecticut","lat":41.54431,"lng":-72.17424,"zip":"06334","miles_from_dt":23.46},{"city":"Greene","state_name":"Rhode Island","lat":41.69792,"lng":-71.73847,"zip":"02827","miles_from_dt":23.47},{"city":"Moosup","state_name":"Connecticut","lat":41.69836,"lng":-71.85016,"zip":"06354","miles_from_dt":23.5},{"city":"East Lyme","state_name":"Connecticut","lat":41.38602,"lng":-72.24527,"zip":"06333","miles_from_dt":23.51},{"city":"Jamestown","state_name":"Rhode Island","lat":41.51479,"lng":-71.37742,"zip":"02835","miles_from_dt":24.13},{"city":"South Lyme","state_name":"Connecticut","lat":41.29461,"lng":-72.2528,"zip":"06376","miles_from_dt":24.28},{"city":"Baltic","state_name":"Connecticut","lat":41.64199,"lng":-72.07541,"zip":"06330","miles_from_dt":24.3},{"city":"Hanover","state_name":"Connecticut","lat":41.64829,"lng":-72.0693,"zip":"06350","miles_from_dt":24.46},{"city":"Coventry","state_name":"Rhode Island","lat":41.69035,"lng":-71.61954,"zip":"02816","miles_from_dt":24.51},{"city":"East Greenwich","state_name":"Rhode Island","lat":41.64214,"lng":-71.49307,"zip":"02818","miles_from_dt":24.94},{"city":"North Franklin","state_name":"Connecticut","lat":41.61585,"lng":-72.14313,"zip":"06254","miles_from_dt":25.27},{"city":"Sterling","state_name":"Connecticut","lat":41.72708,"lng":-71.81679,"zip":"06377","miles_from_dt":25.33},{"city":"Canterbury","state_name":"Connecticut","lat":41.69717,"lng":-72.00109,"zip":"06331","miles_from_dt":25.59},{"city":"Gilman","state_name":"Connecticut","lat":41.57934,"lng":-72.19505,"zip":"06336","miles_from_dt":25.71},{"city":"Newport","state_name":"Rhode Island","lat":41.47838,"lng":-71.31993,"zip":"02840","miles_from_dt":25.95},{"city":"Salem","state_name":"Connecticut","lat":41.48492,"lng":-72.26733,"zip":"06420","miles_from_dt":26.03},{"city":"Central Village","state_name":"Connecticut","lat":41.72845,"lng":-71.91008,"zip":"06332","miles_from_dt":26.1},{"city":"Newport","state_name":"Rhode Island","lat":41.51261,"lng":-71.32522,"zip":"02841","miles_from_dt":26.53},{"city":"Wauregan","state_name":"Connecticut","lat":41.74418,"lng":-71.90981,"zip":"06387","miles_from_dt":27.15},{"city":"West Warwick","state_name":"Rhode Island","lat":41.69856,"lng":-71.51566,"zip":"02893","miles_from_dt":27.45},{"city":"Old Lyme","state_name":"Connecticut","lat":41.36361,"lng":-72.32582,"zip":"06371","miles_from_dt":27.64},{"city":"Scotland","state_name":"Connecticut","lat":41.69869,"lng":-72.10487,"zip":"06264","miles_from_dt":28.36},{"city":"Orient","state_name":"New York","lat":41.1492,"lng":-72.26181,"zip":"11957","miles_from_dt":28.38},{"city":"Hope","state_name":"Rhode Island","lat":41.74461,"lng":-71.58442,"zip":"02831","miles_from_dt":28.66},{"city":"Fiskeville","state_name":"Rhode Island","lat":41.73328,"lng":-71.54479,"zip":"02823","miles_from_dt":28.8},{"city":"Middletown","state_name":"Rhode Island","lat":41.51739,"lng":-71.27667,"zip":"02842","miles_from_dt":28.98},{"city":"South Windham","state_name":"Connecticut","lat":41.67136,"lng":-72.17048,"zip":"06266","miles_from_dt":29},{"city":"Windham","state_name":"Connecticut","lat":41.69237,"lng":-72.13829,"zip":"06280","miles_from_dt":29.04},{"city":"Foster","state_name":"Rhode Island","lat":41.78212,"lng":-71.72596,"zip":"02825","miles_from_dt":29.32},{"city":"Warwick","state_name":"Rhode Island","lat":41.70493,"lng":-71.45892,"zip":"02886","miles_from_dt":29.46},{"city":"Clayville","state_name":"Rhode Island","lat":41.77723,"lng":-71.66177,"zip":"02815","miles_from_dt":29.57},{"city":"Lebanon","state_name":"Connecticut","lat":41.63128,"lng":-72.24019,"zip":"06249","miles_from_dt":29.74},{"city":"Danielson","state_name":"Connecticut","lat":41.79116,"lng":-71.85711,"zip":"06239","miles_from_dt":29.9},{"city":"Prudence Island","state_name":"Rhode Island","lat":41.61718,"lng":-71.32886,"zip":"02872","miles_from_dt":29.95}],"targetCityZipCode":"02891","targetCityState":"Rhode Island"},"__N_SSG":true}