{"pageProps":{"stateName":"South-carolina","cityName":"blenheim","nearbyCities":[{"city":"Latta","state_name":"South Carolina","lat":34.35841,"lng":-79.50457,"zip":"29565","miles_from_dt":8.99},{"city":"Clio","state_name":"South Carolina","lat":34.5722,"lng":-79.53327,"zip":"29525","miles_from_dt":10.29},{"city":"Darlington","state_name":"South Carolina","lat":34.38903,"lng":-79.85028,"zip":"29540","miles_from_dt":13.45},{"city":"Little Rock","state_name":"South Carolina","lat":34.55325,"lng":-79.42649,"zip":"29567","miles_from_dt":13.59},{"city":"Society Hill","state_name":"South Carolina","lat":34.49462,"lng":-79.85429,"zip":"29593","miles_from_dt":13.61},{"city":"Bennettsville","state_name":"South Carolina","lat":34.62733,"lng":-79.71091,"zip":"29512","miles_from_dt":13.62},{"city":"Tatum","state_name":"South Carolina","lat":34.64017,"lng":-79.57728,"zip":"29594","miles_from_dt":13.84},{"city":"Dillon","state_name":"South Carolina","lat":34.41911,"lng":-79.37241,"zip":"29536","miles_from_dt":14.47},{"city":"Sellers","state_name":"South Carolina","lat":34.26941,"lng":-79.47704,"zip":"29592","miles_from_dt":14.64},{"city":"Florence","state_name":"South Carolina","lat":34.2103,"lng":-79.64432,"zip":"29506","miles_from_dt":16.1},{"city":"McColl","state_name":"South Carolina","lat":34.67495,"lng":-79.5624,"zip":"29570","miles_from_dt":16.36},{"city":"Hamer","state_name":"South Carolina","lat":34.48684,"lng":-79.33243,"zip":"29547","miles_from_dt":16.92},{"city":"Darlington","state_name":"South Carolina","lat":34.28421,"lng":-79.85119,"zip":"29532","miles_from_dt":16.99},{"city":"Florence","state_name":"South Carolina","lat":34.19517,"lng":-79.79222,"zip":"29502","miles_from_dt":19.61},{"city":"Florence","state_name":"South Carolina","lat":34.18424,"lng":-79.78254,"zip":"29504","miles_from_dt":20.02},{"city":"Florence","state_name":"South Carolina","lat":34.19232,"lng":-79.80372,"zip":"29503","miles_from_dt":20.11},{"city":"Florence","state_name":"South Carolina","lat":34.20414,"lng":-79.82654,"zip":"29501","miles_from_dt":20.14},{"city":"Rowland","state_name":"North Carolina","lat":34.57553,"lng":-79.26856,"zip":"28383","miles_from_dt":22.24},{"city":"Gibson","state_name":"North Carolina","lat":34.76454,"lng":-79.58129,"zip":"28343","miles_from_dt":22.28},{"city":"Florence","state_name":"South Carolina","lat":34.12348,"lng":-79.68974,"zip":"29505","miles_from_dt":22.36},{"city":"Fork","state_name":"South Carolina","lat":34.28759,"lng":-79.26591,"zip":"29543","miles_from_dt":23.12},{"city":"Cheraw","state_name":"South Carolina","lat":34.68083,"lng":-79.92601,"zip":"29520","miles_from_dt":23.76},{"city":"Marion","state_name":"South Carolina","lat":34.138,"lng":-79.42205,"zip":"29571","miles_from_dt":24.01},{"city":"Wallace","state_name":"South Carolina","lat":34.74456,"lng":-79.83978,"zip":"29596","miles_from_dt":24.14},{"city":"Laurinburg","state_name":"North Carolina","lat":34.76762,"lng":-79.45321,"zip":"28352","miles_from_dt":24.39},{"city":"Laurinburg","state_name":"North Carolina","lat":34.77702,"lng":-79.46508,"zip":"28353","miles_from_dt":24.73},{"city":"Lake View","state_name":"South Carolina","lat":34.35301,"lng":-79.2044,"zip":"29563","miles_from_dt":24.78},{"city":"Maxton","state_name":"North Carolina","lat":34.71447,"lng":-79.32759,"zip":"28364","miles_from_dt":25.21},{"city":"Hartsville","state_name":"South Carolina","lat":34.39309,"lng":-80.07595,"zip":"29550","miles_from_dt":26.04},{"city":"Patrick","state_name":"South Carolina","lat":34.5764,"lng":-80.05419,"zip":"29584","miles_from_dt":26.2},{"city":"Effingham","state_name":"South Carolina","lat":34.0653,"lng":-79.74087,"zip":"29541","miles_from_dt":26.89},{"city":"Hartsville","state_name":"South Carolina","lat":34.36896,"lng":-80.08632,"zip":"29551","miles_from_dt":26.9},{"city":"Laurel Hill","state_name":"North Carolina","lat":34.84098,"lng":-79.56102,"zip":"28351","miles_from_dt":27.65},{"city":"Fairmont","state_name":"North Carolina","lat":34.47136,"lng":-79.1403,"zip":"28340","miles_from_dt":27.69},{"city":"Mullins","state_name":"South Carolina","lat":34.17134,"lng":-79.26695,"zip":"29574","miles_from_dt":27.72},{"city":"Marietta","state_name":"North Carolina","lat":34.36961,"lng":-79.12882,"zip":"28362","miles_from_dt":28.75},{"city":"Rains","state_name":"South Carolina","lat":34.10037,"lng":-79.32015,"zip":"29589","miles_from_dt":29.34},{"city":"Timmonsville","state_name":"South Carolina","lat":34.10532,"lng":-79.94143,"zip":"29161","miles_from_dt":29.53},{"city":"Hamlet","state_name":"North Carolina","lat":34.87464,"lng":-79.6716,"zip":"28345","miles_from_dt":29.86},{"city":"Lydia","state_name":"South Carolina","lat":34.289,"lng":-80.11318,"zip":"29079","miles_from_dt":29.91}],"targetCityZipCode":"29516","targetCityState":"South Carolina"},"__N_SSG":true}