{"pageProps":{"stateName":"South-carolina","cityName":"cameron","nearbyCities":[{"city":"Elloree","state_name":"South Carolina","lat":33.53218,"lng":-80.57956,"zip":"29047","miles_from_dt":5.4},{"city":"Saint Matthews","state_name":"South Carolina","lat":33.68834,"lng":-80.7875,"zip":"29135","miles_from_dt":10.75},{"city":"Santee","state_name":"South Carolina","lat":33.46491,"lng":-80.52329,"zip":"29142","miles_from_dt":10.92},{"city":"Orangeburg","state_name":"South Carolina","lat":33.48145,"lng":-80.81091,"zip":"29116","miles_from_dt":11.27},{"city":"Orangeburg","state_name":"South Carolina","lat":33.49828,"lng":-80.85,"zip":"29117","miles_from_dt":12.59},{"city":"Orangeburg","state_name":"South Carolina","lat":33.47673,"lng":-80.84758,"zip":"29115","miles_from_dt":13.2},{"city":"Pinewood","state_name":"South Carolina","lat":33.70165,"lng":-80.47434,"zip":"29125","miles_from_dt":13.38},{"city":"Orangeburg","state_name":"South Carolina","lat":33.57056,"lng":-80.89501,"zip":"29118","miles_from_dt":13.89},{"city":"Bowman","state_name":"South Carolina","lat":33.34619,"lng":-80.64373,"zip":"29018","miles_from_dt":16.07},{"city":"Vance","state_name":"South Carolina","lat":33.42019,"lng":-80.43918,"zip":"29163","miles_from_dt":16.57},{"city":"Gadsden","state_name":"South Carolina","lat":33.81036,"lng":-80.73832,"zip":"29052","miles_from_dt":16.65},{"city":"Rowesville","state_name":"South Carolina","lat":33.35726,"lng":-80.80698,"zip":"29133","miles_from_dt":17.65},{"city":"Summerton","state_name":"South Carolina","lat":33.53731,"lng":-80.34386,"zip":"29148","miles_from_dt":18.15},{"city":"Cordova","state_name":"South Carolina","lat":33.41855,"lng":-80.90556,"zip":"29039","miles_from_dt":18.24},{"city":"Wedgefield","state_name":"South Carolina","lat":33.84848,"lng":-80.54483,"zip":"29168","miles_from_dt":19.6},{"city":"Holly Hill","state_name":"South Carolina","lat":33.32853,"lng":-80.41891,"zip":"29059","miles_from_dt":21.99},{"city":"Davis Station","state_name":"South Carolina","lat":33.60173,"lng":-80.26475,"zip":"29041","miles_from_dt":22.53},{"city":"Sumter","state_name":"South Carolina","lat":33.88515,"lng":-80.47547,"zip":"29154","miles_from_dt":23.47},{"city":"Cope","state_name":"South Carolina","lat":33.37494,"lng":-80.98095,"zip":"29038","miles_from_dt":23.53},{"city":"Eutawville","state_name":"South Carolina","lat":33.39057,"lng":-80.29702,"zip":"29048","miles_from_dt":24.39},{"city":"Eastover","state_name":"South Carolina","lat":33.93437,"lng":-80.69446,"zip":"29044","miles_from_dt":24.59},{"city":"Hopkins","state_name":"South Carolina","lat":33.89923,"lng":-80.84955,"zip":"29061","miles_from_dt":24.76},{"city":"North","state_name":"South Carolina","lat":33.62662,"lng":-81.0837,"zip":"29112","miles_from_dt":24.97},{"city":"Swansea","state_name":"South Carolina","lat":33.74358,"lng":-81.04188,"zip":"29160","miles_from_dt":25.04},{"city":"Branchville","state_name":"South Carolina","lat":33.2294,"lng":-80.81428,"zip":"29432","miles_from_dt":25.82},{"city":"Harleyville","state_name":"South Carolina","lat":33.24062,"lng":-80.44639,"zip":"29448","miles_from_dt":26.25},{"city":"Columbia","state_name":"South Carolina","lat":33.91826,"lng":-80.87372,"zip":"29290","miles_from_dt":26.56},{"city":"Sumter","state_name":"South Carolina","lat":33.87621,"lng":-80.35609,"zip":"29150","miles_from_dt":26.73},{"city":"Manning","state_name":"South Carolina","lat":33.6437,"lng":-80.19225,"zip":"29102","miles_from_dt":27.02},{"city":"Reevesville","state_name":"South Carolina","lat":33.18714,"lng":-80.66955,"zip":"29471","miles_from_dt":27.03},{"city":"Neeses","state_name":"South Carolina","lat":33.52348,"lng":-81.11856,"zip":"29107","miles_from_dt":27.06},{"city":"Sumter","state_name":"South Carolina","lat":33.90864,"lng":-80.36259,"zip":"29151","miles_from_dt":28.25},{"city":"Saint George","state_name":"South Carolina","lat":33.16626,"lng":-80.57176,"zip":"29477","miles_from_dt":28.86},{"city":"Horatio","state_name":"South Carolina","lat":33.99818,"lng":-80.60785,"zip":"29062","miles_from_dt":29},{"city":"Shaw Afb","state_name":"South Carolina","lat":33.97517,"lng":-80.47019,"zip":"29152","miles_from_dt":29.28},{"city":"Norway","state_name":"South Carolina","lat":33.43514,"lng":-81.13173,"zip":"29113","miles_from_dt":29.29},{"city":"Columbia","state_name":"South Carolina","lat":33.92442,"lng":-80.95284,"zip":"29209","miles_from_dt":29.35}],"targetCityZipCode":"29030","targetCityState":"South Carolina"},"__N_SSG":true}