{"pageProps":{"stateName":"South-carolina","cityName":"early-branch","nearbyCities":[{"city":"Varnville","state_name":"South Carolina","lat":32.79129,"lng":-81.03409,"zip":"29944","miles_from_dt":6.22},{"city":"Yemassee","state_name":"South Carolina","lat":32.68694,"lng":-80.80912,"zip":"29945","miles_from_dt":9.09},{"city":"Coosawhatchie","state_name":"South Carolina","lat":32.58262,"lng":-80.93102,"zip":"29912","miles_from_dt":10.18},{"city":"Pineland","state_name":"South Carolina","lat":32.59651,"lng":-81.11245,"zip":"29934","miles_from_dt":12.84},{"city":"Furman","state_name":"South Carolina","lat":32.68664,"lng":-81.18011,"zip":"29921","miles_from_dt":13.31},{"city":"Hampton","state_name":"South Carolina","lat":32.87737,"lng":-81.10749,"zip":"29924","miles_from_dt":13.48},{"city":"Crocketville","state_name":"South Carolina","lat":32.91322,"lng":-81.07413,"zip":"29913","miles_from_dt":14.43},{"city":"Islandton","state_name":"South Carolina","lat":32.93805,"lng":-80.9434,"zip":"29929","miles_from_dt":14.45},{"city":"Sheldon","state_name":"South Carolina","lat":32.54357,"lng":-80.81509,"zip":"29941","miles_from_dt":15.2},{"city":"Miley","state_name":"South Carolina","lat":32.94857,"lng":-81.03106,"zip":"29933","miles_from_dt":15.76},{"city":"Ridgeland","state_name":"South Carolina","lat":32.48475,"lng":-80.96766,"zip":"29936","miles_from_dt":16.82},{"city":"Estill","state_name":"South Carolina","lat":32.74461,"lng":-81.24899,"zip":"29918","miles_from_dt":17.04},{"city":"Scotia","state_name":"South Carolina","lat":32.68127,"lng":-81.24538,"zip":"29939","miles_from_dt":17.11},{"city":"Lobeco","state_name":"South Carolina","lat":32.55392,"lng":-80.74539,"zip":"29931","miles_from_dt":17.24},{"city":"Brunson","state_name":"South Carolina","lat":32.9327,"lng":-81.14536,"zip":"29911","miles_from_dt":17.83},{"city":"Ruffin","state_name":"South Carolina","lat":32.96687,"lng":-80.8189,"zip":"29475","miles_from_dt":18.28},{"city":"Gifford","state_name":"South Carolina","lat":32.84821,"lng":-81.23856,"zip":"29923","miles_from_dt":18.34},{"city":"Dale","state_name":"South Carolina","lat":32.55448,"lng":-80.6925,"zip":"29914","miles_from_dt":19.54},{"city":"Tillman","state_name":"South Carolina","lat":32.4821,"lng":-81.14952,"zip":"29943","miles_from_dt":20.36},{"city":"Seabrook","state_name":"South Carolina","lat":32.5524,"lng":-80.67511,"zip":"29940","miles_from_dt":20.44},{"city":"Walterboro","state_name":"South Carolina","lat":32.90664,"lng":-80.67458,"zip":"29488","miles_from_dt":20.51},{"city":"Garnett","state_name":"South Carolina","lat":32.59632,"lng":-81.27407,"zip":"29922","miles_from_dt":20.6},{"city":"Lodge","state_name":"South Carolina","lat":33.04012,"lng":-80.93868,"zip":"29082","miles_from_dt":21.49},{"city":"Beaufort","state_name":"South Carolina","lat":32.47899,"lng":-80.72198,"zip":"29904","miles_from_dt":22},{"city":"Williams","state_name":"South Carolina","lat":33.04536,"lng":-80.84276,"zip":"29493","miles_from_dt":22.82},{"city":"Beaufort","state_name":"South Carolina","lat":32.44521,"lng":-80.75159,"zip":"29906","miles_from_dt":22.92},{"city":"Fairfax","state_name":"South Carolina","lat":32.96951,"lng":-81.24542,"zip":"29827","miles_from_dt":23.6},{"city":"Luray","state_name":"South Carolina","lat":32.82529,"lng":-81.34853,"zip":"29932","miles_from_dt":23.74},{"city":"Beaufort","state_name":"South Carolina","lat":32.42463,"lng":-80.72515,"zip":"29903","miles_from_dt":24.94},{"city":"Green Pond","state_name":"South Carolina","lat":32.6281,"lng":-80.54028,"zip":"29446","miles_from_dt":25.26},{"city":"Ehrhardt","state_name":"South Carolina","lat":33.09161,"lng":-81.0426,"zip":"29081","miles_from_dt":25.5},{"city":"Clyo","state_name":"Georgia","lat":32.49631,"lng":-81.30616,"zip":"31303","miles_from_dt":25.9},{"city":"Sycamore","state_name":"South Carolina","lat":33.03781,"lng":-81.22462,"zip":"29846","miles_from_dt":26.38},{"city":"Okatie","state_name":"South Carolina","lat":32.34042,"lng":-80.85465,"zip":"29909","miles_from_dt":27.41},{"city":"Beaufort","state_name":"South Carolina","lat":32.41754,"lng":-80.6575,"zip":"29901","miles_from_dt":27.66},{"city":"Beaufort","state_name":"South Carolina","lat":32.45326,"lng":-80.60926,"zip":"29907","miles_from_dt":27.78},{"city":"Smoaks","state_name":"South Carolina","lat":33.11382,"lng":-80.80301,"zip":"29481","miles_from_dt":28.01},{"city":"Round O","state_name":"South Carolina","lat":32.90833,"lng":-80.52448,"zip":"29474","miles_from_dt":28.05},{"city":"Port Royal","state_name":"South Carolina","lat":32.38277,"lng":-80.6963,"zip":"29935","miles_from_dt":28.28},{"city":"Jacksonboro","state_name":"South Carolina","lat":32.6997,"lng":-80.46998,"zip":"29452","miles_from_dt":28.45},{"city":"Beaufort","state_name":"South Carolina","lat":32.37426,"lng":-80.69438,"zip":"29902","miles_from_dt":28.83},{"city":"Canadys","state_name":"South Carolina","lat":33.05468,"lng":-80.62073,"zip":"29433","miles_from_dt":29.79}],"targetCityZipCode":"29916","targetCityState":"South Carolina"},"__N_SSG":true}