{"pageProps":{"stateName":"South-carolina","cityName":"edgemoor","nearbyCities":[{"city":"Lando","state_name":"South Carolina","lat":34.77503,"lng":-81.01248,"zip":"29724","miles_from_dt":2.1},{"city":"Catawba","state_name":"South Carolina","lat":34.82293,"lng":-80.91592,"zip":"29704","miles_from_dt":4.34},{"city":"Rock Hill","state_name":"South Carolina","lat":34.8878,"lng":-81.02116,"zip":"29730","miles_from_dt":6.78},{"city":"Fort Lawn","state_name":"South Carolina","lat":34.71171,"lng":-80.9145,"zip":"29714","miles_from_dt":6.94},{"city":"Richburg","state_name":"South Carolina","lat":34.67716,"lng":-81.00528,"zip":"29729","miles_from_dt":8.17},{"city":"Van Wyck","state_name":"South Carolina","lat":34.8585,"lng":-80.84603,"zip":"29744","miles_from_dt":9},{"city":"Rock Hill","state_name":"South Carolina","lat":34.93945,"lng":-81.03173,"zip":"29733","miles_from_dt":10.36},{"city":"Rock Hill","state_name":"South Carolina","lat":34.96979,"lng":-81.07963,"zip":"29732","miles_from_dt":13.26},{"city":"Lancaster","state_name":"South Carolina","lat":34.74265,"lng":-80.73684,"zip":"29720","miles_from_dt":14.5},{"city":"McConnells","state_name":"South Carolina","lat":34.85738,"lng":-81.23223,"zip":"29726","miles_from_dt":14.76},{"city":"Fort Mill","state_name":"South Carolina","lat":34.98148,"lng":-80.85669,"zip":"29707","miles_from_dt":14.79},{"city":"Fort Mill","state_name":"South Carolina","lat":35.00695,"lng":-80.94234,"zip":"29716","miles_from_dt":14.84},{"city":"Chester","state_name":"South Carolina","lat":34.71773,"lng":-81.23055,"zip":"29706","miles_from_dt":14.99},{"city":"Fort Mill","state_name":"South Carolina","lat":35.01028,"lng":-80.92752,"zip":"29715","miles_from_dt":15.22},{"city":"Rock Hill","state_name":"South Carolina","lat":34.74958,"lng":-80.72082,"zip":"29734","miles_from_dt":15.28},{"city":"Lancaster","state_name":"South Carolina","lat":34.74958,"lng":-80.72082,"zip":"29722","miles_from_dt":15.28},{"city":"Rock Hill","state_name":"South Carolina","lat":34.74958,"lng":-80.72082,"zip":"29731","miles_from_dt":15.28},{"city":"Lancaster","state_name":"South Carolina","lat":34.7471,"lng":-80.71842,"zip":"29721","miles_from_dt":15.45},{"city":"Great Falls","state_name":"South Carolina","lat":34.57248,"lng":-80.91753,"zip":"29055","miles_from_dt":15.76},{"city":"Waxhaw","state_name":"North Carolina","lat":34.91532,"lng":-80.73021,"zip":"28173","miles_from_dt":16.66},{"city":"Fort Mill","state_name":"South Carolina","lat":35.04655,"lng":-80.98604,"zip":"29708","miles_from_dt":17.38},{"city":"York","state_name":"South Carolina","lat":34.99549,"lng":-81.21573,"zip":"29745","miles_from_dt":19.12},{"city":"Blackstock","state_name":"South Carolina","lat":34.54368,"lng":-81.13553,"zip":"29014","miles_from_dt":19.32},{"city":"Mineral Springs","state_name":"North Carolina","lat":34.93411,"lng":-80.67975,"zip":"28108","miles_from_dt":19.79},{"city":"Charlotte","state_name":"North Carolina","lat":35.05212,"lng":-80.81622,"zip":"28277","miles_from_dt":20.16},{"city":"Pineville","state_name":"North Carolina","lat":35.08364,"lng":-80.89125,"zip":"28134","miles_from_dt":20.62},{"city":"Heath Springs","state_name":"South Carolina","lat":34.56297,"lng":-80.73473,"zip":"29058","miles_from_dt":21.35},{"city":"Charlotte","state_name":"North Carolina","lat":35.12624,"lng":-80.94469,"zip":"28273","miles_from_dt":22.98},{"city":"Sharon","state_name":"South Carolina","lat":34.86939,"lng":-81.38155,"zip":"29742","miles_from_dt":23.18},{"city":"Charlotte","state_name":"North Carolina","lat":35.13063,"lng":-81.00753,"zip":"28278","miles_from_dt":23.22},{"city":"Charlotte","state_name":"North Carolina","lat":35.10593,"lng":-80.82252,"zip":"28247","miles_from_dt":23.35},{"city":"Charlotte","state_name":"North Carolina","lat":35.10767,"lng":-80.81837,"zip":"28226","miles_from_dt":23.55},{"city":"Charlotte","state_name":"North Carolina","lat":35.0996,"lng":-80.77142,"zip":"28228","miles_from_dt":24.25},{"city":"Charlotte","state_name":"North Carolina","lat":35.12969,"lng":-80.8548,"zip":"28210","miles_from_dt":24.25},{"city":"Charlotte","state_name":"North Carolina","lat":35.13018,"lng":-80.85368,"zip":"28287","miles_from_dt":24.3},{"city":"Matthews","state_name":"North Carolina","lat":35.06017,"lng":-80.69666,"zip":"28104","miles_from_dt":24.53},{"city":"Charlotte","state_name":"North Carolina","lat":35.10963,"lng":-80.76005,"zip":"28270","miles_from_dt":25.17},{"city":"Charlotte","state_name":"North Carolina","lat":35.15106,"lng":-80.87343,"zip":"28224","miles_from_dt":25.37},{"city":"Clover","state_name":"South Carolina","lat":35.10598,"lng":-81.22209,"zip":"29710","miles_from_dt":25.38},{"city":"Liberty Hill","state_name":"South Carolina","lat":34.4512,"lng":-80.8144,"zip":"29074","miles_from_dt":25.55},{"city":"Monroe","state_name":"North Carolina","lat":34.89355,"lng":-80.54113,"zip":"28112","miles_from_dt":26.08},{"city":"Charlotte","state_name":"North Carolina","lat":35.17146,"lng":-80.9077,"zip":"28217","miles_from_dt":26.35},{"city":"Lockhart","state_name":"South Carolina","lat":34.78846,"lng":-81.46202,"zip":"29364","miles_from_dt":27.19},{"city":"Matthews","state_name":"North Carolina","lat":35.11914,"lng":-80.71116,"zip":"28105","miles_from_dt":27.22},{"city":"Matthews","state_name":"North Carolina","lat":35.12345,"lng":-80.7136,"zip":"28106","miles_from_dt":27.39},{"city":"Charlotte","state_name":"North Carolina","lat":35.1778,"lng":-80.85102,"zip":"28220","miles_from_dt":27.49},{"city":"Charlotte","state_name":"North Carolina","lat":35.17878,"lng":-80.85418,"zip":"28209","miles_from_dt":27.5},{"city":"Bowling Green","state_name":"South Carolina","lat":35.1455,"lng":-81.22308,"zip":"29703","miles_from_dt":27.75},{"city":"Charlotte","state_name":"North Carolina","lat":35.16816,"lng":-80.79604,"zip":"28211","miles_from_dt":27.89},{"city":"Monroe","state_name":"North Carolina","lat":34.98367,"lng":-80.54919,"zip":"28111","miles_from_dt":27.93},{"city":"Camden","state_name":"South Carolina","lat":34.56,"lng":-80.58219,"zip":"29021","miles_from_dt":28.01},{"city":"Hickory Grove","state_name":"South Carolina","lat":34.95119,"lng":-81.44304,"zip":"29717","miles_from_dt":28.23},{"city":"Carlisle","state_name":"South Carolina","lat":34.60624,"lng":-81.42665,"zip":"29031","miles_from_dt":28.34},{"city":"Charlotte","state_name":"North Carolina","lat":35.18909,"lng":-80.83384,"zip":"28274","miles_from_dt":28.51},{"city":"Charlotte","state_name":"North Carolina","lat":35.2069,"lng":-80.94164,"zip":"28219","miles_from_dt":28.54},{"city":"Charlotte","state_name":"North Carolina","lat":35.19914,"lng":-80.85646,"zip":"28234","miles_from_dt":28.82},{"city":"Belmont","state_name":"North Carolina","lat":35.21054,"lng":-81.04077,"zip":"28012","miles_from_dt":28.87},{"city":"Charlotte","state_name":"North Carolina","lat":35.19296,"lng":-80.82631,"zip":"28201","miles_from_dt":28.89},{"city":"Smyrna","state_name":"South Carolina","lat":35.02865,"lng":-81.40772,"zip":"29743","miles_from_dt":28.98},{"city":"Charlotte","state_name":"North Carolina","lat":35.19512,"lng":-80.82606,"zip":"28207","miles_from_dt":29.04},{"city":"Charlotte","state_name":"North Carolina","lat":35.19619,"lng":-80.82436,"zip":"28231","miles_from_dt":29.14},{"city":"Charlotte","state_name":"North Carolina","lat":35.19126,"lng":-80.8042,"zip":"28222","miles_from_dt":29.2},{"city":"Charlotte","state_name":"North Carolina","lat":35.20832,"lng":-80.8577,"zip":"28203","miles_from_dt":29.42},{"city":"Charlotte","state_name":"North Carolina","lat":35.21119,"lng":-80.86511,"zip":"28255","miles_from_dt":29.51},{"city":"Charlotte","state_name":"North Carolina","lat":35.22143,"lng":-80.92875,"zip":"28254","miles_from_dt":29.6},{"city":"Charlotte","state_name":"North Carolina","lat":35.21185,"lng":-80.86176,"zip":"28242","miles_from_dt":29.6},{"city":"Charlotte","state_name":"North Carolina","lat":35.223,"lng":-80.93036,"zip":"28258","miles_from_dt":29.7}],"targetCityZipCode":"29712","targetCityState":"South Carolina"},"__N_SSG":true}