{"pageProps":{"stateName":"South-carolina","cityName":"jefferson","nearbyCities":[{"city":"Mount Croghan","state_name":"South Carolina","lat":34.71566,"lng":-80.2684,"zip":"29727","miles_from_dt":7.73},{"city":"Pageland","state_name":"South Carolina","lat":34.76831,"lng":-80.40445,"zip":"29728","miles_from_dt":10.01},{"city":"Ruby","state_name":"South Carolina","lat":34.72511,"lng":-80.20138,"zip":"29741","miles_from_dt":10.96},{"city":"Kershaw","state_name":"South Carolina","lat":34.54976,"lng":-80.53268,"zip":"29067","miles_from_dt":11.53},{"city":"McBee","state_name":"South Carolina","lat":34.47798,"lng":-80.24038,"zip":"29101","miles_from_dt":12.29},{"city":"Bethune","state_name":"South Carolina","lat":34.44097,"lng":-80.37642,"zip":"29009","miles_from_dt":13.03},{"city":"Camden","state_name":"South Carolina","lat":34.56,"lng":-80.58219,"zip":"29021","miles_from_dt":13.82},{"city":"Chesterfield","state_name":"South Carolina","lat":34.71882,"lng":-80.09752,"zip":"29709","miles_from_dt":15.9},{"city":"Patrick","state_name":"South Carolina","lat":34.5764,"lng":-80.05419,"zip":"29584","miles_from_dt":17.51},{"city":"Westville","state_name":"South Carolina","lat":34.44266,"lng":-80.60666,"zip":"29175","miles_from_dt":19.28},{"city":"Cassatt","state_name":"South Carolina","lat":34.34002,"lng":-80.44374,"zip":"29032","miles_from_dt":20.56},{"city":"Monroe","state_name":"North Carolina","lat":34.89355,"lng":-80.54113,"zip":"28112","miles_from_dt":21.09},{"city":"Peachland","state_name":"North Carolina","lat":34.93468,"lng":-80.26239,"zip":"28133","miles_from_dt":21.71},{"city":"Heath Springs","state_name":"South Carolina","lat":34.56297,"lng":-80.73473,"zip":"29058","miles_from_dt":22.14},{"city":"Lancaster","state_name":"South Carolina","lat":34.7471,"lng":-80.71842,"zip":"29721","miles_from_dt":22.25},{"city":"Rock Hill","state_name":"South Carolina","lat":34.74958,"lng":-80.72082,"zip":"29734","miles_from_dt":22.44},{"city":"Rock Hill","state_name":"South Carolina","lat":34.74958,"lng":-80.72082,"zip":"29731","miles_from_dt":22.44},{"city":"Lancaster","state_name":"South Carolina","lat":34.74958,"lng":-80.72082,"zip":"29722","miles_from_dt":22.44},{"city":"Hartsville","state_name":"South Carolina","lat":34.39309,"lng":-80.07595,"zip":"29550","miles_from_dt":22.75},{"city":"Lancaster","state_name":"South Carolina","lat":34.74265,"lng":-80.73684,"zip":"29720","miles_from_dt":23.12},{"city":"Hartsville","state_name":"South Carolina","lat":34.36896,"lng":-80.08632,"zip":"29551","miles_from_dt":23.58},{"city":"Wingate","state_name":"North Carolina","lat":34.96959,"lng":-80.4382,"zip":"28174","miles_from_dt":23.95},{"city":"Morven","state_name":"North Carolina","lat":34.85112,"lng":-80.01492,"zip":"28119","miles_from_dt":24.66},{"city":"Cheraw","state_name":"South Carolina","lat":34.68083,"lng":-79.92601,"zip":"29520","miles_from_dt":24.68},{"city":"McFarlan","state_name":"North Carolina","lat":34.81482,"lng":-79.97663,"zip":"28102","miles_from_dt":25.04},{"city":"Marshville","state_name":"North Carolina","lat":35.0037,"lng":-80.35316,"zip":"28103","miles_from_dt":25.82},{"city":"Camden","state_name":"South Carolina","lat":34.31036,"lng":-80.59334,"zip":"29020","miles_from_dt":25.85},{"city":"Monroe","state_name":"North Carolina","lat":34.98367,"lng":-80.54919,"zip":"28111","miles_from_dt":26.83},{"city":"Lydia","state_name":"South Carolina","lat":34.289,"lng":-80.11318,"zip":"29079","miles_from_dt":27.2},{"city":"Mineral Springs","state_name":"North Carolina","lat":34.93411,"lng":-80.67975,"zip":"28108","miles_from_dt":28},{"city":"Liberty Hill","state_name":"South Carolina","lat":34.4512,"lng":-80.8144,"zip":"29074","miles_from_dt":28.95},{"city":"Bishopville","state_name":"South Carolina","lat":34.21487,"lng":-80.26946,"zip":"29010","miles_from_dt":28.96},{"city":"Waxhaw","state_name":"North Carolina","lat":34.91532,"lng":-80.73021,"zip":"28173","miles_from_dt":29.08},{"city":"Polkton","state_name":"North Carolina","lat":35.03547,"lng":-80.21412,"zip":"28135","miles_from_dt":29.13},{"city":"Wadesboro","state_name":"North Carolina","lat":34.99263,"lng":-80.09259,"zip":"28170","miles_from_dt":29.16}],"targetCityZipCode":"29718","targetCityState":"South Carolina"},"__N_SSG":true}