{"pageProps":{"stateName":"South-carolina","cityName":"jonesville","nearbyCities":[{"city":"Jonesville","state_name":"South Carolina","lat":34.8546,"lng":-81.74021,"zip":"29395","miles_from_dt":5.04},{"city":"Pacolet","state_name":"South Carolina","lat":34.9059,"lng":-81.70878,"zip":"29372","miles_from_dt":5.98},{"city":"Pacolet Mills","state_name":"South Carolina","lat":34.92442,"lng":-81.74276,"zip":"29373","miles_from_dt":8.12},{"city":"Buffalo","state_name":"South Carolina","lat":34.71975,"lng":-81.74151,"zip":"29321","miles_from_dt":9.05},{"city":"White Stone","state_name":"South Carolina","lat":34.88336,"lng":-81.80693,"zip":"29386","miles_from_dt":9.3},{"city":"Union","state_name":"South Carolina","lat":34.68772,"lng":-81.60403,"zip":"29379","miles_from_dt":10.29},{"city":"Gaffney","state_name":"South Carolina","lat":34.98563,"lng":-81.65913,"zip":"29342","miles_from_dt":10.69},{"city":"Gaffney","state_name":"South Carolina","lat":34.98225,"lng":-81.59427,"zip":"29340","miles_from_dt":11.03},{"city":"Pauline","state_name":"South Carolina","lat":34.7861,"lng":-81.84854,"zip":"29374","miles_from_dt":11.35},{"city":"Spartanburg","state_name":"South Carolina","lat":34.89399,"lng":-81.84151,"zip":"29302","miles_from_dt":11.39},{"city":"Lockhart","state_name":"South Carolina","lat":34.78846,"lng":-81.46202,"zip":"29364","miles_from_dt":11.43},{"city":"Glendale","state_name":"South Carolina","lat":34.94524,"lng":-81.83627,"zip":"29346","miles_from_dt":12.92},{"city":"Spartanburg","state_name":"South Carolina","lat":34.98381,"lng":-81.83146,"zip":"29307","miles_from_dt":14.5},{"city":"Clifton","state_name":"South Carolina","lat":34.98944,"lng":-81.82523,"zip":"29324","miles_from_dt":14.55},{"city":"Hickory Grove","state_name":"South Carolina","lat":34.95119,"lng":-81.44304,"zip":"29717","miles_from_dt":14.69},{"city":"Converse","state_name":"South Carolina","lat":34.99262,"lng":-81.83682,"zip":"29329","miles_from_dt":15.16},{"city":"Spartanburg","state_name":"South Carolina","lat":34.89338,"lng":-81.92177,"zip":"29306","miles_from_dt":15.69},{"city":"Sharon","state_name":"South Carolina","lat":34.86939,"lng":-81.38155,"zip":"29742","miles_from_dt":15.84},{"city":"Spartanburg","state_name":"South Carolina","lat":34.95809,"lng":-81.90577,"zip":"29304","miles_from_dt":16.67},{"city":"Roebuck","state_name":"South Carolina","lat":34.81564,"lng":-81.94921,"zip":"29376","miles_from_dt":16.68},{"city":"Cross Anchor","state_name":"South Carolina","lat":34.64351,"lng":-81.85836,"zip":"29331","miles_from_dt":17.28},{"city":"Spartanburg","state_name":"South Carolina","lat":34.94718,"lng":-81.92678,"zip":"29319","miles_from_dt":17.33},{"city":"Drayton","state_name":"South Carolina","lat":34.97092,"lng":-81.91069,"zip":"29333","miles_from_dt":17.38},{"city":"Cowpens","state_name":"South Carolina","lat":35.05362,"lng":-81.80463,"zip":"29330","miles_from_dt":17.52},{"city":"Enoree","state_name":"South Carolina","lat":34.65714,"lng":-81.90035,"zip":"29335","miles_from_dt":18.32},{"city":"Smyrna","state_name":"South Carolina","lat":35.02865,"lng":-81.40772,"zip":"29743","miles_from_dt":19.64},{"city":"Una","state_name":"South Carolina","lat":34.96684,"lng":-81.96857,"zip":"29378","miles_from_dt":20.06},{"city":"Gaffney","state_name":"South Carolina","lat":35.1184,"lng":-81.71321,"zip":"29341","miles_from_dt":20.1},{"city":"Spartanburg","state_name":"South Carolina","lat":34.98926,"lng":-81.95461,"zip":"29305","miles_from_dt":20.16},{"city":"Carlisle","state_name":"South Carolina","lat":34.60624,"lng":-81.42665,"zip":"29031","miles_from_dt":20.25},{"city":"Moore","state_name":"South Carolina","lat":34.86535,"lng":-82.02207,"zip":"29369","miles_from_dt":20.92},{"city":"Mayo","state_name":"South Carolina","lat":35.08262,"lng":-81.86281,"zip":"29368","miles_from_dt":20.95},{"city":"Arcadia","state_name":"South Carolina","lat":34.95847,"lng":-81.9922,"zip":"29320","miles_from_dt":21.01},{"city":"Spartanburg","state_name":"South Carolina","lat":34.99424,"lng":-81.96883,"zip":"29303","miles_from_dt":21.02},{"city":"Spartanburg","state_name":"South Carolina","lat":34.93516,"lng":-82.01301,"zip":"29301","miles_from_dt":21.5},{"city":"Fairforest","state_name":"South Carolina","lat":34.95037,"lng":-82.01495,"zip":"29336","miles_from_dt":21.98},{"city":"Blacksburg","state_name":"South Carolina","lat":35.11674,"lng":-81.47884,"zip":"29702","miles_from_dt":22.15},{"city":"Woodruff","state_name":"South Carolina","lat":34.76292,"lng":-82.04299,"zip":"29388","miles_from_dt":22.48},{"city":"Whitmire","state_name":"South Carolina","lat":34.4992,"lng":-81.5961,"zip":"29178","miles_from_dt":23.1},{"city":"Boiling Springs","state_name":"South Carolina","lat":35.04179,"lng":-81.9766,"zip":"29316","miles_from_dt":23.29},{"city":"McConnells","state_name":"South Carolina","lat":34.85738,"lng":-81.23223,"zip":"29726","miles_from_dt":24.17},{"city":"Chesnee","state_name":"South Carolina","lat":35.12911,"lng":-81.90902,"zip":"29323","miles_from_dt":25.08},{"city":"Chester","state_name":"South Carolina","lat":34.71773,"lng":-81.23055,"zip":"29706","miles_from_dt":25.44},{"city":"Startex","state_name":"South Carolina","lat":34.93036,"lng":-82.0971,"zip":"29377","miles_from_dt":25.96},{"city":"Reidville","state_name":"South Carolina","lat":34.86049,"lng":-82.11386,"zip":"29375","miles_from_dt":26.08},{"city":"Earl","state_name":"North Carolina","lat":35.19966,"lng":-81.54335,"zip":"28038","miles_from_dt":26.23},{"city":"Clinton","state_name":"South Carolina","lat":34.47682,"lng":-81.83973,"zip":"29325","miles_from_dt":26.53},{"city":"Duncan","state_name":"South Carolina","lat":34.90372,"lng":-82.12526,"zip":"29334","miles_from_dt":27.11},{"city":"Grover","state_name":"North Carolina","lat":35.19776,"lng":-81.48126,"zip":"28073","miles_from_dt":27.19},{"city":"Wellford","state_name":"South Carolina","lat":34.97623,"lng":-82.1024,"zip":"29385","miles_from_dt":27.25},{"city":"York","state_name":"South Carolina","lat":34.99549,"lng":-81.21573,"zip":"29745","miles_from_dt":27.48},{"city":"Mooresboro","state_name":"North Carolina","lat":35.23,"lng":-81.74814,"zip":"28114","miles_from_dt":28.02},{"city":"Shelby","state_name":"North Carolina","lat":35.24188,"lng":-81.59289,"zip":"28152","miles_from_dt":28.58},{"city":"Inman","state_name":"South Carolina","lat":35.07045,"lng":-82.0688,"zip":"29349","miles_from_dt":28.66},{"city":"Fingerville","state_name":"South Carolina","lat":35.13444,"lng":-82.00172,"zip":"29338","miles_from_dt":28.68},{"city":"Boiling Springs","state_name":"North Carolina","lat":35.24708,"lng":-81.67059,"zip":"28017","miles_from_dt":28.72},{"city":"Cliffside","state_name":"North Carolina","lat":35.24347,"lng":-81.77066,"zip":"28024","miles_from_dt":29.19},{"city":"Joanna","state_name":"South Carolina","lat":34.42177,"lng":-81.80967,"zip":"29351","miles_from_dt":29.51}],"targetCityZipCode":"29353","targetCityState":"South Carolina"},"__N_SSG":true}