{"pageProps":{"stateName":"South-carolina","cityName":"kinards","nearbyCities":[{"city":"Joanna","state_name":"South Carolina","lat":34.42177,"lng":-81.80967,"zip":"29351","miles_from_dt":4.59},{"city":"Clinton","state_name":"South Carolina","lat":34.47682,"lng":-81.83973,"zip":"29325","miles_from_dt":8.68},{"city":"Newberry","state_name":"South Carolina","lat":34.29805,"lng":-81.62433,"zip":"29108","miles_from_dt":9.16},{"city":"Silverstreet","state_name":"South Carolina","lat":34.21905,"lng":-81.77453,"zip":"29145","miles_from_dt":10.45},{"city":"Mountville","state_name":"South Carolina","lat":34.37315,"lng":-81.96816,"zip":"29370","miles_from_dt":11.96},{"city":"Whitmire","state_name":"South Carolina","lat":34.4992,"lng":-81.5961,"zip":"29178","miles_from_dt":12.87},{"city":"Cross Hill","state_name":"South Carolina","lat":34.28329,"lng":-81.97292,"zip":"29332","miles_from_dt":13.62},{"city":"Chappells","state_name":"South Carolina","lat":34.18961,"lng":-81.86868,"zip":"29037","miles_from_dt":13.94},{"city":"Laurens","state_name":"South Carolina","lat":34.49361,"lng":-82.04884,"zip":"29360","miles_from_dt":18.62},{"city":"Waterloo","state_name":"South Carolina","lat":34.33976,"lng":-82.0904,"zip":"29384","miles_from_dt":19.06},{"city":"Cross Anchor","state_name":"South Carolina","lat":34.64351,"lng":-81.85836,"zip":"29331","miles_from_dt":19.68},{"city":"Pomaria","state_name":"South Carolina","lat":34.32195,"lng":-81.41932,"zip":"29126","miles_from_dt":19.7},{"city":"Prosperity","state_name":"South Carolina","lat":34.16568,"lng":-81.51192,"zip":"29127","miles_from_dt":19.96},{"city":"Enoree","state_name":"South Carolina","lat":34.65714,"lng":-81.90035,"zip":"29335","miles_from_dt":21.37},{"city":"Ninety Six","state_name":"South Carolina","lat":34.12345,"lng":-81.99121,"zip":"29666","miles_from_dt":21.58},{"city":"Saluda","state_name":"South Carolina","lat":34.04491,"lng":-81.77152,"zip":"29138","miles_from_dt":22.43},{"city":"Greenwood","state_name":"South Carolina","lat":34.24354,"lng":-82.13825,"zip":"29649","miles_from_dt":23.38},{"city":"Union","state_name":"South Carolina","lat":34.68772,"lng":-81.60403,"zip":"29379","miles_from_dt":23.61},{"city":"Buffalo","state_name":"South Carolina","lat":34.71975,"lng":-81.74151,"zip":"29321","miles_from_dt":24.12},{"city":"Blair","state_name":"South Carolina","lat":34.4412,"lng":-81.33807,"zip":"29015","miles_from_dt":24.54},{"city":"Little Mountain","state_name":"South Carolina","lat":34.19985,"lng":-81.37581,"zip":"29075","miles_from_dt":24.86},{"city":"Carlisle","state_name":"South Carolina","lat":34.60624,"lng":-81.42665,"zip":"29031","miles_from_dt":24.99},{"city":"Greenwood","state_name":"South Carolina","lat":34.18975,"lng":-82.15384,"zip":"29647","miles_from_dt":25.79},{"city":"Greenwood","state_name":"South Carolina","lat":34.18915,"lng":-82.15613,"zip":"29648","miles_from_dt":25.92},{"city":"Gray Court","state_name":"South Carolina","lat":34.59453,"lng":-82.12375,"zip":"29645","miles_from_dt":25.94},{"city":"Peak","state_name":"South Carolina","lat":34.24015,"lng":-81.32532,"zip":"29122","miles_from_dt":26.37},{"city":"Ware Shoals","state_name":"South Carolina","lat":34.42142,"lng":-82.22208,"zip":"29692","miles_from_dt":26.7},{"city":"Jenkinsville","state_name":"South Carolina","lat":34.29495,"lng":-81.29239,"zip":"29065","miles_from_dt":27.18},{"city":"Greenwood","state_name":"South Carolina","lat":34.13995,"lng":-82.15032,"zip":"29646","miles_from_dt":27.45},{"city":"Hodges","state_name":"South Carolina","lat":34.30028,"lng":-82.23173,"zip":"29653","miles_from_dt":27.46},{"city":"Hodges","state_name":"South Carolina","lat":34.28745,"lng":-82.24521,"zip":"29695","miles_from_dt":28.38},{"city":"Pauline","state_name":"South Carolina","lat":34.7861,"lng":-81.84854,"zip":"29374","miles_from_dt":29.13},{"city":"Chapin","state_name":"South Carolina","lat":34.13396,"lng":-81.33622,"zip":"29036","miles_from_dt":29.16}],"targetCityZipCode":"29355","targetCityState":"South Carolina"},"__N_SSG":true}