{"pageProps":{"stateName":"South-carolina","cityName":"lake-city","nearbyCities":[{"city":"Cades","state_name":"South Carolina","lat":33.7892,"lng":-79.84851,"zip":"29518","miles_from_dt":6.63},{"city":"Scranton","state_name":"South Carolina","lat":33.93894,"lng":-79.759,"zip":"29591","miles_from_dt":7.17},{"city":"Coward","state_name":"South Carolina","lat":33.98984,"lng":-79.74222,"zip":"29530","miles_from_dt":10.65},{"city":"Kingstree","state_name":"South Carolina","lat":33.66849,"lng":-79.76403,"zip":"29556","miles_from_dt":11.54},{"city":"Olanta","state_name":"South Carolina","lat":33.95436,"lng":-79.93537,"zip":"29114","miles_from_dt":13.56},{"city":"Pamplico","state_name":"South Carolina","lat":33.9724,"lng":-79.57045,"zip":"29583","miles_from_dt":13.88},{"city":"Turbeville","state_name":"South Carolina","lat":33.88751,"lng":-80.00865,"zip":"29162","miles_from_dt":15.44},{"city":"New Zion","state_name":"South Carolina","lat":33.78648,"lng":-80.01433,"zip":"29111","miles_from_dt":15.72},{"city":"Effingham","state_name":"South Carolina","lat":34.0653,"lng":-79.74087,"zip":"29541","miles_from_dt":15.85},{"city":"Nesmith","state_name":"South Carolina","lat":33.65827,"lng":-79.56164,"zip":"29580","miles_from_dt":16.23},{"city":"Johnsonville","state_name":"South Carolina","lat":33.83864,"lng":-79.46191,"zip":"29555","miles_from_dt":16.43},{"city":"Sardinia","state_name":"South Carolina","lat":33.83662,"lng":-80.08072,"zip":"29143","miles_from_dt":19.17},{"city":"Salters","state_name":"South Carolina","lat":33.55892,"lng":-79.84784,"zip":"29590","miles_from_dt":19.91},{"city":"Florence","state_name":"South Carolina","lat":34.12348,"lng":-79.68974,"zip":"29505","miles_from_dt":20.13},{"city":"Greeleyville","state_name":"South Carolina","lat":33.60798,"lng":-79.99473,"zip":"29056","miles_from_dt":21.17},{"city":"Gable","state_name":"South Carolina","lat":33.8669,"lng":-80.12231,"zip":"29051","miles_from_dt":21.66},{"city":"Timmonsville","state_name":"South Carolina","lat":34.10532,"lng":-79.94143,"zip":"29161","miles_from_dt":21.69},{"city":"Hemingway","state_name":"South Carolina","lat":33.69879,"lng":-79.38816,"zip":"29554","miles_from_dt":22.72},{"city":"Lynchburg","state_name":"South Carolina","lat":34.01525,"lng":-80.08374,"zip":"29080","miles_from_dt":22.96},{"city":"Gresham","state_name":"South Carolina","lat":33.89001,"lng":-79.35151,"zip":"29546","miles_from_dt":23.08},{"city":"Florence","state_name":"South Carolina","lat":34.18424,"lng":-79.78254,"zip":"29504","miles_from_dt":24.13},{"city":"Alcolu","state_name":"South Carolina","lat":33.78528,"lng":-80.17338,"zip":"29001","miles_from_dt":24.75},{"city":"Florence","state_name":"South Carolina","lat":34.19232,"lng":-79.80372,"zip":"29503","miles_from_dt":24.81},{"city":"Florence","state_name":"South Carolina","lat":34.19517,"lng":-79.79222,"zip":"29502","miles_from_dt":24.93},{"city":"Lane","state_name":"South Carolina","lat":33.47686,"lng":-79.85522,"zip":"29564","miles_from_dt":25.48},{"city":"Centenary","state_name":"South Carolina","lat":34.01622,"lng":-79.36048,"zip":"29519","miles_from_dt":25.49},{"city":"Florence","state_name":"South Carolina","lat":34.20414,"lng":-79.82654,"zip":"29501","miles_from_dt":25.82},{"city":"Florence","state_name":"South Carolina","lat":34.2103,"lng":-79.64432,"zip":"29506","miles_from_dt":26.51},{"city":"Andrews","state_name":"South Carolina","lat":33.45326,"lng":-79.61068,"zip":"29510","miles_from_dt":27.49},{"city":"Marion","state_name":"South Carolina","lat":34.138,"lng":-79.42205,"zip":"29571","miles_from_dt":28},{"city":"Manning","state_name":"South Carolina","lat":33.6437,"lng":-80.19225,"zip":"29102","miles_from_dt":28.82},{"city":"Mayesville","state_name":"South Carolina","lat":33.99524,"lng":-80.21373,"zip":"29104","miles_from_dt":28.97}],"targetCityZipCode":"29560","targetCityState":"South Carolina"},"__N_SSG":true}