{"pageProps":{"stateName":"South-carolina","cityName":"parksville","nearbyCities":[{"city":"Plum Branch","state_name":"South Carolina","lat":33.8231,"lng":-82.20788,"zip":"29845","miles_from_dt":2.63},{"city":"Modoc","state_name":"South Carolina","lat":33.73452,"lng":-82.1667,"zip":"29838","miles_from_dt":4.44},{"city":"McCormick","state_name":"South Carolina","lat":33.92801,"lng":-82.25064,"zip":"29899","miles_from_dt":10.06},{"city":"McCormick","state_name":"South Carolina","lat":33.91779,"lng":-82.29559,"zip":"29835","miles_from_dt":10.26},{"city":"Clarks Hill","state_name":"South Carolina","lat":33.64242,"lng":-82.11667,"zip":"29821","miles_from_dt":11.34},{"city":"Edgefield","state_name":"South Carolina","lat":33.81647,"lng":-81.99666,"zip":"29824","miles_from_dt":12.7},{"city":"Lincolnton","state_name":"Georgia","lat":33.7746,"lng":-82.43469,"zip":"30817","miles_from_dt":12.71},{"city":"Appling","state_name":"Georgia","lat":33.60215,"lng":-82.31832,"zip":"30802","miles_from_dt":13.97},{"city":"Troy","state_name":"South Carolina","lat":33.99616,"lng":-82.18304,"zip":"29848","miles_from_dt":14.64},{"city":"Evans","state_name":"Georgia","lat":33.55522,"lng":-82.16357,"zip":"30809","miles_from_dt":16.12},{"city":"Bradley","state_name":"South Carolina","lat":34.04764,"lng":-82.22632,"zip":"29819","miles_from_dt":18.1},{"city":"North Augusta","state_name":"South Carolina","lat":33.60667,"lng":-81.97776,"zip":"29860","miles_from_dt":18.36},{"city":"Augusta","state_name":"Georgia","lat":33.52193,"lng":-82.08596,"zip":"30907","miles_from_dt":19.6},{"city":"Augusta","state_name":"Georgia","lat":33.51674,"lng":-82.05777,"zip":"30917","miles_from_dt":20.59},{"city":"Grovetown","state_name":"Georgia","lat":33.47037,"lng":-82.2193,"zip":"30813","miles_from_dt":21.71},{"city":"Trenton","state_name":"South Carolina","lat":33.69941,"lng":-81.84878,"zip":"29847","miles_from_dt":21.86},{"city":"Augusta","state_name":"Georgia","lat":33.47068,"lng":-82.08376,"zip":"30909","miles_from_dt":22.95},{"city":"Mount Carmel","state_name":"South Carolina","lat":33.99797,"lng":-82.52749,"zip":"29840","miles_from_dt":23.22},{"city":"Augusta","state_name":"Georgia","lat":33.47081,"lng":-82.06735,"zip":"30919","miles_from_dt":23.27},{"city":"North Augusta","state_name":"South Carolina","lat":33.51754,"lng":-81.95859,"zip":"29861","miles_from_dt":23.61},{"city":"Johnston","state_name":"South Carolina","lat":33.83922,"lng":-81.80656,"zip":"29832","miles_from_dt":23.74},{"city":"North Augusta","state_name":"South Carolina","lat":33.52508,"lng":-81.93954,"zip":"29841","miles_from_dt":23.92},{"city":"Augusta","state_name":"Georgia","lat":33.47864,"lng":-82.01315,"zip":"30904","miles_from_dt":24.1},{"city":"Augusta","state_name":"Georgia","lat":33.46703,"lng":-82.01743,"zip":"30914","miles_from_dt":24.69},{"city":"Greenwood","state_name":"South Carolina","lat":34.13995,"lng":-82.15032,"zip":"29646","miles_from_dt":24.72},{"city":"Boneville","state_name":"Georgia","lat":33.52663,"lng":-82.5134,"zip":"30806","miles_from_dt":24.8},{"city":"Harlem","state_name":"Georgia","lat":33.43604,"lng":-82.31879,"zip":"30814","miles_from_dt":24.81},{"city":"Graniteville","state_name":"South Carolina","lat":33.57715,"lng":-81.85537,"zip":"29829","miles_from_dt":25.16},{"city":"Augusta","state_name":"Georgia","lat":33.47021,"lng":-81.98789,"zip":"30912","miles_from_dt":25.33},{"city":"Thomson","state_name":"Georgia","lat":33.51586,"lng":-82.51467,"zip":"30824","miles_from_dt":25.39},{"city":"Augusta","state_name":"Georgia","lat":33.47273,"lng":-81.96775,"zip":"30903","miles_from_dt":25.8},{"city":"Augusta","state_name":"Georgia","lat":33.45618,"lng":-81.99184,"zip":"30999","miles_from_dt":26.05},{"city":"Augusta","state_name":"Georgia","lat":33.4087,"lng":-82.15073,"zip":"30905","miles_from_dt":26.21},{"city":"Vaucluse","state_name":"South Carolina","lat":33.60853,"lng":-81.80544,"zip":"29850","miles_from_dt":26.51},{"city":"Ninety Six","state_name":"South Carolina","lat":34.12345,"lng":-81.99121,"zip":"29666","miles_from_dt":26.59},{"city":"Clearwater","state_name":"South Carolina","lat":33.49771,"lng":-81.89357,"zip":"29822","miles_from_dt":27.1},{"city":"Augusta","state_name":"Georgia","lat":33.41973,"lng":-82.01913,"zip":"30916","miles_from_dt":27.59},{"city":"Bath","state_name":"South Carolina","lat":33.50105,"lng":-81.87164,"zip":"29816","miles_from_dt":27.81},{"city":"Greenwood","state_name":"South Carolina","lat":34.18915,"lng":-82.15613,"zip":"29648","miles_from_dt":28.04},{"city":"Greenwood","state_name":"South Carolina","lat":34.18975,"lng":-82.15384,"zip":"29647","miles_from_dt":28.09},{"city":"Augusta","state_name":"Georgia","lat":33.43811,"lng":-81.95327,"zip":"30901","miles_from_dt":28.26},{"city":"Langley","state_name":"South Carolina","lat":33.5178,"lng":-81.84216,"zip":"29834","miles_from_dt":28.28},{"city":"Gloverville","state_name":"South Carolina","lat":33.52299,"lng":-81.82891,"zip":"29828","miles_from_dt":28.63},{"city":"Tignall","state_name":"Georgia","lat":33.90835,"lng":-82.69486,"zip":"30668","miles_from_dt":28.91},{"city":"Calhoun Falls","state_name":"South Carolina","lat":34.09253,"lng":-82.55821,"zip":"29628","miles_from_dt":28.97},{"city":"Washington","state_name":"Georgia","lat":33.72716,"lng":-82.71594,"zip":"30673","miles_from_dt":29.16},{"city":"Warrenville","state_name":"South Carolina","lat":33.51098,"lng":-81.81597,"zip":"29851","miles_from_dt":29.74},{"city":"Dearing","state_name":"Georgia","lat":33.38234,"lng":-82.40237,"zip":"30808","miles_from_dt":29.82},{"city":"Ward","state_name":"South Carolina","lat":33.90102,"lng":-81.71304,"zip":"29166","miles_from_dt":29.91},{"city":"Abbeville","state_name":"South Carolina","lat":34.1813,"lng":-82.42804,"zip":"29620","miles_from_dt":29.93}],"targetCityZipCode":"29844","targetCityState":"South Carolina"},"__N_SSG":true}