{"pageProps":{"stateName":"Connecticut","cityName":"south-kent","nearbyCities":[{"city":"Kent","state_name":"Connecticut","lat":41.73951,"lng":-73.46637,"zip":"06757","miles_from_dt":2.8},{"city":"Gaylordsville","state_name":"Connecticut","lat":41.64915,"lng":-73.48143,"zip":"06755","miles_from_dt":4.45},{"city":"New Preston Marble Dale","state_name":"Connecticut","lat":41.69412,"lng":-73.33931,"zip":"06777","miles_from_dt":5.17},{"city":"Cornwall Bridge","state_name":"Connecticut","lat":41.76841,"lng":-73.36127,"zip":"06754","miles_from_dt":5.92},{"city":"Washington Depot","state_name":"Connecticut","lat":41.64932,"lng":-73.32511,"zip":"06794","miles_from_dt":6.99},{"city":"Wingdale","state_name":"New York","lat":41.66049,"lng":-73.56004,"zip":"12594","miles_from_dt":7.01},{"city":"New Milford","state_name":"Connecticut","lat":41.60011,"lng":-73.4162,"zip":"06776","miles_from_dt":7.32},{"city":"Dover Plains","state_name":"New York","lat":41.72693,"lng":-73.58893,"zip":"12522","miles_from_dt":7.94},{"city":"Wassaic","state_name":"New York","lat":41.78601,"lng":-73.5528,"zip":"12592","miles_from_dt":8.15},{"city":"Sherman","state_name":"Connecticut","lat":41.58018,"lng":-73.49853,"zip":"06784","miles_from_dt":9.16},{"city":"Bantam","state_name":"Connecticut","lat":41.72327,"lng":-73.2624,"zip":"06750","miles_from_dt":9.18},{"city":"Washington","state_name":"Connecticut","lat":41.63089,"lng":-73.28835,"zip":"06793","miles_from_dt":9.28},{"city":"Cornwall","state_name":"Connecticut","lat":41.82514,"lng":-73.34471,"zip":"06753","miles_from_dt":9.6},{"city":"Sharon","state_name":"Connecticut","lat":41.85392,"lng":-73.4448,"zip":"06069","miles_from_dt":10.29},{"city":"Lakeside","state_name":"Connecticut","lat":41.67672,"lng":-73.2286,"zip":"06758","miles_from_dt":11.01},{"city":"Pawling","state_name":"New York","lat":41.57827,"lng":-73.5862,"zip":"12564","miles_from_dt":11.62},{"city":"Morris","state_name":"Connecticut","lat":41.69027,"lng":-73.20714,"zip":"06763","miles_from_dt":11.99},{"city":"Litchfield","state_name":"Connecticut","lat":41.75757,"lng":-73.21544,"zip":"06759","miles_from_dt":12.07},{"city":"Amenia","state_name":"New York","lat":41.85664,"lng":-73.55953,"zip":"12501","miles_from_dt":12.21},{"city":"Bethlehem","state_name":"Connecticut","lat":41.63792,"lng":-73.2122,"zip":"06751","miles_from_dt":12.57},{"city":"Roxbury","state_name":"Connecticut","lat":41.55424,"lng":-73.29998,"zip":"06783","miles_from_dt":12.62},{"city":"West Cornwall","state_name":"Connecticut","lat":41.87595,"lng":-73.33255,"zip":"06796","miles_from_dt":13},{"city":"Poughquag","state_name":"New York","lat":41.62377,"lng":-73.66983,"zip":"12570","miles_from_dt":13.23},{"city":"Bridgewater","state_name":"Connecticut","lat":41.52082,"lng":-73.35965,"zip":"06752","miles_from_dt":13.34},{"city":"Millbrook","state_name":"New York","lat":41.7914,"lng":-73.67251,"zip":"12545","miles_from_dt":13.5},{"city":"Verbank","state_name":"New York","lat":41.72396,"lng":-73.7025,"zip":"12585","miles_from_dt":13.73},{"city":"Goshen","state_name":"Connecticut","lat":41.84714,"lng":-73.23715,"zip":"06756","miles_from_dt":14.29},{"city":"Lagrangeville","state_name":"New York","lat":41.67073,"lng":-73.72524,"zip":"12540","miles_from_dt":15.04},{"city":"New Fairfield","state_name":"Connecticut","lat":41.48796,"lng":-73.48827,"zip":"06812","miles_from_dt":15.2},{"city":"Woodbury","state_name":"Connecticut","lat":41.56149,"lng":-73.20703,"zip":"06798","miles_from_dt":15.53},{"city":"Patterson","state_name":"New York","lat":41.49417,"lng":-73.5891,"zip":"12563","miles_from_dt":16.51},{"city":"Brookfield","state_name":"Connecticut","lat":41.46731,"lng":-73.39232,"zip":"06804","miles_from_dt":16.57},{"city":"Holmes","state_name":"New York","lat":41.53689,"lng":-73.66917,"zip":"12531","miles_from_dt":16.66},{"city":"Lakeville","state_name":"Connecticut","lat":41.95001,"lng":-73.44379,"zip":"06039","miles_from_dt":16.92},{"city":"Billings","state_name":"New York","lat":41.67232,"lng":-73.76247,"zip":"12510","miles_from_dt":16.93},{"city":"Northfield","state_name":"Connecticut","lat":41.71469,"lng":-73.10459,"zip":"06778","miles_from_dt":17.26},{"city":"Watertown","state_name":"Connecticut","lat":41.61873,"lng":-73.12336,"zip":"06795","miles_from_dt":17.34},{"city":"Bangall","state_name":"New York","lat":41.87513,"lng":-73.69038,"zip":"12506","miles_from_dt":17.54},{"city":"Thomaston","state_name":"Connecticut","lat":41.67033,"lng":-73.08568,"zip":"06787","miles_from_dt":18.39},{"city":"Torrington","state_name":"Connecticut","lat":41.83747,"lng":-73.12874,"zip":"06790","miles_from_dt":18.42},{"city":"Falls Village","state_name":"Connecticut","lat":41.95788,"lng":-73.31733,"zip":"06031","miles_from_dt":18.54},{"city":"Stormville","state_name":"New York","lat":41.54693,"lng":-73.72919,"zip":"12582","miles_from_dt":18.6},{"city":"Pleasant Valley","state_name":"New York","lat":41.7346,"lng":-73.79731,"zip":"12569","miles_from_dt":18.68},{"city":"Millerton","state_name":"New York","lat":41.96627,"lng":-73.53313,"zip":"12546","miles_from_dt":18.69},{"city":"South Britain","state_name":"Connecticut","lat":41.46967,"lng":-73.25173,"zip":"06487","miles_from_dt":18.89},{"city":"Southbury","state_name":"Connecticut","lat":41.47451,"lng":-73.23288,"zip":"06488","miles_from_dt":19.13},{"city":"Stanfordville","state_name":"New York","lat":41.90625,"lng":-73.69374,"zip":"12581","miles_from_dt":19.16},{"city":"Hawleyville","state_name":"Connecticut","lat":41.43302,"lng":-73.35369,"zip":"06440","miles_from_dt":19.27},{"city":"Danbury","state_name":"Connecticut","lat":41.42427,"lng":-73.4821,"zip":"06811","miles_from_dt":19.5},{"city":"Salt Point","state_name":"New York","lat":41.80629,"lng":-73.79673,"zip":"12578","miles_from_dt":19.81},{"city":"Harwinton","state_name":"Connecticut","lat":41.75509,"lng":-73.05838,"zip":"06791","miles_from_dt":19.94},{"city":"Torrington","state_name":"Connecticut","lat":41.77,"lng":-73.06219,"zip":"06792","miles_from_dt":19.95},{"city":"Oakville","state_name":"Connecticut","lat":41.59562,"lng":-73.08058,"zip":"06779","miles_from_dt":19.99},{"city":"Waterbury","state_name":"Connecticut","lat":41.50498,"lng":-73.15243,"zip":"06749","miles_from_dt":20.23},{"city":"Clinton Corners","state_name":"New York","lat":41.87137,"lng":-73.76274,"zip":"12514","miles_from_dt":20.32},{"city":"Middlebury","state_name":"Connecticut","lat":41.5271,"lng":-73.1228,"zip":"06762","miles_from_dt":20.43},{"city":"Winchester Center","state_name":"Connecticut","lat":41.90188,"lng":-73.1423,"zip":"06094","miles_from_dt":20.45},{"city":"Plymouth","state_name":"Connecticut","lat":41.65448,"lng":-73.04731,"zip":"06782","miles_from_dt":20.52},{"city":"Hopewell Junction","state_name":"New York","lat":41.55925,"lng":-73.79401,"zip":"12533","miles_from_dt":20.99},{"city":"Pequabuck","state_name":"Connecticut","lat":41.67173,"lng":-73.03229,"zip":"06781","miles_from_dt":21.12},{"city":"Danbury","state_name":"Connecticut","lat":41.39777,"lng":-73.45523,"zip":"06813","miles_from_dt":21.21},{"city":"Salisbury","state_name":"Connecticut","lat":42.01404,"lng":-73.42121,"zip":"06068","miles_from_dt":21.35},{"city":"Brewster","state_name":"New York","lat":41.41205,"lng":-73.5937,"zip":"10509","miles_from_dt":21.76},{"city":"Waterbury","state_name":"Connecticut","lat":41.54939,"lng":-73.06738,"zip":"06708","miles_from_dt":22},{"city":"Waterbury","state_name":"Connecticut","lat":41.55985,"lng":-73.05903,"zip":"06721","miles_from_dt":22.03},{"city":"Terryville","state_name":"Connecticut","lat":41.66912,"lng":-73.01502,"zip":"06786","miles_from_dt":22.03},{"city":"Pine Plains","state_name":"New York","lat":41.98206,"lng":-73.65211,"zip":"12567","miles_from_dt":22.09},{"city":"Norfolk","state_name":"Connecticut","lat":41.97186,"lng":-73.1958,"zip":"06058","miles_from_dt":22.27},{"city":"Poughkeepsie","state_name":"New York","lat":41.67816,"lng":-73.86744,"zip":"12603","miles_from_dt":22.28},{"city":"Newtown","state_name":"Connecticut","lat":41.3943,"lng":-73.31918,"zip":"06470","miles_from_dt":22.31},{"city":"Waterbury","state_name":"Connecticut","lat":41.56958,"lng":-73.04598,"zip":"06710","miles_from_dt":22.35},{"city":"East Canaan","state_name":"Connecticut","lat":42.00812,"lng":-73.28374,"zip":"06024","miles_from_dt":22.39},{"city":"Waterbury","state_name":"Connecticut","lat":41.55876,"lng":-73.05218,"zip":"06701","miles_from_dt":22.39},{"city":"Waterbury","state_name":"Connecticut","lat":41.58601,"lng":-73.03296,"zip":"06704","miles_from_dt":22.52},{"city":"Carmel","state_name":"New York","lat":41.4483,"lng":-73.71054,"zip":"10512","miles_from_dt":22.65},{"city":"Danbury","state_name":"Connecticut","lat":41.37627,"lng":-73.45904,"zip":"06810","miles_from_dt":22.71},{"city":"Waterbury","state_name":"Connecticut","lat":41.55713,"lng":-73.04539,"zip":"06702","miles_from_dt":22.75},{"city":"Waterbury","state_name":"Connecticut","lat":41.55961,"lng":-73.04141,"zip":"06724","miles_from_dt":22.86},{"city":"Sandy Hook","state_name":"Connecticut","lat":41.4067,"lng":-73.24474,"zip":"06482","miles_from_dt":22.89},{"city":"Bethel","state_name":"Connecticut","lat":41.37468,"lng":-73.39275,"zip":"06801","miles_from_dt":22.91},{"city":"Waterbury","state_name":"Connecticut","lat":41.55703,"lng":-73.03805,"zip":"06720","miles_from_dt":23.09},{"city":"Waterbury","state_name":"Connecticut","lat":41.55647,"lng":-73.03858,"zip":"06722","miles_from_dt":23.09},{"city":"Winsted","state_name":"Connecticut","lat":41.92379,"lng":-73.10003,"zip":"06098","miles_from_dt":23.09},{"city":"Waterbury","state_name":"Connecticut","lat":41.55266,"lng":-73.04093,"zip":"06725","miles_from_dt":23.1},{"city":"Waterbury","state_name":"Connecticut","lat":41.55707,"lng":-73.03674,"zip":"06723","miles_from_dt":23.15},{"city":"Waterbury","state_name":"Connecticut","lat":41.55503,"lng":-73.03798,"zip":"06726","miles_from_dt":23.16},{"city":"Taconic","state_name":"Connecticut","lat":42.04174,"lng":-73.39755,"zip":"06079","miles_from_dt":23.34},{"city":"Canaan","state_name":"Connecticut","lat":42.02872,"lng":-73.29807,"zip":"06018","miles_from_dt":23.49},{"city":"Poughkeepsie","state_name":"New York","lat":41.68844,"lng":-73.89448,"zip":"12604","miles_from_dt":23.63},{"city":"Ancramdale","state_name":"New York","lat":42.03615,"lng":-73.58139,"zip":"12503","miles_from_dt":24.03},{"city":"Hyde Park","state_name":"New York","lat":41.79246,"lng":-73.89336,"zip":"12538","miles_from_dt":24.29},{"city":"New Hartford","state_name":"Connecticut","lat":41.84417,"lng":-73.00552,"zip":"06057","miles_from_dt":24.33},{"city":"Wappingers Falls","state_name":"New York","lat":41.59559,"lng":-73.88774,"zip":"12590","miles_from_dt":24.46},{"city":"Poughkeepsie","state_name":"New York","lat":41.70602,"lng":-73.91119,"zip":"12601","miles_from_dt":24.46},{"city":"Waterbury","state_name":"Connecticut","lat":41.53285,"lng":-73.02389,"zip":"06706","miles_from_dt":24.52},{"city":"Oxford","state_name":"Connecticut","lat":41.43133,"lng":-73.13499,"zip":"06478","miles_from_dt":24.56},{"city":"Staatsburg","state_name":"New York","lat":41.85348,"lng":-73.87302,"zip":"12580","miles_from_dt":24.69},{"city":"Naugatuck","state_name":"Connecticut","lat":41.48913,"lng":-73.05181,"zip":"06770","miles_from_dt":24.95},{"city":"Burlington","state_name":"Connecticut","lat":41.7598,"lng":-72.95895,"zip":"06013","miles_from_dt":25.06},{"city":"Wolcott","state_name":"Connecticut","lat":41.60102,"lng":-72.97325,"zip":"06716","miles_from_dt":25.11},{"city":"Poughkeepsie","state_name":"New York","lat":41.70623,"lng":-73.92854,"zip":"12602","miles_from_dt":25.36},{"city":"Waterbury","state_name":"Connecticut","lat":41.52891,"lng":-73.00787,"zip":"06703","miles_from_dt":25.38},{"city":"Ashley Falls","state_name":"Massachusetts","lat":42.06242,"lng":-73.32146,"zip":"01222","miles_from_dt":25.4},{"city":"Waterbury","state_name":"Connecticut","lat":41.549,"lng":-72.992,"zip":"06705","miles_from_dt":25.48},{"city":"Bristol","state_name":"Connecticut","lat":41.67746,"lng":-72.94628,"zip":"06011","miles_from_dt":25.51},{"city":"Bristol","state_name":"Connecticut","lat":41.681,"lng":-72.94065,"zip":"06010","miles_from_dt":25.79},{"city":"Stevenson","state_name":"Connecticut","lat":41.3814,"lng":-73.18774,"zip":"06491","miles_from_dt":25.83},{"city":"Botsford","state_name":"Connecticut","lat":41.36182,"lng":-73.21362,"zip":"06404","miles_from_dt":26.39},{"city":"Fishkill","state_name":"New York","lat":41.53092,"lng":-73.89245,"zip":"12524","miles_from_dt":26.41},{"city":"Redding Center","state_name":"Connecticut","lat":41.32404,"lng":-73.37014,"zip":"06875","miles_from_dt":26.52},{"city":"Hughsonville","state_name":"New York","lat":41.58315,"lng":-73.92722,"zip":"12537","miles_from_dt":26.68},{"city":"South Egremont","state_name":"Massachusetts","lat":42.09396,"lng":-73.46616,"zip":"01258","miles_from_dt":26.89},{"city":"Redding Ridge","state_name":"Connecticut","lat":41.31964,"lng":-73.35588,"zip":"06876","miles_from_dt":26.93},{"city":"Beacon Falls","state_name":"Connecticut","lat":41.43902,"lng":-73.05679,"zip":"06403","miles_from_dt":26.97},{"city":"Pine Meadow","state_name":"Connecticut","lat":41.87524,"lng":-72.96716,"zip":"06061","miles_from_dt":27.02},{"city":"North Salem","state_name":"New York","lat":41.33303,"lng":-73.60264,"zip":"10560","miles_from_dt":27.05},{"city":"Rhinebeck","state_name":"New York","lat":41.92548,"lng":-73.8717,"zip":"12572","miles_from_dt":27.07},{"city":"Croton Falls","state_name":"New York","lat":41.34701,"lng":-73.66196,"zip":"10519","miles_from_dt":27.29},{"city":"Sheffield","state_name":"Massachusetts","lat":42.0976,"lng":-73.37241,"zip":"01257","miles_from_dt":27.31},{"city":"Southfield","state_name":"Massachusetts","lat":42.07316,"lng":-73.23282,"zip":"01259","miles_from_dt":27.53},{"city":"Colebrook","state_name":"Connecticut","lat":42.00152,"lng":-73.08078,"zip":"06021","miles_from_dt":27.55},{"city":"Monroe","state_name":"Connecticut","lat":41.33791,"lng":-73.22499,"zip":"06468","miles_from_dt":27.64},{"city":"Ridgefield","state_name":"Connecticut","lat":41.30642,"lng":-73.50216,"zip":"06877","miles_from_dt":27.7},{"city":"Redding","state_name":"Connecticut","lat":41.3051,"lng":-73.39139,"zip":"06896","miles_from_dt":27.7},{"city":"Mahopac","state_name":"New York","lat":41.37855,"lng":-73.75122,"zip":"10541","miles_from_dt":27.76},{"city":"Prospect","state_name":"Connecticut","lat":41.49927,"lng":-72.97609,"zip":"06712","miles_from_dt":27.83},{"city":"Marion","state_name":"Connecticut","lat":41.5634,"lng":-72.93038,"zip":"06444","miles_from_dt":28.05},{"city":"West Park","state_name":"New York","lat":41.79316,"lng":-73.97283,"zip":"12493","miles_from_dt":28.3},{"city":"Red Hook","state_name":"New York","lat":42.00663,"lng":-73.81152,"zip":"12571","miles_from_dt":28.37},{"city":"Ancram","state_name":"New York","lat":42.08324,"lng":-73.65409,"zip":"12502","miles_from_dt":28.39},{"city":"Copake","state_name":"New York","lat":42.10722,"lng":-73.55343,"zip":"12516","miles_from_dt":28.4},{"city":"Milton","state_name":"New York","lat":41.65463,"lng":-73.98322,"zip":"12547","miles_from_dt":28.41},{"city":"Esopus","state_name":"New York","lat":41.83323,"lng":-73.961,"zip":"12429","miles_from_dt":28.43},{"city":"Unionville","state_name":"Connecticut","lat":41.74717,"lng":-72.88883,"zip":"06085","miles_from_dt":28.55},{"city":"Mahopac Falls","state_name":"New York","lat":41.37115,"lng":-73.76436,"zip":"10542","miles_from_dt":28.58},{"city":"Collinsville","state_name":"Connecticut","lat":41.86595,"lng":-72.92749,"zip":"06022","miles_from_dt":28.62},{"city":"Barkhamsted","state_name":"Connecticut","lat":41.93053,"lng":-72.97096,"zip":"06063","miles_from_dt":28.71},{"city":"Seymour","state_name":"Connecticut","lat":41.381,"lng":-73.08726,"zip":"06483","miles_from_dt":28.82},{"city":"Glenham","state_name":"New York","lat":41.51931,"lng":-73.93703,"zip":"12527","miles_from_dt":28.84},{"city":"Somers","state_name":"New York","lat":41.33178,"lng":-73.6933,"zip":"10589","miles_from_dt":28.95},{"city":"Plantsville","state_name":"Connecticut","lat":41.57799,"lng":-72.90398,"zip":"06479","miles_from_dt":29.01},{"city":"Mill River","state_name":"Massachusetts","lat":42.10924,"lng":-73.27475,"zip":"01244","miles_from_dt":29.15},{"city":"Chelsea","state_name":"New York","lat":41.5542,"lng":-73.96471,"zip":"12512","miles_from_dt":29.18},{"city":"Farmington","state_name":"Connecticut","lat":41.70891,"lng":-72.87348,"zip":"06034","miles_from_dt":29.2},{"city":"Highland","state_name":"New York","lat":41.72273,"lng":-74.00477,"zip":"12528","miles_from_dt":29.33},{"city":"Purdys","state_name":"New York","lat":41.31815,"lng":-73.673,"zip":"10578","miles_from_dt":29.34},{"city":"Canton Center","state_name":"Connecticut","lat":41.86283,"lng":-72.90991,"zip":"06020","miles_from_dt":29.38},{"city":"Riverton","state_name":"Connecticut","lat":41.97795,"lng":-73.00054,"zip":"06065","miles_from_dt":29.41},{"city":"Canton","state_name":"Connecticut","lat":41.8592,"lng":-72.90717,"zip":"06019","miles_from_dt":29.42},{"city":"Milldale","state_name":"Connecticut","lat":41.56548,"lng":-72.90022,"zip":"06467","miles_from_dt":29.47},{"city":"Waccabuc","state_name":"New York","lat":41.29423,"lng":-73.59703,"zip":"10597","miles_from_dt":29.52},{"city":"Putnam Valley","state_name":"New York","lat":41.39651,"lng":-73.83384,"zip":"10579","miles_from_dt":29.56},{"city":"Cold Spring","state_name":"New York","lat":41.45342,"lng":-73.90233,"zip":"10516","miles_from_dt":29.66},{"city":"Marlboro","state_name":"New York","lat":41.60772,"lng":-73.99666,"zip":"12542","miles_from_dt":29.67},{"city":"Baldwin Place","state_name":"New York","lat":41.34207,"lng":-73.74791,"zip":"10505","miles_from_dt":29.75},{"city":"Castle Point","state_name":"New York","lat":41.52822,"lng":-73.96344,"zip":"12511","miles_from_dt":29.81},{"city":"Copake Falls","state_name":"New York","lat":42.13392,"lng":-73.51103,"zip":"12517","miles_from_dt":29.85},{"city":"Plainville","state_name":"Connecticut","lat":41.67338,"lng":-72.86079,"zip":"06062","miles_from_dt":29.95},{"city":"Southington","state_name":"Connecticut","lat":41.61312,"lng":-72.87233,"zip":"06489","miles_from_dt":29.96},{"city":"Ridgefield","state_name":"Connecticut","lat":41.27254,"lng":-73.49702,"zip":"06879","miles_from_dt":29.99}],"targetCityZipCode":"06785","targetCityState":"Connecticut"},"__N_SSG":true}