{"pageProps":{"stateName":"New-hampshire","cityName":"auburn","nearbyCities":[{"city":"Manchester","state_name":"New Hampshire","lat":42.96594,"lng":-71.40167,"zip":"03109","miles_from_dt":3.39},{"city":"Manchester","state_name":"New Hampshire","lat":42.96766,"lng":-71.41748,"zip":"03105","miles_from_dt":4.06},{"city":"Chester","state_name":"New Hampshire","lat":42.96719,"lng":-71.25083,"zip":"03036","miles_from_dt":4.98},{"city":"Manchester","state_name":"New Hampshire","lat":43.00926,"lng":-71.4411,"zip":"03104","miles_from_dt":5.09},{"city":"Candia","state_name":"New Hampshire","lat":43.06269,"lng":-71.31106,"zip":"03034","miles_from_dt":5.24},{"city":"Manchester","state_name":"New Hampshire","lat":42.95536,"lng":-71.44463,"zip":"03103","miles_from_dt":5.66},{"city":"Manchester","state_name":"New Hampshire","lat":42.94621,"lng":-71.43905,"zip":"03108","miles_from_dt":5.72},{"city":"East Candia","state_name":"New Hampshire","lat":43.04548,"lng":-71.24706,"zip":"03040","miles_from_dt":6.19},{"city":"Manchester","state_name":"New Hampshire","lat":42.98881,"lng":-71.4659,"zip":"03101","miles_from_dt":6.19},{"city":"Manchester","state_name":"New Hampshire","lat":42.93782,"lng":-71.45382,"zip":"03111","miles_from_dt":6.66},{"city":"Hooksett","state_name":"New Hampshire","lat":43.07097,"lng":-71.43651,"zip":"03106","miles_from_dt":7.27},{"city":"East Derry","state_name":"New Hampshire","lat":42.88964,"lng":-71.29713,"zip":"03041","miles_from_dt":7.36},{"city":"Manchester","state_name":"New Hampshire","lat":43.00797,"lng":-71.49134,"zip":"03102","miles_from_dt":7.57},{"city":"Derry","state_name":"New Hampshire","lat":42.88867,"lng":-71.27932,"zip":"03038","miles_from_dt":7.76},{"city":"Raymond","state_name":"New Hampshire","lat":43.03219,"lng":-71.19945,"zip":"03077","miles_from_dt":7.86},{"city":"Londonderry","state_name":"New Hampshire","lat":42.87927,"lng":-71.38702,"zip":"03053","miles_from_dt":7.99},{"city":"Sandown","state_name":"New Hampshire","lat":42.93321,"lng":-71.1833,"zip":"03873","miles_from_dt":9.05},{"city":"Bedford","state_name":"New Hampshire","lat":42.94065,"lng":-71.53023,"zip":"03110","miles_from_dt":10.06},{"city":"Fremont","state_name":"New Hampshire","lat":42.98899,"lng":-71.12494,"zip":"03044","miles_from_dt":11.09},{"city":"Deerfield","state_name":"New Hampshire","lat":43.1395,"lng":-71.2535,"zip":"03037","miles_from_dt":11.25},{"city":"Hampstead","state_name":"New Hampshire","lat":42.88148,"lng":-71.17856,"zip":"03841","miles_from_dt":11.27},{"city":"Litchfield","state_name":"New Hampshire","lat":42.84302,"lng":-71.455,"zip":"03052","miles_from_dt":11.65},{"city":"Goffstown","state_name":"New Hampshire","lat":43.01994,"lng":-71.57035,"zip":"03045","miles_from_dt":11.65},{"city":"Danville","state_name":"New Hampshire","lat":42.93012,"lng":-71.12197,"zip":"03819","miles_from_dt":12},{"city":"Suncook","state_name":"New Hampshire","lat":43.15999,"lng":-71.41794,"zip":"03275","miles_from_dt":12.28},{"city":"North Salem","state_name":"New Hampshire","lat":42.83502,"lng":-71.22425,"zip":"03073","miles_from_dt":12.34},{"city":"Windham","state_name":"New Hampshire","lat":42.80758,"lng":-71.29945,"zip":"03087","miles_from_dt":12.83},{"city":"Merrimack","state_name":"New Hampshire","lat":42.85471,"lng":-71.51878,"zip":"03054","miles_from_dt":12.92},{"city":"East Hampstead","state_name":"New Hampshire","lat":42.88878,"lng":-71.12881,"zip":"03826","miles_from_dt":12.98},{"city":"Bow","state_name":"New Hampshire","lat":43.13078,"lng":-71.53066,"zip":"03304","miles_from_dt":13.53},{"city":"Atkinson","state_name":"New Hampshire","lat":42.83693,"lng":-71.16042,"zip":"03811","miles_from_dt":14.11},{"city":"Epping","state_name":"New Hampshire","lat":43.05009,"lng":-71.07467,"zip":"03042","miles_from_dt":14.24},{"city":"Nottingham","state_name":"New Hampshire","lat":43.12391,"lng":-71.12089,"zip":"03290","miles_from_dt":14.56},{"city":"Kingston","state_name":"New Hampshire","lat":42.91562,"lng":-71.06647,"zip":"03848","miles_from_dt":14.99},{"city":"Salem","state_name":"New Hampshire","lat":42.79023,"lng":-71.22024,"zip":"03079","miles_from_dt":15.19},{"city":"Dunbarton","state_name":"New Hampshire","lat":43.10178,"lng":-71.60548,"zip":"03046","miles_from_dt":15.31},{"city":"Epsom","state_name":"New Hampshire","lat":43.21484,"lng":-71.33914,"zip":"03234","miles_from_dt":15.48},{"city":"Amherst","state_name":"New Hampshire","lat":42.87056,"lng":-71.60683,"zip":"03031","miles_from_dt":15.71},{"city":"Hudson","state_name":"New Hampshire","lat":42.76394,"lng":-71.40716,"zip":"03051","miles_from_dt":15.97},{"city":"Nashua","state_name":"New Hampshire","lat":42.77886,"lng":-71.47466,"zip":"03064","miles_from_dt":16.06},{"city":"Plaistow","state_name":"New Hampshire","lat":42.84032,"lng":-71.09603,"zip":"03865","miles_from_dt":16.3},{"city":"Newton Junction","state_name":"New Hampshire","lat":42.86721,"lng":-71.06599,"zip":"03859","miles_from_dt":16.47},{"city":"West Nottingham","state_name":"New Hampshire","lat":43.17976,"lng":-71.14205,"zip":"03291","miles_from_dt":16.57},{"city":"Northwood","state_name":"New Hampshire","lat":43.21322,"lng":-71.20966,"zip":"03261","miles_from_dt":16.8},{"city":"Nashua","state_name":"New Hampshire","lat":42.7795,"lng":-71.51939,"zip":"03063","miles_from_dt":17.08},{"city":"New Boston","state_name":"New Hampshire","lat":42.97702,"lng":-71.68664,"zip":"03070","miles_from_dt":17.4},{"city":"Newton","state_name":"New Hampshire","lat":42.86839,"lng":-71.04357,"zip":"03858","miles_from_dt":17.41},{"city":"Haverhill","state_name":"Massachusetts","lat":42.79099,"lng":-71.13133,"zip":"01832","miles_from_dt":17.5},{"city":"Pelham","state_name":"New Hampshire","lat":42.73354,"lng":-71.324,"zip":"03076","miles_from_dt":17.77},{"city":"Concord","state_name":"New Hampshire","lat":43.20612,"lng":-71.53906,"zip":"03305","miles_from_dt":17.86},{"city":"Exeter","state_name":"New Hampshire","lat":42.97464,"lng":-70.98885,"zip":"03833","miles_from_dt":18.02},{"city":"Nashua","state_name":"New Hampshire","lat":42.74135,"lng":-71.45936,"zip":"03060","miles_from_dt":18.18},{"city":"Mont Vernon","state_name":"New Hampshire","lat":42.90265,"lng":-71.6861,"zip":"03057","miles_from_dt":18.39},{"city":"Nashua","state_name":"New Hampshire","lat":42.74654,"lng":-71.493,"zip":"03061","miles_from_dt":18.47},{"city":"Chichester","state_name":"New Hampshire","lat":43.25744,"lng":-71.39956,"zip":"03258","miles_from_dt":18.63},{"city":"East Kingston","state_name":"New Hampshire","lat":42.90691,"lng":-70.98774,"zip":"03827","miles_from_dt":18.96},{"city":"Concord","state_name":"New Hampshire","lat":43.22423,"lng":-71.54342,"zip":"03301","miles_from_dt":19.02},{"city":"Lee","state_name":"New Hampshire","lat":43.11931,"lng":-71.0068,"zip":"03861","miles_from_dt":19.24},{"city":"Haverhill","state_name":"Massachusetts","lat":42.78576,"lng":-71.08467,"zip":"01831","miles_from_dt":19.31},{"city":"Methuen","state_name":"Massachusetts","lat":42.73426,"lng":-71.18858,"zip":"01844","miles_from_dt":19.37},{"city":"Newfields","state_name":"New Hampshire","lat":43.03916,"lng":-70.96627,"zip":"03856","miles_from_dt":19.42},{"city":"Merrimac","state_name":"Massachusetts","lat":42.83858,"lng":-71.01194,"zip":"01860","miles_from_dt":19.84},{"city":"Haverhill","state_name":"Massachusetts","lat":42.7959,"lng":-71.05323,"zip":"01830","miles_from_dt":19.96},{"city":"Concord","state_name":"New Hampshire","lat":43.23387,"lng":-71.55967,"zip":"03302","miles_from_dt":20.03},{"city":"Nashua","state_name":"New Hampshire","lat":42.72212,"lng":-71.49556,"zip":"03062","miles_from_dt":20.07},{"city":"Weare","state_name":"New Hampshire","lat":43.08126,"lng":-71.72189,"zip":"03281","miles_from_dt":20.14},{"city":"Milford","state_name":"New Hampshire","lat":42.81783,"lng":-71.67361,"zip":"03055","miles_from_dt":20.55},{"city":"Newmarket","state_name":"New Hampshire","lat":43.0691,"lng":-70.95164,"zip":"03857","miles_from_dt":20.59},{"city":"Hollis","state_name":"New Hampshire","lat":42.7494,"lng":-71.58338,"zip":"03049","miles_from_dt":20.62},{"city":"Haverhill","state_name":"Massachusetts","lat":42.75292,"lng":-71.08602,"zip":"01835","miles_from_dt":20.99},{"city":"Pittsfield","state_name":"New Hampshire","lat":43.29483,"lng":-71.31133,"zip":"03263","miles_from_dt":21.06},{"city":"Dracut","state_name":"Massachusetts","lat":42.68323,"lng":-71.30063,"zip":"01826","miles_from_dt":21.33},{"city":"Lawrence","state_name":"Massachusetts","lat":42.71077,"lng":-71.16494,"zip":"01841","miles_from_dt":21.35},{"city":"Barrington","state_name":"New Hampshire","lat":43.21366,"lng":-71.04227,"zip":"03825","miles_from_dt":21.67},{"city":"Lawrence","state_name":"Massachusetts","lat":42.70695,"lng":-71.16014,"zip":"01840","miles_from_dt":21.69},{"city":"Lawrence","state_name":"Massachusetts","lat":42.70548,"lng":-71.15997,"zip":"01842","miles_from_dt":21.79},{"city":"Center Strafford","state_name":"New Hampshire","lat":43.25826,"lng":-71.11509,"zip":"03815","miles_from_dt":21.8},{"city":"Strafford","state_name":"New Hampshire","lat":43.28018,"lng":-71.14885,"zip":"03884","miles_from_dt":22.29},{"city":"Amesbury","state_name":"Massachusetts","lat":42.85297,"lng":-70.94459,"zip":"01913","miles_from_dt":22.37},{"city":"Stratham","state_name":"New Hampshire","lat":43.01579,"lng":-70.90051,"zip":"03885","miles_from_dt":22.53},{"city":"Lyndeborough","state_name":"New Hampshire","lat":42.90197,"lng":-71.77545,"zip":"03082","miles_from_dt":22.73},{"city":"Lawrence","state_name":"Massachusetts","lat":42.68985,"lng":-71.16095,"zip":"01843","miles_from_dt":22.75},{"city":"Tyngsboro","state_name":"Massachusetts","lat":42.66626,"lng":-71.42911,"zip":"01879","miles_from_dt":22.81},{"city":"Contoocook","state_name":"New Hampshire","lat":43.19792,"lng":-71.69677,"zip":"03229","miles_from_dt":22.88},{"city":"Lowell","state_name":"Massachusetts","lat":42.65859,"lng":-71.30522,"zip":"01853","miles_from_dt":23},{"city":"Dunstable","state_name":"Massachusetts","lat":42.67643,"lng":-71.50052,"zip":"01827","miles_from_dt":23.1},{"city":"Durham","state_name":"New Hampshire","lat":43.11744,"lng":-70.91937,"zip":"03824","miles_from_dt":23.2},{"city":"Lowell","state_name":"Massachusetts","lat":42.65569,"lng":-71.30292,"zip":"01850","miles_from_dt":23.21},{"city":"West Newbury","state_name":"Massachusetts","lat":42.7939,"lng":-70.96906,"zip":"01985","miles_from_dt":23.37},{"city":"Loudon","state_name":"New Hampshire","lat":43.32257,"lng":-71.44265,"zip":"03307","miles_from_dt":23.45},{"city":"Groveland","state_name":"Massachusetts","lat":42.75198,"lng":-71.01486,"zip":"01834","miles_from_dt":23.46},{"city":"Lowell","state_name":"Massachusetts","lat":42.64939,"lng":-71.34827,"zip":"01854","miles_from_dt":23.56},{"city":"Hampton Falls","state_name":"New Hampshire","lat":42.92693,"lng":-70.88603,"zip":"03844","miles_from_dt":23.62},{"city":"Brookline","state_name":"New Hampshire","lat":42.74643,"lng":-71.67054,"zip":"03033","miles_from_dt":23.65},{"city":"Francestown","state_name":"New Hampshire","lat":42.99581,"lng":-71.81514,"zip":"03043","miles_from_dt":23.89},{"city":"Barnstead","state_name":"New Hampshire","lat":43.33465,"lng":-71.28803,"zip":"03218","miles_from_dt":23.92},{"city":"Madbury","state_name":"New Hampshire","lat":43.17488,"lng":-70.94089,"zip":"03823","miles_from_dt":24.03},{"city":"West Boxford","state_name":"Massachusetts","lat":42.70948,"lng":-71.05848,"zip":"01885","miles_from_dt":24.22},{"city":"Wilton","state_name":"New Hampshire","lat":42.82741,"lng":-71.76967,"zip":"03086","miles_from_dt":24.37},{"city":"Andover","state_name":"Massachusetts","lat":42.65227,"lng":-71.1835,"zip":"05501","miles_from_dt":24.74},{"city":"North Chelmsford","state_name":"Massachusetts","lat":42.63274,"lng":-71.39132,"zip":"01863","miles_from_dt":24.82},{"city":"Andover","state_name":"Massachusetts","lat":42.65037,"lng":-71.18456,"zip":"01899","miles_from_dt":24.84},{"city":"Lowell","state_name":"Massachusetts","lat":42.63231,"lng":-71.29538,"zip":"01852","miles_from_dt":24.86},{"city":"Lowell","state_name":"Massachusetts","lat":42.62915,"lng":-71.33674,"zip":"01851","miles_from_dt":24.95},{"city":"Andover","state_name":"Massachusetts","lat":42.64859,"lng":-71.18254,"zip":"01812","miles_from_dt":24.99},{"city":"Greenland","state_name":"New Hampshire","lat":43.03853,"lng":-70.84803,"zip":"03840","miles_from_dt":25.33},{"city":"Andover","state_name":"Massachusetts","lat":42.64669,"lng":-71.16517,"zip":"01810","miles_from_dt":25.42},{"city":"Seabrook","state_name":"New Hampshire","lat":42.88689,"lng":-70.8607,"zip":"03874","miles_from_dt":25.53},{"city":"North Andover","state_name":"Massachusetts","lat":42.67132,"lng":-71.08669,"zip":"01845","miles_from_dt":25.62},{"city":"Pepperell","state_name":"Massachusetts","lat":42.67126,"lng":-71.60429,"zip":"01463","miles_from_dt":25.71},{"city":"Hampton","state_name":"New Hampshire","lat":42.93941,"lng":-70.83697,"zip":"03842","miles_from_dt":25.94},{"city":"Georgetown","state_name":"Massachusetts","lat":42.72409,"lng":-70.9821,"zip":"01833","miles_from_dt":26},{"city":"North Hampton","state_name":"New Hampshire","lat":42.97914,"lng":-70.83025,"zip":"03862","miles_from_dt":26.04},{"city":"Center Barnstead","state_name":"New Hampshire","lat":43.36001,"lng":-71.23828,"zip":"03225","miles_from_dt":26.05},{"city":"Dover","state_name":"New Hampshire","lat":43.18875,"lng":-70.90283,"zip":"03821","miles_from_dt":26.17},{"city":"Rochester","state_name":"New Hampshire","lat":43.26256,"lng":-70.98254,"zip":"03839","miles_from_dt":26.19},{"city":"Newburyport","state_name":"Massachusetts","lat":42.81237,"lng":-70.88785,"zip":"01950","miles_from_dt":26.21},{"city":"Salisbury","state_name":"Massachusetts","lat":42.84655,"lng":-70.86163,"zip":"01952","miles_from_dt":26.41},{"city":"Hampton","state_name":"New Hampshire","lat":42.94099,"lng":-70.82507,"zip":"03843","miles_from_dt":26.52},{"city":"Tewksbury","state_name":"Massachusetts","lat":42.61206,"lng":-71.22733,"zip":"01876","miles_from_dt":26.79},{"city":"Byfield","state_name":"Massachusetts","lat":42.75862,"lng":-70.91758,"zip":"01922","miles_from_dt":26.92},{"city":"Greenfield","state_name":"New Hampshire","lat":42.94029,"lng":-71.87053,"zip":"03047","miles_from_dt":26.93},{"city":"Concord","state_name":"New Hampshire","lat":43.29819,"lng":-71.67186,"zip":"03303","miles_from_dt":26.94},{"city":"Canterbury","state_name":"New Hampshire","lat":43.35171,"lng":-71.54691,"zip":"03224","miles_from_dt":26.96},{"city":"Boxford","state_name":"Massachusetts","lat":42.6815,"lng":-71.01887,"zip":"01921","miles_from_dt":26.98},{"city":"Dover","state_name":"New Hampshire","lat":43.18933,"lng":-70.88428,"zip":"03820","miles_from_dt":26.99},{"city":"Greenville","state_name":"New Hampshire","lat":42.74668,"lng":-71.76268,"zip":"03048","miles_from_dt":27.13},{"city":"Henniker","state_name":"New Hampshire","lat":43.17365,"lng":-71.8224,"zip":"03242","miles_from_dt":27.31},{"city":"Chelmsford","state_name":"Massachusetts","lat":42.59156,"lng":-71.35553,"zip":"01824","miles_from_dt":27.55},{"city":"Portsmouth","state_name":"New Hampshire","lat":43.07293,"lng":-70.8052,"zip":"03801","miles_from_dt":27.86},{"city":"Portsmouth","state_name":"New Hampshire","lat":43.06776,"lng":-70.80053,"zip":"03803","miles_from_dt":28.02},{"city":"Rochester","state_name":"New Hampshire","lat":43.3031,"lng":-70.98891,"zip":"03867","miles_from_dt":28.06},{"city":"Temple","state_name":"New Hampshire","lat":42.82856,"lng":-71.85495,"zip":"03084","miles_from_dt":28.24},{"city":"Groton","state_name":"Massachusetts","lat":42.61368,"lng":-71.56139,"zip":"01450","miles_from_dt":28.27},{"city":"Rochester","state_name":"New Hampshire","lat":43.30101,"lng":-70.97734,"zip":"03866","miles_from_dt":28.32},{"city":"Westford","state_name":"Massachusetts","lat":42.58642,"lng":-71.44008,"zip":"01886","miles_from_dt":28.33},{"city":"Townsend","state_name":"Massachusetts","lat":42.66514,"lng":-71.69161,"zip":"01469","miles_from_dt":28.58},{"city":"Bennington","state_name":"New Hampshire","lat":43.01268,"lng":-71.90781,"zip":"03442","miles_from_dt":28.61},{"city":"North Billerica","state_name":"Massachusetts","lat":42.57427,"lng":-71.29437,"zip":"01862","miles_from_dt":28.85},{"city":"Groton","state_name":"Massachusetts","lat":42.60785,"lng":-71.57233,"zip":"01471","miles_from_dt":28.86},{"city":"Rye Beach","state_name":"New Hampshire","lat":42.9807,"lng":-70.77358,"zip":"03871","miles_from_dt":28.91},{"city":"Newbury","state_name":"Massachusetts","lat":42.77742,"lng":-70.85022,"zip":"01951","miles_from_dt":29.06},{"city":"Farmington","state_name":"New Hampshire","lat":43.36319,"lng":-71.07605,"zip":"03835","miles_from_dt":29.06},{"city":"Somersworth","state_name":"New Hampshire","lat":43.25335,"lng":-70.88555,"zip":"03878","miles_from_dt":29.43},{"city":"Rye","state_name":"New Hampshire","lat":43.0157,"lng":-70.76052,"zip":"03870","miles_from_dt":29.6},{"city":"Rowley","state_name":"Massachusetts","lat":42.72235,"lng":-70.88832,"zip":"01969","miles_from_dt":29.63},{"city":"Gilmanton Iron Works","state_name":"New Hampshire","lat":43.42271,"lng":-71.32766,"zip":"03837","miles_from_dt":29.84},{"city":"Dover","state_name":"New Hampshire","lat":43.21818,"lng":-70.84109,"zip":"03822","miles_from_dt":29.89}],"targetCityZipCode":"03032","targetCityState":"New Hampshire"},"__N_SSG":true}