{"pageProps":{"stateName":"New-hampshire","cityName":"randolph","nearbyCities":[{"city":"Bretton Woods","state_name":"New Hampshire","lat":44.28946,"lng":-71.41722,"zip":"03575","miles_from_dt":4.97},{"city":"Gorham","state_name":"New Hampshire","lat":44.34227,"lng":-71.13413,"zip":"03581","miles_from_dt":9.6},{"city":"Jefferson","state_name":"New Hampshire","lat":44.40148,"lng":-71.4583,"zip":"03583","miles_from_dt":9.97},{"city":"Jackson","state_name":"New Hampshire","lat":44.18445,"lng":-71.18899,"zip":"03846","miles_from_dt":10.12},{"city":"Twin Mountain","state_name":"New Hampshire","lat":44.30616,"lng":-71.527,"zip":"03595","miles_from_dt":10.39},{"city":"Mount Washington","state_name":"New Hampshire","lat":44.34785,"lng":-71.55185,"zip":"03589","miles_from_dt":12.1},{"city":"Glen","state_name":"New Hampshire","lat":44.11257,"lng":-71.24036,"zip":"03838","miles_from_dt":13.38},{"city":"Bethlehem","state_name":"New Hampshire","lat":44.25386,"lng":-71.59924,"zip":"03574","miles_from_dt":14.3},{"city":"Berlin","state_name":"New Hampshire","lat":44.49953,"lng":-71.20396,"zip":"03570","miles_from_dt":15},{"city":"Bartlett","state_name":"New Hampshire","lat":44.08148,"lng":-71.29643,"zip":"03812","miles_from_dt":15},{"city":"Intervale","state_name":"New Hampshire","lat":44.10317,"lng":-71.1271,"zip":"03845","miles_from_dt":16.46},{"city":"Whitefield","state_name":"New Hampshire","lat":44.37998,"lng":-71.63179,"zip":"03598","miles_from_dt":16.56},{"city":"Lancaster","state_name":"New Hampshire","lat":44.48696,"lng":-71.54278,"zip":"03584","miles_from_dt":17.15},{"city":"Kearsarge","state_name":"New Hampshire","lat":44.06875,"lng":-71.12162,"zip":"03847","miles_from_dt":18.6},{"city":"Center Conway","state_name":"New Hampshire","lat":44.09408,"lng":-71.04573,"zip":"03813","miles_from_dt":19.52},{"city":"Waterville Valley","state_name":"New Hampshire","lat":44.03605,"lng":-71.48109,"zip":"03215","miles_from_dt":19.83},{"city":"North Conway","state_name":"New Hampshire","lat":44.0427,"lng":-71.12422,"zip":"03860","miles_from_dt":20.09},{"city":"Franconia","state_name":"New Hampshire","lat":44.17347,"lng":-71.69519,"zip":"03580","miles_from_dt":20.62},{"city":"Gilman","state_name":"Vermont","lat":44.41597,"lng":-71.70762,"zip":"05904","miles_from_dt":20.96},{"city":"Stoneham","state_name":"Maine","lat":44.26438,"lng":-70.88777,"zip":"04231","miles_from_dt":21.45},{"city":"Groveton","state_name":"New Hampshire","lat":44.59777,"lng":-71.43703,"zip":"03582","miles_from_dt":21.51},{"city":"Milan","state_name":"New Hampshire","lat":44.60545,"lng":-71.23204,"zip":"03588","miles_from_dt":21.64},{"city":"Lincoln","state_name":"New Hampshire","lat":44.0796,"lng":-71.65276,"zip":"03251","miles_from_dt":22.47},{"city":"Conway","state_name":"New Hampshire","lat":43.97302,"lng":-71.25261,"zip":"03818","miles_from_dt":22.68},{"city":"Lovell","state_name":"Maine","lat":44.18945,"lng":-70.88477,"zip":"04051","miles_from_dt":22.76},{"city":"Lunenburg","state_name":"Vermont","lat":44.47431,"lng":-71.71538,"zip":"05906","miles_from_dt":23.14},{"city":"Fryeburg","state_name":"Maine","lat":44.09129,"lng":-70.94942,"zip":"04037","miles_from_dt":23.21},{"city":"Center Lovell","state_name":"Maine","lat":44.17235,"lng":-70.87315,"zip":"04016","miles_from_dt":23.72},{"city":"West Bethel","state_name":"Maine","lat":44.4032,"lng":-70.86019,"zip":"04286","miles_from_dt":23.8},{"city":"Sugar Hill","state_name":"New Hampshire","lat":44.22058,"lng":-71.7963,"zip":"03586","miles_from_dt":24.34},{"city":"Bethel","state_name":"Maine","lat":44.36726,"lng":-70.83364,"zip":"04217","miles_from_dt":24.46},{"city":"Littleton","state_name":"New Hampshire","lat":44.33222,"lng":-71.80973,"zip":"03561","miles_from_dt":24.5},{"city":"Newry","state_name":"Maine","lat":44.5631,"lng":-70.91907,"zip":"04261","miles_from_dt":26.9},{"city":"Wonalancet","state_name":"New Hampshire","lat":43.90841,"lng":-71.32453,"zip":"03897","miles_from_dt":26.91},{"city":"North Waterford","state_name":"Maine","lat":44.22478,"lng":-70.77084,"zip":"04267","miles_from_dt":27.61},{"city":"Silver Lake","state_name":"New Hampshire","lat":43.89944,"lng":-71.18636,"zip":"03875","miles_from_dt":28.29},{"city":"Woodstock","state_name":"New Hampshire","lat":43.97696,"lng":-71.67721,"zip":"03293","miles_from_dt":28.48},{"city":"Chocorua","state_name":"New Hampshire","lat":43.8885,"lng":-71.23358,"zip":"03817","miles_from_dt":28.59},{"city":"Concord","state_name":"Vermont","lat":44.43741,"lng":-71.86449,"zip":"05824","miles_from_dt":28.74},{"city":"North Concord","state_name":"Vermont","lat":44.53587,"lng":-71.8046,"zip":"05858","miles_from_dt":29.15},{"city":"Lisbon","state_name":"New Hampshire","lat":44.22538,"lng":-71.89703,"zip":"03585","miles_from_dt":29.18},{"city":"Madison","state_name":"New Hampshire","lat":43.89454,"lng":-71.13101,"zip":"03849","miles_from_dt":29.38},{"city":"North Woodstock","state_name":"New Hampshire","lat":43.99885,"lng":-71.73813,"zip":"03262","miles_from_dt":29.39},{"city":"Lower Waterford","state_name":"Vermont","lat":44.35558,"lng":-71.90806,"zip":"05848","miles_from_dt":29.53},{"city":"North Sandwich","state_name":"New Hampshire","lat":43.87921,"lng":-71.44527,"zip":"03259","miles_from_dt":29.61},{"city":"Granby","state_name":"Vermont","lat":44.61297,"lng":-71.73129,"zip":"05840","miles_from_dt":29.85}],"targetCityZipCode":"03593","targetCityState":"New Hampshire"},"__N_SSG":true}