{"pageProps":{"stateName":"New-hampshire","cityName":"thornton","nearbyCities":[{"city":"Woodstock","state_name":"New Hampshire","lat":43.97696,"lng":-71.67721,"zip":"03293","miles_from_dt":4.02},{"city":"Campton","state_name":"New Hampshire","lat":43.84784,"lng":-71.67597,"zip":"03223","miles_from_dt":5.51},{"city":"North Woodstock","state_name":"New Hampshire","lat":43.99885,"lng":-71.73813,"zip":"03262","miles_from_dt":6.99},{"city":"North Sandwich","state_name":"New Hampshire","lat":43.87921,"lng":-71.44527,"zip":"03259","miles_from_dt":10.37},{"city":"Lincoln","state_name":"New Hampshire","lat":44.0796,"lng":-71.65276,"zip":"03251","miles_from_dt":10.75},{"city":"Waterville Valley","state_name":"New Hampshire","lat":44.03605,"lng":-71.48109,"zip":"03215","miles_from_dt":11.2},{"city":"Warren","state_name":"New Hampshire","lat":43.94468,"lng":-71.88231,"zip":"03279","miles_from_dt":12},{"city":"Center Sandwich","state_name":"New Hampshire","lat":43.81419,"lng":-71.45712,"zip":"03227","miles_from_dt":12.01},{"city":"Holderness","state_name":"New Hampshire","lat":43.75026,"lng":-71.58852,"zip":"03245","miles_from_dt":12.31},{"city":"Glencliff","state_name":"New Hampshire","lat":43.98168,"lng":-71.88701,"zip":"03238","miles_from_dt":12.78},{"city":"Plymouth","state_name":"New Hampshire","lat":43.72967,"lng":-71.71159,"zip":"03264","miles_from_dt":13.85},{"city":"Ashland","state_name":"New Hampshire","lat":43.71492,"lng":-71.63033,"zip":"03217","miles_from_dt":14.46},{"city":"Woodsville","state_name":"New Hampshire","lat":44.06525,"lng":-71.87017,"zip":"03785","miles_from_dt":14.92},{"city":"Wentworth","state_name":"New Hampshire","lat":43.86006,"lng":-71.9295,"zip":"03282","miles_from_dt":14.94},{"city":"Rumney","state_name":"New Hampshire","lat":43.79407,"lng":-71.89035,"zip":"03266","miles_from_dt":15.25},{"city":"Wonalancet","state_name":"New Hampshire","lat":43.90841,"lng":-71.32453,"zip":"03897","miles_from_dt":15.96},{"city":"Center Harbor","state_name":"New Hampshire","lat":43.70259,"lng":-71.51086,"zip":"03226","miles_from_dt":16.67},{"city":"Hebron","state_name":"New Hampshire","lat":43.71149,"lng":-71.81915,"zip":"03241","miles_from_dt":17.1},{"city":"Franconia","state_name":"New Hampshire","lat":44.17347,"lng":-71.69519,"zip":"03580","miles_from_dt":17.41},{"city":"Pike","state_name":"New Hampshire","lat":44.03169,"lng":-71.97142,"zip":"03780","miles_from_dt":17.95},{"city":"Tamworth","state_name":"New Hampshire","lat":43.86399,"lng":-71.28783,"zip":"03886","miles_from_dt":18.24},{"city":"South Tamworth","state_name":"New Hampshire","lat":43.81252,"lng":-71.30789,"zip":"03883","miles_from_dt":18.45},{"city":"Moultonborough","state_name":"New Hampshire","lat":43.72505,"lng":-71.37782,"zip":"03254","miles_from_dt":19.11},{"city":"Piermont","state_name":"New Hampshire","lat":43.97477,"lng":-72.03089,"zip":"03779","miles_from_dt":19.63},{"city":"Conway","state_name":"New Hampshire","lat":43.97302,"lng":-71.25261,"zip":"03818","miles_from_dt":19.79},{"city":"Bartlett","state_name":"New Hampshire","lat":44.08148,"lng":-71.29643,"zip":"03812","miles_from_dt":20.43},{"city":"Tilton","state_name":"New Hampshire","lat":43.63945,"lng":-71.52626,"zip":"03299","miles_from_dt":20.51},{"city":"Chocorua","state_name":"New Hampshire","lat":43.8885,"lng":-71.23358,"zip":"03817","miles_from_dt":20.61},{"city":"New Hampton","state_name":"New Hampshire","lat":43.62425,"lng":-71.63514,"zip":"03256","miles_from_dt":20.7},{"city":"Tilton","state_name":"New Hampshire","lat":43.63486,"lng":-71.53151,"zip":"03298","miles_from_dt":20.74},{"city":"North Haverhill","state_name":"New Hampshire","lat":44.09097,"lng":-71.9947,"zip":"03774","miles_from_dt":20.95},{"city":"Orford","state_name":"New Hampshire","lat":43.89548,"lng":-72.06672,"zip":"03777","miles_from_dt":21.21},{"city":"Meredith","state_name":"New Hampshire","lat":43.63193,"lng":-71.49749,"zip":"03253","miles_from_dt":21.45},{"city":"Bristol","state_name":"New Hampshire","lat":43.62895,"lng":-71.78234,"zip":"03222","miles_from_dt":21.53},{"city":"Haverhill","state_name":"New Hampshire","lat":44.03452,"lng":-72.05231,"zip":"03765","miles_from_dt":21.76},{"city":"Sugar Hill","state_name":"New Hampshire","lat":44.22058,"lng":-71.7963,"zip":"03586","miles_from_dt":21.84},{"city":"Silver Lake","state_name":"New Hampshire","lat":43.89944,"lng":-71.18636,"zip":"03875","miles_from_dt":22.88},{"city":"Bethlehem","state_name":"New Hampshire","lat":44.25386,"lng":-71.59924,"zip":"03574","miles_from_dt":22.88},{"city":"Lyme Center","state_name":"New Hampshire","lat":43.79468,"lng":-72.06561,"zip":"03769","miles_from_dt":22.9},{"city":"West Ossipee","state_name":"New Hampshire","lat":43.81528,"lng":-71.20581,"zip":"03890","miles_from_dt":23.12},{"city":"Melvin Village","state_name":"New Hampshire","lat":43.69739,"lng":-71.29983,"zip":"03850","miles_from_dt":23.24},{"city":"Glen","state_name":"New Hampshire","lat":44.11257,"lng":-71.24036,"zip":"03838","miles_from_dt":23.94},{"city":"Lisbon","state_name":"New Hampshire","lat":44.22538,"lng":-71.89703,"zip":"03585","miles_from_dt":24.33},{"city":"Bath","state_name":"New Hampshire","lat":44.18025,"lng":-71.98626,"zip":"03740","miles_from_dt":24.58},{"city":"Lyme","state_name":"New Hampshire","lat":43.80529,"lng":-72.11573,"zip":"03768","miles_from_dt":24.97},{"city":"Center Ossipee","state_name":"New Hampshire","lat":43.77341,"lng":-71.18717,"zip":"03814","miles_from_dt":25.07},{"city":"Center Tuftonboro","state_name":"New Hampshire","lat":43.69753,"lng":-71.24218,"zip":"03816","miles_from_dt":25.44},{"city":"Canaan","state_name":"New Hampshire","lat":43.67134,"lng":-72.01559,"zip":"03741","miles_from_dt":25.51},{"city":"Laconia","state_name":"New Hampshire","lat":43.57239,"lng":-71.4775,"zip":"03246","miles_from_dt":25.66},{"city":"Madison","state_name":"New Hampshire","lat":43.89454,"lng":-71.13101,"zip":"03849","miles_from_dt":25.67},{"city":"West Newbury","state_name":"Vermont","lat":44.06947,"lng":-72.12163,"zip":"05085","miles_from_dt":25.85},{"city":"Newbury","state_name":"Vermont","lat":44.08525,"lng":-72.11753,"zip":"05051","miles_from_dt":26.11},{"city":"Mirror Lake","state_name":"New Hampshire","lat":43.63818,"lng":-71.29371,"zip":"03853","miles_from_dt":26.38},{"city":"Bradford","state_name":"Vermont","lat":44.00229,"lng":-72.16412,"zip":"05033","miles_from_dt":26.51},{"city":"Wells River","state_name":"Vermont","lat":44.14292,"lng":-72.08451,"zip":"05081","miles_from_dt":26.66},{"city":"Twin Mountain","state_name":"New Hampshire","lat":44.30616,"lng":-71.527,"zip":"03595","miles_from_dt":27.01},{"city":"North Conway","state_name":"New Hampshire","lat":44.0427,"lng":-71.12422,"zip":"03860","miles_from_dt":27.16},{"city":"Sanbornton","state_name":"New Hampshire","lat":43.53,"lng":-71.60219,"zip":"03269","miles_from_dt":27.29},{"city":"North Thetford","state_name":"Vermont","lat":43.84231,"lng":-72.1838,"zip":"05054","miles_from_dt":27.56},{"city":"Bretton Woods","state_name":"New Hampshire","lat":44.28946,"lng":-71.41722,"zip":"03575","miles_from_dt":27.63},{"city":"Fairlee","state_name":"Vermont","lat":43.9144,"lng":-72.19881,"zip":"05045","miles_from_dt":27.72},{"city":"Kearsarge","state_name":"New Hampshire","lat":44.06875,"lng":-71.12162,"zip":"03847","miles_from_dt":27.87},{"city":"Hill","state_name":"New Hampshire","lat":43.5276,"lng":-71.7644,"zip":"03243","miles_from_dt":28.03},{"city":"Gilford","state_name":"New Hampshire","lat":43.55806,"lng":-71.38505,"zip":"03249","miles_from_dt":28.39},{"city":"Intervale","state_name":"New Hampshire","lat":44.10317,"lng":-71.1271,"zip":"03845","miles_from_dt":28.55},{"city":"Laconia","state_name":"New Hampshire","lat":43.5475,"lng":-71.40722,"zip":"03247","miles_from_dt":28.56},{"city":"Jackson","state_name":"New Hampshire","lat":44.18445,"lng":-71.18899,"zip":"03846","miles_from_dt":28.91},{"city":"Grafton","state_name":"New Hampshire","lat":43.57599,"lng":-71.97221,"zip":"03240","miles_from_dt":29.12},{"city":"Littleton","state_name":"New Hampshire","lat":44.33222,"lng":-71.80973,"zip":"03561","miles_from_dt":29.37},{"city":"Freedom","state_name":"New Hampshire","lat":43.82608,"lng":-71.07118,"zip":"03836","miles_from_dt":29.38},{"city":"East Thetford","state_name":"Vermont","lat":43.80658,"lng":-72.21194,"zip":"05043","miles_from_dt":29.53},{"city":"Danbury","state_name":"New Hampshire","lat":43.52685,"lng":-71.8622,"zip":"03230","miles_from_dt":29.53},{"city":"Mount Washington","state_name":"New Hampshire","lat":44.34785,"lng":-71.55185,"zip":"03589","miles_from_dt":29.61},{"city":"East Corinth","state_name":"Vermont","lat":44.06796,"lng":-72.20438,"zip":"05040","miles_from_dt":29.66},{"city":"Eaton Center","state_name":"New Hampshire","lat":43.90249,"lng":-71.04859,"zip":"03832","miles_from_dt":29.73}],"targetCityZipCode":"03285","targetCityState":"New Hampshire"},"__N_SSG":true}