{"pageProps":{"stateName":"Louisiana","cityName":"abbeville","nearbyCities":[{"city":"Perry","state_name":"Louisiana","lat":29.94892,"lng":-92.15808,"zip":"70575","miles_from_dt":4.35},{"city":"Abbeville","state_name":"Louisiana","lat":29.96968,"lng":-92.13184,"zip":"70511","miles_from_dt":6.42},{"city":"Erath","state_name":"Louisiana","lat":29.90439,"lng":-92.03536,"zip":"70533","miles_from_dt":9.64},{"city":"Maurice","state_name":"Louisiana","lat":30.08188,"lng":-92.14123,"zip":"70555","miles_from_dt":13.28},{"city":"Delcambre","state_name":"Louisiana","lat":29.89766,"lng":-91.96692,"zip":"70528","miles_from_dt":13.73},{"city":"Kaplan","state_name":"Louisiana","lat":29.79733,"lng":-92.41875,"zip":"70548","miles_from_dt":14.99},{"city":"Milton","state_name":"Louisiana","lat":30.10042,"lng":-92.07573,"zip":"70558","miles_from_dt":15.88},{"city":"Youngsville","state_name":"Louisiana","lat":30.08024,"lng":-92.01338,"zip":"70592","miles_from_dt":16.81},{"city":"Avery Island","state_name":"Louisiana","lat":29.90272,"lng":-91.90106,"zip":"70513","miles_from_dt":17.69},{"city":"New Iberia","state_name":"Louisiana","lat":29.93965,"lng":-91.8642,"zip":"70560","miles_from_dt":20.13},{"city":"Lafayette","state_name":"Louisiana","lat":30.15627,"lng":-92.02913,"zip":"70508","miles_from_dt":20.58},{"city":"Duson","state_name":"Louisiana","lat":30.19593,"lng":-92.16327,"zip":"70529","miles_from_dt":20.82},{"city":"Lafayette","state_name":"Louisiana","lat":30.17353,"lng":-92.05901,"zip":"70503","miles_from_dt":20.87},{"city":"Cade","state_name":"Louisiana","lat":30.08178,"lng":-91.90705,"zip":"70519","miles_from_dt":21.57},{"city":"Lafayette","state_name":"Louisiana","lat":30.19586,"lng":-92.08075,"zip":"70506","miles_from_dt":21.84},{"city":"Lafayette","state_name":"Louisiana","lat":30.17595,"lng":-92.00999,"zip":"70598","miles_from_dt":22.33},{"city":"Lafayette","state_name":"Louisiana","lat":30.19022,"lng":-92.03711,"zip":"70504","miles_from_dt":22.45},{"city":"Broussard","state_name":"Louisiana","lat":30.13503,"lng":-91.92922,"zip":"70518","miles_from_dt":22.99},{"city":"Rayne","state_name":"Louisiana","lat":30.2291,"lng":-92.26261,"zip":"70578","miles_from_dt":23.36},{"city":"New Iberia","state_name":"Louisiana","lat":29.99052,"lng":-91.81723,"zip":"70562","miles_from_dt":23.64},{"city":"Lafayette","state_name":"Louisiana","lat":30.21431,"lng":-92.02859,"zip":"70593","miles_from_dt":24.17},{"city":"Estherwood","state_name":"Louisiana","lat":30.16564,"lng":-92.45499,"zip":"70534","miles_from_dt":24.27},{"city":"Crowley","state_name":"Louisiana","lat":30.21051,"lng":-92.37951,"zip":"70526","miles_from_dt":24.37},{"city":"Lafayette","state_name":"Louisiana","lat":30.22616,"lng":-92.04407,"zip":"70505","miles_from_dt":24.56},{"city":"Morse","state_name":"Louisiana","lat":30.12876,"lng":-92.50903,"zip":"70559","miles_from_dt":24.74},{"city":"Gueydan","state_name":"Louisiana","lat":30.00442,"lng":-92.5886,"zip":"70542","miles_from_dt":24.75},{"city":"Lafayette","state_name":"Louisiana","lat":30.22032,"lng":-92.01705,"zip":"70596","miles_from_dt":24.84},{"city":"Lydia","state_name":"Louisiana","lat":29.92602,"lng":-91.78256,"zip":"70569","miles_from_dt":24.88},{"city":"Lafayette","state_name":"Louisiana","lat":30.22411,"lng":-92.0226,"zip":"70502","miles_from_dt":24.93},{"city":"Scott","state_name":"Louisiana","lat":30.25846,"lng":-92.12204,"zip":"70583","miles_from_dt":25.43},{"city":"Crowley","state_name":"Louisiana","lat":30.23174,"lng":-92.37891,"zip":"70527","miles_from_dt":25.67},{"city":"Lafayette","state_name":"Louisiana","lat":30.23593,"lng":-92.00615,"zip":"70509","miles_from_dt":26.09},{"city":"Lafayette","state_name":"Louisiana","lat":30.2391,"lng":-91.99122,"zip":"70501","miles_from_dt":26.68},{"city":"Lafayette","state_name":"Louisiana","lat":30.28293,"lng":-92.02825,"zip":"70507","miles_from_dt":28.55},{"city":"New Iberia","state_name":"Louisiana","lat":30.02454,"lng":-91.73053,"zip":"70563","miles_from_dt":29.29},{"city":"Egan","state_name":"Louisiana","lat":30.23101,"lng":-92.49678,"zip":"70531","miles_from_dt":29.35}],"targetCityZipCode":"70510","targetCityState":"Louisiana"},"__N_SSG":true}