{"pageProps":{"stateName":"Louisiana","cityName":"acme","nearbyCities":[{"city":"Monterey","state_name":"Louisiana","lat":31.38364,"lng":-91.73548,"zip":"71354","miles_from_dt":7.54},{"city":"Vidalia","state_name":"Louisiana","lat":31.35934,"lng":-91.58607,"zip":"71373","miles_from_dt":11.88},{"city":"Bordelonville","state_name":"Louisiana","lat":31.09114,"lng":-91.76985,"zip":"71320","miles_from_dt":12.79},{"city":"Marksville","state_name":"Louisiana","lat":31.17227,"lng":-91.9604,"zip":"71351","miles_from_dt":13.76},{"city":"Moreauville","state_name":"Louisiana","lat":31.05257,"lng":-91.88531,"zip":"71355","miles_from_dt":17.07},{"city":"Jonesville","state_name":"Louisiana","lat":31.51117,"lng":-91.90723,"zip":"71343","miles_from_dt":18.29},{"city":"Effie","state_name":"Louisiana","lat":31.2578,"lng":-92.07969,"zip":"71331","miles_from_dt":18.83},{"city":"Hamburg","state_name":"Louisiana","lat":31.0058,"lng":-91.93637,"zip":"71339","miles_from_dt":21.32},{"city":"Sibley","state_name":"Mississippi","lat":31.38595,"lng":-91.40602,"zip":"39165","miles_from_dt":22.38},{"city":"Mansura","state_name":"Louisiana","lat":31.06871,"lng":-92.06053,"zip":"71350","miles_from_dt":22.74},{"city":"Wildsville","state_name":"Louisiana","lat":31.61489,"lng":-91.78157,"zip":"71377","miles_from_dt":23.33},{"city":"Woodville","state_name":"Mississippi","lat":31.14966,"lng":-91.39547,"zip":"39669","miles_from_dt":23.42},{"city":"Angola","state_name":"Louisiana","lat":30.96574,"lng":-91.58573,"zip":"70712","miles_from_dt":23.84},{"city":"Simmesport","state_name":"Louisiana","lat":30.92949,"lng":-91.85605,"zip":"71369","miles_from_dt":24.55},{"city":"Deville","state_name":"Louisiana","lat":31.35276,"lng":-92.19097,"zip":"71328","miles_from_dt":25.89},{"city":"Cottonport","state_name":"Louisiana","lat":30.97895,"lng":-92.03863,"zip":"71327","miles_from_dt":26.24},{"city":"Dupont","state_name":"Louisiana","lat":30.93021,"lng":-91.94733,"zip":"71329","miles_from_dt":26.27},{"city":"Center Point","state_name":"Louisiana","lat":31.26656,"lng":-92.21037,"zip":"71323","miles_from_dt":26.52},{"city":"Tunica","state_name":"Louisiana","lat":30.94378,"lng":-91.51856,"zip":"70782","miles_from_dt":27.1},{"city":"Hessmer","state_name":"Louisiana","lat":31.05969,"lng":-92.16267,"zip":"71341","miles_from_dt":28.03},{"city":"Innis","state_name":"Louisiana","lat":30.87291,"lng":-91.68245,"zip":"70747","miles_from_dt":28.21},{"city":"Rhinehart","state_name":"Louisiana","lat":31.63397,"lng":-91.99885,"zip":"71363","miles_from_dt":28.31},{"city":"Natchez","state_name":"Mississippi","lat":31.50832,"lng":-91.36173,"zip":"39121","miles_from_dt":28.55},{"city":"Weyanoke","state_name":"Louisiana","lat":30.9629,"lng":-91.44342,"zip":"70787","miles_from_dt":28.71},{"city":"Natchez","state_name":"Mississippi","lat":31.56205,"lng":-91.40125,"zip":"39122","miles_from_dt":29.01},{"city":"Plaucheville","state_name":"Louisiana","lat":30.88839,"lng":-91.95225,"zip":"71362","miles_from_dt":29.02},{"city":"Natchez","state_name":"Mississippi","lat":31.51148,"lng":-91.35206,"zip":"39120","miles_from_dt":29.15},{"city":"Ruby","state_name":"Louisiana","lat":31.18984,"lng":-92.24637,"zip":"71365","miles_from_dt":29.27},{"city":"Ferriday","state_name":"Louisiana","lat":31.66978,"lng":-91.56864,"zip":"71334","miles_from_dt":29.4}],"targetCityZipCode":"71316","targetCityState":"Louisiana"},"__N_SSG":true}