{"pageProps":{"stateName":"Louisiana","cityName":"atlanta","nearbyCities":[{"city":"Montgomery","state_name":"Louisiana","lat":31.69334,"lng":-92.86131,"zip":"71454","miles_from_dt":7.65},{"city":"Winnfield","state_name":"Louisiana","lat":31.89482,"lng":-92.66373,"zip":"71483","miles_from_dt":11.02},{"city":"Saint Maurice","state_name":"Louisiana","lat":31.75711,"lng":-92.96201,"zip":"71471","miles_from_dt":12.33},{"city":"Calvin","state_name":"Louisiana","lat":31.96419,"lng":-92.77125,"zip":"71410","miles_from_dt":14.52},{"city":"Dry Prong","state_name":"Louisiana","lat":31.60012,"lng":-92.56341,"zip":"71423","miles_from_dt":15.38},{"city":"Natchez","state_name":"Louisiana","lat":31.63534,"lng":-92.97429,"zip":"71456","miles_from_dt":15.41},{"city":"Joyce","state_name":"Louisiana","lat":31.94043,"lng":-92.59994,"zip":"71440","miles_from_dt":15.67},{"city":"Melrose","state_name":"Louisiana","lat":31.58021,"lng":-92.9414,"zip":"71452","miles_from_dt":16.35},{"city":"Georgetown","state_name":"Louisiana","lat":31.75368,"lng":-92.47435,"zip":"71432","miles_from_dt":16.38},{"city":"Clarence","state_name":"Louisiana","lat":31.82593,"lng":-93.02515,"zip":"71414","miles_from_dt":16.79},{"city":"Cloutierville","state_name":"Louisiana","lat":31.53875,"lng":-92.89558,"zip":"71416","miles_from_dt":17.06},{"city":"Colfax","state_name":"Louisiana","lat":31.51611,"lng":-92.65361,"zip":"71417","miles_from_dt":17.4},{"city":"Goldonna","state_name":"Louisiana","lat":32.01097,"lng":-92.89372,"zip":"71031","miles_from_dt":19.55},{"city":"Natchitoches","state_name":"Louisiana","lat":31.75761,"lng":-93.08624,"zip":"71458","miles_from_dt":19.64},{"city":"Natchitoches","state_name":"Louisiana","lat":31.74045,"lng":-93.09375,"zip":"71457","miles_from_dt":20.11},{"city":"Natchitoches","state_name":"Louisiana","lat":31.74902,"lng":-93.09795,"zip":"71497","miles_from_dt":20.34},{"city":"Flora","state_name":"Louisiana","lat":31.60921,"lng":-93.08855,"zip":"71428","miles_from_dt":22.17},{"city":"Campti","state_name":"Louisiana","lat":31.90466,"lng":-93.08894,"zip":"71411","miles_from_dt":22.34},{"city":"Lena","state_name":"Louisiana","lat":31.43202,"lng":-92.8073,"zip":"71447","miles_from_dt":22.42},{"city":"Bentley","state_name":"Louisiana","lat":31.51837,"lng":-92.48402,"zip":"71407","miles_from_dt":22.68},{"city":"Dodson","state_name":"Louisiana","lat":32.07653,"lng":-92.65767,"zip":"71422","miles_from_dt":22.91},{"city":"Tullos","state_name":"Louisiana","lat":31.85129,"lng":-92.36106,"zip":"71479","miles_from_dt":23.99},{"city":"Gorum","state_name":"Louisiana","lat":31.44618,"lng":-92.944,"zip":"71434","miles_from_dt":24.03},{"city":"Pollock","state_name":"Louisiana","lat":31.55789,"lng":-92.39338,"zip":"71467","miles_from_dt":25.11},{"city":"Flatwoods","state_name":"Louisiana","lat":31.38879,"lng":-92.89388,"zip":"71427","miles_from_dt":26.51},{"city":"Saline","state_name":"Louisiana","lat":32.08629,"lng":-92.99618,"zip":"71070","miles_from_dt":27},{"city":"Powhatan","state_name":"Louisiana","lat":31.87478,"lng":-93.19829,"zip":"71066","miles_from_dt":27.51},{"city":"Mora","state_name":"Louisiana","lat":31.40125,"lng":-92.98074,"zip":"71455","miles_from_dt":27.78},{"city":"Urania","state_name":"Louisiana","lat":31.86661,"lng":-92.28415,"zip":"71480","miles_from_dt":28.63},{"city":"Sikes","state_name":"Louisiana","lat":32.06989,"lng":-92.42748,"zip":"71473","miles_from_dt":28.96},{"city":"Trout","state_name":"Louisiana","lat":31.67542,"lng":-92.2587,"zip":"71371","miles_from_dt":29.59},{"city":"Provencal","state_name":"Louisiana","lat":31.48086,"lng":-93.14518,"zip":"71468","miles_from_dt":29.83}],"targetCityZipCode":"71404","targetCityState":"Louisiana"},"__N_SSG":true}