{"pageProps":{"stateName":"Louisiana","cityName":"bastrop","nearbyCities":[{"city":"Bastrop","state_name":"Louisiana","lat":32.75636,"lng":-91.87619,"zip":"71221","miles_from_dt":7.59},{"city":"Mer Rouge","state_name":"Louisiana","lat":32.77802,"lng":-91.69515,"zip":"71261","miles_from_dt":13.91},{"city":"Bonita","state_name":"Louisiana","lat":32.90084,"lng":-91.67443,"zip":"71223","miles_from_dt":14.09},{"city":"Monroe","state_name":"Louisiana","lat":32.6996,"lng":-92.07359,"zip":"71211","miles_from_dt":14.62},{"city":"Sterlington","state_name":"Louisiana","lat":32.72344,"lng":-92.10389,"zip":"71280","miles_from_dt":14.69},{"city":"Collinston","state_name":"Louisiana","lat":32.6374,"lng":-91.89251,"zip":"71229","miles_from_dt":15.53},{"city":"Fairbanks","state_name":"Louisiana","lat":32.64322,"lng":-92.03588,"zip":"71240","miles_from_dt":16.72},{"city":"Marion","state_name":"Louisiana","lat":32.90615,"lng":-92.23793,"zip":"71260","miles_from_dt":19.17},{"city":"Swartz","state_name":"Louisiana","lat":32.59535,"lng":-92.02099,"zip":"71281","miles_from_dt":19.45},{"city":"Oak Ridge","state_name":"Louisiana","lat":32.6029,"lng":-91.7734,"zip":"71264","miles_from_dt":19.62},{"city":"Crossett","state_name":"Arkansas","lat":33.1369,"lng":-92.00133,"zip":"71635","miles_from_dt":19.62},{"city":"Monroe","state_name":"Louisiana","lat":32.58398,"lng":-92.01351,"zip":"71203","miles_from_dt":20.06},{"city":"Jones","state_name":"Louisiana","lat":32.95983,"lng":-91.57327,"zip":"71250","miles_from_dt":20.83},{"city":"Huttig","state_name":"Arkansas","lat":33.05892,"lng":-92.22238,"zip":"71747","miles_from_dt":22.54},{"city":"Wilmot","state_name":"Arkansas","lat":33.05156,"lng":-91.56023,"zip":"71676","miles_from_dt":24.27},{"city":"Monroe","state_name":"Louisiana","lat":32.53036,"lng":-92.07206,"zip":"71209","miles_from_dt":24.69},{"city":"Hamburg","state_name":"Arkansas","lat":33.20444,"lng":-91.77837,"zip":"71646","miles_from_dt":24.83},{"city":"Monroe","state_name":"Louisiana","lat":32.52725,"lng":-92.0734,"zip":"71212","miles_from_dt":24.92},{"city":"Monroe","state_name":"Louisiana","lat":32.53915,"lng":-92.1069,"zip":"71201","miles_from_dt":24.98},{"city":"West Monroe","state_name":"Louisiana","lat":32.56977,"lng":-92.18277,"zip":"71291","miles_from_dt":25.58},{"city":"Start","state_name":"Louisiana","lat":32.48667,"lng":-91.85671,"zip":"71279","miles_from_dt":26.08},{"city":"Monroe","state_name":"Louisiana","lat":32.51584,"lng":-92.11561,"zip":"71207","miles_from_dt":26.64},{"city":"Monroe","state_name":"Louisiana","lat":32.50494,"lng":-92.10361,"zip":"71210","miles_from_dt":27.02},{"city":"Farmerville","state_name":"Louisiana","lat":32.77107,"lng":-92.36531,"zip":"71241","miles_from_dt":27.09},{"city":"Monroe","state_name":"Louisiana","lat":32.50965,"lng":-92.11905,"zip":"71213","miles_from_dt":27.12},{"city":"Pioneer","state_name":"Louisiana","lat":32.70359,"lng":-91.48362,"zip":"71266","miles_from_dt":27.25},{"city":"Monroe","state_name":"Louisiana","lat":32.49,"lng":-92.10219,"zip":"71217","miles_from_dt":27.93},{"city":"Oak Grove","state_name":"Louisiana","lat":32.87497,"lng":-91.428,"zip":"71263","miles_from_dt":28.18},{"city":"West Monroe","state_name":"Louisiana","lat":32.51108,"lng":-92.18203,"zip":"71294","miles_from_dt":28.85},{"city":"Downsville","state_name":"Louisiana","lat":32.64306,"lng":-92.33954,"zip":"71234","miles_from_dt":29.1},{"city":"Forest","state_name":"Louisiana","lat":32.79223,"lng":-91.41291,"zip":"71242","miles_from_dt":29.46},{"city":"Rayville","state_name":"Louisiana","lat":32.44592,"lng":-91.78718,"zip":"71269","miles_from_dt":29.6}],"targetCityZipCode":"71220","targetCityState":"Louisiana"},"__N_SSG":true}