{"pageProps":{"stateName":"Louisiana","cityName":"epps","nearbyCities":[{"city":"Pioneer","state_name":"Louisiana","lat":32.70359,"lng":-91.48362,"zip":"71266","miles_from_dt":8.23},{"city":"Delhi","state_name":"Louisiana","lat":32.41554,"lng":-91.493,"zip":"71232","miles_from_dt":11.64},{"city":"Forest","state_name":"Louisiana","lat":32.79223,"lng":-91.41291,"zip":"71242","miles_from_dt":14.87},{"city":"Transylvania","state_name":"Louisiana","lat":32.65244,"lng":-91.23397,"zip":"71286","miles_from_dt":15.11},{"city":"Oak Ridge","state_name":"Louisiana","lat":32.6029,"lng":-91.7734,"zip":"71264","miles_from_dt":17.15},{"city":"Mer Rouge","state_name":"Louisiana","lat":32.77802,"lng":-91.69515,"zip":"71261","miles_from_dt":18.31},{"city":"Sondheimer","state_name":"Louisiana","lat":32.57727,"lng":-91.16277,"zip":"71276","miles_from_dt":18.53},{"city":"Lake Providence","state_name":"Louisiana","lat":32.79429,"lng":-91.23914,"zip":"71254","miles_from_dt":20.18},{"city":"Oak Grove","state_name":"Louisiana","lat":32.87497,"lng":-91.428,"zip":"71263","miles_from_dt":20.27},{"city":"Rayville","state_name":"Louisiana","lat":32.44592,"lng":-91.78718,"zip":"71269","miles_from_dt":20.29},{"city":"Tallulah","state_name":"Louisiana","lat":32.4066,"lng":-91.18632,"zip":"71284","miles_from_dt":21.08},{"city":"Baskin","state_name":"Louisiana","lat":32.32344,"lng":-91.6842,"zip":"71219","miles_from_dt":21.56},{"city":"Tallulah","state_name":"Louisiana","lat":32.35662,"lng":-91.20042,"zip":"71282","miles_from_dt":22.65},{"city":"Start","state_name":"Louisiana","lat":32.48667,"lng":-91.85671,"zip":"71279","miles_from_dt":22.98},{"city":"Archibald","state_name":"Louisiana","lat":32.35081,"lng":-91.78739,"zip":"71218","miles_from_dt":24.09},{"city":"Collinston","state_name":"Louisiana","lat":32.6374,"lng":-91.89251,"zip":"71229","miles_from_dt":24.32},{"city":"Bonita","state_name":"Louisiana","lat":32.90084,"lng":-91.67443,"zip":"71223","miles_from_dt":24.58},{"city":"Crowville","state_name":"Louisiana","lat":32.2403,"lng":-91.59269,"zip":"71230","miles_from_dt":24.59},{"city":"Bastrop","state_name":"Louisiana","lat":32.75636,"lng":-91.87619,"zip":"71221","miles_from_dt":25.95},{"city":"Jones","state_name":"Louisiana","lat":32.95983,"lng":-91.57327,"zip":"71250","miles_from_dt":26.45},{"city":"Mayersville","state_name":"Mississippi","lat":32.82707,"lng":-91.06476,"zip":"39113","miles_from_dt":29.43},{"city":"Kilbourne","state_name":"Louisiana","lat":32.99597,"lng":-91.31576,"zip":"71253","miles_from_dt":29.95}],"targetCityZipCode":"71237","targetCityState":"Louisiana"},"__N_SSG":true}