{"pageProps":{"stateName":"Louisiana","cityName":"florien","nearbyCities":[{"city":"Hornbeck","state_name":"Louisiana","lat":31.33707,"lng":-93.36597,"zip":"71439","miles_from_dt":5.76},{"city":"Fisher","state_name":"Louisiana","lat":31.49182,"lng":-93.46165,"zip":"71426","miles_from_dt":6.67},{"city":"Negreet","state_name":"Louisiana","lat":31.47149,"lng":-93.57269,"zip":"71460","miles_from_dt":9.71},{"city":"Many","state_name":"Louisiana","lat":31.5153,"lng":-93.54383,"zip":"71449","miles_from_dt":10.41},{"city":"Anacoco","state_name":"Louisiana","lat":31.21047,"lng":-93.44061,"zip":"71403","miles_from_dt":12.96},{"city":"Kurthwood","state_name":"Louisiana","lat":31.33477,"lng":-93.16478,"zip":"71443","miles_from_dt":16.4},{"city":"Provencal","state_name":"Louisiana","lat":31.48086,"lng":-93.14518,"zip":"71468","miles_from_dt":17.88},{"city":"Leesville","state_name":"Louisiana","lat":31.14359,"lng":-93.25839,"zip":"71496","miles_from_dt":20.35},{"city":"Zwolle","state_name":"Louisiana","lat":31.62679,"lng":-93.65876,"zip":"71486","miles_from_dt":20.65},{"city":"New Llano","state_name":"Louisiana","lat":31.12099,"lng":-93.29775,"zip":"71461","miles_from_dt":20.7},{"city":"Hemphill","state_name":"Texas","lat":31.29389,"lng":-93.77573,"zip":"75948","miles_from_dt":21.55},{"city":"Robeline","state_name":"Louisiana","lat":31.67755,"lng":-93.2671,"zip":"71469","miles_from_dt":21.56},{"city":"Slagle","state_name":"Louisiana","lat":31.20123,"lng":-93.12461,"zip":"71475","miles_from_dt":22.71},{"city":"Leesville","state_name":"Louisiana","lat":31.15585,"lng":-93.17187,"zip":"71446","miles_from_dt":22.73},{"city":"Belmont","state_name":"Louisiana","lat":31.73425,"lng":-93.50536,"zip":"71406","miles_from_dt":23.54},{"city":"Flora","state_name":"Louisiana","lat":31.60921,"lng":-93.08855,"zip":"71428","miles_from_dt":24.95},{"city":"Milam","state_name":"Texas","lat":31.51021,"lng":-93.83994,"zip":"75959","miles_from_dt":25.28},{"city":"Fort Polk","state_name":"Louisiana","lat":31.07854,"lng":-93.21723,"zip":"71459","miles_from_dt":25.45},{"city":"Noble","state_name":"Louisiana","lat":31.66625,"lng":-93.7324,"zip":"71462","miles_from_dt":25.58},{"city":"Burkeville","state_name":"Texas","lat":31.0551,"lng":-93.61396,"zip":"75932","miles_from_dt":25.99},{"city":"Simpson","state_name":"Louisiana","lat":31.27724,"lng":-93.01394,"zip":"71474","miles_from_dt":26.1},{"city":"Marthaville","state_name":"Louisiana","lat":31.78137,"lng":-93.40367,"zip":"71450","miles_from_dt":26.44},{"city":"Mora","state_name":"Louisiana","lat":31.40125,"lng":-92.98074,"zip":"71455","miles_from_dt":26.68},{"city":"Pleasant Hill","state_name":"Louisiana","lat":31.81028,"lng":-93.49957,"zip":"71065","miles_from_dt":28.65},{"city":"Evans","state_name":"Louisiana","lat":30.98235,"lng":-93.49793,"zip":"70639","miles_from_dt":28.93},{"city":"Gorum","state_name":"Louisiana","lat":31.44618,"lng":-92.944,"zip":"71434","miles_from_dt":29.03}],"targetCityZipCode":"71429","targetCityState":"Louisiana"},"__N_SSG":true}