{"pageProps":{"stateName":"Louisiana","cityName":"garden-city","nearbyCities":[{"city":"Centerville","state_name":"Louisiana","lat":29.74949,"lng":-91.43287,"zip":"70522","miles_from_dt":2.36},{"city":"Franklin","state_name":"Louisiana","lat":29.74051,"lng":-91.54092,"zip":"70538","miles_from_dt":4.75},{"city":"Baldwin","state_name":"Louisiana","lat":29.8452,"lng":-91.55301,"zip":"70514","miles_from_dt":7.51},{"city":"Charenton","state_name":"Louisiana","lat":29.87383,"lng":-91.52956,"zip":"70523","miles_from_dt":8.33},{"city":"Patterson","state_name":"Louisiana","lat":29.69847,"lng":-91.32164,"zip":"70392","miles_from_dt":9.91},{"city":"Berwick","state_name":"Louisiana","lat":29.69486,"lng":-91.23772,"zip":"70342","miles_from_dt":14.64},{"city":"Jeanerette","state_name":"Louisiana","lat":29.9059,"lng":-91.6575,"zip":"70544","miles_from_dt":14.95},{"city":"Morgan City","state_name":"Louisiana","lat":29.69724,"lng":-91.19509,"zip":"70381","miles_from_dt":17.04},{"city":"Pierre Part","state_name":"Louisiana","lat":29.92987,"lng":-91.18357,"zip":"70339","miles_from_dt":20.45},{"city":"Morgan City","state_name":"Louisiana","lat":29.71944,"lng":-91.12634,"zip":"70380","miles_from_dt":20.75},{"city":"Lydia","state_name":"Louisiana","lat":29.92602,"lng":-91.78256,"zip":"70569","miles_from_dt":21.91},{"city":"Amelia","state_name":"Louisiana","lat":29.66974,"lng":-91.1043,"zip":"70340","miles_from_dt":22.81},{"city":"Loreauville","state_name":"Louisiana","lat":30.0617,"lng":-91.66641,"zip":"70552","miles_from_dt":23.63},{"city":"New Iberia","state_name":"Louisiana","lat":30.02454,"lng":-91.73053,"zip":"70563","miles_from_dt":23.82},{"city":"New Iberia","state_name":"Louisiana","lat":29.99052,"lng":-91.81723,"zip":"70562","miles_from_dt":26.09},{"city":"New Iberia","state_name":"Louisiana","lat":29.93965,"lng":-91.8642,"zip":"70560","miles_from_dt":26.67},{"city":"Napoleonville","state_name":"Louisiana","lat":29.89068,"lng":-91.03616,"zip":"70390","miles_from_dt":27.29},{"city":"Avery Island","state_name":"Louisiana","lat":29.90272,"lng":-91.90106,"zip":"70513","miles_from_dt":27.7},{"city":"Labadieville","state_name":"Louisiana","lat":29.78249,"lng":-90.9889,"zip":"70372","miles_from_dt":28.78},{"city":"Paincourtville","state_name":"Louisiana","lat":29.99516,"lng":-91.06029,"zip":"70391","miles_from_dt":29.1},{"city":"Belle Rose","state_name":"Louisiana","lat":30.02579,"lng":-91.08267,"zip":"70341","miles_from_dt":29.22}],"targetCityZipCode":"70540","targetCityState":"Louisiana"},"__N_SSG":true}