{"pageProps":{"stateName":"Louisiana","cityName":"golden-meadow","nearbyCities":[{"city":"Grand Isle","state_name":"Louisiana","lat":29.21367,"lng":-90.0306,"zip":"70358","miles_from_dt":9.97},{"city":"Galliano","state_name":"Louisiana","lat":29.43136,"lng":-90.34336,"zip":"70354","miles_from_dt":14.35},{"city":"Cut Off","state_name":"Louisiana","lat":29.51815,"lng":-90.23763,"zip":"70345","miles_from_dt":16.53},{"city":"Montegut","state_name":"Louisiana","lat":29.45808,"lng":-90.51361,"zip":"70377","miles_from_dt":23.69},{"city":"Larose","state_name":"Louisiana","lat":29.61335,"lng":-90.31919,"zip":"70373","miles_from_dt":24.27},{"city":"Port Sulphur","state_name":"Louisiana","lat":29.52342,"lng":-89.85211,"zip":"70083","miles_from_dt":25.48},{"city":"Barataria","state_name":"Louisiana","lat":29.69855,"lng":-90.12667,"zip":"70036","miles_from_dt":28.66},{"city":"Chauvin","state_name":"Louisiana","lat":29.39711,"lng":-90.63777,"zip":"70344","miles_from_dt":29},{"city":"Lockport","state_name":"Louisiana","lat":29.59924,"lng":-90.50319,"zip":"70374","miles_from_dt":29.36},{"city":"Bourg","state_name":"Louisiana","lat":29.55308,"lng":-90.56402,"zip":"70343","miles_from_dt":29.89}],"targetCityZipCode":"70357","targetCityState":"Louisiana"},"__N_SSG":true}