{"pageProps":{"stateName":"Louisiana","cityName":"goldonna","nearbyCities":[{"city":"Calvin","state_name":"Louisiana","lat":31.96419,"lng":-92.77125,"zip":"71410","miles_from_dt":7.88},{"city":"Saline","state_name":"Louisiana","lat":32.08629,"lng":-92.99618,"zip":"71070","miles_from_dt":7.94},{"city":"Campti","state_name":"Louisiana","lat":31.90466,"lng":-93.08894,"zip":"71411","miles_from_dt":13.61},{"city":"Dodson","state_name":"Louisiana","lat":32.07653,"lng":-92.65767,"zip":"71422","miles_from_dt":14.57},{"city":"Clarence","state_name":"Louisiana","lat":31.82593,"lng":-93.02515,"zip":"71414","miles_from_dt":14.91},{"city":"Ashland","state_name":"Louisiana","lat":32.11675,"lng":-93.116,"zip":"71002","miles_from_dt":14.94},{"city":"Winnfield","state_name":"Louisiana","lat":31.89482,"lng":-92.66373,"zip":"71483","miles_from_dt":15.7},{"city":"Joyce","state_name":"Louisiana","lat":31.94043,"lng":-92.59994,"zip":"71440","miles_from_dt":17.93},{"city":"Saint Maurice","state_name":"Louisiana","lat":31.75711,"lng":-92.96201,"zip":"71471","miles_from_dt":17.95},{"city":"Jonesboro","state_name":"Louisiana","lat":32.21891,"lng":-92.67162,"zip":"71251","miles_from_dt":19.36},{"city":"Atlanta","state_name":"Louisiana","lat":31.75404,"lng":-92.75257,"zip":"71404","miles_from_dt":19.55},{"city":"Castor","state_name":"Louisiana","lat":32.22899,"lng":-93.10818,"zip":"71016","miles_from_dt":19.59},{"city":"Powhatan","state_name":"Louisiana","lat":31.87478,"lng":-93.19829,"zip":"71066","miles_from_dt":20.21},{"city":"Hodge","state_name":"Louisiana","lat":32.27255,"lng":-92.72077,"zip":"71247","miles_from_dt":20.68},{"city":"Natchitoches","state_name":"Louisiana","lat":31.75761,"lng":-93.08624,"zip":"71458","miles_from_dt":20.8},{"city":"Natchitoches","state_name":"Louisiana","lat":31.74902,"lng":-93.09795,"zip":"71497","miles_from_dt":21.68},{"city":"Montgomery","state_name":"Louisiana","lat":31.69334,"lng":-92.86131,"zip":"71454","miles_from_dt":21.97},{"city":"Natchitoches","state_name":"Louisiana","lat":31.74045,"lng":-93.09375,"zip":"71457","miles_from_dt":22.04},{"city":"Bienville","state_name":"Louisiana","lat":32.33318,"lng":-92.96396,"zip":"71008","miles_from_dt":22.58},{"city":"Coushatta","state_name":"Louisiana","lat":32.03951,"lng":-93.30701,"zip":"71019","miles_from_dt":24.34},{"city":"Quitman","state_name":"Louisiana","lat":32.34696,"lng":-92.74418,"zip":"71268","miles_from_dt":24.75},{"city":"Natchez","state_name":"Louisiana","lat":31.63534,"lng":-92.97429,"zip":"71456","miles_from_dt":26.31},{"city":"Hall Summit","state_name":"Louisiana","lat":32.18442,"lng":-93.30553,"zip":"71034","miles_from_dt":26.95},{"city":"Sikes","state_name":"Louisiana","lat":32.06989,"lng":-92.42748,"zip":"71473","miles_from_dt":27.66},{"city":"Jamestown","state_name":"Louisiana","lat":32.3461,"lng":-93.16595,"zip":"71045","miles_from_dt":28.07},{"city":"Melrose","state_name":"Louisiana","lat":31.58021,"lng":-92.9414,"zip":"71452","miles_from_dt":29.81},{"city":"Flora","state_name":"Louisiana","lat":31.60921,"lng":-93.08855,"zip":"71428","miles_from_dt":29.96}],"targetCityZipCode":"71031","targetCityState":"Louisiana"},"__N_SSG":true}