{"pageProps":{"stateName":"Louisiana","cityName":"gorum","nearbyCities":[{"city":"Mora","state_name":"Louisiana","lat":31.40125,"lng":-92.98074,"zip":"71455","miles_from_dt":3.78},{"city":"Flatwoods","state_name":"Louisiana","lat":31.38879,"lng":-92.89388,"zip":"71427","miles_from_dt":4.94},{"city":"Cloutierville","state_name":"Louisiana","lat":31.53875,"lng":-92.89558,"zip":"71416","miles_from_dt":6.99},{"city":"Lena","state_name":"Louisiana","lat":31.43202,"lng":-92.8073,"zip":"71447","miles_from_dt":8.13},{"city":"Melrose","state_name":"Louisiana","lat":31.58021,"lng":-92.9414,"zip":"71452","miles_from_dt":9.24},{"city":"Provencal","state_name":"Louisiana","lat":31.48086,"lng":-93.14518,"zip":"71468","miles_from_dt":12.12},{"city":"Simpson","state_name":"Louisiana","lat":31.27724,"lng":-93.01394,"zip":"71474","miles_from_dt":12.35},{"city":"Natchez","state_name":"Louisiana","lat":31.63534,"lng":-92.97429,"zip":"71456","miles_from_dt":13.15},{"city":"Flora","state_name":"Louisiana","lat":31.60921,"lng":-93.08855,"zip":"71428","miles_from_dt":14.1},{"city":"Kurthwood","state_name":"Louisiana","lat":31.33477,"lng":-93.16478,"zip":"71443","miles_from_dt":15.14},{"city":"Boyce","state_name":"Louisiana","lat":31.31287,"lng":-92.69954,"zip":"71409","miles_from_dt":17.12},{"city":"Montgomery","state_name":"Louisiana","lat":31.69334,"lng":-92.86131,"zip":"71454","miles_from_dt":17.71},{"city":"Colfax","state_name":"Louisiana","lat":31.51611,"lng":-92.65361,"zip":"71417","miles_from_dt":17.81},{"city":"Gardner","state_name":"Louisiana","lat":31.26669,"lng":-92.69375,"zip":"71431","miles_from_dt":19.28},{"city":"Sieper","state_name":"Louisiana","lat":31.19834,"lng":-92.79216,"zip":"71472","miles_from_dt":19.29},{"city":"Otis","state_name":"Louisiana","lat":31.21593,"lng":-92.74886,"zip":"71466","miles_from_dt":19.62},{"city":"Slagle","state_name":"Louisiana","lat":31.20123,"lng":-93.12461,"zip":"71475","miles_from_dt":19.97},{"city":"Saint Maurice","state_name":"Louisiana","lat":31.75711,"lng":-92.96201,"zip":"71471","miles_from_dt":21.45},{"city":"Natchitoches","state_name":"Louisiana","lat":31.74045,"lng":-93.09375,"zip":"71457","miles_from_dt":22.11},{"city":"Natchitoches","state_name":"Louisiana","lat":31.74902,"lng":-93.09795,"zip":"71497","miles_from_dt":22.75},{"city":"Natchitoches","state_name":"Louisiana","lat":31.75761,"lng":-93.08624,"zip":"71458","miles_from_dt":23.04},{"city":"Elmer","state_name":"Louisiana","lat":31.17976,"lng":-92.69207,"zip":"71424","miles_from_dt":23.64},{"city":"Alexandria","state_name":"Louisiana","lat":31.19439,"lng":-92.67155,"zip":"71306","miles_from_dt":23.68},{"city":"Atlanta","state_name":"Louisiana","lat":31.75404,"lng":-92.75257,"zip":"71404","miles_from_dt":24.03},{"city":"Leesville","state_name":"Louisiana","lat":31.15585,"lng":-93.17187,"zip":"71446","miles_from_dt":24.12},{"city":"Hineston","state_name":"Louisiana","lat":31.10092,"lng":-92.87511,"zip":"71438","miles_from_dt":24.13},{"city":"Dry Prong","state_name":"Louisiana","lat":31.60012,"lng":-92.56341,"zip":"71423","miles_from_dt":24.84},{"city":"Robeline","state_name":"Louisiana","lat":31.67755,"lng":-93.2671,"zip":"71469","miles_from_dt":24.85},{"city":"Hornbeck","state_name":"Louisiana","lat":31.33707,"lng":-93.36597,"zip":"71439","miles_from_dt":26.05},{"city":"Alexandria","state_name":"Louisiana","lat":31.28081,"lng":-92.54308,"zip":"71303","miles_from_dt":26.3},{"city":"Clarence","state_name":"Louisiana","lat":31.82593,"lng":-93.02515,"zip":"71414","miles_from_dt":26.6},{"city":"Bentley","state_name":"Louisiana","lat":31.51837,"lng":-92.48402,"zip":"71407","miles_from_dt":27.61},{"city":"Leesville","state_name":"Louisiana","lat":31.14359,"lng":-93.25839,"zip":"71496","miles_from_dt":27.94},{"city":"Florien","state_name":"Louisiana","lat":31.39843,"lng":-93.43218,"zip":"71429","miles_from_dt":29.03}],"targetCityZipCode":"71434","targetCityState":"Louisiana"},"__N_SSG":true}