{"pageProps":{"stateName":"Louisiana","cityName":"independence","nearbyCities":[{"city":"Tickfaw","state_name":"Louisiana","lat":30.5685,"lng":-90.50195,"zip":"70466","miles_from_dt":4.81},{"city":"Natalbany","state_name":"Louisiana","lat":30.54964,"lng":-90.48111,"zip":"70451","miles_from_dt":6.57},{"city":"Albany","state_name":"Louisiana","lat":30.53065,"lng":-90.60229,"zip":"70711","miles_from_dt":7.64},{"city":"Amite","state_name":"Louisiana","lat":30.73699,"lng":-90.491,"zip":"70422","miles_from_dt":8.06},{"city":"Hammond","state_name":"Louisiana","lat":30.5281,"lng":-90.45472,"zip":"70401","miles_from_dt":8.69},{"city":"Hammond","state_name":"Louisiana","lat":30.51652,"lng":-90.46932,"zip":"70402","miles_from_dt":8.88},{"city":"Holden","state_name":"Louisiana","lat":30.56173,"lng":-90.67689,"zip":"70744","miles_from_dt":9.24},{"city":"Hammond","state_name":"Louisiana","lat":30.51227,"lng":-90.45631,"zip":"70404","miles_from_dt":9.54},{"city":"Hammond","state_name":"Louisiana","lat":30.47989,"lng":-90.48639,"zip":"70403","miles_from_dt":10.79},{"city":"Loranger","state_name":"Louisiana","lat":30.63612,"lng":-90.35159,"zip":"70446","miles_from_dt":11.39},{"city":"Roseland","state_name":"Louisiana","lat":30.79332,"lng":-90.50702,"zip":"70456","miles_from_dt":11.53},{"city":"Husser","state_name":"Louisiana","lat":30.70307,"lng":-90.33433,"zip":"70442","miles_from_dt":13.41},{"city":"Fluker","state_name":"Louisiana","lat":30.83057,"lng":-90.53315,"zip":"70436","miles_from_dt":13.91},{"city":"Pine Grove","state_name":"Louisiana","lat":30.69385,"lng":-90.76918,"zip":"70453","miles_from_dt":14.22},{"city":"Robert","state_name":"Louisiana","lat":30.52438,"lng":-90.31883,"zip":"70455","miles_from_dt":15.15},{"city":"Tangipahoa","state_name":"Louisiana","lat":30.87577,"lng":-90.51384,"zip":"70465","miles_from_dt":17.1},{"city":"Walker","state_name":"Louisiana","lat":30.55621,"lng":-90.81858,"zip":"70785","miles_from_dt":17.19},{"city":"Springfield","state_name":"Louisiana","lat":30.3656,"lng":-90.58368,"zip":"70462","miles_from_dt":18.3},{"city":"Akers","state_name":"Louisiana","lat":30.39704,"lng":-90.36853,"zip":"70421","miles_from_dt":19.05},{"city":"Ponchatoula","state_name":"Louisiana","lat":30.39525,"lng":-90.3682,"zip":"70454","miles_from_dt":19.16},{"city":"Kentwood","state_name":"Louisiana","lat":30.90833,"lng":-90.48707,"zip":"70444","miles_from_dt":19.53},{"city":"Livingston","state_name":"Louisiana","lat":30.40542,"lng":-90.74462,"zip":"70754","miles_from_dt":19.55},{"city":"Folsom","state_name":"Louisiana","lat":30.60909,"lng":-90.20928,"zip":"70437","miles_from_dt":19.9},{"city":"Greensburg","state_name":"Louisiana","lat":30.85987,"lng":-90.7489,"zip":"70441","miles_from_dt":20.1},{"city":"Denham Springs","state_name":"Louisiana","lat":30.61453,"lng":-90.90086,"zip":"70706","miles_from_dt":21.37},{"city":"Watson","state_name":"Louisiana","lat":30.58236,"lng":-90.95429,"zip":"70786","miles_from_dt":24.74},{"city":"Madisonville","state_name":"Louisiana","lat":30.42144,"lng":-90.20257,"zip":"70447","miles_from_dt":24.8},{"city":"Greenwell Springs","state_name":"Louisiana","lat":30.60107,"lng":-90.9684,"zip":"70739","miles_from_dt":25.44},{"city":"Denham Springs","state_name":"Louisiana","lat":30.42994,"lng":-90.90361,"zip":"70726","miles_from_dt":25.52},{"city":"Maurepas","state_name":"Louisiana","lat":30.26363,"lng":-90.66345,"zip":"70449","miles_from_dt":26.17},{"city":"Saint Benedict","state_name":"Louisiana","lat":30.52743,"lng":-90.11332,"zip":"70457","miles_from_dt":26.52},{"city":"Covington","state_name":"Louisiana","lat":30.46184,"lng":-90.13796,"zip":"70433","miles_from_dt":26.73},{"city":"Covington","state_name":"Louisiana","lat":30.55955,"lng":-90.101,"zip":"70435","miles_from_dt":26.74},{"city":"Mount Hermon","state_name":"Louisiana","lat":30.93667,"lng":-90.26755,"zip":"70450","miles_from_dt":26.78},{"city":"Pride","state_name":"Louisiana","lat":30.65134,"lng":-90.99316,"zip":"70770","miles_from_dt":26.88},{"city":"French Settlement","state_name":"Louisiana","lat":30.30437,"lng":-90.79487,"zip":"70733","miles_from_dt":26.95},{"city":"Clinton","state_name":"Louisiana","lat":30.84337,"lng":-90.93244,"zip":"70722","miles_from_dt":27.51},{"city":"Osyka","state_name":"Mississippi","lat":31.02727,"lng":-90.50334,"zip":"39657","miles_from_dt":27.55},{"city":"Denham Springs","state_name":"Louisiana","lat":30.44986,"lng":-90.9678,"zip":"70727","miles_from_dt":28.19},{"city":"Covington","state_name":"Louisiana","lat":30.46636,"lng":-90.09263,"zip":"70434","miles_from_dt":29.07},{"city":"Franklinton","state_name":"Louisiana","lat":30.84139,"lng":-90.11186,"zip":"70438","miles_from_dt":29.52},{"city":"Baton Rouge","state_name":"Louisiana","lat":30.47133,"lng":-91.00748,"zip":"70819","miles_from_dt":29.77}],"targetCityZipCode":"70443","targetCityState":"Louisiana"},"__N_SSG":true}