{"pageProps":{"stateName":"Louisiana","cityName":"jeanerette","nearbyCities":[{"city":"Baldwin","state_name":"Louisiana","lat":29.8452,"lng":-91.55301,"zip":"70514","miles_from_dt":7.54},{"city":"Lydia","state_name":"Louisiana","lat":29.92602,"lng":-91.78256,"zip":"70569","miles_from_dt":7.63},{"city":"Charenton","state_name":"Louisiana","lat":29.87383,"lng":-91.52956,"zip":"70523","miles_from_dt":7.99},{"city":"New Iberia","state_name":"Louisiana","lat":30.02454,"lng":-91.73053,"zip":"70563","miles_from_dt":9.27},{"city":"Loreauville","state_name":"Louisiana","lat":30.0617,"lng":-91.66641,"zip":"70552","miles_from_dt":10.74},{"city":"New Iberia","state_name":"Louisiana","lat":29.99052,"lng":-91.81723,"zip":"70562","miles_from_dt":11.21},{"city":"New Iberia","state_name":"Louisiana","lat":29.93965,"lng":-91.8642,"zip":"70560","miles_from_dt":12.62},{"city":"Franklin","state_name":"Louisiana","lat":29.74051,"lng":-91.54092,"zip":"70538","miles_from_dt":13.37},{"city":"Avery Island","state_name":"Louisiana","lat":29.90272,"lng":-91.90106,"zip":"70513","miles_from_dt":14.62},{"city":"Garden City","state_name":"Louisiana","lat":29.76571,"lng":-91.4674,"zip":"70540","miles_from_dt":14.95},{"city":"Centerville","state_name":"Louisiana","lat":29.74949,"lng":-91.43287,"zip":"70522","miles_from_dt":17.26},{"city":"Delcambre","state_name":"Louisiana","lat":29.89766,"lng":-91.96692,"zip":"70528","miles_from_dt":18.58},{"city":"Saint Martinville","state_name":"Louisiana","lat":30.15961,"lng":-91.7854,"zip":"70582","miles_from_dt":19.08},{"city":"Cade","state_name":"Louisiana","lat":30.08178,"lng":-91.90705,"zip":"70519","miles_from_dt":19.25},{"city":"Erath","state_name":"Louisiana","lat":29.90439,"lng":-92.03536,"zip":"70533","miles_from_dt":22.68},{"city":"Broussard","state_name":"Louisiana","lat":30.13503,"lng":-91.92922,"zip":"70518","miles_from_dt":22.68},{"city":"Youngsville","state_name":"Louisiana","lat":30.08024,"lng":-92.01338,"zip":"70592","miles_from_dt":24.48},{"city":"Patterson","state_name":"Louisiana","lat":29.69847,"lng":-91.32164,"zip":"70392","miles_from_dt":24.72},{"city":"Breaux Bridge","state_name":"Louisiana","lat":30.28421,"lng":-91.79615,"zip":"70517","miles_from_dt":27.35},{"city":"Lafayette","state_name":"Louisiana","lat":30.17595,"lng":-92.00999,"zip":"70598","miles_from_dt":28.15},{"city":"Lafayette","state_name":"Louisiana","lat":30.15627,"lng":-92.02913,"zip":"70508","miles_from_dt":28.17},{"city":"Milton","state_name":"Louisiana","lat":30.10042,"lng":-92.07573,"zip":"70558","miles_from_dt":28.43},{"city":"Pierre Part","state_name":"Louisiana","lat":29.92987,"lng":-91.18357,"zip":"70339","miles_from_dt":28.49},{"city":"Abbeville","state_name":"Louisiana","lat":29.96968,"lng":-92.13184,"zip":"70511","miles_from_dt":28.79},{"city":"Berwick","state_name":"Louisiana","lat":29.69486,"lng":-91.23772,"zip":"70342","miles_from_dt":29.11}],"targetCityZipCode":"70544","targetCityState":"Louisiana"},"__N_SSG":true}