{"pageProps":{"stateName":"Louisiana","cityName":"kaplan","nearbyCities":[{"city":"Abbeville","state_name":"Louisiana","lat":29.89493,"lng":-92.19569,"zip":"70510","miles_from_dt":14.99},{"city":"Gueydan","state_name":"Louisiana","lat":30.00442,"lng":-92.5886,"zip":"70542","miles_from_dt":17.53},{"city":"Perry","state_name":"Louisiana","lat":29.94892,"lng":-92.15808,"zip":"70575","miles_from_dt":18.81},{"city":"Abbeville","state_name":"Louisiana","lat":29.96968,"lng":-92.13184,"zip":"70511","miles_from_dt":20.92},{"city":"Grand Chenier","state_name":"Louisiana","lat":29.73649,"lng":-92.7939,"zip":"70643","miles_from_dt":22.93},{"city":"Morse","state_name":"Louisiana","lat":30.12876,"lng":-92.50903,"zip":"70559","miles_from_dt":23.46},{"city":"Erath","state_name":"Louisiana","lat":29.90439,"lng":-92.03536,"zip":"70533","miles_from_dt":24.17},{"city":"Estherwood","state_name":"Louisiana","lat":30.16564,"lng":-92.45499,"zip":"70534","miles_from_dt":25.46},{"city":"Maurice","state_name":"Louisiana","lat":30.08188,"lng":-92.14123,"zip":"70555","miles_from_dt":25.72},{"city":"Delcambre","state_name":"Louisiana","lat":29.89766,"lng":-91.96692,"zip":"70528","miles_from_dt":28},{"city":"Creole","state_name":"Louisiana","lat":29.86747,"lng":-92.87987,"zip":"70632","miles_from_dt":28.11},{"city":"Crowley","state_name":"Louisiana","lat":30.21051,"lng":-92.37951,"zip":"70526","miles_from_dt":28.56},{"city":"Mermentau","state_name":"Louisiana","lat":30.19072,"lng":-92.58325,"zip":"70556","miles_from_dt":28.84},{"city":"Milton","state_name":"Louisiana","lat":30.10042,"lng":-92.07573,"zip":"70558","miles_from_dt":29.31}],"targetCityZipCode":"70548","targetCityState":"Louisiana"},"__N_SSG":true}