{"pageProps":{"stateName":"Louisiana","cityName":"longstreet","nearbyCities":[{"city":"Keatchie","state_name":"Louisiana","lat":32.16647,"lng":-93.94589,"zip":"71046","miles_from_dt":4.72},{"city":"Logansport","state_name":"Louisiana","lat":32.01603,"lng":-93.96663,"zip":"71049","miles_from_dt":5.73},{"city":"Grand Cane","state_name":"Louisiana","lat":32.09383,"lng":-93.79247,"zip":"71032","miles_from_dt":9.3},{"city":"Gloster","state_name":"Louisiana","lat":32.19267,"lng":-93.78932,"zip":"71030","miles_from_dt":11.5},{"city":"Joaquin","state_name":"Texas","lat":31.92169,"lng":-94.05523,"zip":"75954","miles_from_dt":13.61},{"city":"Keithville","state_name":"Louisiana","lat":32.29972,"lng":-93.91673,"zip":"71047","miles_from_dt":14.04},{"city":"Stonewall","state_name":"Louisiana","lat":32.27721,"lng":-93.7976,"zip":"71078","miles_from_dt":15.26},{"city":"Mansfield","state_name":"Louisiana","lat":32.01814,"lng":-93.66243,"zip":"71052","miles_from_dt":17.8},{"city":"De Berry","state_name":"Texas","lat":32.28441,"lng":-94.16897,"zip":"75639","miles_from_dt":18.11},{"city":"Frierson","state_name":"Louisiana","lat":32.24953,"lng":-93.68698,"zip":"71027","miles_from_dt":18.66},{"city":"Bethany","state_name":"Louisiana","lat":32.36854,"lng":-94.00502,"zip":"71007","miles_from_dt":18.9},{"city":"Tenaha","state_name":"Texas","lat":31.95674,"lng":-94.23713,"zip":"75974","miles_from_dt":19.42},{"city":"Carthage","state_name":"Texas","lat":32.12788,"lng":-94.28109,"zip":"75633","miles_from_dt":19.47},{"city":"Shreveport","state_name":"Louisiana","lat":32.386,"lng":-93.93019,"zip":"71150","miles_from_dt":19.88},{"city":"Shreveport","state_name":"Louisiana","lat":32.38697,"lng":-93.92685,"zip":"71129","miles_from_dt":19.96},{"city":"Panola","state_name":"Texas","lat":32.36033,"lng":-94.11072,"zip":"75685","miles_from_dt":20.35},{"city":"Shreveport","state_name":"Louisiana","lat":32.39262,"lng":-93.80498,"zip":"71118","miles_from_dt":22.02},{"city":"Elysian Fields","state_name":"Texas","lat":32.35818,"lng":-94.17821,"zip":"75642","miles_from_dt":22.33},{"city":"Shreveport","state_name":"Louisiana","lat":32.40577,"lng":-93.79601,"zip":"71138","miles_from_dt":23.06},{"city":"Shreveport","state_name":"Louisiana","lat":32.38507,"lng":-93.73558,"zip":"71106","miles_from_dt":23.45},{"city":"Greenwood","state_name":"Louisiana","lat":32.44121,"lng":-94.00364,"zip":"71033","miles_from_dt":23.84},{"city":"Converse","state_name":"Louisiana","lat":31.80188,"lng":-93.72614,"zip":"71419","miles_from_dt":24.31},{"city":"Gary","state_name":"Texas","lat":32.01041,"lng":-94.35518,"zip":"75643","miles_from_dt":24.48},{"city":"Shreveport","state_name":"Louisiana","lat":32.41873,"lng":-93.7609,"zip":"71136","miles_from_dt":24.74},{"city":"Shreveport","state_name":"Louisiana","lat":32.44092,"lng":-93.78844,"zip":"71152","miles_from_dt":25.47},{"city":"Shreveport","state_name":"Louisiana","lat":32.26472,"lng":-93.56247,"zip":"71115","miles_from_dt":25.49},{"city":"Shreveport","state_name":"Louisiana","lat":32.44236,"lng":-93.78881,"zip":"71108","miles_from_dt":25.55},{"city":"Shelbyville","state_name":"Texas","lat":31.71977,"lng":-93.93259,"zip":"75973","miles_from_dt":26.09},{"city":"Shreveport","state_name":"Louisiana","lat":32.48542,"lng":-93.92296,"zip":"71119","miles_from_dt":26.74},{"city":"Shreveport","state_name":"Louisiana","lat":32.4572,"lng":-93.77776,"zip":"71148","miles_from_dt":26.74},{"city":"Shreveport","state_name":"Louisiana","lat":32.46859,"lng":-93.814,"zip":"71109","miles_from_dt":26.76},{"city":"Waskom","state_name":"Texas","lat":32.4718,"lng":-94.11936,"zip":"75692","miles_from_dt":27.57},{"city":"Shreveport","state_name":"Louisiana","lat":32.442,"lng":-93.70774,"zip":"71135","miles_from_dt":27.64},{"city":"Shreveport","state_name":"Louisiana","lat":32.45512,"lng":-93.71012,"zip":"71105","miles_from_dt":28.35},{"city":"Pelican","state_name":"Louisiana","lat":31.91051,"lng":-93.51569,"zip":"71063","miles_from_dt":28.63},{"city":"Shreveport","state_name":"Louisiana","lat":32.48871,"lng":-93.76813,"zip":"71133","miles_from_dt":28.96},{"city":"Shreveport","state_name":"Louisiana","lat":32.49154,"lng":-93.7717,"zip":"71103","miles_from_dt":29.07},{"city":"Shreveport","state_name":"Louisiana","lat":32.49105,"lng":-93.7693,"zip":"71130","miles_from_dt":29.09},{"city":"Shreveport","state_name":"Louisiana","lat":32.47863,"lng":-93.73523,"zip":"71134","miles_from_dt":29.1},{"city":"Shreveport","state_name":"Louisiana","lat":32.49334,"lng":-93.77152,"zip":"71102","miles_from_dt":29.19},{"city":"Shreveport","state_name":"Louisiana","lat":32.49291,"lng":-93.76637,"zip":"71154","miles_from_dt":29.27},{"city":"Center","state_name":"Texas","lat":31.72999,"lng":-94.20077,"zip":"75935","miles_from_dt":29.31},{"city":"Jonesville","state_name":"Texas","lat":32.50725,"lng":-94.09249,"zip":"75659","miles_from_dt":29.39},{"city":"Shreveport","state_name":"Louisiana","lat":32.48525,"lng":-93.73171,"zip":"71104","miles_from_dt":29.6},{"city":"Shreveport","state_name":"Louisiana","lat":32.49798,"lng":-93.75199,"zip":"71161","miles_from_dt":29.91}],"targetCityZipCode":"71050","targetCityState":"Louisiana"},"__N_SSG":true}