{"pageProps":{"stateName":"Louisiana","cityName":"marthaville","nearbyCities":[{"city":"Pleasant Hill","state_name":"Louisiana","lat":31.81028,"lng":-93.49957,"zip":"71065","miles_from_dt":5.98},{"city":"Belmont","state_name":"Louisiana","lat":31.73425,"lng":-93.50536,"zip":"71406","miles_from_dt":6.81},{"city":"Robeline","state_name":"Louisiana","lat":31.67755,"lng":-93.2671,"zip":"71469","miles_from_dt":10.76},{"city":"Pelican","state_name":"Louisiana","lat":31.91051,"lng":-93.51569,"zip":"71063","miles_from_dt":11.07},{"city":"Powhatan","state_name":"Louisiana","lat":31.87478,"lng":-93.19829,"zip":"71066","miles_from_dt":13.69},{"city":"Natchitoches","state_name":"Louisiana","lat":31.74902,"lng":-93.09795,"zip":"71497","miles_from_dt":18.13},{"city":"Zwolle","state_name":"Louisiana","lat":31.62679,"lng":-93.65876,"zip":"71486","miles_from_dt":18.42},{"city":"Natchitoches","state_name":"Louisiana","lat":31.74045,"lng":-93.09375,"zip":"71457","miles_from_dt":18.46},{"city":"Coushatta","state_name":"Louisiana","lat":32.03951,"lng":-93.30701,"zip":"71019","miles_from_dt":18.67},{"city":"Natchitoches","state_name":"Louisiana","lat":31.75761,"lng":-93.08624,"zip":"71458","miles_from_dt":18.76},{"city":"Converse","state_name":"Louisiana","lat":31.80188,"lng":-93.72614,"zip":"71419","miles_from_dt":19.03},{"city":"Many","state_name":"Louisiana","lat":31.5153,"lng":-93.54383,"zip":"71449","miles_from_dt":20.11},{"city":"Fisher","state_name":"Louisiana","lat":31.49182,"lng":-93.46165,"zip":"71426","miles_from_dt":20.24},{"city":"Campti","state_name":"Louisiana","lat":31.90466,"lng":-93.08894,"zip":"71411","miles_from_dt":20.37},{"city":"Noble","state_name":"Louisiana","lat":31.66625,"lng":-93.7324,"zip":"71462","miles_from_dt":20.92},{"city":"Flora","state_name":"Louisiana","lat":31.60921,"lng":-93.08855,"zip":"71428","miles_from_dt":22.03},{"city":"Mansfield","state_name":"Louisiana","lat":32.01814,"lng":-93.66243,"zip":"71052","miles_from_dt":22.3},{"city":"Clarence","state_name":"Louisiana","lat":31.82593,"lng":-93.02515,"zip":"71414","miles_from_dt":22.48},{"city":"Negreet","state_name":"Louisiana","lat":31.47149,"lng":-93.57269,"zip":"71460","miles_from_dt":23.56},{"city":"Provencal","state_name":"Louisiana","lat":31.48086,"lng":-93.14518,"zip":"71468","miles_from_dt":25.71},{"city":"Saint Maurice","state_name":"Louisiana","lat":31.75711,"lng":-92.96201,"zip":"71471","miles_from_dt":26.05},{"city":"Florien","state_name":"Louisiana","lat":31.39843,"lng":-93.43218,"zip":"71429","miles_from_dt":26.44},{"city":"Natchez","state_name":"Louisiana","lat":31.63534,"lng":-92.97429,"zip":"71456","miles_from_dt":27.22},{"city":"Hall Summit","state_name":"Louisiana","lat":32.18442,"lng":-93.30553,"zip":"71034","miles_from_dt":28.36},{"city":"Ashland","state_name":"Louisiana","lat":32.11675,"lng":-93.116,"zip":"71002","miles_from_dt":28.63}],"targetCityZipCode":"71450","targetCityState":"Louisiana"},"__N_SSG":true}