{"pageProps":{"stateName":"Louisiana","cityName":"mount-hermon","nearbyCities":[{"city":"Franklinton","state_name":"Louisiana","lat":30.84139,"lng":-90.11186,"zip":"70438","miles_from_dt":11.34},{"city":"Kentwood","state_name":"Louisiana","lat":30.90833,"lng":-90.48707,"zip":"70444","miles_from_dt":13.18},{"city":"Tangipahoa","state_name":"Louisiana","lat":30.87577,"lng":-90.51384,"zip":"70465","miles_from_dt":15.22},{"city":"Osyka","state_name":"Mississippi","lat":31.02727,"lng":-90.50334,"zip":"39657","miles_from_dt":15.32},{"city":"Tylertown","state_name":"Mississippi","lat":31.1298,"lng":-90.12656,"zip":"39667","miles_from_dt":15.72},{"city":"Husser","state_name":"Louisiana","lat":30.70307,"lng":-90.33433,"zip":"70442","miles_from_dt":16.58},{"city":"Magnolia","state_name":"Mississippi","lat":31.11034,"lng":-90.46701,"zip":"39652","miles_from_dt":16.83},{"city":"Roseland","state_name":"Louisiana","lat":30.79332,"lng":-90.50702,"zip":"70456","miles_from_dt":17.32},{"city":"Fluker","state_name":"Louisiana","lat":30.83057,"lng":-90.53315,"zip":"70436","miles_from_dt":17.39},{"city":"Mccomb","state_name":"Mississippi","lat":31.18611,"lng":-90.38804,"zip":"39648","miles_from_dt":18.61},{"city":"Amite","state_name":"Louisiana","lat":30.73699,"lng":-90.491,"zip":"70422","miles_from_dt":19.12},{"city":"Fernwood","state_name":"Mississippi","lat":31.18432,"lng":-90.44859,"zip":"39635","miles_from_dt":20.16},{"city":"Chatawa","state_name":"Mississippi","lat":31.16979,"lng":-90.47385,"zip":"39632","miles_from_dt":20.19},{"city":"Loranger","state_name":"Louisiana","lat":30.63612,"lng":-90.35159,"zip":"70446","miles_from_dt":21.3},{"city":"Folsom","state_name":"Louisiana","lat":30.60909,"lng":-90.20928,"zip":"70437","miles_from_dt":22.83},{"city":"Mccomb","state_name":"Mississippi","lat":31.24374,"lng":-90.45592,"zip":"39649","miles_from_dt":23.92},{"city":"Angie","state_name":"Louisiana","lat":30.93142,"lng":-89.85807,"zip":"70426","miles_from_dt":24.32},{"city":"Bogalusa","state_name":"Louisiana","lat":30.74587,"lng":-89.9125,"zip":"70427","miles_from_dt":24.86},{"city":"Sandy Hook","state_name":"Mississippi","lat":31.05306,"lng":-89.85768,"zip":"39478","miles_from_dt":25.61},{"city":"Kokomo","state_name":"Mississippi","lat":31.24575,"lng":-90.01368,"zip":"39643","miles_from_dt":26.08},{"city":"Varnado","state_name":"Louisiana","lat":30.89361,"lng":-89.82944,"zip":"70467","miles_from_dt":26.19},{"city":"Independence","state_name":"Louisiana","lat":30.62885,"lng":-90.54257,"zip":"70443","miles_from_dt":26.78},{"city":"Bogalusa","state_name":"Louisiana","lat":30.78778,"lng":-89.84833,"zip":"70429","miles_from_dt":26.94},{"city":"Summit","state_name":"Mississippi","lat":31.2853,"lng":-90.48857,"zip":"39666","miles_from_dt":27.36},{"city":"Covington","state_name":"Louisiana","lat":30.55955,"lng":-90.101,"zip":"70435","miles_from_dt":27.8},{"city":"Bush","state_name":"Louisiana","lat":30.61211,"lng":-89.97215,"zip":"70431","miles_from_dt":28.44},{"city":"Robert","state_name":"Louisiana","lat":30.52438,"lng":-90.31883,"zip":"70455","miles_from_dt":28.57},{"city":"Foxworth","state_name":"Mississippi","lat":31.23515,"lng":-89.92674,"zip":"39483","miles_from_dt":28.83},{"city":"Tickfaw","state_name":"Louisiana","lat":30.5685,"lng":-90.50195,"zip":"70466","miles_from_dt":28.94},{"city":"Greensburg","state_name":"Louisiana","lat":30.85987,"lng":-90.7489,"zip":"70441","miles_from_dt":29.08},{"city":"Sun","state_name":"Louisiana","lat":30.6551,"lng":-89.90162,"zip":"70463","miles_from_dt":29.15},{"city":"Natalbany","state_name":"Louisiana","lat":30.54964,"lng":-90.48111,"zip":"70451","miles_from_dt":29.54},{"city":"Jayess","state_name":"Mississippi","lat":31.35717,"lng":-90.17042,"zip":"39641","miles_from_dt":29.54},{"city":"Saint Benedict","state_name":"Louisiana","lat":30.52743,"lng":-90.11332,"zip":"70457","miles_from_dt":29.65}],"targetCityZipCode":"70450","targetCityState":"Louisiana"},"__N_SSG":true}