{"pageProps":{"stateName":"Louisiana","cityName":"oberlin","nearbyCities":[{"city":"Elton","state_name":"Louisiana","lat":30.4705,"lng":-92.6993,"zip":"70532","miles_from_dt":11},{"city":"Mittie","state_name":"Louisiana","lat":30.69212,"lng":-92.88075,"zip":"70654","miles_from_dt":11.45},{"city":"Oakdale","state_name":"Louisiana","lat":30.80854,"lng":-92.64853,"zip":"71463","miles_from_dt":12.69},{"city":"Mamou","state_name":"Louisiana","lat":30.63633,"lng":-92.48885,"zip":"70554","miles_from_dt":12.72},{"city":"Kinder","state_name":"Louisiana","lat":30.50568,"lng":-92.88387,"zip":"70648","miles_from_dt":13.81},{"city":"Basile","state_name":"Louisiana","lat":30.44843,"lng":-92.57154,"zip":"70515","miles_from_dt":14.75},{"city":"Elizabeth","state_name":"Louisiana","lat":30.84948,"lng":-92.78436,"zip":"70638","miles_from_dt":15.87},{"city":"Leblanc","state_name":"Louisiana","lat":30.54333,"lng":-92.95127,"zip":"70651","miles_from_dt":16},{"city":"Reddell","state_name":"Louisiana","lat":30.67551,"lng":-92.4284,"zip":"70580","miles_from_dt":16.61},{"city":"Dry Creek","state_name":"Louisiana","lat":30.70508,"lng":-92.97207,"zip":"70637","miles_from_dt":16.87},{"city":"Grant","state_name":"Louisiana","lat":30.79078,"lng":-92.94924,"zip":"70644","miles_from_dt":18.39},{"city":"Eunice","state_name":"Louisiana","lat":30.47999,"lng":-92.42367,"zip":"70535","miles_from_dt":19.57},{"city":"Pine Prairie","state_name":"Louisiana","lat":30.78097,"lng":-92.41826,"zip":"70576","miles_from_dt":19.84},{"city":"Reeves","state_name":"Louisiana","lat":30.52324,"lng":-93.03297,"zip":"70658","miles_from_dt":21.04},{"city":"Sugartown","state_name":"Louisiana","lat":30.80072,"lng":-92.99834,"zip":"70662","miles_from_dt":21.17},{"city":"Fenton","state_name":"Louisiana","lat":30.36587,"lng":-92.91652,"zip":"70640","miles_from_dt":22.24},{"city":"Ville Platte","state_name":"Louisiana","lat":30.74504,"lng":-92.34151,"zip":"70586","miles_from_dt":22.89},{"city":"Chataignier","state_name":"Louisiana","lat":30.55737,"lng":-92.31859,"zip":"70524","miles_from_dt":23.41},{"city":"Iota","state_name":"Louisiana","lat":30.33532,"lng":-92.5014,"zip":"70543","miles_from_dt":23.59},{"city":"Pitkin","state_name":"Louisiana","lat":30.91647,"lng":-92.94272,"zip":"70656","miles_from_dt":24.36},{"city":"Turkey Creek","state_name":"Louisiana","lat":30.87832,"lng":-92.4077,"zip":"70585","miles_from_dt":24.48},{"city":"Jennings","state_name":"Louisiana","lat":30.26756,"lng":-92.66747,"zip":"70546","miles_from_dt":25.07},{"city":"Glenmora","state_name":"Louisiana","lat":31.00208,"lng":-92.64803,"zip":"71433","miles_from_dt":25.82},{"city":"Roanoke","state_name":"Louisiana","lat":30.25496,"lng":-92.73588,"zip":"70581","miles_from_dt":25.93},{"city":"Evangeline","state_name":"Louisiana","lat":30.25747,"lng":-92.56642,"zip":"70537","miles_from_dt":26.93},{"city":"Welsh","state_name":"Louisiana","lat":30.25604,"lng":-92.8397,"zip":"70591","miles_from_dt":27.05},{"city":"Longleaf","state_name":"Louisiana","lat":31.00872,"lng":-92.55397,"zip":"71448","miles_from_dt":27.53},{"city":"Ragley","state_name":"Louisiana","lat":30.5004,"lng":-93.14279,"zip":"70657","miles_from_dt":27.74},{"city":"Branch","state_name":"Louisiana","lat":30.3674,"lng":-92.30289,"zip":"70516","miles_from_dt":29.93}],"targetCityZipCode":"70655","targetCityState":"Louisiana"},"__N_SSG":true}