{"pageProps":{"stateName":"Louisiana","cityName":"plaquemine","nearbyCities":[{"city":"Plaquemine","state_name":"Louisiana","lat":30.28825,"lng":-91.23356,"zip":"70765","miles_from_dt":6.17},{"city":"Addis","state_name":"Louisiana","lat":30.3559,"lng":-91.26773,"zip":"70710","miles_from_dt":9.31},{"city":"Sunshine","state_name":"Louisiana","lat":30.29538,"lng":-91.16993,"zip":"70780","miles_from_dt":9.5},{"city":"White Castle","state_name":"Louisiana","lat":30.13618,"lng":-91.17939,"zip":"70788","miles_from_dt":9.77},{"city":"Brusly","state_name":"Louisiana","lat":30.37734,"lng":-91.29077,"zip":"70719","miles_from_dt":10.53},{"city":"Grosse Tete","state_name":"Louisiana","lat":30.33777,"lng":-91.43311,"zip":"70740","miles_from_dt":10.84},{"city":"Baton Rouge","state_name":"Louisiana","lat":30.36812,"lng":-91.18279,"zip":"70820","miles_from_dt":12.32},{"city":"Carville","state_name":"Louisiana","lat":30.21639,"lng":-91.09301,"zip":"70721","miles_from_dt":12.79},{"city":"Saint Gabriel","state_name":"Louisiana","lat":30.26051,"lng":-91.08923,"zip":"70776","miles_from_dt":13.23},{"city":"Baton Rouge","state_name":"Louisiana","lat":30.41165,"lng":-91.17783,"zip":"70803","miles_from_dt":14.98},{"city":"Baton Rouge","state_name":"Louisiana","lat":30.4122,"lng":-91.17251,"zip":"70893","miles_from_dt":15.18},{"city":"Baton Rouge","state_name":"Louisiana","lat":30.41585,"lng":-91.17747,"zip":"70894","miles_from_dt":15.24},{"city":"Baton Rouge","state_name":"Louisiana","lat":30.4057,"lng":-91.14236,"zip":"70808","miles_from_dt":15.85},{"city":"Baton Rouge","state_name":"Louisiana","lat":30.40746,"lng":-91.14291,"zip":"70833","miles_from_dt":15.92},{"city":"Baton Rouge","state_name":"Louisiana","lat":30.34637,"lng":-91.07998,"zip":"70810","miles_from_dt":15.92},{"city":"Baton Rouge","state_name":"Louisiana","lat":30.37726,"lng":-91.09601,"zip":"70884","miles_from_dt":16.38},{"city":"Baton Rouge","state_name":"Louisiana","lat":30.41842,"lng":-91.13952,"zip":"70898","miles_from_dt":16.65},{"city":"Baton Rouge","state_name":"Louisiana","lat":30.44336,"lng":-91.18698,"zip":"70873","miles_from_dt":16.65},{"city":"Baton Rouge","state_name":"Louisiana","lat":30.44336,"lng":-91.18698,"zip":"70874","miles_from_dt":16.65},{"city":"Baton Rouge","state_name":"Louisiana","lat":30.44578,"lng":-91.18923,"zip":"70823","miles_from_dt":16.74},{"city":"Maringouin","state_name":"Louisiana","lat":30.37204,"lng":-91.53468,"zip":"70757","miles_from_dt":16.98},{"city":"Baton Rouge","state_name":"Louisiana","lat":30.44889,"lng":-91.18596,"zip":"70831","miles_from_dt":17.02},{"city":"Baton Rouge","state_name":"Louisiana","lat":30.44954,"lng":-91.18608,"zip":"70801","miles_from_dt":17.06},{"city":"Baton Rouge","state_name":"Louisiana","lat":30.45197,"lng":-91.18776,"zip":"70825","miles_from_dt":17.17},{"city":"Baton Rouge","state_name":"Louisiana","lat":30.44691,"lng":-91.17554,"zip":"70802","miles_from_dt":17.17},{"city":"Baton Rouge","state_name":"Louisiana","lat":30.45,"lng":-91.18219,"zip":"70891","miles_from_dt":17.19},{"city":"Baton Rouge","state_name":"Louisiana","lat":30.44924,"lng":-91.17405,"zip":"70804","miles_from_dt":17.35},{"city":"Baton Rouge","state_name":"Louisiana","lat":30.38758,"lng":-91.08357,"zip":"70836","miles_from_dt":17.41},{"city":"Rosedale","state_name":"Louisiana","lat":30.43748,"lng":-91.46484,"zip":"70772","miles_from_dt":17.42},{"city":"Port Allen","state_name":"Louisiana","lat":30.47737,"lng":-91.32787,"zip":"70767","miles_from_dt":17.43},{"city":"Baton Rouge","state_name":"Louisiana","lat":30.44714,"lng":-91.15674,"zip":"70892","miles_from_dt":17.73},{"city":"Baton Rouge","state_name":"Louisiana","lat":30.39408,"lng":-91.07063,"zip":"70809","miles_from_dt":18.29},{"city":"Baton Rouge","state_name":"Louisiana","lat":30.40116,"lng":-91.07715,"zip":"70826","miles_from_dt":18.31},{"city":"Geismar","state_name":"Louisiana","lat":30.20812,"lng":-91.00095,"zip":"70734","miles_from_dt":18.32},{"city":"Baton Rouge","state_name":"Louisiana","lat":30.4503,"lng":-91.12932,"zip":"70822","miles_from_dt":18.79},{"city":"Baton Rouge","state_name":"Louisiana","lat":30.44879,"lng":-91.1247,"zip":"70806","miles_from_dt":18.86},{"city":"Baton Rouge","state_name":"Louisiana","lat":30.36767,"lng":-91.03668,"zip":"70896","miles_from_dt":18.89},{"city":"Donaldsonville","state_name":"Louisiana","lat":30.10774,"lng":-91.02061,"zip":"70346","miles_from_dt":18.93},{"city":"Belle Rose","state_name":"Louisiana","lat":30.02579,"lng":-91.08267,"zip":"70341","miles_from_dt":19.19},{"city":"Baton Rouge","state_name":"Louisiana","lat":30.45729,"lng":-91.12488,"zip":"70821","miles_from_dt":19.33},{"city":"Baton Rouge","state_name":"Louisiana","lat":30.43431,"lng":-91.0829,"zip":"70827","miles_from_dt":19.66},{"city":"Baton Rouge","state_name":"Louisiana","lat":30.48831,"lng":-91.15951,"zip":"70805","miles_from_dt":20.15},{"city":"Darrow","state_name":"Louisiana","lat":30.13652,"lng":-90.97255,"zip":"70725","miles_from_dt":20.9},{"city":"Baton Rouge","state_name":"Louisiana","lat":30.45586,"lng":-91.07544,"zip":"70895","miles_from_dt":21.06},{"city":"Baton Rouge","state_name":"Louisiana","lat":30.45537,"lng":-91.06648,"zip":"70815","miles_from_dt":21.39},{"city":"Pierre Part","state_name":"Louisiana","lat":29.92987,"lng":-91.18357,"zip":"70339","miles_from_dt":21.63},{"city":"Paincourtville","state_name":"Louisiana","lat":29.99516,"lng":-91.06029,"zip":"70391","miles_from_dt":21.64},{"city":"Baton Rouge","state_name":"Louisiana","lat":30.52777,"lng":-91.19742,"zip":"70813","miles_from_dt":21.85},{"city":"Baton Rouge","state_name":"Louisiana","lat":30.4284,"lng":-91.02494,"zip":"70835","miles_from_dt":21.9},{"city":"Duplessis","state_name":"Louisiana","lat":30.27277,"lng":-90.94394,"zip":"70728","miles_from_dt":21.93},{"city":"Baton Rouge","state_name":"Louisiana","lat":30.37501,"lng":-90.98083,"zip":"70879","miles_from_dt":22.04},{"city":"Baton Rouge","state_name":"Louisiana","lat":30.4288,"lng":-91.02144,"zip":"70816","miles_from_dt":22.07},{"city":"Baton Rouge","state_name":"Louisiana","lat":30.37558,"lng":-90.98026,"zip":"70817","miles_from_dt":22.09},{"city":"Baton Rouge","state_name":"Louisiana","lat":30.50018,"lng":-91.11051,"zip":"70812","miles_from_dt":22.28},{"city":"Baton Rouge","state_name":"Louisiana","lat":30.5425,"lng":-91.2068,"zip":"70807","miles_from_dt":22.66},{"city":"Prairieville","state_name":"Louisiana","lat":30.30802,"lng":-90.93967,"zip":"70769","miles_from_dt":22.67},{"city":"Gonzales","state_name":"Louisiana","lat":30.22587,"lng":-90.92271,"zip":"70737","miles_from_dt":22.96},{"city":"Baton Rouge","state_name":"Louisiana","lat":30.48502,"lng":-91.06164,"zip":"70814","miles_from_dt":23.13},{"city":"Baton Rouge","state_name":"Louisiana","lat":30.55077,"lng":-91.2036,"zip":"70837","miles_from_dt":23.26},{"city":"Burnside","state_name":"Louisiana","lat":30.14074,"lng":-90.92423,"zip":"70738","miles_from_dt":23.61},{"city":"Baton Rouge","state_name":"Louisiana","lat":30.53122,"lng":-91.11617,"zip":"70811","miles_from_dt":23.96},{"city":"Gonzales","state_name":"Louisiana","lat":30.23169,"lng":-90.90539,"zip":"70707","miles_from_dt":24},{"city":"Plattenville","state_name":"Louisiana","lat":29.9959,"lng":-90.99897,"zip":"70393","miles_from_dt":24.26},{"city":"Loreauville","state_name":"Louisiana","lat":30.0617,"lng":-91.66641,"zip":"70552","miles_from_dt":24.3},{"city":"Baton Rouge","state_name":"Louisiana","lat":30.47133,"lng":-91.00748,"zip":"70819","miles_from_dt":24.64},{"city":"Brittany","state_name":"Louisiana","lat":30.20867,"lng":-90.89167,"zip":"70718","miles_from_dt":24.85},{"city":"Erwinville","state_name":"Louisiana","lat":30.58891,"lng":-91.34671,"zip":"70729","miles_from_dt":25.18},{"city":"Lakeland","state_name":"Louisiana","lat":30.57986,"lng":-91.41915,"zip":"70752","miles_from_dt":25.35},{"city":"Denham Springs","state_name":"Louisiana","lat":30.44986,"lng":-90.9678,"zip":"70727","miles_from_dt":25.49},{"city":"Rougon","state_name":"Louisiana","lat":30.59678,"lng":-91.37333,"zip":"70773","miles_from_dt":25.92},{"city":"Oscar","state_name":"Louisiana","lat":30.57843,"lng":-91.46695,"zip":"70762","miles_from_dt":26.16},{"city":"Baker","state_name":"Louisiana","lat":30.58368,"lng":-91.15428,"zip":"70704","miles_from_dt":26.32},{"city":"Baton Rouge","state_name":"Louisiana","lat":30.54233,"lng":-91.05006,"zip":"70818","miles_from_dt":26.69},{"city":"Baker","state_name":"Louisiana","lat":30.58634,"lng":-91.12812,"zip":"70714","miles_from_dt":27.07},{"city":"Charenton","state_name":"Louisiana","lat":29.87383,"lng":-91.52956,"zip":"70523","miles_from_dt":27.64},{"city":"Denham Springs","state_name":"Louisiana","lat":30.42994,"lng":-90.90361,"zip":"70726","miles_from_dt":27.91},{"city":"Napoleonville","state_name":"Louisiana","lat":29.89068,"lng":-91.03616,"zip":"70390","miles_from_dt":28.16},{"city":"Glynn","state_name":"Louisiana","lat":30.63748,"lng":-91.33915,"zip":"70736","miles_from_dt":28.48},{"city":"Jarreau","state_name":"Louisiana","lat":30.6326,"lng":-91.40985,"zip":"70749","miles_from_dt":28.74},{"city":"Livonia","state_name":"Louisiana","lat":30.59473,"lng":-91.52981,"zip":"70755","miles_from_dt":28.74},{"city":"Saint James","state_name":"Louisiana","lat":30.02628,"lng":-90.88198,"zip":"70086","miles_from_dt":28.88},{"city":"New Iberia","state_name":"Louisiana","lat":30.02454,"lng":-91.73053,"zip":"70563","miles_from_dt":28.9},{"city":"Saint Martinville","state_name":"Louisiana","lat":30.15961,"lng":-91.7854,"zip":"70582","miles_from_dt":29.01},{"city":"Lottie","state_name":"Louisiana","lat":30.53256,"lng":-91.64705,"zip":"70756","miles_from_dt":29.36},{"city":"Breaux Bridge","state_name":"Louisiana","lat":30.28421,"lng":-91.79615,"zip":"70517","miles_from_dt":29.56},{"city":"Sorrento","state_name":"Louisiana","lat":30.16085,"lng":-90.81777,"zip":"70778","miles_from_dt":29.58},{"city":"Convent","state_name":"Louisiana","lat":30.06379,"lng":-90.84111,"zip":"70723","miles_from_dt":30}],"targetCityZipCode":"70764","targetCityState":"Louisiana"},"__N_SSG":true}