{"pageProps":{"stateName":"Louisiana","cityName":"provencal","nearbyCities":[{"city":"Flora","state_name":"Louisiana","lat":31.60921,"lng":-93.08855,"zip":"71428","miles_from_dt":9.45},{"city":"Kurthwood","state_name":"Louisiana","lat":31.33477,"lng":-93.16478,"zip":"71443","miles_from_dt":10.13},{"city":"Mora","state_name":"Louisiana","lat":31.40125,"lng":-92.98074,"zip":"71455","miles_from_dt":11.15},{"city":"Gorum","state_name":"Louisiana","lat":31.44618,"lng":-92.944,"zip":"71434","miles_from_dt":12.12},{"city":"Melrose","state_name":"Louisiana","lat":31.58021,"lng":-92.9414,"zip":"71452","miles_from_dt":13.84},{"city":"Natchez","state_name":"Louisiana","lat":31.63534,"lng":-92.97429,"zip":"71456","miles_from_dt":14.66},{"city":"Cloutierville","state_name":"Louisiana","lat":31.53875,"lng":-92.89558,"zip":"71416","miles_from_dt":15.26},{"city":"Robeline","state_name":"Louisiana","lat":31.67755,"lng":-93.2671,"zip":"71469","miles_from_dt":15.34},{"city":"Simpson","state_name":"Louisiana","lat":31.27724,"lng":-93.01394,"zip":"71474","miles_from_dt":16.03},{"city":"Flatwoods","state_name":"Louisiana","lat":31.38879,"lng":-92.89388,"zip":"71427","miles_from_dt":16.14},{"city":"Hornbeck","state_name":"Louisiana","lat":31.33707,"lng":-93.36597,"zip":"71439","miles_from_dt":16.38},{"city":"Florien","state_name":"Louisiana","lat":31.39843,"lng":-93.43218,"zip":"71429","miles_from_dt":17.88},{"city":"Natchitoches","state_name":"Louisiana","lat":31.74045,"lng":-93.09375,"zip":"71457","miles_from_dt":18.14},{"city":"Natchitoches","state_name":"Louisiana","lat":31.74902,"lng":-93.09795,"zip":"71497","miles_from_dt":18.68},{"city":"Fisher","state_name":"Louisiana","lat":31.49182,"lng":-93.46165,"zip":"71426","miles_from_dt":18.7},{"city":"Slagle","state_name":"Louisiana","lat":31.20123,"lng":-93.12461,"zip":"71475","miles_from_dt":19.3},{"city":"Natchitoches","state_name":"Louisiana","lat":31.75761,"lng":-93.08624,"zip":"71458","miles_from_dt":19.38},{"city":"Lena","state_name":"Louisiana","lat":31.43202,"lng":-92.8073,"zip":"71447","miles_from_dt":20.24},{"city":"Saint Maurice","state_name":"Louisiana","lat":31.75711,"lng":-92.96201,"zip":"71471","miles_from_dt":21.88},{"city":"Montgomery","state_name":"Louisiana","lat":31.69334,"lng":-92.86131,"zip":"71454","miles_from_dt":22.24},{"city":"Leesville","state_name":"Louisiana","lat":31.15585,"lng":-93.17187,"zip":"71446","miles_from_dt":22.45},{"city":"Many","state_name":"Louisiana","lat":31.5153,"lng":-93.54383,"zip":"71449","miles_from_dt":23.65},{"city":"Leesville","state_name":"Louisiana","lat":31.14359,"lng":-93.25839,"zip":"71496","miles_from_dt":24.18},{"city":"Clarence","state_name":"Louisiana","lat":31.82593,"lng":-93.02515,"zip":"71414","miles_from_dt":24.8},{"city":"Negreet","state_name":"Louisiana","lat":31.47149,"lng":-93.57269,"zip":"71460","miles_from_dt":25.25},{"city":"Anacoco","state_name":"Louisiana","lat":31.21047,"lng":-93.44061,"zip":"71403","miles_from_dt":25.54},{"city":"Marthaville","state_name":"Louisiana","lat":31.78137,"lng":-93.40367,"zip":"71450","miles_from_dt":25.71},{"city":"New Llano","state_name":"Louisiana","lat":31.12099,"lng":-93.29775,"zip":"71461","miles_from_dt":26.38},{"city":"Powhatan","state_name":"Louisiana","lat":31.87478,"lng":-93.19829,"zip":"71066","miles_from_dt":27.32},{"city":"Belmont","state_name":"Louisiana","lat":31.73425,"lng":-93.50536,"zip":"71406","miles_from_dt":27.49},{"city":"Fort Polk","state_name":"Louisiana","lat":31.07854,"lng":-93.21723,"zip":"71459","miles_from_dt":28.04},{"city":"Sieper","state_name":"Louisiana","lat":31.19834,"lng":-92.79216,"zip":"71472","miles_from_dt":28.54},{"city":"Boyce","state_name":"Louisiana","lat":31.31287,"lng":-92.69954,"zip":"71409","miles_from_dt":28.77},{"city":"Colfax","state_name":"Louisiana","lat":31.51611,"lng":-92.65361,"zip":"71417","miles_from_dt":29.12},{"city":"Campti","state_name":"Louisiana","lat":31.90466,"lng":-93.08894,"zip":"71411","miles_from_dt":29.39},{"city":"Otis","state_name":"Louisiana","lat":31.21593,"lng":-92.74886,"zip":"71466","miles_from_dt":29.7},{"city":"Atlanta","state_name":"Louisiana","lat":31.75404,"lng":-92.75257,"zip":"71404","miles_from_dt":29.83}],"targetCityZipCode":"71468","targetCityState":"Louisiana"},"__N_SSG":true}