{"pageProps":{"stateName":"Louisiana","cityName":"ragley","nearbyCities":[{"city":"Reeves","state_name":"Louisiana","lat":30.52324,"lng":-93.03297,"zip":"70658","miles_from_dt":6.74},{"city":"Longville","state_name":"Louisiana","lat":30.60547,"lng":-93.24646,"zip":"70652","miles_from_dt":9.52},{"city":"Lake Charles","state_name":"Louisiana","lat":30.34594,"lng":-93.20156,"zip":"70611","miles_from_dt":11.2},{"city":"Leblanc","state_name":"Louisiana","lat":30.54333,"lng":-92.95127,"zip":"70651","miles_from_dt":11.8},{"city":"Kinder","state_name":"Louisiana","lat":30.50568,"lng":-92.88387,"zip":"70648","miles_from_dt":15.45},{"city":"Dequincy","state_name":"Louisiana","lat":30.42762,"lng":-93.3925,"zip":"70633","miles_from_dt":15.72},{"city":"Fenton","state_name":"Louisiana","lat":30.36587,"lng":-92.91652,"zip":"70640","miles_from_dt":16.38},{"city":"Lake Charles","state_name":"Louisiana","lat":30.25609,"lng":-93.12346,"zip":"70615","miles_from_dt":16.87},{"city":"Dry Creek","state_name":"Louisiana","lat":30.70508,"lng":-92.97207,"zip":"70637","miles_from_dt":17.39},{"city":"Lake Charles","state_name":"Louisiana","lat":30.24109,"lng":-93.18,"zip":"70612","miles_from_dt":18},{"city":"Singer","state_name":"Louisiana","lat":30.575,"lng":-93.44478,"zip":"70660","miles_from_dt":18.73},{"city":"Iowa","state_name":"Louisiana","lat":30.24752,"lng":-93.01605,"zip":"70647","miles_from_dt":18.99},{"city":"Lake Charles","state_name":"Louisiana","lat":30.23107,"lng":-93.21864,"zip":"70629","miles_from_dt":19.1},{"city":"Lake Charles","state_name":"Louisiana","lat":30.22627,"lng":-93.21525,"zip":"70601","miles_from_dt":19.37},{"city":"Lake Charles","state_name":"Louisiana","lat":30.22554,"lng":-93.21616,"zip":"70602","miles_from_dt":19.43},{"city":"Lake Charles","state_name":"Louisiana","lat":30.22462,"lng":-93.21278,"zip":"70616","miles_from_dt":19.45},{"city":"Westlake","state_name":"Louisiana","lat":30.24216,"lng":-93.27731,"zip":"70669","miles_from_dt":19.52},{"city":"Mittie","state_name":"Louisiana","lat":30.69212,"lng":-92.88075,"zip":"70654","miles_from_dt":20.45},{"city":"Sulphur","state_name":"Louisiana","lat":30.2772,"lng":-93.39086,"zip":"70663","miles_from_dt":21.35},{"city":"Sulphur","state_name":"Louisiana","lat":30.2603,"lng":-93.37246,"zip":"70664","miles_from_dt":21.49},{"city":"Deridder","state_name":"Louisiana","lat":30.80142,"lng":-93.24309,"zip":"70634","miles_from_dt":21.58},{"city":"Sugartown","state_name":"Louisiana","lat":30.80072,"lng":-92.99834,"zip":"70662","miles_from_dt":22.41},{"city":"Lake Charles","state_name":"Louisiana","lat":30.17907,"lng":-93.21482,"zip":"70609","miles_from_dt":22.55},{"city":"Lacassine","state_name":"Louisiana","lat":30.23376,"lng":-92.92067,"zip":"70650","miles_from_dt":22.66},{"city":"Grant","state_name":"Louisiana","lat":30.79078,"lng":-92.94924,"zip":"70644","miles_from_dt":23.09},{"city":"Lake Charles","state_name":"Louisiana","lat":30.16534,"lng":-93.23238,"zip":"70606","miles_from_dt":23.69},{"city":"Welsh","state_name":"Louisiana","lat":30.25604,"lng":-92.8397,"zip":"70591","miles_from_dt":24.72},{"city":"Elton","state_name":"Louisiana","lat":30.4705,"lng":-92.6993,"zip":"70532","miles_from_dt":26.54},{"city":"Lake Charles","state_name":"Louisiana","lat":30.13048,"lng":-93.27418,"zip":"70605","miles_from_dt":26.66},{"city":"Merryville","state_name":"Louisiana","lat":30.66744,"lng":-93.55994,"zip":"70653","miles_from_dt":27.4},{"city":"Oberlin","state_name":"Louisiana","lat":30.63022,"lng":-92.70234,"zip":"70655","miles_from_dt":27.74},{"city":"Roanoke","state_name":"Louisiana","lat":30.25496,"lng":-92.73588,"zip":"70581","miles_from_dt":29.61},{"city":"Hayes","state_name":"Louisiana","lat":30.10767,"lng":-92.92938,"zip":"70646","miles_from_dt":29.91}],"targetCityZipCode":"70657","targetCityState":"Louisiana"},"__N_SSG":true}