{"pageProps":{"stateName":"Louisiana","cityName":"rhinehart","nearbyCities":[{"city":"Jena","state_name":"Louisiana","lat":31.60042,"lng":-92.1403,"zip":"71342","miles_from_dt":8.65},{"city":"Jonesville","state_name":"Louisiana","lat":31.51117,"lng":-91.90723,"zip":"71343","miles_from_dt":10.04},{"city":"Aimwell","state_name":"Louisiana","lat":31.79477,"lng":-91.94461,"zip":"71401","miles_from_dt":11.53},{"city":"Wildsville","state_name":"Louisiana","lat":31.61489,"lng":-91.78157,"zip":"71377","miles_from_dt":12.88},{"city":"Harrisonburg","state_name":"Louisiana","lat":31.7553,"lng":-91.80696,"zip":"71340","miles_from_dt":14.06},{"city":"Trout","state_name":"Louisiana","lat":31.67542,"lng":-92.2587,"zip":"71371","miles_from_dt":15.58},{"city":"Enterprise","state_name":"Louisiana","lat":31.89017,"lng":-91.89786,"zip":"71425","miles_from_dt":18.63},{"city":"Olla","state_name":"Louisiana","lat":31.86499,"lng":-92.19408,"zip":"71465","miles_from_dt":19.63},{"city":"Deville","state_name":"Louisiana","lat":31.35276,"lng":-92.19097,"zip":"71328","miles_from_dt":22.45},{"city":"Kelly","state_name":"Louisiana","lat":31.94706,"lng":-92.13805,"zip":"71441","miles_from_dt":23.07},{"city":"Urania","state_name":"Louisiana","lat":31.86661,"lng":-92.28415,"zip":"71480","miles_from_dt":23.22},{"city":"Monterey","state_name":"Louisiana","lat":31.38364,"lng":-91.73548,"zip":"71354","miles_from_dt":23.22},{"city":"Pollock","state_name":"Louisiana","lat":31.55789,"lng":-92.39338,"zip":"71467","miles_from_dt":23.85},{"city":"Sicily Island","state_name":"Louisiana","lat":31.86392,"lng":-91.68494,"zip":"71368","miles_from_dt":24.34},{"city":"Fort Necessity","state_name":"Louisiana","lat":31.96055,"lng":-91.80745,"zip":"71243","miles_from_dt":25.16},{"city":"Ferriday","state_name":"Louisiana","lat":31.66978,"lng":-91.56864,"zip":"71334","miles_from_dt":25.47},{"city":"Tullos","state_name":"Louisiana","lat":31.85129,"lng":-92.36106,"zip":"71479","miles_from_dt":26.06},{"city":"Clayton","state_name":"Louisiana","lat":31.77363,"lng":-91.58702,"zip":"71326","miles_from_dt":26.1},{"city":"Effie","state_name":"Louisiana","lat":31.2578,"lng":-92.07969,"zip":"71331","miles_from_dt":26.35},{"city":"Wisner","state_name":"Louisiana","lat":31.95481,"lng":-91.71211,"zip":"71378","miles_from_dt":27.81},{"city":"Ball","state_name":"Louisiana","lat":31.40971,"lng":-92.39771,"zip":"71405","miles_from_dt":28.16},{"city":"Center Point","state_name":"Louisiana","lat":31.26656,"lng":-92.21037,"zip":"71323","miles_from_dt":28.23},{"city":"Clarks","state_name":"Louisiana","lat":32.0253,"lng":-92.14241,"zip":"71415","miles_from_dt":28.25},{"city":"Acme","state_name":"Louisiana","lat":31.27665,"lng":-91.76231,"zip":"71316","miles_from_dt":28.31},{"city":"Grayson","state_name":"Louisiana","lat":32.02456,"lng":-92.1539,"zip":"71435","miles_from_dt":28.42},{"city":"Georgetown","state_name":"Louisiana","lat":31.75368,"lng":-92.47435,"zip":"71432","miles_from_dt":29.2},{"city":"Bentley","state_name":"Louisiana","lat":31.51837,"lng":-92.48402,"zip":"71407","miles_from_dt":29.7}],"targetCityZipCode":"71363","targetCityState":"Louisiana"},"__N_SSG":true}