{"pageProps":{"stateName":"Louisiana","cityName":"shreveport","nearbyCities":[{"city":"Shreveport","state_name":"Louisiana","lat":32.50781,"lng":-93.74489,"zip":"71163","miles_from_dt":0.22},{"city":"Shreveport","state_name":"Louisiana","lat":32.50441,"lng":-93.74469,"zip":"71120","miles_from_dt":0.24},{"city":"Shreveport","state_name":"Louisiana","lat":32.5042,"lng":-93.74365,"zip":"71164","miles_from_dt":0.3},{"city":"Shreveport","state_name":"Louisiana","lat":32.51134,"lng":-93.74808,"zip":"71156","miles_from_dt":0.35},{"city":"Shreveport","state_name":"Louisiana","lat":32.50244,"lng":-93.74385,"zip":"71165","miles_from_dt":0.36},{"city":"Shreveport","state_name":"Louisiana","lat":32.50525,"lng":-93.7412,"zip":"71166","miles_from_dt":0.42},{"city":"Shreveport","state_name":"Louisiana","lat":32.50808,"lng":-93.74124,"zip":"71149","miles_from_dt":0.43},{"city":"Shreveport","state_name":"Louisiana","lat":32.50305,"lng":-93.74103,"zip":"71162","miles_from_dt":0.47},{"city":"Shreveport","state_name":"Louisiana","lat":32.51461,"lng":-93.74727,"zip":"71151","miles_from_dt":0.58},{"city":"Shreveport","state_name":"Louisiana","lat":32.49798,"lng":-93.75199,"zip":"71161","miles_from_dt":0.61},{"city":"Shreveport","state_name":"Louisiana","lat":32.51535,"lng":-93.74993,"zip":"71153","miles_from_dt":0.64},{"city":"Bossier City","state_name":"Louisiana","lat":32.51385,"lng":-93.73108,"zip":"71171","miles_from_dt":1.13},{"city":"Shreveport","state_name":"Louisiana","lat":32.49291,"lng":-93.76637,"zip":"71154","miles_from_dt":1.4},{"city":"Shreveport","state_name":"Louisiana","lat":32.49105,"lng":-93.7693,"zip":"71130","miles_from_dt":1.61},{"city":"Shreveport","state_name":"Louisiana","lat":32.49334,"lng":-93.77152,"zip":"71102","miles_from_dt":1.62},{"city":"Shreveport","state_name":"Louisiana","lat":32.48871,"lng":-93.76813,"zip":"71133","miles_from_dt":1.67},{"city":"Shreveport","state_name":"Louisiana","lat":32.49154,"lng":-93.7717,"zip":"71103","miles_from_dt":1.7},{"city":"Shreveport","state_name":"Louisiana","lat":32.48525,"lng":-93.73171,"zip":"71104","miles_from_dt":1.74},{"city":"Shreveport","state_name":"Louisiana","lat":32.47863,"lng":-93.73523,"zip":"71134","miles_from_dt":2.05},{"city":"Bossier City","state_name":"Louisiana","lat":32.4964,"lng":-93.6874,"zip":"71113","miles_from_dt":3.62},{"city":"Shreveport","state_name":"Louisiana","lat":32.4572,"lng":-93.77776,"zip":"71148","miles_from_dt":3.79},{"city":"Shreveport","state_name":"Louisiana","lat":32.45512,"lng":-93.71012,"zip":"71105","miles_from_dt":4.16},{"city":"Shreveport","state_name":"Louisiana","lat":32.46859,"lng":-93.814,"zip":"71109","miles_from_dt":4.63},{"city":"Shreveport","state_name":"Louisiana","lat":32.44236,"lng":-93.78881,"zip":"71108","miles_from_dt":5},{"city":"Shreveport","state_name":"Louisiana","lat":32.442,"lng":-93.70774,"zip":"71135","miles_from_dt":5.02},{"city":"Shreveport","state_name":"Louisiana","lat":32.44092,"lng":-93.78844,"zip":"71152","miles_from_dt":5.07},{"city":"Bossier City","state_name":"Louisiana","lat":32.57904,"lng":-93.70379,"zip":"71111","miles_from_dt":5.65},{"city":"Bossier City","state_name":"Louisiana","lat":32.53032,"lng":-93.65261,"zip":"71172","miles_from_dt":5.82},{"city":"Shreveport","state_name":"Louisiana","lat":32.41873,"lng":-93.7609,"zip":"71136","miles_from_dt":6.07},{"city":"Barksdale Afb","state_name":"Louisiana","lat":32.50289,"lng":-93.63027,"zip":"71110","miles_from_dt":6.89},{"city":"Shreveport","state_name":"Louisiana","lat":32.40577,"lng":-93.79601,"zip":"71138","miles_from_dt":7.46},{"city":"Bossier City","state_name":"Louisiana","lat":32.44373,"lng":-93.63874,"zip":"71112","miles_from_dt":7.71},{"city":"Shreveport","state_name":"Louisiana","lat":32.38507,"lng":-93.73558,"zip":"71106","miles_from_dt":8.38},{"city":"Shreveport","state_name":"Louisiana","lat":32.39262,"lng":-93.80498,"zip":"71118","miles_from_dt":8.5},{"city":"Shreveport","state_name":"Louisiana","lat":32.593,"lng":-93.85411,"zip":"71137","miles_from_dt":8.6},{"city":"Shreveport","state_name":"Louisiana","lat":32.59509,"lng":-93.85909,"zip":"71107","miles_from_dt":8.91},{"city":"Blanchard","state_name":"Louisiana","lat":32.57793,"lng":-93.89185,"zip":"71009","miles_from_dt":9.73},{"city":"Shreveport","state_name":"Louisiana","lat":32.48542,"lng":-93.92296,"zip":"71119","miles_from_dt":10.3},{"city":"Shreveport","state_name":"Louisiana","lat":32.38697,"lng":-93.92685,"zip":"71129","miles_from_dt":13.28},{"city":"Haughton","state_name":"Louisiana","lat":32.56359,"lng":-93.52804,"zip":"71037","miles_from_dt":13.45},{"city":"Shreveport","state_name":"Louisiana","lat":32.386,"lng":-93.93019,"zip":"71150","miles_from_dt":13.48},{"city":"Greenwood","state_name":"Louisiana","lat":32.44121,"lng":-94.00364,"zip":"71033","miles_from_dt":15.58},{"city":"Stonewall","state_name":"Louisiana","lat":32.27721,"lng":-93.7976,"zip":"71078","miles_from_dt":16.04},{"city":"Princeton","state_name":"Louisiana","lat":32.59836,"lng":-93.49118,"zip":"71067","miles_from_dt":16.29},{"city":"Mooringsport","state_name":"Louisiana","lat":32.63933,"lng":-93.987,"zip":"71060","miles_from_dt":16.68},{"city":"Benton","state_name":"Louisiana","lat":32.72871,"lng":-93.63511,"zip":"71006","miles_from_dt":16.69},{"city":"Keithville","state_name":"Louisiana","lat":32.29972,"lng":-93.91673,"zip":"71047","miles_from_dt":17.31},{"city":"Belcher","state_name":"Louisiana","lat":32.74403,"lng":-93.85843,"zip":"71004","miles_from_dt":17.6},{"city":"Bethany","state_name":"Louisiana","lat":32.36854,"lng":-94.00502,"zip":"71007","miles_from_dt":17.75},{"city":"Frierson","state_name":"Louisiana","lat":32.24953,"lng":-93.68698,"zip":"71027","miles_from_dt":18.04},{"city":"Elm Grove","state_name":"Louisiana","lat":32.3417,"lng":-93.49639,"zip":"71051","miles_from_dt":18.58},{"city":"Shreveport","state_name":"Louisiana","lat":32.26472,"lng":-93.56247,"zip":"71115","miles_from_dt":19.87},{"city":"Doyline","state_name":"Louisiana","lat":32.4662,"lng":-93.40797,"zip":"71023","miles_from_dt":20.06},{"city":"Jonesville","state_name":"Texas","lat":32.50725,"lng":-94.09249,"zip":"75659","miles_from_dt":20.1},{"city":"Oil City","state_name":"Louisiana","lat":32.75342,"lng":-93.97742,"zip":"71061","miles_from_dt":21.65},{"city":"Gloster","state_name":"Louisiana","lat":32.19267,"lng":-93.78932,"zip":"71030","miles_from_dt":21.74},{"city":"Waskom","state_name":"Texas","lat":32.4718,"lng":-94.11936,"zip":"75692","miles_from_dt":21.8},{"city":"Gilliam","state_name":"Louisiana","lat":32.83733,"lng":-93.83446,"zip":"71029","miles_from_dt":23.36},{"city":"Panola","state_name":"Texas","lat":32.36033,"lng":-94.11072,"zip":"75685","miles_from_dt":23.45},{"city":"Karnack","state_name":"Texas","lat":32.63908,"lng":-94.15655,"zip":"75661","miles_from_dt":25.52},{"city":"Sibley","state_name":"Louisiana","lat":32.5241,"lng":-93.30547,"zip":"71073","miles_from_dt":25.88},{"city":"Keatchie","state_name":"Louisiana","lat":32.16647,"lng":-93.94589,"zip":"71046","miles_from_dt":26.11},{"city":"Vivian","state_name":"Louisiana","lat":32.84389,"lng":-93.97763,"zip":"71082","miles_from_dt":26.84},{"city":"Elysian Fields","state_name":"Texas","lat":32.35818,"lng":-94.17821,"zip":"75642","miles_from_dt":27.12},{"city":"Heflin","state_name":"Louisiana","lat":32.4265,"lng":-93.29064,"zip":"71039","miles_from_dt":27.29},{"city":"Minden","state_name":"Louisiana","lat":32.61226,"lng":-93.29517,"zip":"71058","miles_from_dt":27.43},{"city":"Hosston","state_name":"Louisiana","lat":32.88789,"lng":-93.88906,"zip":"71043","miles_from_dt":27.55},{"city":"Plain Dealing","state_name":"Louisiana","lat":32.91356,"lng":-93.68761,"zip":"71064","miles_from_dt":28.29},{"city":"Grand Cane","state_name":"Louisiana","lat":32.09383,"lng":-93.79247,"zip":"71032","miles_from_dt":28.53},{"city":"Cotton Valley","state_name":"Louisiana","lat":32.82178,"lng":-93.42972,"zip":"71018","miles_from_dt":28.59},{"city":"Minden","state_name":"Louisiana","lat":32.67335,"lng":-93.29713,"zip":"71055","miles_from_dt":28.73},{"city":"Scottsville","state_name":"Texas","lat":32.53417,"lng":-94.24071,"zip":"75688","miles_from_dt":28.82},{"city":"De Berry","state_name":"Texas","lat":32.28441,"lng":-94.16897,"zip":"75639","miles_from_dt":28.96},{"city":"Ringgold","state_name":"Louisiana","lat":32.28464,"lng":-93.32186,"zip":"71068","miles_from_dt":29.23}],"targetCityZipCode":"71101","targetCityState":"Louisiana"},"__N_SSG":true}