{"pageProps":{"stateName":"Louisiana","cityName":"start","nearbyCities":[{"city":"Rayville","state_name":"Louisiana","lat":32.44592,"lng":-91.78718,"zip":"71269","miles_from_dt":4.94},{"city":"Oak Ridge","state_name":"Louisiana","lat":32.6029,"lng":-91.7734,"zip":"71264","miles_from_dt":9.37},{"city":"Archibald","state_name":"Louisiana","lat":32.35081,"lng":-91.78739,"zip":"71218","miles_from_dt":10.2},{"city":"Collinston","state_name":"Louisiana","lat":32.6374,"lng":-91.89251,"zip":"71229","miles_from_dt":10.59},{"city":"Monroe","state_name":"Louisiana","lat":32.58398,"lng":-92.01351,"zip":"71203","miles_from_dt":11.35},{"city":"Swartz","state_name":"Louisiana","lat":32.59535,"lng":-92.02099,"zip":"71281","miles_from_dt":12.17},{"city":"Monroe","state_name":"Louisiana","lat":32.53036,"lng":-92.07206,"zip":"71209","miles_from_dt":12.93},{"city":"Monroe","state_name":"Louisiana","lat":32.52725,"lng":-92.0734,"zip":"71212","miles_from_dt":12.96},{"city":"Monroe","state_name":"Louisiana","lat":32.39549,"lng":-92.05663,"zip":"71202","miles_from_dt":13.26},{"city":"Monroe","state_name":"Louisiana","lat":32.49,"lng":-92.10219,"zip":"71217","miles_from_dt":14.34},{"city":"Monroe","state_name":"Louisiana","lat":32.50494,"lng":-92.10361,"zip":"71210","miles_from_dt":14.47},{"city":"Mangham","state_name":"Louisiana","lat":32.2713,"lng":-91.84558,"zip":"71259","miles_from_dt":14.85},{"city":"Fairbanks","state_name":"Louisiana","lat":32.64322,"lng":-92.03588,"zip":"71240","miles_from_dt":15.02},{"city":"Monroe","state_name":"Louisiana","lat":32.53915,"lng":-92.1069,"zip":"71201","miles_from_dt":15.05},{"city":"Baskin","state_name":"Louisiana","lat":32.32344,"lng":-91.6842,"zip":"71219","miles_from_dt":15.11},{"city":"Monroe","state_name":"Louisiana","lat":32.51584,"lng":-92.11561,"zip":"71207","miles_from_dt":15.25},{"city":"Monroe","state_name":"Louisiana","lat":32.50965,"lng":-92.11905,"zip":"71213","miles_from_dt":15.4},{"city":"Bastrop","state_name":"Louisiana","lat":32.75636,"lng":-91.87619,"zip":"71221","miles_from_dt":18.62},{"city":"West Monroe","state_name":"Louisiana","lat":32.51108,"lng":-92.18203,"zip":"71294","miles_from_dt":19.07},{"city":"Monroe","state_name":"Louisiana","lat":32.6996,"lng":-92.07359,"zip":"71211","miles_from_dt":19.37},{"city":"West Monroe","state_name":"Louisiana","lat":32.56977,"lng":-92.18277,"zip":"71291","miles_from_dt":19.88},{"city":"Sterlington","state_name":"Louisiana","lat":32.72344,"lng":-92.10389,"zip":"71280","miles_from_dt":21.77},{"city":"West Monroe","state_name":"Louisiana","lat":32.40147,"lng":-92.21569,"zip":"71292","miles_from_dt":21.78},{"city":"Delhi","state_name":"Louisiana","lat":32.41554,"lng":-91.493,"zip":"71232","miles_from_dt":21.81},{"city":"Mer Rouge","state_name":"Louisiana","lat":32.77802,"lng":-91.69515,"zip":"71261","miles_from_dt":22.18},{"city":"Crowville","state_name":"Louisiana","lat":32.2403,"lng":-91.59269,"zip":"71230","miles_from_dt":22.95},{"city":"Epps","state_name":"Louisiana","lat":32.58413,"lng":-91.48024,"zip":"71237","miles_from_dt":22.98},{"city":"Winnsboro","state_name":"Louisiana","lat":32.14565,"lng":-91.70795,"zip":"71295","miles_from_dt":25.06},{"city":"Bastrop","state_name":"Louisiana","lat":32.8622,"lng":-91.91236,"zip":"71220","miles_from_dt":26.08},{"city":"Pioneer","state_name":"Louisiana","lat":32.70359,"lng":-91.48362,"zip":"71266","miles_from_dt":26.4},{"city":"Columbia","state_name":"Louisiana","lat":32.13405,"lng":-92.04589,"zip":"71418","miles_from_dt":26.7},{"city":"Chase","state_name":"Louisiana","lat":32.09495,"lng":-91.70093,"zip":"71324","miles_from_dt":28.49},{"city":"Calhoun","state_name":"Louisiana","lat":32.50784,"lng":-92.3477,"zip":"71225","miles_from_dt":28.71}],"targetCityZipCode":"71279","targetCityState":"Louisiana"},"__N_SSG":true}