{"pageProps":{"stateName":"Louisiana","cityName":"sulphur","nearbyCities":[{"city":"Sulphur","state_name":"Louisiana","lat":30.2603,"lng":-93.37246,"zip":"70664","miles_from_dt":1.6},{"city":"Westlake","state_name":"Louisiana","lat":30.24216,"lng":-93.27731,"zip":"70669","miles_from_dt":7.21},{"city":"Dequincy","state_name":"Louisiana","lat":30.42762,"lng":-93.3925,"zip":"70633","miles_from_dt":10.36},{"city":"Lake Charles","state_name":"Louisiana","lat":30.23107,"lng":-93.21864,"zip":"70629","miles_from_dt":10.78},{"city":"Sulphur","state_name":"Louisiana","lat":30.12756,"lng":-93.44555,"zip":"70665","miles_from_dt":10.81},{"city":"Lake Charles","state_name":"Louisiana","lat":30.22554,"lng":-93.21616,"zip":"70602","miles_from_dt":11.04},{"city":"Lake Charles","state_name":"Louisiana","lat":30.22627,"lng":-93.21525,"zip":"70601","miles_from_dt":11.07},{"city":"Lake Charles","state_name":"Louisiana","lat":30.22462,"lng":-93.21278,"zip":"70616","miles_from_dt":11.25},{"city":"Lake Charles","state_name":"Louisiana","lat":30.16534,"lng":-93.23238,"zip":"70606","miles_from_dt":12.22},{"city":"Lake Charles","state_name":"Louisiana","lat":30.34594,"lng":-93.20156,"zip":"70611","miles_from_dt":12.26},{"city":"Lake Charles","state_name":"Louisiana","lat":30.13048,"lng":-93.27418,"zip":"70605","miles_from_dt":12.28},{"city":"Lake Charles","state_name":"Louisiana","lat":30.17907,"lng":-93.21482,"zip":"70609","miles_from_dt":12.51},{"city":"Lake Charles","state_name":"Louisiana","lat":30.24109,"lng":-93.18,"zip":"70612","miles_from_dt":12.85},{"city":"Vinton","state_name":"Louisiana","lat":30.17678,"lng":-93.60488,"zip":"70668","miles_from_dt":14.55},{"city":"Lake Charles","state_name":"Louisiana","lat":30.25609,"lng":-93.12346,"zip":"70615","miles_from_dt":16.05},{"city":"Starks","state_name":"Louisiana","lat":30.36683,"lng":-93.64833,"zip":"70661","miles_from_dt":16.58},{"city":"Lake Charles","state_name":"Louisiana","lat":30.04982,"lng":-93.20606,"zip":"70607","miles_from_dt":19.17},{"city":"Singer","state_name":"Louisiana","lat":30.575,"lng":-93.44478,"zip":"70660","miles_from_dt":20.76},{"city":"Ragley","state_name":"Louisiana","lat":30.5004,"lng":-93.14279,"zip":"70657","miles_from_dt":21.35},{"city":"Hackberry","state_name":"Louisiana","lat":29.96154,"lng":-93.40854,"zip":"70645","miles_from_dt":21.77},{"city":"Deweyville","state_name":"Texas","lat":30.3055,"lng":-93.76033,"zip":"77614","miles_from_dt":22.17},{"city":"Iowa","state_name":"Louisiana","lat":30.24752,"lng":-93.01605,"zip":"70647","miles_from_dt":22.5},{"city":"Orange","state_name":"Texas","lat":30.09276,"lng":-93.73204,"zip":"77631","miles_from_dt":24.05},{"city":"Longville","state_name":"Louisiana","lat":30.60547,"lng":-93.24646,"zip":"70652","miles_from_dt":24.2},{"city":"Orange","state_name":"Texas","lat":30.2014,"lng":-93.80477,"zip":"77632","miles_from_dt":25.3},{"city":"Bell City","state_name":"Louisiana","lat":30.02723,"lng":-93.04966,"zip":"70630","miles_from_dt":26.71},{"city":"Reeves","state_name":"Louisiana","lat":30.52324,"lng":-93.03297,"zip":"70658","miles_from_dt":27.28},{"city":"Lacassine","state_name":"Louisiana","lat":30.23376,"lng":-92.92067,"zip":"70650","miles_from_dt":28.28},{"city":"Merryville","state_name":"Louisiana","lat":30.66744,"lng":-93.55994,"zip":"70653","miles_from_dt":28.71},{"city":"Fenton","state_name":"Louisiana","lat":30.36587,"lng":-92.91652,"zip":"70640","miles_from_dt":29},{"city":"Cameron","state_name":"Louisiana","lat":29.86692,"lng":-93.55404,"zip":"70631","miles_from_dt":29.9},{"city":"Hayes","state_name":"Louisiana","lat":30.10767,"lng":-92.92938,"zip":"70646","miles_from_dt":29.98},{"city":"Mauriceville","state_name":"Texas","lat":30.20207,"lng":-93.88464,"zip":"77626","miles_from_dt":29.98}],"targetCityZipCode":"70663","targetCityState":"Louisiana"},"__N_SSG":true}