{"pageProps":{"stateName":"Louisiana","cityName":"watson","nearbyCities":[{"city":"Greenwell Springs","state_name":"Louisiana","lat":30.60107,"lng":-90.9684,"zip":"70739","miles_from_dt":1.54},{"city":"Denham Springs","state_name":"Louisiana","lat":30.61453,"lng":-90.90086,"zip":"70706","miles_from_dt":3.88},{"city":"Pride","state_name":"Louisiana","lat":30.65134,"lng":-90.99316,"zip":"70770","miles_from_dt":5.29},{"city":"Baton Rouge","state_name":"Louisiana","lat":30.54233,"lng":-91.05006,"zip":"70818","miles_from_dt":6.34},{"city":"Baton Rouge","state_name":"Louisiana","lat":30.47133,"lng":-91.00748,"zip":"70819","miles_from_dt":8.28},{"city":"Walker","state_name":"Louisiana","lat":30.55621,"lng":-90.81858,"zip":"70785","miles_from_dt":8.29},{"city":"Denham Springs","state_name":"Louisiana","lat":30.44986,"lng":-90.9678,"zip":"70727","miles_from_dt":9.16},{"city":"Baton Rouge","state_name":"Louisiana","lat":30.48502,"lng":-91.06164,"zip":"70814","miles_from_dt":9.27},{"city":"Baton Rouge","state_name":"Louisiana","lat":30.53122,"lng":-91.11617,"zip":"70811","miles_from_dt":10.27},{"city":"Baker","state_name":"Louisiana","lat":30.58634,"lng":-91.12812,"zip":"70714","miles_from_dt":10.36},{"city":"Baton Rouge","state_name":"Louisiana","lat":30.50018,"lng":-91.11051,"zip":"70812","miles_from_dt":10.9},{"city":"Denham Springs","state_name":"Louisiana","lat":30.42994,"lng":-90.90361,"zip":"70726","miles_from_dt":10.93},{"city":"Baton Rouge","state_name":"Louisiana","lat":30.45537,"lng":-91.06648,"zip":"70815","miles_from_dt":11.01},{"city":"Baton Rouge","state_name":"Louisiana","lat":30.4288,"lng":-91.02144,"zip":"70816","miles_from_dt":11.31},{"city":"Baton Rouge","state_name":"Louisiana","lat":30.45586,"lng":-91.07544,"zip":"70895","miles_from_dt":11.32},{"city":"Baton Rouge","state_name":"Louisiana","lat":30.4284,"lng":-91.02494,"zip":"70835","miles_from_dt":11.41},{"city":"Baker","state_name":"Louisiana","lat":30.58368,"lng":-91.15428,"zip":"70704","miles_from_dt":11.92},{"city":"Baton Rouge","state_name":"Louisiana","lat":30.43431,"lng":-91.0829,"zip":"70827","miles_from_dt":12.76},{"city":"Slaughter","state_name":"Louisiana","lat":30.73898,"lng":-91.07319,"zip":"70777","miles_from_dt":12.91},{"city":"Zachary","state_name":"Louisiana","lat":30.65013,"lng":-91.15734,"zip":"70791","miles_from_dt":12.97},{"city":"Baton Rouge","state_name":"Louisiana","lat":30.45729,"lng":-91.12488,"zip":"70821","miles_from_dt":13.33},{"city":"Pine Grove","state_name":"Louisiana","lat":30.69385,"lng":-90.76918,"zip":"70453","miles_from_dt":13.44},{"city":"Baton Rouge","state_name":"Louisiana","lat":30.44879,"lng":-91.1247,"zip":"70806","miles_from_dt":13.71},{"city":"Baton Rouge","state_name":"Louisiana","lat":30.4503,"lng":-91.12932,"zip":"70822","miles_from_dt":13.85},{"city":"Baton Rouge","state_name":"Louisiana","lat":30.48831,"lng":-91.15951,"zip":"70805","miles_from_dt":13.85},{"city":"Baton Rouge","state_name":"Louisiana","lat":30.37558,"lng":-90.98026,"zip":"70817","miles_from_dt":14.33},{"city":"Baton Rouge","state_name":"Louisiana","lat":30.37501,"lng":-90.98083,"zip":"70879","miles_from_dt":14.37},{"city":"Baton Rouge","state_name":"Louisiana","lat":30.40116,"lng":-91.07715,"zip":"70826","miles_from_dt":14.47},{"city":"Baton Rouge","state_name":"Louisiana","lat":30.39408,"lng":-91.07063,"zip":"70809","miles_from_dt":14.71},{"city":"Baton Rouge","state_name":"Louisiana","lat":30.52777,"lng":-91.19742,"zip":"70813","miles_from_dt":14.97},{"city":"Baton Rouge","state_name":"Louisiana","lat":30.55077,"lng":-91.2036,"zip":"70837","miles_from_dt":15.02},{"city":"Baton Rouge","state_name":"Louisiana","lat":30.44714,"lng":-91.15674,"zip":"70892","miles_from_dt":15.25},{"city":"Baton Rouge","state_name":"Louisiana","lat":30.5425,"lng":-91.2068,"zip":"70807","miles_from_dt":15.3},{"city":"Baton Rouge","state_name":"Louisiana","lat":30.38758,"lng":-91.08357,"zip":"70836","miles_from_dt":15.48},{"city":"Baton Rouge","state_name":"Louisiana","lat":30.36767,"lng":-91.03668,"zip":"70896","miles_from_dt":15.58},{"city":"Baton Rouge","state_name":"Louisiana","lat":30.41842,"lng":-91.13952,"zip":"70898","miles_from_dt":15.8},{"city":"Baton Rouge","state_name":"Louisiana","lat":30.44924,"lng":-91.17405,"zip":"70804","miles_from_dt":16},{"city":"Baton Rouge","state_name":"Louisiana","lat":30.44691,"lng":-91.17554,"zip":"70802","miles_from_dt":16.16},{"city":"Baton Rouge","state_name":"Louisiana","lat":30.45,"lng":-91.18219,"zip":"70891","miles_from_dt":16.37},{"city":"Baton Rouge","state_name":"Louisiana","lat":30.37726,"lng":-91.09601,"zip":"70884","miles_from_dt":16.47},{"city":"Baton Rouge","state_name":"Louisiana","lat":30.40746,"lng":-91.14291,"zip":"70833","miles_from_dt":16.49},{"city":"Baton Rouge","state_name":"Louisiana","lat":30.4057,"lng":-91.14236,"zip":"70808","miles_from_dt":16.55},{"city":"Baton Rouge","state_name":"Louisiana","lat":30.45197,"lng":-91.18776,"zip":"70825","miles_from_dt":16.57},{"city":"Baton Rouge","state_name":"Louisiana","lat":30.44954,"lng":-91.18608,"zip":"70801","miles_from_dt":16.58},{"city":"Holden","state_name":"Louisiana","lat":30.56173,"lng":-90.67689,"zip":"70744","miles_from_dt":16.6},{"city":"Baton Rouge","state_name":"Louisiana","lat":30.44889,"lng":-91.18596,"zip":"70831","miles_from_dt":16.6},{"city":"Baton Rouge","state_name":"Louisiana","lat":30.44336,"lng":-91.18698,"zip":"70873","miles_from_dt":16.86},{"city":"Baton Rouge","state_name":"Louisiana","lat":30.44336,"lng":-91.18698,"zip":"70874","miles_from_dt":16.86},{"city":"Baton Rouge","state_name":"Louisiana","lat":30.44578,"lng":-91.18923,"zip":"70823","miles_from_dt":16.88},{"city":"Livingston","state_name":"Louisiana","lat":30.40542,"lng":-90.74462,"zip":"70754","miles_from_dt":17.46},{"city":"Baton Rouge","state_name":"Louisiana","lat":30.4122,"lng":-91.17251,"zip":"70893","miles_from_dt":17.52},{"city":"Baton Rouge","state_name":"Louisiana","lat":30.41585,"lng":-91.17747,"zip":"70894","miles_from_dt":17.57},{"city":"Baton Rouge","state_name":"Louisiana","lat":30.41165,"lng":-91.17783,"zip":"70803","miles_from_dt":17.78},{"city":"Baton Rouge","state_name":"Louisiana","lat":30.34637,"lng":-91.07998,"zip":"70810","miles_from_dt":17.9},{"city":"Clinton","state_name":"Louisiana","lat":30.84337,"lng":-90.93244,"zip":"70722","miles_from_dt":18.03},{"city":"Ethel","state_name":"Louisiana","lat":30.81588,"lng":-91.10869,"zip":"70730","miles_from_dt":18.53},{"city":"Prairieville","state_name":"Louisiana","lat":30.30802,"lng":-90.93967,"zip":"70769","miles_from_dt":18.92},{"city":"Baton Rouge","state_name":"Louisiana","lat":30.36812,"lng":-91.18279,"zip":"70820","miles_from_dt":20.09},{"city":"Albany","state_name":"Louisiana","lat":30.53065,"lng":-90.60229,"zip":"70711","miles_from_dt":21.29},{"city":"Duplessis","state_name":"Louisiana","lat":30.27277,"lng":-90.94394,"zip":"70728","miles_from_dt":21.34},{"city":"French Settlement","state_name":"Louisiana","lat":30.30437,"lng":-90.79487,"zip":"70733","miles_from_dt":21.38},{"city":"Jackson","state_name":"Louisiana","lat":30.8164,"lng":-91.20613,"zip":"70748","miles_from_dt":22.02},{"city":"Greensburg","state_name":"Louisiana","lat":30.85987,"lng":-90.7489,"zip":"70441","miles_from_dt":22.69},{"city":"Glynn","state_name":"Louisiana","lat":30.63748,"lng":-91.33915,"zip":"70736","miles_from_dt":23.24},{"city":"Erwinville","state_name":"Louisiana","lat":30.58891,"lng":-91.34671,"zip":"70729","miles_from_dt":23.39},{"city":"Port Allen","state_name":"Louisiana","lat":30.47737,"lng":-91.32787,"zip":"70767","miles_from_dt":23.42},{"city":"Sunshine","state_name":"Louisiana","lat":30.29538,"lng":-91.16993,"zip":"70780","miles_from_dt":23.59},{"city":"Saint Gabriel","state_name":"Louisiana","lat":30.26051,"lng":-91.08923,"zip":"70776","miles_from_dt":23.59},{"city":"Gonzales","state_name":"Louisiana","lat":30.23169,"lng":-90.90539,"zip":"70707","miles_from_dt":24.33},{"city":"Addis","state_name":"Louisiana","lat":30.3559,"lng":-91.26773,"zip":"70710","miles_from_dt":24.35},{"city":"Brusly","state_name":"Louisiana","lat":30.37734,"lng":-91.29077,"zip":"70719","miles_from_dt":24.55},{"city":"Gonzales","state_name":"Louisiana","lat":30.22587,"lng":-90.92271,"zip":"70737","miles_from_dt":24.63},{"city":"Independence","state_name":"Louisiana","lat":30.62885,"lng":-90.54257,"zip":"70443","miles_from_dt":24.74},{"city":"Wilson","state_name":"Louisiana","lat":30.92973,"lng":-91.07109,"zip":"70789","miles_from_dt":24.92},{"city":"Rougon","state_name":"Louisiana","lat":30.59678,"lng":-91.37333,"zip":"70773","miles_from_dt":24.99},{"city":"Geismar","state_name":"Louisiana","lat":30.20812,"lng":-91.00095,"zip":"70734","miles_from_dt":25.93},{"city":"Brittany","state_name":"Louisiana","lat":30.20867,"lng":-90.89167,"zip":"70718","miles_from_dt":26.01},{"city":"Plaquemine","state_name":"Louisiana","lat":30.28825,"lng":-91.23356,"zip":"70765","miles_from_dt":26.24},{"city":"Saint Amant","state_name":"Louisiana","lat":30.22741,"lng":-90.78815,"zip":"70774","miles_from_dt":26.39},{"city":"Carville","state_name":"Louisiana","lat":30.21639,"lng":-91.09301,"zip":"70721","miles_from_dt":26.54},{"city":"Springfield","state_name":"Louisiana","lat":30.3656,"lng":-90.58368,"zip":"70462","miles_from_dt":26.68},{"city":"Tickfaw","state_name":"Louisiana","lat":30.5685,"lng":-90.50195,"zip":"70466","miles_from_dt":26.98},{"city":"Jarreau","state_name":"Louisiana","lat":30.6326,"lng":-91.40985,"zip":"70749","miles_from_dt":27.36},{"city":"Norwood","state_name":"Louisiana","lat":30.97429,"lng":-91.03129,"zip":"70761","miles_from_dt":27.39},{"city":"Lakeland","state_name":"Louisiana","lat":30.57986,"lng":-91.41915,"zip":"70752","miles_from_dt":27.71},{"city":"Ventress","state_name":"Louisiana","lat":30.67032,"lng":-91.4087,"zip":"70783","miles_from_dt":27.74},{"city":"Maurepas","state_name":"Louisiana","lat":30.26363,"lng":-90.66345,"zip":"70449","miles_from_dt":27.99},{"city":"Natalbany","state_name":"Louisiana","lat":30.54964,"lng":-90.48111,"zip":"70451","miles_from_dt":28.3},{"city":"Hammond","state_name":"Louisiana","lat":30.47989,"lng":-90.48639,"zip":"70403","miles_from_dt":28.78},{"city":"Hammond","state_name":"Louisiana","lat":30.51652,"lng":-90.46932,"zip":"70402","miles_from_dt":29.27},{"city":"Amite","state_name":"Louisiana","lat":30.73699,"lng":-90.491,"zip":"70422","miles_from_dt":29.58}],"targetCityZipCode":"70786","targetCityState":"Louisiana"},"__N_SSG":true}