{"pageProps":{"stateName":"Arizona","cityName":"apache-junction","nearbyCities":[{"city":"Apache Junction","state_name":"Arizona","lat":33.38706,"lng":-111.56311,"zip":"85120","miles_from_dt":2.54},{"city":"Tortilla Flat","state_name":"Arizona","lat":33.446,"lng":-111.506,"zip":"85190","miles_from_dt":2.98},{"city":"Apache Junction","state_name":"Arizona","lat":33.38682,"lng":-111.50824,"zip":"85119","miles_from_dt":3.38},{"city":"Mesa","state_name":"Arizona","lat":33.40301,"lng":-111.63194,"zip":"85208","miles_from_dt":4.97},{"city":"Mesa","state_name":"Arizona","lat":33.45362,"lng":-111.63631,"zip":"85207","miles_from_dt":5.5},{"city":"Mesa","state_name":"Arizona","lat":33.37877,"lng":-111.63476,"zip":"85209","miles_from_dt":5.78},{"city":"Mesa","state_name":"Arizona","lat":33.51101,"lng":-111.58027,"zip":"85215","miles_from_dt":6.39},{"city":"Mesa","state_name":"Arizona","lat":33.32064,"lng":-111.63088,"zip":"85212","miles_from_dt":8.44},{"city":"Mesa","state_name":"Arizona","lat":33.43227,"lng":-111.71804,"zip":"85205","miles_from_dt":9.79},{"city":"Mesa","state_name":"Arizona","lat":33.39685,"lng":-111.71758,"zip":"85206","miles_from_dt":9.9},{"city":"Mesa","state_name":"Arizona","lat":33.3969,"lng":-111.72318,"zip":"85216","miles_from_dt":10.22},{"city":"Mesa","state_name":"Arizona","lat":33.45751,"lng":-111.72249,"zip":"85277","miles_from_dt":10.32},{"city":"Gold Canyon","state_name":"Arizona","lat":33.3737,"lng":-111.36545,"zip":"85118","miles_from_dt":11.12},{"city":"Gilbert","state_name":"Arizona","lat":33.36479,"lng":-111.73924,"zip":"85234","miles_from_dt":11.68},{"city":"Higley","state_name":"Arizona","lat":33.32301,"lng":-111.71951,"zip":"85236","miles_from_dt":11.99},{"city":"San Tan Valley","state_name":"Arizona","lat":33.24805,"lng":-111.48921,"zip":"85140","miles_from_dt":12.48},{"city":"Gilbert","state_name":"Arizona","lat":33.33554,"lng":-111.74006,"zip":"85296","miles_from_dt":12.55},{"city":"Mesa","state_name":"Arizona","lat":33.45421,"lng":-111.76734,"zip":"85275","miles_from_dt":12.81},{"city":"Mesa","state_name":"Arizona","lat":33.44764,"lng":-111.76962,"zip":"85213","miles_from_dt":12.87},{"city":"Gilbert","state_name":"Arizona","lat":33.30639,"lng":-111.73804,"zip":"85295","miles_from_dt":13.53},{"city":"Gilbert","state_name":"Arizona","lat":33.33288,"lng":-111.76385,"zip":"85299","miles_from_dt":13.86},{"city":"Mesa","state_name":"Arizona","lat":33.39666,"lng":-111.78786,"zip":"85204","miles_from_dt":13.92},{"city":"Mesa","state_name":"Arizona","lat":33.39996,"lng":-111.78857,"zip":"85214","miles_from_dt":13.93},{"city":"Gilbert","state_name":"Arizona","lat":33.27843,"lng":-111.73638,"zip":"85297","miles_from_dt":14.68},{"city":"Mesa","state_name":"Arizona","lat":33.44997,"lng":-111.80403,"zip":"85203","miles_from_dt":14.86},{"city":"Gilbert","state_name":"Arizona","lat":33.35242,"lng":-111.8115,"zip":"85233","miles_from_dt":15.92},{"city":"Fountain Hills","state_name":"Arizona","lat":33.60372,"lng":-111.72037,"zip":"85269","miles_from_dt":15.96},{"city":"Gilbert","state_name":"Arizona","lat":33.23983,"lng":-111.72819,"zip":"85298","miles_from_dt":16.28},{"city":"Chandler Heights","state_name":"Arizona","lat":33.212,"lng":-111.686,"zip":"85127","miles_from_dt":16.5},{"city":"Fountain Hills","state_name":"Arizona","lat":33.60717,"lng":-111.73999,"zip":"85268","miles_from_dt":16.86},{"city":"Mesa","state_name":"Arizona","lat":33.38955,"lng":-111.84337,"zip":"85210","miles_from_dt":17.16},{"city":"Queen Creek","state_name":"Arizona","lat":33.19302,"lng":-111.66645,"zip":"85142","miles_from_dt":17.18},{"city":"Mesa","state_name":"Arizona","lat":33.4336,"lng":-111.84929,"zip":"85201","miles_from_dt":17.37},{"city":"Scottsdale","state_name":"Arizona","lat":33.50053,"lng":-111.83524,"zip":"85256","miles_from_dt":17.4},{"city":"Mesa","state_name":"Arizona","lat":33.44236,"lng":-111.84909,"zip":"85211","miles_from_dt":17.4},{"city":"Chandler","state_name":"Arizona","lat":33.2351,"lng":-111.76126,"zip":"85244","miles_from_dt":17.8},{"city":"Chandler","state_name":"Arizona","lat":33.31748,"lng":-111.83167,"zip":"85225","miles_from_dt":17.86},{"city":"San Tan Valley","state_name":"Arizona","lat":33.15602,"lng":-111.51974,"zip":"85143","miles_from_dt":18.41},{"city":"Mesa","state_name":"Arizona","lat":33.38682,"lng":-111.87396,"zip":"85274","miles_from_dt":18.94},{"city":"Mesa","state_name":"Arizona","lat":33.38252,"lng":-111.87482,"zip":"85202","miles_from_dt":19.03},{"city":"Fort Mcdowell","state_name":"Arizona","lat":33.69996,"lng":-111.50123,"zip":"85264","miles_from_dt":19.35},{"city":"Chandler","state_name":"Arizona","lat":33.27146,"lng":-111.83156,"zip":"85286","miles_from_dt":19.36},{"city":"Scottsdale","state_name":"Arizona","lat":33.60105,"lng":-111.80952,"zip":"85259","miles_from_dt":19.45},{"city":"Chandler","state_name":"Arizona","lat":33.22652,"lng":-111.79918,"zip":"85249","miles_from_dt":19.77},{"city":"Chandler","state_name":"Arizona","lat":33.32351,"lng":-111.87616,"zip":"85224","miles_from_dt":20.1},{"city":"Chandler","state_name":"Arizona","lat":33.2923,"lng":-111.86761,"zip":"85246","miles_from_dt":20.48},{"city":"Scottsdale","state_name":"Arizona","lat":33.52986,"lng":-111.88991,"zip":"85250","miles_from_dt":21.05},{"city":"Scottsdale","state_name":"Arizona","lat":33.46354,"lng":-111.91486,"zip":"85257","miles_from_dt":21.33},{"city":"Scottsdale","state_name":"Arizona","lat":33.46699,"lng":-111.91491,"zip":"85271","miles_from_dt":21.37},{"city":"Tempe","state_name":"Arizona","lat":33.40678,"lng":-111.92658,"zip":"85280","miles_from_dt":21.85},{"city":"Scottsdale","state_name":"Arizona","lat":33.49406,"lng":-111.92025,"zip":"85251","miles_from_dt":22.01},{"city":"Tempe","state_name":"Arizona","lat":33.39533,"lng":-111.92931,"zip":"85285","miles_from_dt":22.06},{"city":"Scottsdale","state_name":"Arizona","lat":33.49714,"lng":-111.9206,"zip":"85261","miles_from_dt":22.08},{"city":"Tempe","state_name":"Arizona","lat":33.42805,"lng":-111.93157,"zip":"85281","miles_from_dt":22.11},{"city":"Scottsdale","state_name":"Arizona","lat":33.56337,"lng":-111.89268,"zip":"85258","miles_from_dt":22.11},{"city":"Tempe","state_name":"Arizona","lat":33.42835,"lng":-111.93212,"zip":"85287","miles_from_dt":22.14},{"city":"Scottsdale","state_name":"Arizona","lat":33.48965,"lng":-111.92456,"zip":"85252","miles_from_dt":22.19},{"city":"Tempe","state_name":"Arizona","lat":33.3943,"lng":-111.93242,"zip":"85282","miles_from_dt":22.24},{"city":"Tempe","state_name":"Arizona","lat":33.3881,"lng":-111.9319,"zip":"85288","miles_from_dt":22.26},{"city":"Tempe","state_name":"Arizona","lat":33.36461,"lng":-111.93196,"zip":"85283","miles_from_dt":22.49},{"city":"Tempe","state_name":"Arizona","lat":33.33719,"lng":-111.93443,"zip":"85284","miles_from_dt":23.04},{"city":"Chandler","state_name":"Arizona","lat":33.2145,"lng":-111.86667,"zip":"85248","miles_from_dt":23.29},{"city":"Scottsdale","state_name":"Arizona","lat":33.60943,"lng":-111.89113,"zip":"85260","miles_from_dt":23.6},{"city":"Scottsdale","state_name":"Arizona","lat":33.61223,"lng":-111.88929,"zip":"85267","miles_from_dt":23.62},{"city":"Scottsdale","state_name":"Arizona","lat":33.6824,"lng":-111.8177,"zip":"85255","miles_from_dt":23.72},{"city":"Phoenix","state_name":"Arizona","lat":33.44891,"lng":-111.97356,"zip":"85026","miles_from_dt":24.6},{"city":"Sacaton","state_name":"Arizona","lat":33.09454,"lng":-111.7209,"zip":"85147","miles_from_dt":24.66},{"city":"Paradise Valley","state_name":"Arizona","lat":33.54479,"lng":-111.95873,"zip":"85253","miles_from_dt":25.13},{"city":"Phoenix","state_name":"Arizona","lat":33.46545,"lng":-111.98508,"zip":"85082","miles_from_dt":25.37},{"city":"Chandler","state_name":"Arizona","lat":33.26519,"lng":-111.94641,"zip":"85226","miles_from_dt":25.4},{"city":"Phoenix","state_name":"Arizona","lat":33.46564,"lng":-111.98712,"zip":"85010","miles_from_dt":25.49},{"city":"Phoenix","state_name":"Arizona","lat":33.46355,"lng":-111.98746,"zip":"85008","miles_from_dt":25.49},{"city":"Phoenix","state_name":"Arizona","lat":33.46418,"lng":-111.98788,"zip":"85062","miles_from_dt":25.52},{"city":"Phoenix","state_name":"Arizona","lat":33.46658,"lng":-111.98816,"zip":"85038","miles_from_dt":25.56},{"city":"Phoenix","state_name":"Arizona","lat":33.5009,"lng":-111.9819,"zip":"85060","miles_from_dt":25.59},{"city":"Roosevelt","state_name":"Arizona","lat":33.53759,"lng":-111.11955,"zip":"85545","miles_from_dt":26.05},{"city":"Superior","state_name":"Arizona","lat":33.26827,"lng":-111.13651,"zip":"85173","miles_from_dt":26.11},{"city":"Phoenix","state_name":"Arizona","lat":33.33064,"lng":-111.98902,"zip":"85076","miles_from_dt":26.21},{"city":"Phoenix","state_name":"Arizona","lat":33.5194,"lng":-111.99309,"zip":"85018","miles_from_dt":26.51},{"city":"Phoenix","state_name":"Arizona","lat":33.45348,"lng":-112.00967,"zip":"85072","miles_from_dt":26.71},{"city":"Scottsdale","state_name":"Arizona","lat":33.61474,"lng":-111.95176,"zip":"85254","miles_from_dt":26.78},{"city":"Phoenix","state_name":"Arizona","lat":33.33997,"lng":-112.00617,"zip":"85044","miles_from_dt":27.03},{"city":"Phoenix","state_name":"Arizona","lat":33.43465,"lng":-112.01989,"zip":"85034","miles_from_dt":27.23},{"city":"Phoenix","state_name":"Arizona","lat":33.40585,"lng":-112.02658,"zip":"85040","miles_from_dt":27.62},{"city":"Phoenix","state_name":"Arizona","lat":33.39434,"lng":-112.03237,"zip":"85066","miles_from_dt":28},{"city":"Phoenix","state_name":"Arizona","lat":33.50953,"lng":-112.03041,"zip":"85016","miles_from_dt":28.45},{"city":"Phoenix","state_name":"Arizona","lat":33.50894,"lng":-112.03237,"zip":"85064","miles_from_dt":28.56},{"city":"Phoenix","state_name":"Arizona","lat":33.5816,"lng":-112.00811,"zip":"85028","miles_from_dt":28.7},{"city":"Bapchule","state_name":"Arizona","lat":33.13751,"lng":-111.91316,"zip":"85121","miles_from_dt":28.79},{"city":"Phoenix","state_name":"Arizona","lat":33.67515,"lng":-111.94763,"zip":"85054","miles_from_dt":28.87},{"city":"Phoenix","state_name":"Arizona","lat":33.43628,"lng":-112.04893,"zip":"85065","miles_from_dt":28.91},{"city":"Phoenix","state_name":"Arizona","lat":33.46511,"lng":-112.04778,"zip":"85006","miles_from_dt":28.97},{"city":"Phoenix","state_name":"Arizona","lat":33.30362,"lng":-112.03192,"zip":"85048","miles_from_dt":29.09},{"city":"Phoenix","state_name":"Arizona","lat":33.35911,"lng":-112.04949,"zip":"85042","miles_from_dt":29.26},{"city":"Phoenix","state_name":"Arizona","lat":33.62324,"lng":-112.00346,"zip":"85046","miles_from_dt":29.67},{"city":"Phoenix","state_name":"Arizona","lat":33.62624,"lng":-112.00368,"zip":"85032","miles_from_dt":29.78},{"city":"Phoenix","state_name":"Arizona","lat":33.62398,"lng":-112.00578,"zip":"85078","miles_from_dt":29.82},{"city":"Phoenix","state_name":"Arizona","lat":33.50903,"lng":-112.05665,"zip":"85014","miles_from_dt":29.93},{"city":"Phoenix","state_name":"Arizona","lat":33.3046,"lng":-112.04771,"zip":"85070","miles_from_dt":29.95},{"city":"Phoenix","state_name":"Arizona","lat":33.5088,"lng":-112.05747,"zip":"85011","miles_from_dt":29.97}],"targetCityZipCode":"85117","targetCityState":"Arizona"},"__N_SSG":true}