{"pageProps":{"stateName":"Arizona","cityName":"huachuca-city","nearbyCities":[{"city":"Sierra Vista","state_name":"Arizona","lat":31.56612,"lng":-110.3254,"zip":"85671","miles_from_dt":9.76},{"city":"Fort Huachuca","state_name":"Arizona","lat":31.55,"lng":-110.35,"zip":"85670","miles_from_dt":10.99},{"city":"Fort Huachuca","state_name":"Arizona","lat":31.55393,"lng":-110.38305,"zip":"85613","miles_from_dt":11.19},{"city":"Elgin","state_name":"Arizona","lat":31.64266,"lng":-110.51334,"zip":"85611","miles_from_dt":12.14},{"city":"Sierra Vista","state_name":"Arizona","lat":31.55322,"lng":-110.17304,"zip":"85635","miles_from_dt":13.79},{"city":"Saint David","state_name":"Arizona","lat":31.88335,"lng":-110.19447,"zip":"85630","miles_from_dt":14.24},{"city":"Tombstone","state_name":"Arizona","lat":31.68588,"lng":-110.05887,"zip":"85638","miles_from_dt":15.56},{"city":"Sierra Vista","state_name":"Arizona","lat":31.49759,"lng":-110.19906,"zip":"85650","miles_from_dt":16.18},{"city":"Sierra Vista","state_name":"Arizona","lat":31.47003,"lng":-110.18712,"zip":"85636","miles_from_dt":18.2},{"city":"Pomerene","state_name":"Arizona","lat":32.00707,"lng":-110.24695,"zip":"85627","miles_from_dt":21.09},{"city":"Sonoita","state_name":"Arizona","lat":31.72108,"lng":-110.69258,"zip":"85637","miles_from_dt":21.85},{"city":"Hereford","state_name":"Arizona","lat":31.39678,"lng":-110.2108,"zip":"85615","miles_from_dt":22.4},{"city":"Patagonia","state_name":"Arizona","lat":31.51768,"lng":-110.71039,"zip":"85624","miles_from_dt":26.39},{"city":"Dragoon","state_name":"Arizona","lat":32.06867,"lng":-110.09714,"zip":"85609","miles_from_dt":28.16},{"city":"Vail","state_name":"Arizona","lat":32.02125,"lng":-110.64617,"zip":"85641","miles_from_dt":28.82}],"targetCityZipCode":"85616","targetCityState":"Arizona"},"__N_SSG":true}