{"pageProps":{"stateName":"Arizona","cityName":"sierra-vista","nearbyCities":[{"city":"Sierra Vista","state_name":"Arizona","lat":31.49759,"lng":-110.19906,"zip":"85650","miles_from_dt":4.13},{"city":"Sierra Vista","state_name":"Arizona","lat":31.47003,"lng":-110.18712,"zip":"85636","miles_from_dt":5.79},{"city":"Sierra Vista","state_name":"Arizona","lat":31.56612,"lng":-110.3254,"zip":"85671","miles_from_dt":9.03},{"city":"Fort Huachuca","state_name":"Arizona","lat":31.55,"lng":-110.35,"zip":"85670","miles_from_dt":10.44},{"city":"Hereford","state_name":"Arizona","lat":31.39678,"lng":-110.2108,"zip":"85615","miles_from_dt":11.01},{"city":"Tombstone","state_name":"Arizona","lat":31.68588,"lng":-110.05887,"zip":"85638","miles_from_dt":11.35},{"city":"Fort Huachuca","state_name":"Arizona","lat":31.55393,"lng":-110.38305,"zip":"85613","miles_from_dt":12.39},{"city":"Huachuca City","state_name":"Arizona","lat":31.70768,"lng":-110.32184,"zip":"85616","miles_from_dt":13.79},{"city":"Bisbee","state_name":"Arizona","lat":31.43525,"lng":-109.91127,"zip":"85603","miles_from_dt":17.46},{"city":"Naco","state_name":"Arizona","lat":31.33835,"lng":-109.9431,"zip":"85620","miles_from_dt":20.09},{"city":"Elgin","state_name":"Arizona","lat":31.64266,"lng":-110.51334,"zip":"85611","miles_from_dt":20.99},{"city":"Saint David","state_name":"Arizona","lat":31.88335,"lng":-110.19447,"zip":"85630","miles_from_dt":22.78},{"city":"McNeal","state_name":"Arizona","lat":31.55767,"lng":-109.71548,"zip":"85617","miles_from_dt":27}],"targetCityZipCode":"85635","targetCityState":"Arizona"},"__N_SSG":true}