{"pageProps":{"stateName":"Illinois","cityName":"anchor","nearbyCities":[{"city":"Cropsey","state_name":"Illinois","lat":40.61255,"lng":-88.48386,"zip":"61731","miles_from_dt":4.3},{"city":"Colfax","state_name":"Illinois","lat":40.57546,"lng":-88.62539,"zip":"61728","miles_from_dt":6.53},{"city":"Sibley","state_name":"Illinois","lat":40.57209,"lng":-88.37605,"zip":"61773","miles_from_dt":6.92},{"city":"Saybrook","state_name":"Illinois","lat":40.43965,"lng":-88.52457,"zip":"61770","miles_from_dt":7.84},{"city":"Gibson City","state_name":"Illinois","lat":40.46456,"lng":-88.36103,"zip":"60936","miles_from_dt":9.7},{"city":"Strawn","state_name":"Illinois","lat":40.64971,"lng":-88.37069,"zip":"61775","miles_from_dt":9.75},{"city":"Arrowsmith","state_name":"Illinois","lat":40.42018,"lng":-88.63049,"zip":"61722","miles_from_dt":11.26},{"city":"Cooksville","state_name":"Illinois","lat":40.53262,"lng":-88.73437,"zip":"61730","miles_from_dt":12.15},{"city":"Fairbury","state_name":"Illinois","lat":40.73342,"lng":-88.51938,"zip":"61739","miles_from_dt":12.52},{"city":"Melvin","state_name":"Illinois","lat":40.56373,"lng":-88.25142,"zip":"60952","miles_from_dt":13.37},{"city":"Foosland","state_name":"Illinois","lat":40.37308,"lng":-88.40076,"zip":"61845","miles_from_dt":13.53},{"city":"Elliott","state_name":"Illinois","lat":40.46258,"lng":-88.27381,"zip":"60933","miles_from_dt":13.66},{"city":"Ellsworth","state_name":"Illinois","lat":40.45646,"lng":-88.73331,"zip":"61737","miles_from_dt":13.72},{"city":"Bellflower","state_name":"Illinois","lat":40.33418,"lng":-88.52654,"zip":"61724","miles_from_dt":15.09},{"city":"Forrest","state_name":"Illinois","lat":40.76045,"lng":-88.40057,"zip":"61741","miles_from_dt":15.38},{"city":"Lexington","state_name":"Illinois","lat":40.63568,"lng":-88.78883,"zip":"61753","miles_from_dt":16},{"city":"Chenoa","state_name":"Illinois","lat":40.74013,"lng":-88.70014,"zip":"61726","miles_from_dt":16.53},{"city":"Chatsworth","state_name":"Illinois","lat":40.73513,"lng":-88.28894,"zip":"60921","miles_from_dt":16.97},{"city":"Merna","state_name":"Illinois","lat":40.51426,"lng":-88.82616,"zip":"61758","miles_from_dt":17.11},{"city":"Roberts","state_name":"Illinois","lat":40.62248,"lng":-88.18442,"zip":"60962","miles_from_dt":17.54},{"city":"Fisher","state_name":"Illinois","lat":40.31593,"lng":-88.38053,"zip":"61843","miles_from_dt":17.58},{"city":"Towanda","state_name":"Illinois","lat":40.5713,"lng":-88.86706,"zip":"61776","miles_from_dt":19.1},{"city":"Le Roy","state_name":"Illinois","lat":40.33703,"lng":-88.76168,"zip":"61752","miles_from_dt":20.09},{"city":"Downs","state_name":"Illinois","lat":40.40335,"lng":-88.83804,"zip":"61736","miles_from_dt":20.34},{"city":"Dewey","state_name":"Illinois","lat":40.29663,"lng":-88.30187,"zip":"61840","miles_from_dt":20.64},{"city":"Paxton","state_name":"Illinois","lat":40.44037,"lng":-88.13977,"zip":"60957","miles_from_dt":20.73},{"city":"Thawville","state_name":"Illinois","lat":40.6746,"lng":-88.12049,"zip":"60968","miles_from_dt":21.91},{"city":"Loda","state_name":"Illinois","lat":40.52413,"lng":-88.07698,"zip":"60948","miles_from_dt":22.61},{"city":"Mahomet","state_name":"Illinois","lat":40.22344,"lng":-88.41555,"zip":"61853","miles_from_dt":23.17},{"city":"Farmer City","state_name":"Illinois","lat":40.23889,"lng":-88.66411,"zip":"61842","miles_from_dt":23.2},{"city":"Saunemin","state_name":"Illinois","lat":40.88106,"lng":-88.39804,"zip":"61769","miles_from_dt":23.37},{"city":"Piper City","state_name":"Illinois","lat":40.7895,"lng":-88.1832,"zip":"60959","miles_from_dt":23.53},{"city":"Normal","state_name":"Illinois","lat":40.52503,"lng":-88.95152,"zip":"61761","miles_from_dt":23.58},{"city":"Pontiac","state_name":"Illinois","lat":40.88343,"lng":-88.6263,"zip":"61764","miles_from_dt":23.72},{"city":"Bloomington","state_name":"Illinois","lat":40.46951,"lng":-88.94281,"zip":"61704","miles_from_dt":23.75},{"city":"Gridley","state_name":"Illinois","lat":40.74377,"lng":-88.88118,"zip":"61744","miles_from_dt":23.78},{"city":"Mansfield","state_name":"Illinois","lat":40.20654,"lng":-88.52129,"zip":"61854","miles_from_dt":23.87},{"city":"Bloomington","state_name":"Illinois","lat":40.47829,"lng":-88.95273,"zip":"61710","miles_from_dt":24.12},{"city":"Ludlow","state_name":"Illinois","lat":40.38042,"lng":-88.10239,"zip":"60949","miles_from_dt":24.3},{"city":"Bloomington","state_name":"Illinois","lat":40.47427,"lng":-88.95577,"zip":"61791","miles_from_dt":24.34},{"city":"Rantoul","state_name":"Illinois","lat":40.31148,"lng":-88.15837,"zip":"61866","miles_from_dt":24.7},{"city":"Bloomington","state_name":"Illinois","lat":40.45862,"lng":-88.96112,"zip":"61709","miles_from_dt":24.88},{"city":"Cullom","state_name":"Illinois","lat":40.87601,"lng":-88.29242,"zip":"60929","miles_from_dt":24.97},{"city":"Buckley","state_name":"Illinois","lat":40.59681,"lng":-88.02968,"zip":"60918","miles_from_dt":25.2},{"city":"Bloomington","state_name":"Illinois","lat":40.6061,"lng":-88.98251,"zip":"61702","miles_from_dt":25.4},{"city":"Hudson","state_name":"Illinois","lat":40.61483,"lng":-88.98898,"zip":"61748","miles_from_dt":25.82},{"city":"Normal","state_name":"Illinois","lat":40.51729,"lng":-88.99916,"zip":"61790","miles_from_dt":26.13},{"city":"Bloomington","state_name":"Illinois","lat":40.47697,"lng":-88.99278,"zip":"61701","miles_from_dt":26.21},{"city":"Graymont","state_name":"Illinois","lat":40.87805,"lng":-88.78142,"zip":"61743","miles_from_dt":26.76},{"city":"Bloomington","state_name":"Illinois","lat":40.42847,"lng":-88.98691,"zip":"61799","miles_from_dt":26.79},{"city":"Bloomington","state_name":"Illinois","lat":40.46099,"lng":-88.99981,"zip":"61705","miles_from_dt":26.81},{"city":"Thomasboro","state_name":"Illinois","lat":40.23953,"lng":-88.14945,"zip":"61878","miles_from_dt":28.59},{"city":"Dewitt","state_name":"Illinois","lat":40.20561,"lng":-88.81072,"zip":"61735","miles_from_dt":28.85},{"city":"Heyworth","state_name":"Illinois","lat":40.32152,"lng":-88.96684,"zip":"61745","miles_from_dt":29.09},{"city":"Emington","state_name":"Illinois","lat":40.96119,"lng":-88.34862,"zip":"60934","miles_from_dt":29.38},{"city":"Onarga","state_name":"Illinois","lat":40.7004,"lng":-87.98008,"zip":"60955","miles_from_dt":29.43},{"city":"Kempton","state_name":"Illinois","lat":40.91307,"lng":-88.20072,"zip":"60946","miles_from_dt":29.58},{"city":"De Land","state_name":"Illinois","lat":40.13184,"lng":-88.63694,"zip":"61839","miles_from_dt":29.83},{"city":"Flanagan","state_name":"Illinois","lat":40.88779,"lng":-88.86397,"zip":"61740","miles_from_dt":29.85}],"targetCityZipCode":"61720","targetCityState":"Illinois"},"__N_SSG":true}