{"pageProps":{"stateName":"Illinois","cityName":"apple-river","nearbyCities":[{"city":"Warren","state_name":"Illinois","lat":42.48046,"lng":-89.99351,"zip":"61087","miles_from_dt":6.71},{"city":"Scales Mound","state_name":"Illinois","lat":42.46546,"lng":-90.26444,"zip":"61075","miles_from_dt":7.27},{"city":"Gratiot","state_name":"Wisconsin","lat":42.56969,"lng":-90.02963,"zip":"53541","miles_from_dt":8.86},{"city":"Nora","state_name":"Illinois","lat":42.45465,"lng":-89.94084,"zip":"61059","miles_from_dt":9.28},{"city":"Shullsburg","state_name":"Wisconsin","lat":42.57271,"lng":-90.22702,"zip":"53586","miles_from_dt":9.37},{"city":"Stockton","state_name":"Illinois","lat":42.34268,"lng":-90.03077,"zip":"61085","miles_from_dt":9.42},{"city":"Elizabeth","state_name":"Illinois","lat":42.29366,"lng":-90.16935,"zip":"61028","miles_from_dt":11.81},{"city":"Benton","state_name":"Wisconsin","lat":42.55915,"lng":-90.35508,"zip":"53803","miles_from_dt":13.68},{"city":"South Wayne","state_name":"Wisconsin","lat":42.57736,"lng":-89.90511,"zip":"53587","miles_from_dt":13.68},{"city":"Galena","state_name":"Illinois","lat":42.4172,"lng":-90.39816,"zip":"61036","miles_from_dt":14.43},{"city":"Kent","state_name":"Illinois","lat":42.32336,"lng":-89.9099,"zip":"61044","miles_from_dt":14.44},{"city":"Winslow","state_name":"Illinois","lat":42.47349,"lng":-89.82335,"zip":"61089","miles_from_dt":15.3},{"city":"Lena","state_name":"Illinois","lat":42.38524,"lng":-89.83526,"zip":"61048","miles_from_dt":15.59},{"city":"Darlington","state_name":"Wisconsin","lat":42.69356,"lng":-90.11163,"zip":"53530","miles_from_dt":16.05},{"city":"Hanover","state_name":"Illinois","lat":42.272,"lng":-90.3202,"zip":"61041","miles_from_dt":16.53},{"city":"Browntown","state_name":"Wisconsin","lat":42.55674,"lng":-89.78983,"zip":"53522","miles_from_dt":18.21},{"city":"Woodford","state_name":"Wisconsin","lat":42.64765,"lng":-89.85986,"zip":"53599","miles_from_dt":18.57},{"city":"McConnell","state_name":"Illinois","lat":42.43932,"lng":-89.7319,"zip":"61050","miles_from_dt":20.01},{"city":"Pearl City","state_name":"Illinois","lat":42.25254,"lng":-89.84263,"zip":"61062","miles_from_dt":20.31},{"city":"Cuba City","state_name":"Wisconsin","lat":42.61123,"lng":-90.46668,"zip":"53807","miles_from_dt":20.4},{"city":"Eleroy","state_name":"Illinois","lat":42.3333,"lng":-89.75553,"zip":"61027","miles_from_dt":20.73},{"city":"Hazel Green","state_name":"Wisconsin","lat":42.53576,"lng":-90.51541,"zip":"53811","miles_from_dt":20.73},{"city":"Argyle","state_name":"Wisconsin","lat":42.70388,"lng":-89.85801,"zip":"53504","miles_from_dt":21.5},{"city":"Sinsinawa","state_name":"Wisconsin","lat":42.52378,"lng":-90.53785,"zip":"53824","miles_from_dt":21.66},{"city":"Belmont","state_name":"Wisconsin","lat":42.74065,"lng":-90.32147,"zip":"53510","miles_from_dt":21.8},{"city":"East Dubuque","state_name":"Illinois","lat":42.46958,"lng":-90.55904,"zip":"61025","miles_from_dt":22.33},{"city":"Saint Donatus","state_name":"Iowa","lat":42.36245,"lng":-90.54234,"zip":"52071","miles_from_dt":22.54},{"city":"Savanna","state_name":"Illinois","lat":42.12615,"lng":-90.13061,"zip":"61074","miles_from_dt":23.13},{"city":"Bellevue","state_name":"Iowa","lat":42.24874,"lng":-90.48922,"zip":"52031","miles_from_dt":23.83},{"city":"Mount Carroll","state_name":"Illinois","lat":42.11506,"lng":-89.98335,"zip":"61053","miles_from_dt":24.93},{"city":"Cedarville","state_name":"Illinois","lat":42.37544,"lng":-89.63623,"zip":"61013","miles_from_dt":25.55},{"city":"Orangeville","state_name":"Illinois","lat":42.47876,"lng":-89.61819,"zip":"61060","miles_from_dt":25.79},{"city":"Kieler","state_name":"Wisconsin","lat":42.5808,"lng":-90.60239,"zip":"53812","miles_from_dt":25.87},{"city":"Monroe","state_name":"Wisconsin","lat":42.60912,"lng":-89.64817,"zip":"53566","miles_from_dt":26.27},{"city":"Mineral Point","state_name":"Wisconsin","lat":42.84025,"lng":-90.16982,"zip":"53565","miles_from_dt":26.28},{"city":"Sabula","state_name":"Iowa","lat":42.08146,"lng":-90.21771,"zip":"52070","miles_from_dt":26.66},{"city":"Blanchardville","state_name":"Wisconsin","lat":42.80073,"lng":-89.8676,"zip":"53516","miles_from_dt":26.79},{"city":"Freeport","state_name":"Illinois","lat":42.31509,"lng":-89.63598,"zip":"61032","miles_from_dt":26.85},{"city":"Dickeyville","state_name":"Wisconsin","lat":42.63745,"lng":-90.59204,"zip":"53808","miles_from_dt":26.89},{"city":"Platteville","state_name":"Wisconsin","lat":42.74725,"lng":-90.49177,"zip":"53818","miles_from_dt":27.29},{"city":"Springbrook","state_name":"Iowa","lat":42.16577,"lng":-90.47916,"zip":"52075","miles_from_dt":27.39},{"city":"Miles","state_name":"Iowa","lat":42.08977,"lng":-90.31076,"zip":"52064","miles_from_dt":27.4},{"city":"Dubuque","state_name":"Iowa","lat":42.49588,"lng":-90.66751,"zip":"52099","miles_from_dt":27.96},{"city":"Dubuque","state_name":"Iowa","lat":42.5001,"lng":-90.66775,"zip":"52004","miles_from_dt":28},{"city":"La Motte","state_name":"Iowa","lat":42.30569,"lng":-90.62811,"zip":"52054","miles_from_dt":28.02},{"city":"Dubuque","state_name":"Iowa","lat":42.43434,"lng":-90.67506,"zip":"52003","miles_from_dt":28.32},{"city":"Shannon","state_name":"Illinois","lat":42.16729,"lng":-89.73062,"zip":"61078","miles_from_dt":28.53},{"city":"Dakota","state_name":"Illinois","lat":42.41599,"lng":-89.55558,"zip":"61018","miles_from_dt":29.14},{"city":"Lanark","state_name":"Illinois","lat":42.10404,"lng":-89.81329,"zip":"61046","miles_from_dt":29.3},{"city":"Dubuque","state_name":"Iowa","lat":42.54819,"lng":-90.69348,"zip":"52001","miles_from_dt":29.78}],"targetCityZipCode":"61001","targetCityState":"Illinois"},"__N_SSG":true}