{"pageProps":{"stateName":"Illinois","cityName":"bowen","nearbyCities":[{"city":"Augusta","state_name":"Illinois","lat":40.22195,"lng":-90.9212,"zip":"62311","miles_from_dt":7.12},{"city":"Golden","state_name":"Illinois","lat":40.12898,"lng":-91.04196,"zip":"62339","miles_from_dt":7.24},{"city":"West Point","state_name":"Illinois","lat":40.24249,"lng":-91.19174,"zip":"62380","miles_from_dt":7.26},{"city":"Loraine","state_name":"Illinois","lat":40.16958,"lng":-91.19986,"zip":"62349","miles_from_dt":8.84},{"city":"La Prairie","state_name":"Illinois","lat":40.14367,"lng":-90.93418,"zip":"62346","miles_from_dt":8.9},{"city":"Basco","state_name":"Illinois","lat":40.31782,"lng":-91.2251,"zip":"62313","miles_from_dt":10.71},{"city":"Plymouth","state_name":"Illinois","lat":40.30325,"lng":-90.86687,"zip":"62367","miles_from_dt":11.05},{"city":"Carthage","state_name":"Illinois","lat":40.40948,"lng":-91.10606,"zip":"62321","miles_from_dt":12.44},{"city":"Huntsville","state_name":"Illinois","lat":40.1799,"lng":-90.82497,"zip":"62344","miles_from_dt":12.71},{"city":"Coatsburg","state_name":"Illinois","lat":40.05307,"lng":-91.16564,"zip":"62325","miles_from_dt":13.75},{"city":"Mendon","state_name":"Illinois","lat":40.11374,"lng":-91.26751,"zip":"62351","miles_from_dt":13.95},{"city":"Tennessee","state_name":"Illinois","lat":40.40765,"lng":-90.91052,"zip":"62374","miles_from_dt":14.24},{"city":"Camp Point","state_name":"Illinois","lat":40.02343,"lng":-91.08295,"zip":"62320","miles_from_dt":14.56},{"city":"Elvaston","state_name":"Illinois","lat":40.39598,"lng":-91.24912,"zip":"62334","miles_from_dt":15.2},{"city":"Sutter","state_name":"Illinois","lat":40.23643,"lng":-91.35863,"zip":"62373","miles_from_dt":16.06},{"city":"Paloma","state_name":"Illinois","lat":40.03239,"lng":-91.20851,"zip":"62359","miles_from_dt":16.08},{"city":"Lima","state_name":"Illinois","lat":40.18836,"lng":-91.37126,"zip":"62348","miles_from_dt":17.02},{"city":"Ferris","state_name":"Illinois","lat":40.46759,"lng":-91.17333,"zip":"62336","miles_from_dt":17.32},{"city":"Clayton","state_name":"Illinois","lat":39.9901,"lng":-90.96302,"zip":"62324","miles_from_dt":17.48},{"city":"Camden","state_name":"Illinois","lat":40.15293,"lng":-90.72997,"zip":"62319","miles_from_dt":18.07},{"city":"Colchester","state_name":"Illinois","lat":40.42248,"lng":-90.81501,"zip":"62326","miles_from_dt":18.19},{"city":"Warsaw","state_name":"Illinois","lat":40.26867,"lng":-91.4061,"zip":"62379","miles_from_dt":18.72},{"city":"Hamilton","state_name":"Illinois","lat":40.42566,"lng":-91.30555,"zip":"62341","miles_from_dt":18.74},{"city":"Timewell","state_name":"Illinois","lat":39.99782,"lng":-90.87176,"zip":"62375","miles_from_dt":18.93},{"city":"Fowler","state_name":"Illinois","lat":39.99309,"lng":-91.23889,"zip":"62338","miles_from_dt":19.23},{"city":"Ursa","state_name":"Illinois","lat":40.1148,"lng":-91.40662,"zip":"62376","miles_from_dt":20.33},{"city":"Littleton","state_name":"Illinois","lat":40.23836,"lng":-90.66022,"zip":"61452","miles_from_dt":20.88},{"city":"Dallas City","state_name":"Illinois","lat":40.57217,"lng":-91.12187,"zip":"62330","miles_from_dt":23.64},{"city":"Mount Sterling","state_name":"Illinois","lat":39.97277,"lng":-90.75735,"zip":"62353","miles_from_dt":23.92},{"city":"Blandinsville","state_name":"Illinois","lat":40.5491,"lng":-90.86679,"zip":"61420","miles_from_dt":23.94},{"city":"La Harpe","state_name":"Illinois","lat":40.57629,"lng":-90.98088,"zip":"61450","miles_from_dt":23.98},{"city":"Quincy","state_name":"Illinois","lat":39.93296,"lng":-91.30595,"zip":"62306","miles_from_dt":24.63},{"city":"Nauvoo","state_name":"Illinois","lat":40.52087,"lng":-91.33305,"zip":"62354","miles_from_dt":24.67},{"city":"Industry","state_name":"Illinois","lat":40.3079,"lng":-90.59786,"zip":"61440","miles_from_dt":24.7},{"city":"Keokuk","state_name":"Iowa","lat":40.44072,"lng":-91.43973,"zip":"52632","miles_from_dt":24.85},{"city":"Liberty","state_name":"Illinois","lat":39.86648,"lng":-91.08905,"zip":"62347","miles_from_dt":25.38},{"city":"Colusa","state_name":"Illinois","lat":40.59863,"lng":-91.13788,"zip":"62329","miles_from_dt":25.58},{"city":"Macomb","state_name":"Illinois","lat":40.44047,"lng":-90.65115,"zip":"61455","miles_from_dt":25.66},{"city":"Quincy","state_name":"Illinois","lat":39.92915,"lng":-91.34441,"zip":"62305","miles_from_dt":26},{"city":"Niota","state_name":"Illinois","lat":40.58527,"lng":-91.26113,"zip":"62358","miles_from_dt":26.6},{"city":"Rushville","state_name":"Illinois","lat":40.13841,"lng":-90.55885,"zip":"62681","miles_from_dt":27.06},{"city":"Quincy","state_name":"Illinois","lat":39.93139,"lng":-91.38741,"zip":"62301","miles_from_dt":27.29},{"city":"Alexandria","state_name":"Missouri","lat":40.38972,"lng":-91.53958,"zip":"63430","miles_from_dt":27.78},{"city":"Canton","state_name":"Missouri","lat":40.20299,"lng":-91.58267,"zip":"63435","miles_from_dt":27.99},{"city":"Montrose","state_name":"Iowa","lat":40.52763,"lng":-91.46409,"zip":"52639","miles_from_dt":29.63},{"city":"Sciota","state_name":"Illinois","lat":40.5969,"lng":-90.7527,"zip":"61475","miles_from_dt":29.72},{"city":"Saint Patrick","state_name":"Missouri","lat":40.26627,"lng":-91.61751,"zip":"63466","miles_from_dt":29.83}],"targetCityZipCode":"62316","targetCityState":"Illinois"},"__N_SSG":true}