{"pageProps":{"stateName":"Illinois","cityName":"chadwick","nearbyCities":[{"city":"Milledgeville","state_name":"Illinois","lat":41.98289,"lng":-89.7619,"zip":"61051","miles_from_dt":6.44},{"city":"Lanark","state_name":"Illinois","lat":42.10404,"lng":-89.81329,"zip":"61046","miles_from_dt":9.67},{"city":"Thomson","state_name":"Illinois","lat":41.98307,"lng":-90.0811,"zip":"61285","miles_from_dt":10.04},{"city":"Morrison","state_name":"Illinois","lat":41.82971,"lng":-89.9656,"zip":"61270","miles_from_dt":10.83},{"city":"Mount Carroll","state_name":"Illinois","lat":42.11506,"lng":-89.98335,"zip":"61053","miles_from_dt":10.87},{"city":"Sterling","state_name":"Illinois","lat":41.84425,"lng":-89.73613,"zip":"61081","miles_from_dt":11.9},{"city":"Galt","state_name":"Illinois","lat":41.7882,"lng":-89.75978,"zip":"61037","miles_from_dt":14.45},{"city":"Fulton","state_name":"Illinois","lat":41.8435,"lng":-90.12272,"zip":"61252","miles_from_dt":15.19},{"city":"Polo","state_name":"Illinois","lat":41.9893,"lng":-89.5873,"zip":"61064","miles_from_dt":15.44},{"city":"Shannon","state_name":"Illinois","lat":42.16729,"lng":-89.73062,"zip":"61078","miles_from_dt":15.5},{"city":"Savanna","state_name":"Illinois","lat":42.12615,"lng":-90.13061,"zip":"61074","miles_from_dt":16.32},{"city":"Lyndon","state_name":"Illinois","lat":41.72928,"lng":-89.91166,"zip":"61261","miles_from_dt":17.01},{"city":"Woosung","state_name":"Illinois","lat":41.90818,"lng":-89.55234,"zip":"61091","miles_from_dt":17.83},{"city":"Clinton","state_name":"Iowa","lat":41.8477,"lng":-90.18734,"zip":"52733","miles_from_dt":17.83},{"city":"Forreston","state_name":"Illinois","lat":42.11578,"lng":-89.58898,"zip":"61030","miles_from_dt":18.13},{"city":"Sabula","state_name":"Iowa","lat":42.08146,"lng":-90.21771,"zip":"52070","miles_from_dt":18.56},{"city":"Andover","state_name":"Iowa","lat":41.98198,"lng":-90.24908,"zip":"52701","miles_from_dt":18.68},{"city":"Pearl City","state_name":"Illinois","lat":42.25254,"lng":-89.84263,"zip":"61062","miles_from_dt":19.29},{"city":"Teeds Grove","state_name":"Iowa","lat":42.01958,"lng":-90.25707,"zip":"52771","miles_from_dt":19.32},{"city":"Clinton","state_name":"Iowa","lat":41.90126,"lng":-90.25083,"zip":"52732","miles_from_dt":19.45},{"city":"Fenton","state_name":"Illinois","lat":41.72909,"lng":-90.07291,"zip":"61251","miles_from_dt":19.51},{"city":"Rock Falls","state_name":"Illinois","lat":41.72599,"lng":-89.70006,"zip":"61071","miles_from_dt":19.7},{"city":"Clinton","state_name":"Iowa","lat":41.84253,"lng":-90.23168,"zip":"52736","miles_from_dt":20.01},{"city":"Clinton","state_name":"Iowa","lat":41.81909,"lng":-90.23587,"zip":"52734","miles_from_dt":20.98},{"city":"Baileyville","state_name":"Illinois","lat":42.19941,"lng":-89.59109,"zip":"61007","miles_from_dt":21.69},{"city":"Bryant","state_name":"Iowa","lat":41.95834,"lng":-90.33341,"zip":"52727","miles_from_dt":23.05},{"city":"Miles","state_name":"Iowa","lat":42.08977,"lng":-90.31076,"zip":"52064","miles_from_dt":23.22},{"city":"Dixon","state_name":"Illinois","lat":41.82908,"lng":-89.47764,"zip":"61021","miles_from_dt":23.36},{"city":"Mount Morris","state_name":"Illinois","lat":42.05573,"lng":-89.44548,"zip":"61054","miles_from_dt":23.37},{"city":"Albany","state_name":"Illinois","lat":41.74074,"lng":-90.21447,"zip":"61230","miles_from_dt":23.4},{"city":"Kent","state_name":"Illinois","lat":42.32336,"lng":-89.9099,"zip":"61044","miles_from_dt":24.07},{"city":"Erie","state_name":"Illinois","lat":41.65884,"lng":-90.10081,"zip":"61250","miles_from_dt":24.47},{"city":"Eleroy","state_name":"Illinois","lat":42.3333,"lng":-89.75553,"zip":"61027","miles_from_dt":25.63},{"city":"Prophetstown","state_name":"Illinois","lat":41.60425,"lng":-89.93251,"zip":"61277","miles_from_dt":25.7},{"city":"Harmon","state_name":"Illinois","lat":41.68819,"lng":-89.56015,"zip":"61042","miles_from_dt":25.99},{"city":"Goose Lake","state_name":"Iowa","lat":41.933,"lng":-90.39302,"zip":"52750","miles_from_dt":26.26},{"city":"Elizabeth","state_name":"Illinois","lat":42.29366,"lng":-90.16935,"zip":"61028","miles_from_dt":26.36},{"city":"Stockton","state_name":"Illinois","lat":42.34268,"lng":-90.03077,"zip":"61085","miles_from_dt":26.44},{"city":"Freeport","state_name":"Illinois","lat":42.31509,"lng":-89.63598,"zip":"61032","miles_from_dt":26.77},{"city":"German Valley","state_name":"Illinois","lat":42.20805,"lng":-89.46931,"zip":"61039","miles_from_dt":26.81},{"city":"Deer Grove","state_name":"Illinois","lat":41.61849,"lng":-89.6784,"zip":"61243","miles_from_dt":26.85},{"city":"Low Moor","state_name":"Iowa","lat":41.80337,"lng":-90.3552,"zip":"52757","miles_from_dt":26.92},{"city":"Tampico","state_name":"Illinois","lat":41.59094,"lng":-89.78854,"zip":"61283","miles_from_dt":26.99},{"city":"Camanche","state_name":"Iowa","lat":41.77366,"lng":-90.34364,"zip":"52730","miles_from_dt":27.37},{"city":"Cordova","state_name":"Illinois","lat":41.70363,"lng":-90.27858,"zip":"61242","miles_from_dt":27.57},{"city":"Nachusa","state_name":"Illinois","lat":41.83357,"lng":-89.38401,"zip":"61057","miles_from_dt":27.69},{"city":"Leaf River","state_name":"Illinois","lat":42.15305,"lng":-89.39597,"zip":"61047","miles_from_dt":28.06},{"city":"Eldena","state_name":"Illinois","lat":41.76994,"lng":-89.4136,"zip":"61324","miles_from_dt":28.2},{"city":"Oregon","state_name":"Illinois","lat":41.99851,"lng":-89.33819,"zip":"61061","miles_from_dt":28.28},{"city":"Lena","state_name":"Illinois","lat":42.38524,"lng":-89.83526,"zip":"61048","miles_from_dt":28.44},{"city":"Preston","state_name":"Iowa","lat":42.05772,"lng":-90.4279,"zip":"52069","miles_from_dt":28.44}],"targetCityZipCode":"61014","targetCityState":"Illinois"},"__N_SSG":true}