{"pageProps":{"stateName":"Illinois","cityName":"chandlerville","nearbyCities":[{"city":"Bath","state_name":"Illinois","lat":40.14948,"lng":-90.18109,"zip":"62617","miles_from_dt":7.13},{"city":"Virginia","state_name":"Illinois","lat":39.95731,"lng":-90.22246,"zip":"62691","miles_from_dt":8.33},{"city":"Oakford","state_name":"Illinois","lat":40.09586,"lng":-89.9674,"zip":"62673","miles_from_dt":9.03},{"city":"Kilbourne","state_name":"Illinois","lat":40.16523,"lng":-89.99515,"zip":"62655","miles_from_dt":10.43},{"city":"Ashland","state_name":"Illinois","lat":39.89864,"lng":-90.0683,"zip":"62612","miles_from_dt":11.21},{"city":"Bluff Springs","state_name":"Illinois","lat":39.97786,"lng":-90.34302,"zip":"62622","miles_from_dt":12.52},{"city":"Browning","state_name":"Illinois","lat":40.14993,"lng":-90.34478,"zip":"62624","miles_from_dt":13.21},{"city":"Tallula","state_name":"Illinois","lat":39.945,"lng":-89.92415,"zip":"62688","miles_from_dt":13.22},{"city":"Literberry","state_name":"Illinois","lat":39.85677,"lng":-90.19761,"zip":"62660","miles_from_dt":14.11},{"city":"Petersburg","state_name":"Illinois","lat":40.02109,"lng":-89.86146,"zip":"62675","miles_from_dt":14.36},{"city":"Beardstown","state_name":"Illinois","lat":40.00534,"lng":-90.39542,"zip":"62618","miles_from_dt":14.53},{"city":"Lincolns New Salem","state_name":"Illinois","lat":40.04,"lng":-89.85219,"zip":"62659","miles_from_dt":14.7},{"city":"Astoria","state_name":"Illinois","lat":40.22797,"lng":-90.31233,"zip":"61501","miles_from_dt":15.43},{"city":"Havana","state_name":"Illinois","lat":40.28553,"lng":-90.06022,"zip":"62644","miles_from_dt":16.37},{"city":"Easton","state_name":"Illinois","lat":40.22577,"lng":-89.8763,"zip":"62633","miles_from_dt":17.86},{"city":"Arenzville","state_name":"Illinois","lat":39.88493,"lng":-90.39984,"zip":"62611","miles_from_dt":18.53},{"city":"Frederick","state_name":"Illinois","lat":40.0435,"lng":-90.48753,"zip":"62639","miles_from_dt":19.03},{"city":"Pleasant Plains","state_name":"Illinois","lat":39.85168,"lng":-89.87694,"zip":"62677","miles_from_dt":19.35},{"city":"Concord","state_name":"Illinois","lat":39.82531,"lng":-90.36122,"zip":"62631","miles_from_dt":20.04},{"city":"Alexander","state_name":"Illinois","lat":39.75032,"lng":-90.03904,"zip":"62601","miles_from_dt":21.51},{"city":"Ipava","state_name":"Illinois","lat":40.33957,"lng":-90.29336,"zip":"61441","miles_from_dt":21.52},{"city":"Greenview","state_name":"Illinois","lat":40.09022,"lng":-89.71303,"zip":"62642","miles_from_dt":22.18},{"city":"Jacksonville","state_name":"Illinois","lat":39.73799,"lng":-90.22027,"zip":"62650","miles_from_dt":22.35},{"city":"Lewistown","state_name":"Illinois","lat":40.38487,"lng":-90.13402,"zip":"61542","miles_from_dt":22.81},{"city":"Rushville","state_name":"Illinois","lat":40.13841,"lng":-90.55885,"zip":"62681","miles_from_dt":23.51},{"city":"Vermont","state_name":"Illinois","lat":40.29696,"lng":-90.44153,"zip":"61484","miles_from_dt":23.54},{"city":"Jacksonville","state_name":"Illinois","lat":39.72757,"lng":-90.26403,"zip":"62651","miles_from_dt":23.66},{"city":"Topeka","state_name":"Illinois","lat":40.35077,"lng":-89.89899,"zip":"61567","miles_from_dt":23.8},{"city":"Chapin","state_name":"Illinois","lat":39.7794,"lng":-90.40199,"zip":"62628","miles_from_dt":23.88},{"city":"Mason City","state_name":"Illinois","lat":40.21106,"lng":-89.72629,"zip":"62664","miles_from_dt":23.91},{"city":"New Berlin","state_name":"Illinois","lat":39.74431,"lng":-89.89601,"zip":"62670","miles_from_dt":24.71},{"city":"Athens","state_name":"Illinois","lat":39.99009,"lng":-89.67036,"zip":"62613","miles_from_dt":24.72},{"city":"Cantrall","state_name":"Illinois","lat":39.90424,"lng":-89.70185,"zip":"62625","miles_from_dt":24.92},{"city":"Forest City","state_name":"Illinois","lat":40.34851,"lng":-89.80692,"zip":"61532","miles_from_dt":26.5},{"city":"Liverpool","state_name":"Illinois","lat":40.42213,"lng":-89.96842,"zip":"61543","miles_from_dt":26.76},{"city":"Meredosia","state_name":"Illinois","lat":39.81627,"lng":-90.53462,"zip":"62665","miles_from_dt":27.09},{"city":"Table Grove","state_name":"Illinois","lat":40.39362,"lng":-90.40766,"zip":"61482","miles_from_dt":27.67},{"city":"Bryant","state_name":"Illinois","lat":40.46463,"lng":-90.09309,"zip":"61519","miles_from_dt":28.38},{"city":"Springfield","state_name":"Illinois","lat":39.85506,"lng":-89.64989,"zip":"62707","miles_from_dt":28.91},{"city":"Springfield","state_name":"Illinois","lat":39.76662,"lng":-89.73195,"zip":"62711","miles_from_dt":28.96},{"city":"Versailles","state_name":"Illinois","lat":39.89602,"lng":-90.63652,"zip":"62378","miles_from_dt":29.07},{"city":"Springfield","state_name":"Illinois","lat":39.85107,"lng":-89.63185,"zip":"62791","miles_from_dt":29.88}],"targetCityZipCode":"62627","targetCityState":"Illinois"},"__N_SSG":true}