{"pageProps":{"stateName":"Illinois","cityName":"dekalb","nearbyCities":[{"city":"Cortland","state_name":"Illinois","lat":41.92391,"lng":-88.68994,"zip":"60112","miles_from_dt":3.69},{"city":"Malta","state_name":"Illinois","lat":41.92106,"lng":-88.88982,"zip":"60150","miles_from_dt":7.1},{"city":"Clare","state_name":"Illinois","lat":42.00721,"lng":-88.83114,"zip":"60111","miles_from_dt":8.32},{"city":"Sycamore","state_name":"Illinois","lat":42.00625,"lng":-88.67205,"zip":"60178","miles_from_dt":8.41},{"city":"Waterman","state_name":"Illinois","lat":41.76507,"lng":-88.77373,"zip":"60556","miles_from_dt":9.44},{"city":"Hinckley","state_name":"Illinois","lat":41.7826,"lng":-88.65808,"zip":"60520","miles_from_dt":9.58},{"city":"Maple Park","state_name":"Illinois","lat":41.9172,"lng":-88.56613,"zip":"60151","miles_from_dt":9.78},{"city":"Shabbona","state_name":"Illinois","lat":41.77708,"lng":-88.87777,"zip":"60550","miles_from_dt":10.66},{"city":"Creston","state_name":"Illinois","lat":41.93142,"lng":-88.96421,"zip":"60113","miles_from_dt":11},{"city":"Lee","state_name":"Illinois","lat":41.79613,"lng":-88.95988,"zip":"60530","miles_from_dt":12.83},{"city":"Kaneville","state_name":"Illinois","lat":41.83507,"lng":-88.51984,"zip":"60144","miles_from_dt":12.94},{"city":"Kingston","state_name":"Illinois","lat":42.09396,"lng":-88.77719,"zip":"60145","miles_from_dt":13.36},{"city":"Esmond","state_name":"Illinois","lat":42.02963,"lng":-88.95371,"zip":"60129","miles_from_dt":13.56},{"city":"Burlington","state_name":"Illinois","lat":42.04448,"lng":-88.56261,"zip":"60109","miles_from_dt":13.99},{"city":"Big Rock","state_name":"Illinois","lat":41.75778,"lng":-88.55601,"zip":"60511","miles_from_dt":14.25},{"city":"Elburn","state_name":"Illinois","lat":41.86154,"lng":-88.47702,"zip":"60119","miles_from_dt":14.58},{"city":"Steward","state_name":"Illinois","lat":41.82399,"lng":-89.02806,"zip":"60553","miles_from_dt":15.07},{"city":"Genoa","state_name":"Illinois","lat":42.11265,"lng":-88.67867,"zip":"60135","miles_from_dt":15.12},{"city":"Kirkland","state_name":"Illinois","lat":42.10091,"lng":-88.88019,"zip":"60146","miles_from_dt":15.23},{"city":"Lindenwood","state_name":"Illinois","lat":42.04417,"lng":-89.00753,"zip":"61049","miles_from_dt":16.34},{"city":"Rochelle","state_name":"Illinois","lat":41.94928,"lng":-89.0652,"zip":"61068","miles_from_dt":16.35},{"city":"Lafox","state_name":"Illinois","lat":41.88416,"lng":-88.43245,"zip":"60147","miles_from_dt":16.66},{"city":"Somonauk","state_name":"Illinois","lat":41.66144,"lng":-88.70343,"zip":"60552","miles_from_dt":16.75},{"city":"Sugar Grove","state_name":"Illinois","lat":41.77852,"lng":-88.45838,"zip":"60554","miles_from_dt":17.48},{"city":"Hampshire","state_name":"Illinois","lat":42.08003,"lng":-88.5086,"zip":"60140","miles_from_dt":17.69},{"city":"Wasco","state_name":"Illinois","lat":41.94019,"lng":-88.40908,"zip":"60183","miles_from_dt":18.02},{"city":"Sandwich","state_name":"Illinois","lat":41.64811,"lng":-88.63471,"zip":"60548","miles_from_dt":18.53},{"city":"Paw Paw","state_name":"Illinois","lat":41.6967,"lng":-88.99623,"zip":"61353","miles_from_dt":18.83},{"city":"Saint Charles","state_name":"Illinois","lat":41.94695,"lng":-88.3913,"zip":"60175","miles_from_dt":19},{"city":"Plano","state_name":"Illinois","lat":41.67815,"lng":-88.53587,"zip":"60545","miles_from_dt":19.09},{"city":"Monroe Center","state_name":"Illinois","lat":42.11146,"lng":-89.00011,"zip":"61052","miles_from_dt":19.25},{"city":"Leland","state_name":"Illinois","lat":41.61563,"lng":-88.78639,"zip":"60531","miles_from_dt":19.77},{"city":"Elgin","state_name":"Illinois","lat":42.02621,"lng":-88.39691,"zip":"60124","miles_from_dt":20.35},{"city":"Compton","state_name":"Illinois","lat":41.71202,"lng":-89.08039,"zip":"61318","miles_from_dt":21.29},{"city":"Bristol","state_name":"Illinois","lat":41.70134,"lng":-88.43986,"zip":"60512","miles_from_dt":21.32},{"city":"Geneva","state_name":"Illinois","lat":41.8784,"lng":-88.34189,"zip":"60134","miles_from_dt":21.35},{"city":"Holcomb","state_name":"Illinois","lat":42.06676,"lng":-89.10499,"zip":"61043","miles_from_dt":21.36},{"city":"North Aurora","state_name":"Illinois","lat":41.80878,"lng":-88.3489,"zip":"60542","miles_from_dt":21.89},{"city":"Aurora","state_name":"Illinois","lat":41.76176,"lng":-88.37125,"zip":"60506","miles_from_dt":22},{"city":"Mooseheart","state_name":"Illinois","lat":41.825,"lng":-88.33529,"zip":"60539","miles_from_dt":22.27},{"city":"Fox Valley","state_name":"Illinois","lat":41.7721,"lng":-88.3574,"zip":"60599","miles_from_dt":22.35},{"city":"Earlville","state_name":"Illinois","lat":41.59997,"lng":-88.92215,"zip":"60518","miles_from_dt":22.51},{"city":"Cherry Valley","state_name":"Illinois","lat":42.19761,"lng":-88.94704,"zip":"61016","miles_from_dt":22.73},{"city":"Davis Junction","state_name":"Illinois","lat":42.11035,"lng":-89.09807,"zip":"61020","miles_from_dt":22.83},{"city":"Batavia","state_name":"Illinois","lat":41.84283,"lng":-88.31189,"zip":"60510","miles_from_dt":23.19},{"city":"Millbrook","state_name":"Illinois","lat":41.59853,"lng":-88.55212,"zip":"60536","miles_from_dt":23.36},{"city":"Ashton","state_name":"Illinois","lat":41.86078,"lng":-89.20836,"zip":"61006","miles_from_dt":23.56},{"city":"Saint Charles","state_name":"Illinois","lat":41.92759,"lng":-88.29906,"zip":"60174","miles_from_dt":23.56},{"city":"South Elgin","state_name":"Illinois","lat":41.98931,"lng":-88.30987,"zip":"60177","miles_from_dt":23.71},{"city":"Chana","state_name":"Illinois","lat":41.99443,"lng":-89.20011,"zip":"61015","miles_from_dt":23.84},{"city":"Aurora","state_name":"Illinois","lat":41.78532,"lng":-88.31845,"zip":"60507","miles_from_dt":23.89},{"city":"Gilberts","state_name":"Illinois","lat":42.1053,"lng":-88.37808,"zip":"60136","miles_from_dt":23.97},{"city":"Montgomery","state_name":"Illinois","lat":41.72165,"lng":-88.35637,"zip":"60538","miles_from_dt":24.01},{"city":"West Brooklyn","state_name":"Illinois","lat":41.72614,"lng":-89.158,"zip":"61378","miles_from_dt":24.07},{"city":"Belvidere","state_name":"Illinois","lat":42.24579,"lng":-88.83949,"zip":"61008","miles_from_dt":24.19},{"city":"Marengo","state_name":"Illinois","lat":42.23882,"lng":-88.62597,"zip":"60152","miles_from_dt":24.23},{"city":"Aurora","state_name":"Illinois","lat":41.76606,"lng":-88.32002,"zip":"60572","miles_from_dt":24.29},{"city":"Millington","state_name":"Illinois","lat":41.56158,"lng":-88.60246,"zip":"60537","miles_from_dt":24.72},{"city":"Huntley","state_name":"Illinois","lat":42.17517,"lng":-88.44486,"zip":"60142","miles_from_dt":24.74},{"city":"Elgin","state_name":"Illinois","lat":42.04011,"lng":-88.31166,"zip":"60123","miles_from_dt":24.75},{"city":"Garden Prairie","state_name":"Illinois","lat":42.26344,"lng":-88.73586,"zip":"61038","miles_from_dt":25.03},{"city":"Union","state_name":"Illinois","lat":42.22342,"lng":-88.52023,"zip":"60180","miles_from_dt":25.3},{"city":"Rockford","state_name":"Illinois","lat":42.1924,"lng":-89.05392,"zip":"61109","miles_from_dt":25.32},{"city":"Aurora","state_name":"Illinois","lat":41.76527,"lng":-88.29576,"zip":"60505","miles_from_dt":25.48},{"city":"Carol Stream","state_name":"Illinois","lat":42.03672,"lng":-88.28834,"zip":"60122","miles_from_dt":25.78},{"city":"Wayne","state_name":"Illinois","lat":41.95208,"lng":-88.25323,"zip":"60184","miles_from_dt":26.08},{"city":"Rockford","state_name":"Illinois","lat":42.24193,"lng":-88.97523,"zip":"61112","miles_from_dt":26.12},{"city":"Sheridan","state_name":"Illinois","lat":41.52463,"lng":-88.68992,"zip":"60551","miles_from_dt":26.2},{"city":"Elgin","state_name":"Illinois","lat":42.03786,"lng":-88.27964,"zip":"60121","miles_from_dt":26.23},{"city":"Yorkville","state_name":"Illinois","lat":41.60799,"lng":-88.42841,"zip":"60560","miles_from_dt":26.33},{"city":"Aurora","state_name":"Illinois","lat":41.78911,"lng":-88.25952,"zip":"60502","miles_from_dt":26.7},{"city":"Rockford","state_name":"Illinois","lat":42.23736,"lng":-89.01238,"zip":"61125","miles_from_dt":26.73},{"city":"Stillman Valley","state_name":"Illinois","lat":42.11843,"lng":-89.18867,"zip":"61084","miles_from_dt":26.91},{"city":"Dundee","state_name":"Illinois","lat":42.10793,"lng":-88.30614,"zip":"60118","miles_from_dt":27.15},{"city":"Aurora","state_name":"Illinois","lat":41.77478,"lng":-88.25068,"zip":"60598","miles_from_dt":27.43},{"city":"Oswego","state_name":"Illinois","lat":41.66537,"lng":-88.32442,"zip":"60543","miles_from_dt":27.54},{"city":"Rockford","state_name":"Illinois","lat":42.25515,"lng":-89.00236,"zip":"61108","miles_from_dt":27.56},{"city":"Aurora","state_name":"Illinois","lat":41.77339,"lng":-88.24738,"zip":"60568","miles_from_dt":27.63},{"city":"Eola","state_name":"Illinois","lat":41.77724,"lng":-88.24255,"zip":"60519","miles_from_dt":27.78},{"city":"West Chicago","state_name":"Illinois","lat":41.89308,"lng":-88.21498,"zip":"60185","miles_from_dt":27.84},{"city":"Rockford","state_name":"Illinois","lat":42.25363,"lng":-89.01795,"zip":"61126","miles_from_dt":27.84},{"city":"Elgin","state_name":"Illinois","lat":42.03317,"lng":-88.2374,"zip":"60120","miles_from_dt":28.16},{"city":"West Chicago","state_name":"Illinois","lat":41.88491,"lng":-88.20651,"zip":"60186","miles_from_dt":28.29},{"city":"Serena","state_name":"Illinois","lat":41.4908,"lng":-88.74251,"zip":"60549","miles_from_dt":28.32},{"city":"Aurora","state_name":"Illinois","lat":41.81211,"lng":-88.21715,"zip":"60569","miles_from_dt":28.41},{"city":"Carpentersville","state_name":"Illinois","lat":42.12296,"lng":-88.2883,"zip":"60110","miles_from_dt":28.47},{"city":"Aurora","state_name":"Illinois","lat":41.74649,"lng":-88.23957,"zip":"60504","miles_from_dt":28.65},{"city":"Bartlett","state_name":"Illinois","lat":41.97816,"lng":-88.20511,"zip":"60103","miles_from_dt":28.81},{"city":"Newark","state_name":"Illinois","lat":41.5193,"lng":-88.52552,"zip":"60541","miles_from_dt":28.89},{"city":"Lake In The Hills","state_name":"Illinois","lat":42.19121,"lng":-88.34788,"zip":"60156","miles_from_dt":28.96},{"city":"Lee Center","state_name":"Illinois","lat":41.74771,"lng":-89.27754,"zip":"61331","miles_from_dt":28.99},{"city":"Aurora","state_name":"Illinois","lat":41.7079,"lng":-88.25475,"zip":"60503","miles_from_dt":29.06},{"city":"Algonquin","state_name":"Illinois","lat":42.16406,"lng":-88.30928,"zip":"60102","miles_from_dt":29.23},{"city":"Rockford","state_name":"Illinois","lat":42.28344,"lng":-89.00348,"zip":"61107","miles_from_dt":29.33},{"city":"Franklin Grove","state_name":"Illinois","lat":41.83263,"lng":-89.31626,"zip":"61031","miles_from_dt":29.35},{"city":"Rockford","state_name":"Illinois","lat":42.25186,"lng":-89.07911,"zip":"61104","miles_from_dt":29.4},{"city":"Warrenville","state_name":"Illinois","lat":41.82261,"lng":-88.18854,"zip":"60555","miles_from_dt":29.71},{"city":"Hoffman Estates","state_name":"Illinois","lat":42.07971,"lng":-88.22425,"zip":"60179","miles_from_dt":29.97}],"targetCityZipCode":"60115","targetCityState":"Illinois"},"__N_SSG":true}