{"pageProps":{"stateName":"Illinois","cityName":"glenarm","nearbyCities":[{"city":"Divernon","state_name":"Illinois","lat":39.56206,"lng":-89.65626,"zip":"62530","miles_from_dt":4.71},{"city":"Chatham","state_name":"Illinois","lat":39.67858,"lng":-89.71978,"zip":"62629","miles_from_dt":4.99},{"city":"Auburn","state_name":"Illinois","lat":39.58568,"lng":-89.75406,"zip":"62615","miles_from_dt":6.34},{"city":"Pawnee","state_name":"Illinois","lat":39.58967,"lng":-89.54239,"zip":"62558","miles_from_dt":6.4},{"city":"Springfield","state_name":"Illinois","lat":39.74815,"lng":-89.61177,"zip":"62716","miles_from_dt":8.39},{"city":"Springfield","state_name":"Illinois","lat":39.75763,"lng":-89.63542,"zip":"62764","miles_from_dt":8.83},{"city":"Springfield","state_name":"Illinois","lat":39.74883,"lng":-89.58344,"zip":"62712","miles_from_dt":8.92},{"city":"Springfield","state_name":"Illinois","lat":39.75943,"lng":-89.63409,"zip":"62723","miles_from_dt":8.96},{"city":"Springfield","state_name":"Illinois","lat":39.75979,"lng":-89.63518,"zip":"62708","miles_from_dt":8.97},{"city":"Thayer","state_name":"Illinois","lat":39.53402,"lng":-89.76555,"zip":"62689","miles_from_dt":9.05},{"city":"Springfield","state_name":"Illinois","lat":39.76184,"lng":-89.63121,"zip":"62794","miles_from_dt":9.14},{"city":"Springfield","state_name":"Illinois","lat":39.76276,"lng":-89.63106,"zip":"62703","miles_from_dt":9.2},{"city":"Rochester","state_name":"Illinois","lat":39.71675,"lng":-89.50017,"zip":"62563","miles_from_dt":9.98},{"city":"Springfield","state_name":"Illinois","lat":39.77358,"lng":-89.68503,"zip":"62704","miles_from_dt":10.06},{"city":"Springfield","state_name":"Illinois","lat":39.77425,"lng":-89.60784,"zip":"62766","miles_from_dt":10.19},{"city":"Springfield","state_name":"Illinois","lat":39.76662,"lng":-89.73195,"zip":"62711","miles_from_dt":10.37},{"city":"Loami","state_name":"Illinois","lat":39.66513,"lng":-89.84057,"zip":"62661","miles_from_dt":10.43},{"city":"Virden","state_name":"Illinois","lat":39.50572,"lng":-89.76662,"zip":"62690","miles_from_dt":10.6},{"city":"Springfield","state_name":"Illinois","lat":39.78622,"lng":-89.65626,"zip":"62763","miles_from_dt":10.77},{"city":"Springfield","state_name":"Illinois","lat":39.78786,"lng":-89.65223,"zip":"62762","miles_from_dt":10.88},{"city":"Tovey","state_name":"Illinois","lat":39.58023,"lng":-89.45107,"zip":"62570","miles_from_dt":11.17},{"city":"Springfield","state_name":"Illinois","lat":39.79722,"lng":-89.65357,"zip":"62722","miles_from_dt":11.52},{"city":"Springfield","state_name":"Illinois","lat":39.79736,"lng":-89.65478,"zip":"62756","miles_from_dt":11.53},{"city":"Springfield","state_name":"Illinois","lat":39.79789,"lng":-89.6554,"zip":"62706","miles_from_dt":11.57},{"city":"Springfield","state_name":"Illinois","lat":39.79812,"lng":-89.64652,"zip":"62739","miles_from_dt":11.59},{"city":"Springfield","state_name":"Illinois","lat":39.7973,"lng":-89.62153,"zip":"62796","miles_from_dt":11.63},{"city":"Springfield","state_name":"Illinois","lat":39.79958,"lng":-89.64516,"zip":"62757","miles_from_dt":11.69},{"city":"Springfield","state_name":"Illinois","lat":39.79986,"lng":-89.64776,"zip":"62705","miles_from_dt":11.7},{"city":"Springfield","state_name":"Illinois","lat":39.80005,"lng":-89.65425,"zip":"62777","miles_from_dt":11.72},{"city":"Lowder","state_name":"Illinois","lat":39.55309,"lng":-89.84646,"zip":"62662","miles_from_dt":11.75},{"city":"Springfield","state_name":"Illinois","lat":39.80063,"lng":-89.64902,"zip":"62701","miles_from_dt":11.76},{"city":"Springfield","state_name":"Illinois","lat":39.80145,"lng":-89.64522,"zip":"62765","miles_from_dt":11.82},{"city":"Springfield","state_name":"Illinois","lat":39.80155,"lng":-89.6527,"zip":"62719","miles_from_dt":11.82},{"city":"Springfield","state_name":"Illinois","lat":39.80218,"lng":-89.65424,"zip":"62776","miles_from_dt":11.87},{"city":"Bulpitt","state_name":"Illinois","lat":39.59365,"lng":-89.43285,"zip":"62517","miles_from_dt":11.87},{"city":"Springfield","state_name":"Illinois","lat":39.80314,"lng":-89.65807,"zip":"62786","miles_from_dt":11.94},{"city":"Springfield","state_name":"Illinois","lat":39.80336,"lng":-89.64681,"zip":"62715","miles_from_dt":11.95},{"city":"Springfield","state_name":"Illinois","lat":39.80346,"lng":-89.65193,"zip":"62736","miles_from_dt":11.95},{"city":"Springfield","state_name":"Illinois","lat":39.80422,"lng":-89.66064,"zip":"62761","miles_from_dt":12.02},{"city":"Springfield","state_name":"Illinois","lat":39.80464,"lng":-89.65532,"zip":"62767","miles_from_dt":12.04},{"city":"Springfield","state_name":"Illinois","lat":39.80519,"lng":-89.65298,"zip":"62726","miles_from_dt":12.07},{"city":"Springfield","state_name":"Illinois","lat":39.80596,"lng":-89.64322,"zip":"62769","miles_from_dt":12.13},{"city":"Springfield","state_name":"Illinois","lat":39.81084,"lng":-89.65576,"zip":"62781","miles_from_dt":12.46},{"city":"Kincaid","state_name":"Illinois","lat":39.58496,"lng":-89.41938,"zip":"62540","miles_from_dt":12.71},{"city":"Farmersville","state_name":"Illinois","lat":39.44483,"lng":-89.626,"zip":"62533","miles_from_dt":12.86},{"city":"Springfield","state_name":"Illinois","lat":39.82377,"lng":-89.64286,"zip":"62702","miles_from_dt":13.36},{"city":"Edinburg","state_name":"Illinois","lat":39.66754,"lng":-89.37395,"zip":"62531","miles_from_dt":14.96},{"city":"Springfield","state_name":"Illinois","lat":39.85107,"lng":-89.63185,"zip":"62791","miles_from_dt":15.27},{"city":"New Berlin","state_name":"Illinois","lat":39.74431,"lng":-89.89601,"zip":"62670","miles_from_dt":15.28},{"city":"Springfield","state_name":"Illinois","lat":39.85506,"lng":-89.64989,"zip":"62707","miles_from_dt":15.51},{"city":"Waverly","state_name":"Illinois","lat":39.5832,"lng":-89.93936,"zip":"62692","miles_from_dt":15.77},{"city":"Girard","state_name":"Illinois","lat":39.43183,"lng":-89.80746,"zip":"62640","miles_from_dt":16.06},{"city":"Dawson","state_name":"Illinois","lat":39.82185,"lng":-89.45904,"zip":"62520","miles_from_dt":16.69},{"city":"Mechanicsburg","state_name":"Illinois","lat":39.7661,"lng":-89.38737,"zip":"62545","miles_from_dt":16.86},{"city":"Morrisonville","state_name":"Illinois","lat":39.43042,"lng":-89.44281,"zip":"62546","miles_from_dt":17.69},{"city":"Nilwood","state_name":"Illinois","lat":39.39802,"lng":-89.80444,"zip":"62672","miles_from_dt":18.01},{"city":"Riverton","state_name":"Illinois","lat":39.86754,"lng":-89.50498,"zip":"62561","miles_from_dt":18.11},{"city":"Palmer","state_name":"Illinois","lat":39.46674,"lng":-89.37049,"zip":"62556","miles_from_dt":18.72},{"city":"Waggoner","state_name":"Illinois","lat":39.35908,"lng":-89.69778,"zip":"62572","miles_from_dt":18.88},{"city":"Cantrall","state_name":"Illinois","lat":39.90424,"lng":-89.70185,"zip":"62625","miles_from_dt":19.1},{"city":"Pleasant Plains","state_name":"Illinois","lat":39.85168,"lng":-89.87694,"zip":"62677","miles_from_dt":19.47},{"city":"Sherman","state_name":"Illinois","lat":39.91019,"lng":-89.58474,"zip":"62684","miles_from_dt":19.63},{"city":"Taylorville","state_name":"Illinois","lat":39.55974,"lng":-89.29016,"zip":"62568","miles_from_dt":19.82},{"city":"Harvel","state_name":"Illinois","lat":39.35631,"lng":-89.52051,"zip":"62538","miles_from_dt":20.13},{"city":"Modesto","state_name":"Illinois","lat":39.49372,"lng":-89.99016,"zip":"62667","miles_from_dt":20.45},{"city":"Buffalo","state_name":"Illinois","lat":39.8561,"lng":-89.36622,"zip":"62515","miles_from_dt":21.72},{"city":"Alexander","state_name":"Illinois","lat":39.75032,"lng":-90.03904,"zip":"62601","miles_from_dt":22.32},{"city":"Raymond","state_name":"Illinois","lat":39.3005,"lng":-89.60377,"zip":"62560","miles_from_dt":22.88},{"city":"Franklin","state_name":"Illinois","lat":39.60714,"lng":-90.08226,"zip":"62638","miles_from_dt":23.11},{"city":"Mount Auburn","state_name":"Illinois","lat":39.76883,"lng":-89.24929,"zip":"62547","miles_from_dt":23.41},{"city":"Williamsville","state_name":"Illinois","lat":39.95761,"lng":-89.52041,"zip":"62693","miles_from_dt":23.62},{"city":"Palmyra","state_name":"Illinois","lat":39.43486,"lng":-90.02952,"zip":"62674","miles_from_dt":24.34},{"city":"Stonington","state_name":"Illinois","lat":39.64668,"lng":-89.19082,"zip":"62567","miles_from_dt":24.53},{"city":"Cornland","state_name":"Illinois","lat":39.92879,"lng":-89.3953,"zip":"62519","miles_from_dt":24.67},{"city":"Athens","state_name":"Illinois","lat":39.99009,"lng":-89.67036,"zip":"62613","miles_from_dt":24.85},{"city":"Owaneco","state_name":"Illinois","lat":39.46755,"lng":-89.21982,"zip":"62555","miles_from_dt":25.58},{"city":"Tallula","state_name":"Illinois","lat":39.945,"lng":-89.92415,"zip":"62688","miles_from_dt":26.16},{"city":"Scottville","state_name":"Illinois","lat":39.47349,"lng":-90.09744,"zip":"62683","miles_from_dt":26.22},{"city":"Illiopolis","state_name":"Illinois","lat":39.86681,"lng":-89.24914,"zip":"62539","miles_from_dt":26.88},{"city":"Carlinville","state_name":"Illinois","lat":39.28459,"lng":-89.88362,"zip":"62626","miles_from_dt":26.91},{"city":"Lake Fork","state_name":"Illinois","lat":39.95657,"lng":-89.37085,"zip":"62541","miles_from_dt":26.98},{"city":"Blue Mound","state_name":"Illinois","lat":39.72341,"lng":-89.15296,"zip":"62513","miles_from_dt":27.28},{"city":"Elkhart","state_name":"Illinois","lat":40.0166,"lng":-89.45107,"zip":"62634","miles_from_dt":28.69},{"city":"Hettick","state_name":"Illinois","lat":39.36451,"lng":-90.0664,"zip":"62649","miles_from_dt":28.82},{"city":"Butler","state_name":"Illinois","lat":39.22011,"lng":-89.54203,"zip":"62015","miles_from_dt":28.88},{"city":"Ashland","state_name":"Illinois","lat":39.89864,"lng":-90.0683,"zip":"62612","miles_from_dt":28.96},{"city":"Petersburg","state_name":"Illinois","lat":40.02109,"lng":-89.86146,"zip":"62675","miles_from_dt":29.21},{"city":"Nokomis","state_name":"Illinois","lat":39.30143,"lng":-89.29676,"zip":"62075","miles_from_dt":29.53},{"city":"Ohlman","state_name":"Illinois","lat":39.34186,"lng":-89.23383,"zip":"62076","miles_from_dt":29.85}],"targetCityZipCode":"62536","targetCityState":"Illinois"},"__N_SSG":true}