{"pageProps":{"stateName":"Illinois","cityName":"great-lakes","nearbyCities":[{"city":"North Chicago","state_name":"Illinois","lat":42.32027,"lng":-87.85965,"zip":"60086","miles_from_dt":1},{"city":"North Chicago","state_name":"Illinois","lat":42.3237,"lng":-87.86122,"zip":"60064","miles_from_dt":1.25},{"city":"Lake Bluff","state_name":"Illinois","lat":42.2842,"lng":-87.86392,"zip":"60044","miles_from_dt":1.67},{"city":"Waukegan","state_name":"Illinois","lat":42.35498,"lng":-87.86467,"zip":"60085","miles_from_dt":3.38},{"city":"Waukegan","state_name":"Illinois","lat":42.37022,"lng":-87.86854,"zip":"60079","miles_from_dt":4.45},{"city":"Lake Forest","state_name":"Illinois","lat":42.23807,"lng":-87.87006,"zip":"60045","miles_from_dt":4.83},{"city":"Libertyville","state_name":"Illinois","lat":42.29494,"lng":-87.9466,"zip":"60048","miles_from_dt":4.9},{"city":"Northbrook","state_name":"Illinois","lat":42.2162,"lng":-87.88392,"zip":"60065","miles_from_dt":6.46},{"city":"Gurnee","state_name":"Illinois","lat":42.37494,"lng":-87.94119,"zip":"60031","miles_from_dt":6.54},{"city":"Waukegan","state_name":"Illinois","lat":42.40444,"lng":-87.85631,"zip":"60087","miles_from_dt":6.74},{"city":"Fort Sheridan","state_name":"Illinois","lat":42.20941,"lng":-87.80657,"zip":"60037","miles_from_dt":7.12},{"city":"Highwood","state_name":"Illinois","lat":42.20652,"lng":-87.81274,"zip":"60040","miles_from_dt":7.22},{"city":"Vernon Hills","state_name":"Illinois","lat":42.2334,"lng":-87.96046,"zip":"60061","miles_from_dt":7.51},{"city":"Lincolnshire","state_name":"Illinois","lat":42.19588,"lng":-87.92439,"zip":"60069","miles_from_dt":8.5},{"city":"Highland Park","state_name":"Illinois","lat":42.18358,"lng":-87.8106,"zip":"60035","miles_from_dt":8.77},{"city":"Deerfield","state_name":"Illinois","lat":42.17239,"lng":-87.87486,"zip":"60015","miles_from_dt":9.35},{"city":"Mundelein","state_name":"Illinois","lat":42.26945,"lng":-88.03997,"zip":"60060","miles_from_dt":9.96},{"city":"Grayslake","state_name":"Illinois","lat":42.33536,"lng":-88.04519,"zip":"60030","miles_from_dt":10.07},{"city":"Wadsworth","state_name":"Illinois","lat":42.43716,"lng":-87.94663,"zip":"60083","miles_from_dt":10.21},{"city":"Zion","state_name":"Illinois","lat":42.46053,"lng":-87.86901,"zip":"60099","miles_from_dt":10.64},{"city":"Buffalo Grove","state_name":"Illinois","lat":42.16736,"lng":-87.96076,"zip":"60089","miles_from_dt":11.12},{"city":"Palatine","state_name":"Illinois","lat":42.14196,"lng":-87.92246,"zip":"60078","miles_from_dt":11.94},{"city":"Winthrop Harbor","state_name":"Illinois","lat":42.48091,"lng":-87.82978,"zip":"60096","miles_from_dt":12.07},{"city":"Lake Zurich","state_name":"Illinois","lat":42.20202,"lng":-88.04522,"zip":"60047","miles_from_dt":12.25},{"city":"Northbrook","state_name":"Illinois","lat":42.12663,"lng":-87.84235,"zip":"60062","miles_from_dt":12.45},{"city":"Glencoe","state_name":"Illinois","lat":42.13637,"lng":-87.7664,"zip":"60022","miles_from_dt":12.57},{"city":"Wheeling","state_name":"Illinois","lat":42.13031,"lng":-87.92268,"zip":"60090","miles_from_dt":12.71},{"city":"Lake Villa","state_name":"Illinois","lat":42.41572,"lng":-88.06094,"zip":"60046","miles_from_dt":13.06},{"city":"Russell","state_name":"Illinois","lat":42.49245,"lng":-87.91205,"zip":"60075","miles_from_dt":13.17},{"city":"Round Lake","state_name":"Illinois","lat":42.3516,"lng":-88.10597,"zip":"60073","miles_from_dt":13.35},{"city":"Techny","state_name":"Illinois","lat":42.10815,"lng":-87.8075,"zip":"60082","miles_from_dt":13.91},{"city":"Prospect Heights","state_name":"Illinois","lat":42.10406,"lng":-87.92768,"zip":"60070","miles_from_dt":14.52},{"city":"Glenview","state_name":"Illinois","lat":42.09221,"lng":-87.83789,"zip":"60026","miles_from_dt":14.83},{"city":"Winnetka","state_name":"Illinois","lat":42.10333,"lng":-87.75826,"zip":"60093","miles_from_dt":14.85},{"city":"Wauconda","state_name":"Illinois","lat":42.26807,"lng":-88.13856,"zip":"60084","miles_from_dt":14.91},{"city":"Arlington Heights","state_name":"Illinois","lat":42.11206,"lng":-87.97895,"zip":"60004","miles_from_dt":14.93},{"city":"Palatine","state_name":"Illinois","lat":42.13179,"lng":-88.02658,"zip":"60074","miles_from_dt":15.03},{"city":"Pleasant Prairie","state_name":"Wisconsin","lat":42.52418,"lng":-87.88869,"zip":"53158","miles_from_dt":15.12},{"city":"Ingleside","state_name":"Illinois","lat":42.36939,"lng":-88.15309,"zip":"60041","miles_from_dt":16},{"city":"Glenview","state_name":"Illinois","lat":42.07466,"lng":-87.81204,"zip":"60025","miles_from_dt":16.16},{"city":"Palatine","state_name":"Illinois","lat":42.09808,"lng":-88.01065,"zip":"60095","miles_from_dt":16.54},{"city":"Antioch","state_name":"Illinois","lat":42.4674,"lng":-88.09419,"zip":"60002","miles_from_dt":16.61},{"city":"Kenilworth","state_name":"Illinois","lat":42.08882,"lng":-87.71445,"zip":"60043","miles_from_dt":16.63},{"city":"Palatine","state_name":"Illinois","lat":42.0966,"lng":-88.01131,"zip":"60038","miles_from_dt":16.65},{"city":"Palatine","state_name":"Illinois","lat":42.12521,"lng":-88.07503,"zip":"60055","miles_from_dt":16.96},{"city":"Kenosha","state_name":"Wisconsin","lat":42.54464,"lng":-87.93765,"zip":"53142","miles_from_dt":16.98},{"city":"Wilmette","state_name":"Illinois","lat":42.07693,"lng":-87.72812,"zip":"60091","miles_from_dt":17.1},{"city":"Mount Prospect","state_name":"Illinois","lat":42.06618,"lng":-87.93473,"zip":"60056","miles_from_dt":17.14},{"city":"Arlington Heights","state_name":"Illinois","lat":42.13061,"lng":-88.09234,"zip":"60006","miles_from_dt":17.31},{"city":"Golf","state_name":"Illinois","lat":42.05857,"lng":-87.78496,"zip":"60029","miles_from_dt":17.48},{"city":"Palatine","state_name":"Illinois","lat":42.10773,"lng":-88.06478,"zip":"60067","miles_from_dt":17.54},{"city":"Fox Lake","state_name":"Illinois","lat":42.39543,"lng":-88.17349,"zip":"60020","miles_from_dt":17.54},{"city":"Kenosha","state_name":"Wisconsin","lat":42.56109,"lng":-87.83038,"zip":"53143","miles_from_dt":17.58},{"city":"Des Plaines","state_name":"Illinois","lat":42.05232,"lng":-87.8899,"zip":"60016","miles_from_dt":17.67},{"city":"Island Lake","state_name":"Illinois","lat":42.27913,"lng":-88.19777,"zip":"60042","miles_from_dt":17.81},{"city":"Benet Lake","state_name":"Wisconsin","lat":42.50437,"lng":-88.07726,"zip":"53102","miles_from_dt":17.84},{"city":"Arlington Heights","state_name":"Illinois","lat":42.06518,"lng":-87.98676,"zip":"60005","miles_from_dt":18.05},{"city":"Rolling Meadows","state_name":"Illinois","lat":42.0739,"lng":-88.0229,"zip":"60008","miles_from_dt":18.31},{"city":"Morton Grove","state_name":"Illinois","lat":42.04224,"lng":-87.78895,"zip":"60053","miles_from_dt":18.55},{"city":"Evanston","state_name":"Illinois","lat":42.05665,"lng":-87.69827,"zip":"60201","miles_from_dt":18.99},{"city":"Evanston","state_name":"Illinois","lat":42.05778,"lng":-87.69537,"zip":"60204","miles_from_dt":18.99},{"city":"Palatine","state_name":"Illinois","lat":42.09915,"lng":-88.09751,"zip":"60094","miles_from_dt":19.07},{"city":"Evanston","state_name":"Illinois","lat":42.04905,"lng":-87.71748,"zip":"60203","miles_from_dt":19.09},{"city":"Schaumburg","state_name":"Illinois","lat":42.07148,"lng":-88.04924,"zip":"60196","miles_from_dt":19.13},{"city":"Kenosha","state_name":"Wisconsin","lat":42.58387,"lng":-87.82244,"zip":"53141","miles_from_dt":19.18},{"city":"Barrington","state_name":"Illinois","lat":42.15255,"lng":-88.16519,"zip":"60010","miles_from_dt":19.26},{"city":"Mchenry","state_name":"Illinois","lat":42.35099,"lng":-88.22412,"zip":"60051","miles_from_dt":19.28},{"city":"Chicago","state_name":"Illinois","lat":42.02939,"lng":-87.80755,"zip":"60701","miles_from_dt":19.29},{"city":"Skokie","state_name":"Illinois","lat":42.03617,"lng":-87.75633,"zip":"60077","miles_from_dt":19.32},{"city":"Niles","state_name":"Illinois","lat":42.02834,"lng":-87.81131,"zip":"60714","miles_from_dt":19.34},{"city":"Des Plaines","state_name":"Illinois","lat":42.02498,"lng":-87.89961,"zip":"60019","miles_from_dt":19.61},{"city":"Bristol","state_name":"Wisconsin","lat":42.55731,"lng":-88.03416,"zip":"53104","miles_from_dt":19.63},{"city":"Des Plaines","state_name":"Illinois","lat":42.02445,"lng":-87.90286,"zip":"60017","miles_from_dt":19.66},{"city":"Evanston","state_name":"Illinois","lat":42.05457,"lng":-87.67412,"zip":"60208","miles_from_dt":19.67},{"city":"Skokie","state_name":"Illinois","lat":42.03412,"lng":-87.72943,"zip":"60076","miles_from_dt":19.85},{"city":"Trevor","state_name":"Wisconsin","lat":42.5133,"lng":-88.13159,"zip":"53179","miles_from_dt":20.18},{"city":"Fox River Grove","state_name":"Illinois","lat":42.19511,"lng":-88.21768,"zip":"60021","miles_from_dt":20.26},{"city":"Park Ridge","state_name":"Illinois","lat":42.01276,"lng":-87.84435,"zip":"60068","miles_from_dt":20.3},{"city":"Schaumburg","state_name":"Illinois","lat":42.05287,"lng":-88.0526,"zip":"60173","miles_from_dt":20.32},{"city":"Cary","state_name":"Illinois","lat":42.22027,"lng":-88.23568,"zip":"60013","miles_from_dt":20.54},{"city":"Schaumburg","state_name":"Illinois","lat":42.06541,"lng":-88.08657,"zip":"60195","miles_from_dt":20.55},{"city":"Barrington","state_name":"Illinois","lat":42.18603,"lng":-88.22026,"zip":"60011","miles_from_dt":20.63},{"city":"Evanston","state_name":"Illinois","lat":42.03043,"lng":-87.68958,"zip":"60202","miles_from_dt":20.83},{"city":"Woodworth","state_name":"Wisconsin","lat":42.56281,"lng":-88.07223,"zip":"53194","miles_from_dt":20.94},{"city":"Spring Grove","state_name":"Illinois","lat":42.45115,"lng":-88.22173,"zip":"60081","miles_from_dt":21.37},{"city":"Elk Grove Village","state_name":"Illinois","lat":42.01431,"lng":-87.99828,"zip":"60007","miles_from_dt":21.54},{"city":"Des Plaines","state_name":"Illinois","lat":41.99629,"lng":-87.89846,"zip":"60018","miles_from_dt":21.57},{"city":"Kenosha","state_name":"Wisconsin","lat":42.61963,"lng":-87.82987,"zip":"53140","miles_from_dt":21.62},{"city":"Chicago","state_name":"Illinois","lat":41.99473,"lng":-87.8131,"zip":"60631","miles_from_dt":21.64},{"city":"Lincolnwood","state_name":"Illinois","lat":42.00543,"lng":-87.73296,"zip":"60712","miles_from_dt":21.69},{"city":"Elk Grove Village","state_name":"Illinois","lat":42.00838,"lng":-87.99153,"zip":"60009","miles_from_dt":21.81},{"city":"Camp Lake","state_name":"Wisconsin","lat":42.54094,"lng":-88.14002,"zip":"53109","miles_from_dt":21.85},{"city":"Kenosha","state_name":"Wisconsin","lat":42.61991,"lng":-87.92291,"zip":"53144","miles_from_dt":21.91},{"city":"Wilmot","state_name":"Wisconsin","lat":42.51172,"lng":-88.18412,"zip":"53192","miles_from_dt":22.09},{"city":"Schaumburg","state_name":"Illinois","lat":42.03662,"lng":-88.0833,"zip":"60159","miles_from_dt":22.1},{"city":"Chicago","state_name":"Illinois","lat":41.99365,"lng":-87.76128,"zip":"60646","miles_from_dt":22.12},{"city":"Chicago","state_name":"Illinois","lat":42.00859,"lng":-87.69457,"zip":"60645","miles_from_dt":22.12},{"city":"Hoffman Estates","state_name":"Illinois","lat":42.05192,"lng":-88.11656,"zip":"60169","miles_from_dt":22.22},{"city":"Chicago","state_name":"Illinois","lat":42.00904,"lng":-87.66955,"zip":"60626","miles_from_dt":22.6},{"city":"Mchenry","state_name":"Illinois","lat":42.32915,"lng":-88.29363,"zip":"60050","miles_from_dt":22.66},{"city":"Schaumburg","state_name":"Illinois","lat":42.04543,"lng":-88.12663,"zip":"60168","miles_from_dt":22.89},{"city":"Hoffman Estates","state_name":"Illinois","lat":42.07265,"lng":-88.16797,"zip":"60192","miles_from_dt":22.89},{"city":"Somers","state_name":"Wisconsin","lat":42.6361,"lng":-87.90979,"zip":"53171","miles_from_dt":22.91},{"city":"Chicago","state_name":"Illinois","lat":41.97424,"lng":-87.82709,"zip":"60656","miles_from_dt":22.99},{"city":"Schaumburg","state_name":"Illinois","lat":42.03339,"lng":-88.11125,"zip":"60194","miles_from_dt":23.09},{"city":"Chicago","state_name":"Illinois","lat":41.98946,"lng":-87.70668,"zip":"60659","miles_from_dt":23.15},{"city":"Silver Lake","state_name":"Wisconsin","lat":42.5519,"lng":-88.16149,"zip":"53170","miles_from_dt":23.15},{"city":"Chicago","state_name":"Illinois","lat":41.97241,"lng":-87.89506,"zip":"60666","miles_from_dt":23.19},{"city":"Chicago","state_name":"Illinois","lat":41.97148,"lng":-87.89757,"zip":"60688","miles_from_dt":23.26},{"city":"Salem","state_name":"Wisconsin","lat":42.57858,"lng":-88.12999,"zip":"53168","miles_from_dt":23.52},{"city":"Chicago","state_name":"Illinois","lat":41.97222,"lng":-87.75758,"zip":"60630","miles_from_dt":23.6},{"city":"Crystal Lake","state_name":"Illinois","lat":42.27199,"lng":-88.31157,"zip":"60012","miles_from_dt":23.66},{"city":"Harwood Heights","state_name":"Illinois","lat":41.96384,"lng":-87.81672,"zip":"60706","miles_from_dt":23.74},{"city":"Chicago","state_name":"Illinois","lat":41.99113,"lng":-87.66609,"zip":"60660","miles_from_dt":23.8},{"city":"Schaumburg","state_name":"Illinois","lat":42.01195,"lng":-88.09552,"zip":"60193","miles_from_dt":23.88},{"city":"Schiller Park","state_name":"Illinois","lat":41.9583,"lng":-87.8697,"zip":"60176","miles_from_dt":24.07},{"city":"Ringwood","state_name":"Illinois","lat":42.40647,"lng":-88.30637,"zip":"60072","miles_from_dt":24.24},{"city":"Bensenville","state_name":"Illinois","lat":41.9611,"lng":-87.94194,"zip":"60106","miles_from_dt":24.3},{"city":"Chicago","state_name":"Illinois","lat":41.97318,"lng":-87.69963,"zip":"60625","miles_from_dt":24.33},{"city":"Wood Dale","state_name":"Illinois","lat":41.96,"lng":-87.94219,"zip":"60399","miles_from_dt":24.38},{"city":"Wood Dale","state_name":"Illinois","lat":41.9647,"lng":-87.98087,"zip":"60191","miles_from_dt":24.52},{"city":"Itasca","state_name":"Illinois","lat":41.97351,"lng":-88.02071,"zip":"60143","miles_from_dt":24.58},{"city":"Bensenville","state_name":"Illinois","lat":41.95686,"lng":-87.94182,"zip":"60105","miles_from_dt":24.59},{"city":"Hoffman Estates","state_name":"Illinois","lat":42.07971,"lng":-88.22425,"zip":"60179","miles_from_dt":24.7},{"city":"Twin Lakes","state_name":"Wisconsin","lat":42.51711,"lng":-88.24305,"zip":"53181","miles_from_dt":24.7},{"city":"Crystal Lake","state_name":"Illinois","lat":42.23126,"lng":-88.32679,"zip":"60014","miles_from_dt":24.88},{"city":"Bassett","state_name":"Wisconsin","lat":42.5386,"lng":-88.22784,"zip":"53101","miles_from_dt":24.99},{"city":"Chicago","state_name":"Illinois","lat":41.94627,"lng":-87.80639,"zip":"60634","miles_from_dt":25},{"city":"Chicago","state_name":"Illinois","lat":41.97253,"lng":-87.66372,"zip":"60640","miles_from_dt":25.03},{"city":"Crystal Lake","state_name":"Illinois","lat":42.22837,"lng":-88.33123,"zip":"60039","miles_from_dt":25.14},{"city":"Medinah","state_name":"Illinois","lat":41.974,"lng":-88.05476,"zip":"60157","miles_from_dt":25.22},{"city":"Algonquin","state_name":"Illinois","lat":42.16406,"lng":-88.30928,"zip":"60102","miles_from_dt":25.43},{"city":"Chicago","state_name":"Illinois","lat":41.94667,"lng":-87.74693,"zip":"60641","miles_from_dt":25.44},{"city":"Franklin Park","state_name":"Illinois","lat":41.9378,"lng":-87.88304,"zip":"60131","miles_from_dt":25.52},{"city":"Roselle","state_name":"Illinois","lat":41.97976,"lng":-88.08937,"zip":"60172","miles_from_dt":25.65},{"city":"Carpentersville","state_name":"Illinois","lat":42.12296,"lng":-88.2883,"zip":"60110","miles_from_dt":25.72},{"city":"Richmond","state_name":"Illinois","lat":42.46403,"lng":-88.30975,"zip":"60071","miles_from_dt":25.8},{"city":"Streamwood","state_name":"Illinois","lat":42.02148,"lng":-88.1783,"zip":"60107","miles_from_dt":25.85},{"city":"Chicago","state_name":"Illinois","lat":41.94694,"lng":-87.70263,"zip":"60618","miles_from_dt":26},{"city":"Chicago","state_name":"Illinois","lat":41.9558,"lng":-87.65706,"zip":"60613","miles_from_dt":26.22},{"city":"Racine","state_name":"Wisconsin","lat":42.68738,"lng":-87.82587,"zip":"53403","miles_from_dt":26.3},{"city":"River Grove","state_name":"Illinois","lat":41.92504,"lng":-87.83832,"zip":"60171","miles_from_dt":26.36},{"city":"Lake In The Hills","state_name":"Illinois","lat":42.19121,"lng":-88.34788,"zip":"60156","miles_from_dt":26.64},{"city":"Racine","state_name":"Wisconsin","lat":42.69196,"lng":-87.81478,"zip":"53401","miles_from_dt":26.65},{"city":"Elmwood Park","state_name":"Illinois","lat":41.92175,"lng":-87.80744,"zip":"60707","miles_from_dt":26.68},{"city":"New Munster","state_name":"Wisconsin","lat":42.57724,"lng":-88.22602,"zip":"53152","miles_from_dt":26.71},{"city":"Wonder Lake","state_name":"Illinois","lat":42.39343,"lng":-88.36164,"zip":"60097","miles_from_dt":26.75},{"city":"Dundee","state_name":"Illinois","lat":42.10793,"lng":-88.30614,"zip":"60118","miles_from_dt":27.03},{"city":"Melrose Park","state_name":"Illinois","lat":41.91667,"lng":-87.90112,"zip":"60164","miles_from_dt":27.05},{"city":"Chicago","state_name":"Illinois","lat":41.9206,"lng":-87.75593,"zip":"60639","miles_from_dt":27.11},{"city":"Hanover Park","state_name":"Illinois","lat":41.97805,"lng":-88.14291,"zip":"60133","miles_from_dt":27.16},{"city":"Addison","state_name":"Illinois","lat":41.931,"lng":-88.01072,"zip":"60101","miles_from_dt":27.19},{"city":"Chicago","state_name":"Illinois","lat":41.93965,"lng":-87.65495,"zip":"60657","miles_from_dt":27.3},{"city":"Elgin","state_name":"Illinois","lat":42.03317,"lng":-88.2374,"zip":"60120","miles_from_dt":27.34},{"city":"Sturtevant","state_name":"Wisconsin","lat":42.70047,"lng":-87.93474,"zip":"53177","miles_from_dt":27.49},{"city":"Bloomingdale","state_name":"Illinois","lat":41.94905,"lng":-88.09232,"zip":"60108","miles_from_dt":27.6},{"city":"Bloomingdale","state_name":"Illinois","lat":41.94579,"lng":-88.08482,"zip":"60117","miles_from_dt":27.64},{"city":"Chicago","state_name":"Illinois","lat":41.92074,"lng":-87.702,"zip":"60647","miles_from_dt":27.75},{"city":"Melrose Park","state_name":"Illinois","lat":41.90403,"lng":-87.86113,"zip":"60161","miles_from_dt":27.81},{"city":"Melrose Park","state_name":"Illinois","lat":41.90348,"lng":-87.86176,"zip":"60160","miles_from_dt":27.84},{"city":"Stone Park","state_name":"Illinois","lat":41.90328,"lng":-87.88056,"zip":"60165","miles_from_dt":27.89},{"city":"Powers Lake","state_name":"Wisconsin","lat":42.55316,"lng":-88.29399,"zip":"53159","miles_from_dt":28.27},{"city":"River Forest","state_name":"Illinois","lat":41.89501,"lng":-87.81943,"zip":"60305","miles_from_dt":28.47},{"city":"Chicago","state_name":"Illinois","lat":41.92267,"lng":-87.6506,"zip":"60614","miles_from_dt":28.47},{"city":"Chicago","state_name":"Illinois","lat":41.90202,"lng":-87.74104,"zip":"60651","miles_from_dt":28.52},{"city":"Oak Park","state_name":"Illinois","lat":41.8948,"lng":-87.78983,"zip":"60302","miles_from_dt":28.62},{"city":"Union Grove","state_name":"Wisconsin","lat":42.69815,"lng":-88.04096,"zip":"53182","miles_from_dt":28.68},{"city":"Elmhurst","state_name":"Illinois","lat":41.89627,"lng":-87.94194,"zip":"60126","miles_from_dt":28.71},{"city":"Elgin","state_name":"Illinois","lat":42.03786,"lng":-88.27964,"zip":"60121","miles_from_dt":28.74},{"city":"Racine","state_name":"Wisconsin","lat":42.7253,"lng":-87.80891,"zip":"53408","miles_from_dt":28.97},{"city":"Oak Park","state_name":"Illinois","lat":41.88925,"lng":-87.79085,"zip":"60303","miles_from_dt":28.99},{"city":"Oak Park","state_name":"Illinois","lat":41.88865,"lng":-87.79648,"zip":"60301","miles_from_dt":29.01},{"city":"Bartlett","state_name":"Illinois","lat":41.97816,"lng":-88.20511,"zip":"60103","miles_from_dt":29.04},{"city":"Racine","state_name":"Wisconsin","lat":42.72712,"lng":-87.82588,"zip":"53405","miles_from_dt":29.04},{"city":"Berkeley","state_name":"Illinois","lat":41.88794,"lng":-87.90948,"zip":"60163","miles_from_dt":29.06},{"city":"Carol Stream","state_name":"Illinois","lat":42.03672,"lng":-88.28834,"zip":"60122","miles_from_dt":29.13},{"city":"Glendale Heights","state_name":"Illinois","lat":41.91916,"lng":-88.07735,"zip":"60139","miles_from_dt":29.15},{"city":"Racine","state_name":"Wisconsin","lat":42.72608,"lng":-87.78338,"zip":"53407","miles_from_dt":29.15},{"city":"Chicago","state_name":"Illinois","lat":41.90267,"lng":-87.68355,"zip":"60622","miles_from_dt":29.21},{"city":"Racine","state_name":"Wisconsin","lat":42.73014,"lng":-87.86549,"zip":"53406","miles_from_dt":29.22},{"city":"Genoa City","state_name":"Wisconsin","lat":42.52979,"lng":-88.33857,"zip":"53128","miles_from_dt":29.24},{"city":"Bellwood","state_name":"Illinois","lat":41.88256,"lng":-87.87646,"zip":"60104","miles_from_dt":29.31},{"city":"Maywood","state_name":"Illinois","lat":41.87984,"lng":-87.84389,"zip":"60153","miles_from_dt":29.47},{"city":"Carol Stream","state_name":"Illinois","lat":41.91951,"lng":-88.10095,"zip":"60132","miles_from_dt":29.63},{"city":"Kansasville","state_name":"Wisconsin","lat":42.68795,"lng":-88.12,"zip":"53139","miles_from_dt":29.65},{"city":"Chicago","state_name":"Illinois","lat":41.90193,"lng":-87.65804,"zip":"60642","miles_from_dt":29.68},{"city":"Chicago","state_name":"Illinois","lat":41.88013,"lng":-87.75756,"zip":"60644","miles_from_dt":29.85},{"city":"Carol Stream","state_name":"Illinois","lat":41.91612,"lng":-88.10308,"zip":"60199","miles_from_dt":29.89},{"city":"Carol Stream","state_name":"Illinois","lat":41.91685,"lng":-88.10577,"zip":"60128","miles_from_dt":29.9},{"city":"Elgin","state_name":"Illinois","lat":42.04011,"lng":-88.31166,"zip":"60123","miles_from_dt":29.92},{"city":"Chicago","state_name":"Illinois","lat":41.90388,"lng":-87.63738,"zip":"60610","miles_from_dt":29.93}],"targetCityZipCode":"60088","targetCityState":"Illinois"},"__N_SSG":true}