{"pageProps":{"stateName":"Illinois","cityName":"hillview","nearbyCities":[{"city":"Patterson","state_name":"Illinois","lat":39.47984,"lng":-90.48686,"zip":"62078","miles_from_dt":4.7},{"city":"Pearl","state_name":"Illinois","lat":39.48734,"lng":-90.64191,"zip":"62361","miles_from_dt":5.77},{"city":"White Hall","state_name":"Illinois","lat":39.41839,"lng":-90.41291,"zip":"62092","miles_from_dt":7.74},{"city":"Kampsville","state_name":"Illinois","lat":39.31572,"lng":-90.65763,"zip":"62053","miles_from_dt":10.02},{"city":"Milton","state_name":"Illinois","lat":39.56818,"lng":-90.65455,"zip":"62352","miles_from_dt":10.47},{"city":"Alsey","state_name":"Illinois","lat":39.5526,"lng":-90.42708,"zip":"62610","miles_from_dt":10.5},{"city":"Nebo","state_name":"Illinois","lat":39.40963,"lng":-90.77936,"zip":"62355","miles_from_dt":12.13},{"city":"Carrollton","state_name":"Illinois","lat":39.29517,"lng":-90.41462,"zip":"62016","miles_from_dt":12.37},{"city":"Roodhouse","state_name":"Illinois","lat":39.49392,"lng":-90.32157,"zip":"62082","miles_from_dt":13.1},{"city":"Eldred","state_name":"Illinois","lat":39.24686,"lng":-90.55725,"zip":"62027","miles_from_dt":13.14},{"city":"Mozier","state_name":"Illinois","lat":39.29101,"lng":-90.72278,"zip":"62070","miles_from_dt":13.5},{"city":"Winchester","state_name":"Illinois","lat":39.62463,"lng":-90.47274,"zip":"62694","miles_from_dt":13.66},{"city":"Manchester","state_name":"Illinois","lat":39.54106,"lng":-90.32748,"zip":"62663","miles_from_dt":14.13},{"city":"Wrights","state_name":"Illinois","lat":39.38377,"lng":-90.29946,"zip":"62098","miles_from_dt":14.19},{"city":"Hamburg","state_name":"Illinois","lat":39.26297,"lng":-90.70921,"zip":"62045","miles_from_dt":14.58},{"city":"Michael","state_name":"Illinois","lat":39.22889,"lng":-90.63046,"zip":"62065","miles_from_dt":14.93},{"city":"Pittsfield","state_name":"Illinois","lat":39.59163,"lng":-90.7784,"zip":"62363","miles_from_dt":15.98},{"city":"Annada","state_name":"Missouri","lat":39.26151,"lng":-90.79214,"zip":"63330","miles_from_dt":17.55},{"city":"Pleasant Hill","state_name":"Illinois","lat":39.46253,"lng":-90.89402,"zip":"62366","miles_from_dt":18.19},{"city":"Greenfield","state_name":"Illinois","lat":39.36618,"lng":-90.20907,"zip":"62044","miles_from_dt":19.18},{"city":"Murrayville","state_name":"Illinois","lat":39.57474,"lng":-90.23667,"zip":"62668","miles_from_dt":19.5},{"city":"Kane","state_name":"Illinois","lat":39.2012,"lng":-90.34693,"zip":"62054","miles_from_dt":19.75},{"city":"Bluffs","state_name":"Illinois","lat":39.73174,"lng":-90.5309,"zip":"62621","miles_from_dt":20.35},{"city":"Rockbridge","state_name":"Illinois","lat":39.26262,"lng":-90.23452,"zip":"62081","miles_from_dt":20.99},{"city":"Hardin","state_name":"Illinois","lat":39.13314,"lng":-90.62273,"zip":"62047","miles_from_dt":21.29},{"city":"Griggsville","state_name":"Illinois","lat":39.7228,"lng":-90.72588,"zip":"62340","miles_from_dt":21.69},{"city":"Woodson","state_name":"Illinois","lat":39.61943,"lng":-90.22418,"zip":"62695","miles_from_dt":21.7},{"city":"Clarksville","state_name":"Missouri","lat":39.33335,"lng":-90.9388,"zip":"63336","miles_from_dt":21.74},{"city":"Fieldon","state_name":"Illinois","lat":39.1123,"lng":-90.53355,"zip":"62031","miles_from_dt":22.45},{"city":"New Salem","state_name":"Illinois","lat":39.68671,"lng":-90.86374,"zip":"62357","miles_from_dt":23.81},{"city":"Elsberry","state_name":"Missouri","lat":39.15775,"lng":-90.82815,"zip":"63343","miles_from_dt":24.2},{"city":"Rockport","state_name":"Illinois","lat":39.51818,"lng":-90.99881,"zip":"62370","miles_from_dt":24.35},{"city":"Scottville","state_name":"Illinois","lat":39.47349,"lng":-90.09744,"zip":"62683","miles_from_dt":24.62},{"city":"Chapin","state_name":"Illinois","lat":39.7794,"lng":-90.40199,"zip":"62628","miles_from_dt":24.98},{"city":"Jacksonville","state_name":"Illinois","lat":39.72757,"lng":-90.26403,"zip":"62651","miles_from_dt":25.36},{"city":"Jerseyville","state_name":"Illinois","lat":39.11179,"lng":-90.32004,"zip":"62052","miles_from_dt":25.76},{"city":"Perry","state_name":"Illinois","lat":39.77618,"lng":-90.76429,"zip":"62362","miles_from_dt":25.9},{"city":"Meredosia","state_name":"Illinois","lat":39.81627,"lng":-90.53462,"zip":"62665","miles_from_dt":26.17},{"city":"Batchtown","state_name":"Illinois","lat":39.06433,"lng":-90.66714,"zip":"62006","miles_from_dt":26.42},{"city":"Hettick","state_name":"Illinois","lat":39.36451,"lng":-90.0664,"zip":"62649","miles_from_dt":26.65},{"city":"Chambersburg","state_name":"Illinois","lat":39.81306,"lng":-90.68607,"zip":"62323","miles_from_dt":26.84},{"city":"Medora","state_name":"Illinois","lat":39.1982,"lng":-90.14836,"zip":"62063","miles_from_dt":27.35},{"city":"Jacksonville","state_name":"Illinois","lat":39.73799,"lng":-90.22027,"zip":"62650","miles_from_dt":27.39},{"city":"Foley","state_name":"Missouri","lat":39.0708,"lng":-90.76352,"zip":"63347","miles_from_dt":27.64},{"city":"Franklin","state_name":"Illinois","lat":39.60714,"lng":-90.08226,"zip":"62638","miles_from_dt":27.86},{"city":"Chesterfield","state_name":"Illinois","lat":39.26255,"lng":-90.08315,"zip":"62630","miles_from_dt":28.02},{"city":"Palmyra","state_name":"Illinois","lat":39.43486,"lng":-90.02952,"zip":"62674","miles_from_dt":28.13},{"city":"Eolia","state_name":"Missouri","lat":39.23078,"lng":-91.01115,"zip":"63344","miles_from_dt":28.27},{"city":"Fidelity","state_name":"Illinois","lat":39.15463,"lng":-90.16445,"zip":"62030","miles_from_dt":28.63},{"city":"Concord","state_name":"Illinois","lat":39.82531,"lng":-90.36122,"zip":"62631","miles_from_dt":28.7},{"city":"Baylis","state_name":"Illinois","lat":39.76967,"lng":-90.89204,"zip":"62314","miles_from_dt":29.13},{"city":"Grafton","state_name":"Illinois","lat":39.00826,"lng":-90.4664,"zip":"62037","miles_from_dt":29.98}],"targetCityZipCode":"62050","targetCityState":"Illinois"},"__N_SSG":true}