{"pageProps":{"stateName":"Illinois","cityName":"lawrenceville","nearbyCities":[{"city":"Bridgeport","state_name":"Illinois","lat":38.70304,"lng":-87.76779,"zip":"62417","miles_from_dt":7.65},{"city":"Flat Rock","state_name":"Illinois","lat":38.87301,"lng":-87.65891,"zip":"62427","miles_from_dt":8.79},{"city":"Saint Francisville","state_name":"Illinois","lat":38.60661,"lng":-87.69639,"zip":"62460","miles_from_dt":10.17},{"city":"Vincennes","state_name":"Indiana","lat":38.62136,"lng":-87.50594,"zip":"47591","miles_from_dt":11.2},{"city":"Sumner","state_name":"Illinois","lat":38.72707,"lng":-87.84957,"zip":"62466","miles_from_dt":11.53},{"city":"Bruceville","state_name":"Indiana","lat":38.7645,"lng":-87.41857,"zip":"47516","miles_from_dt":11.89},{"city":"Oaktown","state_name":"Indiana","lat":38.85705,"lng":-87.43611,"zip":"47561","miles_from_dt":13.27},{"city":"Allendale","state_name":"Illinois","lat":38.53254,"lng":-87.72783,"zip":"62410","miles_from_dt":15.56},{"city":"Claremont","state_name":"Illinois","lat":38.75219,"lng":-87.94345,"zip":"62421","miles_from_dt":16.53},{"city":"Ragsdale","state_name":"Indiana","lat":38.74418,"lng":-87.322,"zip":"47573","miles_from_dt":17.05},{"city":"Palestine","state_name":"Illinois","lat":38.99394,"lng":-87.6066,"zip":"62451","miles_from_dt":17.14},{"city":"Bicknell","state_name":"Indiana","lat":38.779,"lng":-87.31809,"zip":"47512","miles_from_dt":17.4},{"city":"Decker","state_name":"Indiana","lat":38.48312,"lng":-87.61733,"zip":"47524","miles_from_dt":18.21},{"city":"Robinson","state_name":"Illinois","lat":38.99725,"lng":-87.75767,"zip":"62454","miles_from_dt":18.46},{"city":"Freelandville","state_name":"Indiana","lat":38.86265,"lng":-87.31285,"zip":"47535","miles_from_dt":19.26},{"city":"Wheatland","state_name":"Indiana","lat":38.64745,"lng":-87.29802,"zip":"47597","miles_from_dt":19.59},{"city":"Stoy","state_name":"Illinois","lat":38.99793,"lng":-87.82385,"zip":"62464","miles_from_dt":20.03},{"city":"Monroe City","state_name":"Indiana","lat":38.57005,"lng":-87.34132,"zip":"47557","miles_from_dt":20.13},{"city":"Carlisle","state_name":"Indiana","lat":38.95679,"lng":-87.37812,"zip":"47838","miles_from_dt":20.15},{"city":"Hazleton","state_name":"Indiana","lat":38.47708,"lng":-87.49301,"zip":"47640","miles_from_dt":20.17},{"city":"Calhoun","state_name":"Illinois","lat":38.62201,"lng":-87.98425,"zip":"62419","miles_from_dt":20.62},{"city":"Edwardsport","state_name":"Indiana","lat":38.84447,"lng":-87.26806,"zip":"47528","miles_from_dt":21.05},{"city":"Merom","state_name":"Indiana","lat":39.06528,"lng":-87.56658,"zip":"47861","miles_from_dt":22.31},{"city":"Patoka","state_name":"Indiana","lat":38.41922,"lng":-87.60042,"zip":"47666","miles_from_dt":22.68},{"city":"Paxton","state_name":"Indiana","lat":39.01908,"lng":-87.39259,"zip":"47865","miles_from_dt":22.97},{"city":"Oblong","state_name":"Illinois","lat":39.00419,"lng":-87.91069,"zip":"62449","miles_from_dt":23.08},{"city":"Westphalia","state_name":"Indiana","lat":38.86318,"lng":-87.23382,"zip":"47596","miles_from_dt":23.23},{"city":"Parkersburg","state_name":"Illinois","lat":38.58715,"lng":-88.01774,"zip":"62452","miles_from_dt":23.32},{"city":"West Liberty","state_name":"Illinois","lat":38.88441,"lng":-88.04645,"zip":"62475","miles_from_dt":24.03},{"city":"Olney","state_name":"Illinois","lat":38.71436,"lng":-88.08777,"zip":"62450","miles_from_dt":24.43},{"city":"Sainte Marie","state_name":"Illinois","lat":38.92997,"lng":-88.0278,"zip":"62459","miles_from_dt":24.56},{"city":"West Salem","state_name":"Illinois","lat":38.53412,"lng":-88.00509,"zip":"62476","miles_from_dt":24.71},{"city":"Hutsonville","state_name":"Illinois","lat":39.11276,"lng":-87.70514,"zip":"62433","miles_from_dt":25.51},{"city":"Mount Carmel","state_name":"Illinois","lat":38.41575,"lng":-87.85526,"zip":"62863","miles_from_dt":25.69},{"city":"Washington","state_name":"Indiana","lat":38.66139,"lng":-87.17479,"zip":"47501","miles_from_dt":25.69},{"city":"Dundas","state_name":"Illinois","lat":38.83363,"lng":-88.10383,"zip":"62425","miles_from_dt":25.88},{"city":"Sandborn","state_name":"Indiana","lat":38.89288,"lng":-87.19055,"zip":"47578","miles_from_dt":26.14},{"city":"Willow Hill","state_name":"Illinois","lat":38.99864,"lng":-88.00129,"zip":"62480","miles_from_dt":26.21},{"city":"Petersburg","state_name":"Indiana","lat":38.46954,"lng":-87.30554,"zip":"47567","miles_from_dt":26.24},{"city":"Sullivan","state_name":"Indiana","lat":39.09034,"lng":-87.41186,"zip":"47882","miles_from_dt":26.64},{"city":"Graysville","state_name":"Indiana","lat":39.10601,"lng":-87.43379,"zip":"47852","miles_from_dt":27.11},{"city":"Plainville","state_name":"Indiana","lat":38.79121,"lng":-87.13654,"zip":"47568","miles_from_dt":27.23},{"city":"Bone Gap","state_name":"Illinois","lat":38.45707,"lng":-87.98698,"zip":"62815","miles_from_dt":27.51},{"city":"Princeton","state_name":"Indiana","lat":38.34355,"lng":-87.57797,"zip":"47670","miles_from_dt":27.99},{"city":"Bellmont","state_name":"Illinois","lat":38.38739,"lng":-87.90361,"zip":"62811","miles_from_dt":28.67},{"city":"Dugger","state_name":"Indiana","lat":39.04159,"lng":-87.26108,"zip":"47848","miles_from_dt":28.73},{"city":"Francisco","state_name":"Indiana","lat":38.35154,"lng":-87.44786,"zip":"47649","miles_from_dt":29.13},{"city":"Annapolis","state_name":"Illinois","lat":39.14081,"lng":-87.84012,"zip":"62413","miles_from_dt":29.3}],"targetCityZipCode":"62439","targetCityState":"Illinois"},"__N_SSG":true}