{"pageProps":{"stateName":"Illinois","cityName":"marion","nearbyCities":[{"city":"Energy","state_name":"Illinois","lat":37.77363,"lng":-89.02003,"zip":"62933","miles_from_dt":7.07},{"city":"Johnston City","state_name":"Illinois","lat":37.82637,"lng":-88.92609,"zip":"62951","miles_from_dt":7.75},{"city":"Pittsburg","state_name":"Illinois","lat":37.78158,"lng":-88.79094,"zip":"62974","miles_from_dt":8.21},{"city":"Creal Springs","state_name":"Illinois","lat":37.6215,"lng":-88.81531,"zip":"62922","miles_from_dt":8.41},{"city":"Herrin","state_name":"Illinois","lat":37.8204,"lng":-89.02542,"zip":"62948","miles_from_dt":9.5},{"city":"Carterville","state_name":"Illinois","lat":37.78561,"lng":-89.08641,"zip":"62918","miles_from_dt":10.61},{"city":"Freeman Spur","state_name":"Illinois","lat":37.8588,"lng":-88.99639,"zip":"62841","miles_from_dt":10.92},{"city":"Colp","state_name":"Illinois","lat":37.80217,"lng":-89.08215,"zip":"62921","miles_from_dt":10.99},{"city":"Carbondale","state_name":"Illinois","lat":37.67199,"lng":-89.11509,"zip":"62902","miles_from_dt":11.37},{"city":"Goreville","state_name":"Illinois","lat":37.5489,"lng":-88.98088,"zip":"62939","miles_from_dt":11.98},{"city":"West Frankfort","state_name":"Illinois","lat":37.89287,"lng":-88.91183,"zip":"62896","miles_from_dt":12.31},{"city":"Cambria","state_name":"Illinois","lat":37.78413,"lng":-89.12238,"zip":"62915","miles_from_dt":12.35},{"city":"New Burnside","state_name":"Illinois","lat":37.58092,"lng":-88.75089,"zip":"62967","miles_from_dt":12.86},{"city":"Ozark","state_name":"Illinois","lat":37.5419,"lng":-88.8162,"zip":"62972","miles_from_dt":13.07},{"city":"Frankfort Heights","state_name":"Illinois","lat":37.90029,"lng":-88.8408,"zip":"62840","miles_from_dt":13.44},{"city":"Zeigler","state_name":"Illinois","lat":37.89122,"lng":-89.05275,"zip":"62999","miles_from_dt":14.35},{"city":"Orient","state_name":"Illinois","lat":37.91767,"lng":-88.97802,"zip":"62874","miles_from_dt":14.44},{"city":"Carrier Mills","state_name":"Illinois","lat":37.69752,"lng":-88.64882,"zip":"62917","miles_from_dt":14.61},{"city":"Hurst","state_name":"Illinois","lat":37.8278,"lng":-89.14409,"zip":"62949","miles_from_dt":14.8},{"city":"Makanda","state_name":"Illinois","lat":37.60389,"lng":-89.14917,"zip":"62958","miles_from_dt":14.95},{"city":"Stonefort","state_name":"Illinois","lat":37.61114,"lng":-88.65695,"zip":"62987","miles_from_dt":15.82},{"city":"Carbondale","state_name":"Illinois","lat":37.74003,"lng":-89.20946,"zip":"62901","miles_from_dt":16.25},{"city":"Thompsonville","state_name":"Illinois","lat":37.90574,"lng":-88.73944,"zip":"62890","miles_from_dt":16.31},{"city":"Royalton","state_name":"Illinois","lat":37.90208,"lng":-89.10883,"zip":"62983","miles_from_dt":16.75},{"city":"Logan","state_name":"Illinois","lat":37.95246,"lng":-88.83549,"zip":"62856","miles_from_dt":16.98},{"city":"De Soto","state_name":"Illinois","lat":37.82112,"lng":-89.20448,"zip":"62924","miles_from_dt":17.49},{"city":"Boles","state_name":"Illinois","lat":37.46581,"lng":-88.99636,"zip":"62909","miles_from_dt":17.72},{"city":"Buncombe","state_name":"Illinois","lat":37.47598,"lng":-89.0388,"zip":"62912","miles_from_dt":17.8},{"city":"Galatia","state_name":"Illinois","lat":37.84281,"lng":-88.63194,"zip":"62935","miles_from_dt":17.83},{"city":"Buckner","state_name":"Illinois","lat":37.97507,"lng":-89.00283,"zip":"62819","miles_from_dt":18.61},{"city":"Christopher","state_name":"Illinois","lat":37.97473,"lng":-89.05358,"zip":"62822","miles_from_dt":19.5},{"city":"Carbondale","state_name":"Illinois","lat":37.67162,"lng":-89.27568,"zip":"62903","miles_from_dt":20.01},{"city":"Benton","state_name":"Illinois","lat":38.00487,"lng":-88.92249,"zip":"62812","miles_from_dt":20.04},{"city":"Mulkeytown","state_name":"Illinois","lat":37.97528,"lng":-89.08351,"zip":"62865","miles_from_dt":20.22},{"city":"Vienna","state_name":"Illinois","lat":37.41945,"lng":-88.88244,"zip":"62995","miles_from_dt":20.42},{"city":"Elkville","state_name":"Illinois","lat":37.89878,"lng":-89.21048,"zip":"62932","miles_from_dt":20.59},{"city":"Cobden","state_name":"Illinois","lat":37.55095,"lng":-89.23208,"zip":"62920","miles_from_dt":20.74},{"city":"Simpson","state_name":"Illinois","lat":37.46768,"lng":-88.68933,"zip":"62985","miles_from_dt":21.03},{"city":"Harrisburg","state_name":"Illinois","lat":37.7028,"lng":-88.52887,"zip":"62946","miles_from_dt":21.15},{"city":"Coello","state_name":"Illinois","lat":37.99832,"lng":-89.06474,"zip":"62825","miles_from_dt":21.23},{"city":"Valier","state_name":"Illinois","lat":38.01569,"lng":-89.04067,"zip":"62891","miles_from_dt":21.89},{"city":"Muddy","state_name":"Illinois","lat":37.76753,"lng":-88.5177,"zip":"62965","miles_from_dt":22.05},{"city":"Raleigh","state_name":"Illinois","lat":37.85179,"lng":-88.54384,"zip":"62977","miles_from_dt":22.4},{"city":"Anna","state_name":"Illinois","lat":37.45746,"lng":-89.18899,"zip":"62906","miles_from_dt":23.25},{"city":"Dowell","state_name":"Illinois","lat":37.94129,"lng":-89.24837,"zip":"62927","miles_from_dt":24.04},{"city":"Murphysboro","state_name":"Illinois","lat":37.7693,"lng":-89.35198,"zip":"62966","miles_from_dt":24.25},{"city":"Macedonia","state_name":"Illinois","lat":38.04022,"lng":-88.72921,"zip":"62860","miles_from_dt":24.65},{"city":"Eddyville","state_name":"Illinois","lat":37.47959,"lng":-88.5668,"zip":"62928","miles_from_dt":25.03},{"city":"Pomona","state_name":"Illinois","lat":37.64307,"lng":-89.37274,"zip":"62975","miles_from_dt":25.59},{"city":"Alto Pass","state_name":"Illinois","lat":37.57381,"lng":-89.35867,"zip":"62905","miles_from_dt":26.21},{"city":"Grantsburg","state_name":"Illinois","lat":37.35586,"lng":-88.74669,"zip":"62943","miles_from_dt":26.39},{"city":"Whittington","state_name":"Illinois","lat":38.09763,"lng":-88.91504,"zip":"62897","miles_from_dt":26.43},{"city":"Sesser","state_name":"Illinois","lat":38.08482,"lng":-89.04196,"zip":"62884","miles_from_dt":26.48},{"city":"Dongola","state_name":"Illinois","lat":37.3692,"lng":-89.13589,"zip":"62926","miles_from_dt":26.73},{"city":"Cypress","state_name":"Illinois","lat":37.33709,"lng":-89.03671,"zip":"62923","miles_from_dt":26.87},{"city":"Ewing","state_name":"Illinois","lat":38.0973,"lng":-88.80568,"zip":"62836","miles_from_dt":27.07},{"city":"Vergennes","state_name":"Illinois","lat":37.90593,"lng":-89.34664,"zip":"62994","miles_from_dt":27.08},{"city":"Eldorado","state_name":"Illinois","lat":37.84379,"lng":-88.44139,"zip":"62930","miles_from_dt":27.4},{"city":"Du Quoin","state_name":"Illinois","lat":38.01001,"lng":-89.24969,"zip":"62832","miles_from_dt":27.41},{"city":"Belknap","state_name":"Illinois","lat":37.30827,"lng":-88.86603,"zip":"62908","miles_from_dt":28.14},{"city":"Herod","state_name":"Illinois","lat":37.55676,"lng":-88.4348,"zip":"62947","miles_from_dt":28.47},{"city":"Broughton","state_name":"Illinois","lat":37.9545,"lng":-88.47762,"zip":"62817","miles_from_dt":29.08},{"city":"Perks","state_name":"Illinois","lat":37.30855,"lng":-89.0797,"zip":"62973","miles_from_dt":29.42}],"targetCityZipCode":"62959","targetCityState":"Illinois"},"__N_SSG":true}