{"pageProps":{"stateName":"Illinois","cityName":"mason","nearbyCities":[{"city":"Edgewood","state_name":"Illinois","lat":38.8999,"lng":-88.66639,"zip":"62426","miles_from_dt":4.24},{"city":"Watson","state_name":"Illinois","lat":39.01986,"lng":-88.56556,"zip":"62473","miles_from_dt":5.69},{"city":"Farina","state_name":"Illinois","lat":38.86855,"lng":-88.74889,"zip":"62838","miles_from_dt":8.74},{"city":"Altamont","state_name":"Illinois","lat":39.06865,"lng":-88.72936,"zip":"62411","miles_from_dt":9.58},{"city":"Dieterich","state_name":"Illinois","lat":38.98784,"lng":-88.42124,"zip":"62424","miles_from_dt":11.43},{"city":"Effingham","state_name":"Illinois","lat":39.11843,"lng":-88.56467,"zip":"62401","miles_from_dt":11.86},{"city":"Louisville","state_name":"Illinois","lat":38.81271,"lng":-88.49353,"zip":"62858","miles_from_dt":12.18},{"city":"Saint Elmo","state_name":"Illinois","lat":39.02531,"lng":-88.85441,"zip":"62458","miles_from_dt":13.09},{"city":"Saint Peter","state_name":"Illinois","lat":38.86751,"lng":-88.88593,"zip":"62880","miles_from_dt":15.08},{"city":"Teutopolis","state_name":"Illinois","lat":39.12809,"lng":-88.43543,"zip":"62467","miles_from_dt":15.9},{"city":"Kinmundy","state_name":"Illinois","lat":38.76458,"lng":-88.81172,"zip":"62854","miles_from_dt":16.36},{"city":"Shumway","state_name":"Illinois","lat":39.20067,"lng":-88.6759,"zip":"62461","miles_from_dt":17.2},{"city":"Wheeler","state_name":"Illinois","lat":39.03731,"lng":-88.31239,"zip":"62479","miles_from_dt":17.99},{"city":"Ingraham","state_name":"Illinois","lat":38.84217,"lng":-88.3253,"zip":"62434","miles_from_dt":18.1},{"city":"Beecher City","state_name":"Illinois","lat":39.17277,"lng":-88.82611,"zip":"62414","miles_from_dt":18.44},{"city":"Brownstown","state_name":"Illinois","lat":39.02009,"lng":-88.97463,"zip":"62418","miles_from_dt":19.16},{"city":"Sailor Springs","state_name":"Illinois","lat":38.7651,"lng":-88.35907,"zip":"62879","miles_from_dt":19.54},{"city":"Sigel","state_name":"Illinois","lat":39.23291,"lng":-88.47066,"zip":"62462","miles_from_dt":21.04},{"city":"Flora","state_name":"Illinois","lat":38.66403,"lng":-88.49689,"zip":"62839","miles_from_dt":21.23},{"city":"Alma","state_name":"Illinois","lat":38.74767,"lng":-88.93412,"zip":"62807","miles_from_dt":21.76},{"city":"Montrose","state_name":"Illinois","lat":39.16687,"lng":-88.32322,"zip":"62445","miles_from_dt":22.05},{"city":"Stewardson","state_name":"Illinois","lat":39.27519,"lng":-88.59683,"zip":"62463","miles_from_dt":22.23},{"city":"Xenia","state_name":"Illinois","lat":38.63032,"lng":-88.64367,"zip":"62899","miles_from_dt":22.34},{"city":"Mode","state_name":"Illinois","lat":39.27853,"lng":-88.73474,"zip":"62444","miles_from_dt":23.1},{"city":"Cowden","state_name":"Illinois","lat":39.23327,"lng":-88.88855,"zip":"62422","miles_from_dt":23.79},{"city":"Newton","state_name":"Illinois","lat":38.96741,"lng":-88.17988,"zip":"62448","miles_from_dt":24.21},{"city":"Shobonier","state_name":"Illinois","lat":38.86289,"lng":-89.06286,"zip":"62885","miles_from_dt":24.21},{"city":"Clay City","state_name":"Illinois","lat":38.67076,"lng":-88.34686,"zip":"62824","miles_from_dt":24.77},{"city":"Jewett","state_name":"Illinois","lat":39.18247,"lng":-88.25613,"zip":"62436","miles_from_dt":25.51},{"city":"Vernon","state_name":"Illinois","lat":38.80623,"lng":-89.0771,"zip":"62892","miles_from_dt":26.22},{"city":"Iuka","state_name":"Illinois","lat":38.58803,"lng":-88.77221,"zip":"62849","miles_from_dt":26.4},{"city":"Neoga","state_name":"Illinois","lat":39.31303,"lng":-88.44456,"zip":"62447","miles_from_dt":26.68},{"city":"Rinard","state_name":"Illinois","lat":38.57718,"lng":-88.49378,"zip":"62878","miles_from_dt":27},{"city":"Strasburg","state_name":"Illinois","lat":39.34614,"lng":-88.63827,"zip":"62465","miles_from_dt":27.06},{"city":"Vandalia","state_name":"Illinois","lat":38.95859,"lng":-89.13257,"zip":"62471","miles_from_dt":27.12},{"city":"Salem","state_name":"Illinois","lat":38.63544,"lng":-88.9288,"zip":"62881","miles_from_dt":27.29},{"city":"Herrick","state_name":"Illinois","lat":39.22981,"lng":-88.99382,"zip":"62431","miles_from_dt":27.32},{"city":"Noble","state_name":"Illinois","lat":38.68073,"lng":-88.22939,"zip":"62868","miles_from_dt":28.64},{"city":"Ramsey","state_name":"Illinois","lat":39.14115,"lng":-89.10569,"zip":"62080","miles_from_dt":28.71},{"city":"Lakewood","state_name":"Illinois","lat":39.32553,"lng":-88.87005,"zip":"62438","miles_from_dt":28.72},{"city":"Hidalgo","state_name":"Illinois","lat":39.13353,"lng":-88.14176,"zip":"62432","miles_from_dt":28.99},{"city":"Toledo","state_name":"Illinois","lat":39.27779,"lng":-88.27155,"zip":"62468","miles_from_dt":29.46},{"city":"Dundas","state_name":"Illinois","lat":38.83363,"lng":-88.10383,"zip":"62425","miles_from_dt":29.5},{"city":"Patoka","state_name":"Illinois","lat":38.75789,"lng":-89.12482,"zip":"62875","miles_from_dt":29.97}],"targetCityZipCode":"62443","targetCityState":"Illinois"},"__N_SSG":true}