{"pageProps":{"stateName":"Illinois","cityName":"montrose","nearbyCities":[{"city":"Jewett","state_name":"Illinois","lat":39.18247,"lng":-88.25613,"zip":"62436","miles_from_dt":3.76},{"city":"Teutopolis","state_name":"Illinois","lat":39.12809,"lng":-88.43543,"zip":"62467","miles_from_dt":6.59},{"city":"Toledo","state_name":"Illinois","lat":39.27779,"lng":-88.27155,"zip":"62468","miles_from_dt":8.14},{"city":"Wheeler","state_name":"Illinois","lat":39.03731,"lng":-88.31239,"zip":"62479","miles_from_dt":8.96},{"city":"Sigel","state_name":"Illinois","lat":39.23291,"lng":-88.47066,"zip":"62462","miles_from_dt":9.13},{"city":"Hidalgo","state_name":"Illinois","lat":39.13353,"lng":-88.14176,"zip":"62432","miles_from_dt":10.01},{"city":"Neoga","state_name":"Illinois","lat":39.31303,"lng":-88.44456,"zip":"62447","miles_from_dt":12},{"city":"Greenup","state_name":"Illinois","lat":39.26396,"lng":-88.1302,"zip":"62428","miles_from_dt":12.33},{"city":"Trilla","state_name":"Illinois","lat":39.34843,"lng":-88.33911,"zip":"62469","miles_from_dt":12.55},{"city":"Effingham","state_name":"Illinois","lat":39.11843,"lng":-88.56467,"zip":"62401","miles_from_dt":13.39},{"city":"Dieterich","state_name":"Illinois","lat":38.98784,"lng":-88.42124,"zip":"62424","miles_from_dt":13.43},{"city":"Newton","state_name":"Illinois","lat":38.96741,"lng":-88.17988,"zip":"62448","miles_from_dt":15.77},{"city":"Lerna","state_name":"Illinois","lat":39.39433,"lng":-88.26325,"zip":"62440","miles_from_dt":16.02},{"city":"Yale","state_name":"Illinois","lat":39.12657,"lng":-88.02293,"zip":"62481","miles_from_dt":16.37},{"city":"Stewardson","state_name":"Illinois","lat":39.27519,"lng":-88.59683,"zip":"62463","miles_from_dt":16.47},{"city":"Watson","state_name":"Illinois","lat":39.01986,"lng":-88.56556,"zip":"62473","miles_from_dt":16.51},{"city":"Shumway","state_name":"Illinois","lat":39.20067,"lng":-88.6759,"zip":"62461","miles_from_dt":19.08},{"city":"Casey","state_name":"Illinois","lat":39.29065,"lng":-88.0005,"zip":"62420","miles_from_dt":19.31},{"city":"Willow Hill","state_name":"Illinois","lat":38.99864,"lng":-88.00129,"zip":"62480","miles_from_dt":20.84},{"city":"Strasburg","state_name":"Illinois","lat":39.34614,"lng":-88.63827,"zip":"62465","miles_from_dt":20.94},{"city":"Mattoon","state_name":"Illinois","lat":39.48004,"lng":-88.37571,"zip":"61938","miles_from_dt":21.79},{"city":"Mason","state_name":"Illinois","lat":38.95397,"lng":-88.62902,"zip":"62443","miles_from_dt":22.05},{"city":"Gays","state_name":"Illinois","lat":39.45524,"lng":-88.50284,"zip":"61928","miles_from_dt":22.1},{"city":"Ingraham","state_name":"Illinois","lat":38.84217,"lng":-88.3253,"zip":"62434","miles_from_dt":22.4},{"city":"Sainte Marie","state_name":"Illinois","lat":38.92997,"lng":-88.0278,"zip":"62459","miles_from_dt":22.79},{"city":"Altamont","state_name":"Illinois","lat":39.06865,"lng":-88.72936,"zip":"62411","miles_from_dt":22.85},{"city":"Mode","state_name":"Illinois","lat":39.27853,"lng":-88.73474,"zip":"62444","miles_from_dt":23.39},{"city":"Windsor","state_name":"Illinois","lat":39.4397,"lng":-88.60495,"zip":"61957","miles_from_dt":24.13},{"city":"West Liberty","state_name":"Illinois","lat":38.88441,"lng":-88.04645,"zip":"62475","miles_from_dt":24.52},{"city":"Charleston","state_name":"Illinois","lat":39.50415,"lng":-88.16448,"zip":"61920","miles_from_dt":24.77},{"city":"Oblong","state_name":"Illinois","lat":39.00419,"lng":-87.91069,"zip":"62449","miles_from_dt":24.86},{"city":"Westfield","state_name":"Illinois","lat":39.43526,"lng":-87.99462,"zip":"62474","miles_from_dt":25.55},{"city":"Dundas","state_name":"Illinois","lat":38.83363,"lng":-88.10383,"zip":"62425","miles_from_dt":25.84},{"city":"Annapolis","state_name":"Illinois","lat":39.14081,"lng":-87.84012,"zip":"62413","miles_from_dt":26.01},{"city":"Edgewood","state_name":"Illinois","lat":38.8999,"lng":-88.66639,"zip":"62426","miles_from_dt":26.08},{"city":"Louisville","state_name":"Illinois","lat":38.81271,"lng":-88.49353,"zip":"62858","miles_from_dt":26.09},{"city":"Beecher City","state_name":"Illinois","lat":39.17277,"lng":-88.82611,"zip":"62414","miles_from_dt":27.01},{"city":"Martinsville","state_name":"Illinois","lat":39.31269,"lng":-87.85602,"zip":"62442","miles_from_dt":27.01},{"city":"Sailor Springs","state_name":"Illinois","lat":38.7651,"lng":-88.35907,"zip":"62879","miles_from_dt":27.78},{"city":"Stoy","state_name":"Illinois","lat":38.99793,"lng":-87.82385,"zip":"62464","miles_from_dt":29.27},{"city":"Humboldt","state_name":"Illinois","lat":39.59067,"lng":-88.35883,"zip":"61931","miles_from_dt":29.3},{"city":"Ashmore","state_name":"Illinois","lat":39.52825,"lng":-88.03357,"zip":"61912","miles_from_dt":29.36}],"targetCityZipCode":"62445","targetCityState":"Illinois"},"__N_SSG":true}