{"pageProps":{"stateName":"Illinois","cityName":"peoria-heights","nearbyCities":[{"city":"Peoria","state_name":"Illinois","lat":40.72414,"lng":-89.55686,"zip":"61643","miles_from_dt":1.75},{"city":"Peoria","state_name":"Illinois","lat":40.75872,"lng":-89.60486,"zip":"61614","miles_from_dt":1.91},{"city":"Peoria","state_name":"Illinois","lat":40.7122,"lng":-89.57465,"zip":"61603","miles_from_dt":2.39},{"city":"Peoria","state_name":"Illinois","lat":40.70966,"lng":-89.5664,"zip":"61639","miles_from_dt":2.58},{"city":"Peoria","state_name":"Illinois","lat":40.74237,"lng":-89.62819,"zip":"61613","miles_from_dt":2.97},{"city":"East Peoria","state_name":"Illinois","lat":40.71185,"lng":-89.53469,"zip":"61611","miles_from_dt":3.11},{"city":"Peoria","state_name":"Illinois","lat":40.69951,"lng":-89.59014,"zip":"61637","miles_from_dt":3.4},{"city":"Peoria","state_name":"Illinois","lat":40.7002,"lng":-89.59859,"zip":"61636","miles_from_dt":3.51},{"city":"East Peoria","state_name":"Illinois","lat":40.7083,"lng":-89.52238,"zip":"61635","miles_from_dt":3.72},{"city":"Peoria","state_name":"Illinois","lat":40.69401,"lng":-89.59085,"zip":"61601","miles_from_dt":3.78},{"city":"Peoria","state_name":"Illinois","lat":40.70011,"lng":-89.61187,"zip":"61606","miles_from_dt":3.84},{"city":"Peoria","state_name":"Illinois","lat":40.693,"lng":-89.59305,"zip":"61629","miles_from_dt":3.88},{"city":"Peoria","state_name":"Illinois","lat":40.78088,"lng":-89.63102,"zip":"61615","miles_from_dt":3.89},{"city":"Peoria","state_name":"Illinois","lat":40.69138,"lng":-89.58871,"zip":"61634","miles_from_dt":3.93},{"city":"Peoria","state_name":"Illinois","lat":40.6978,"lng":-89.61455,"zip":"61625","miles_from_dt":4.05},{"city":"Peoria","state_name":"Illinois","lat":40.68366,"lng":-89.59519,"zip":"61655","miles_from_dt":4.53},{"city":"Peoria","state_name":"Illinois","lat":40.68166,"lng":-89.59449,"zip":"61612","miles_from_dt":4.65},{"city":"Peoria","state_name":"Illinois","lat":40.68284,"lng":-89.60181,"zip":"61630","miles_from_dt":4.68},{"city":"Peoria","state_name":"Illinois","lat":40.68351,"lng":-89.60653,"zip":"61656","miles_from_dt":4.73},{"city":"Peoria","state_name":"Illinois","lat":40.67987,"lng":-89.60219,"zip":"61651","miles_from_dt":4.88},{"city":"Peoria","state_name":"Illinois","lat":40.68005,"lng":-89.60395,"zip":"61602","miles_from_dt":4.9},{"city":"Peoria","state_name":"Illinois","lat":40.68,"lng":-89.60427,"zip":"61653","miles_from_dt":4.91},{"city":"Peoria","state_name":"Illinois","lat":40.80424,"lng":-89.62971,"zip":"61638","miles_from_dt":4.99},{"city":"Peoria","state_name":"Illinois","lat":40.67885,"lng":-89.6076,"zip":"61652","miles_from_dt":5.05},{"city":"Peoria","state_name":"Illinois","lat":40.67769,"lng":-89.60371,"zip":"61654","miles_from_dt":5.05},{"city":"Peoria","state_name":"Illinois","lat":40.70525,"lng":-89.65297,"zip":"61604","miles_from_dt":5.13},{"city":"Mossville","state_name":"Illinois","lat":40.82133,"lng":-89.56496,"zip":"61552","miles_from_dt":5.15},{"city":"Peoria","state_name":"Illinois","lat":40.70828,"lng":-89.66265,"zip":"61633","miles_from_dt":5.45},{"city":"Peoria","state_name":"Illinois","lat":40.6765,"lng":-89.63317,"zip":"61605","miles_from_dt":5.82},{"city":"Creve Coeur","state_name":"Illinois","lat":40.64294,"lng":-89.59882,"zip":"61610","miles_from_dt":7.31},{"city":"Edwards","state_name":"Illinois","lat":40.7757,"lng":-89.7227,"zip":"61528","miles_from_dt":8.16},{"city":"Washington","state_name":"Illinois","lat":40.70506,"lng":-89.42294,"zip":"61571","miles_from_dt":8.34},{"city":"Peoria","state_name":"Illinois","lat":40.6375,"lng":-89.49684,"zip":"61650","miles_from_dt":8.51},{"city":"Dunlap","state_name":"Illinois","lat":40.84776,"lng":-89.67047,"zip":"61525","miles_from_dt":8.67},{"city":"Peoria","state_name":"Illinois","lat":40.65306,"lng":-89.68375,"zip":"61641","miles_from_dt":8.74},{"city":"Metamora","state_name":"Illinois","lat":40.80887,"lng":-89.41311,"zip":"61548","miles_from_dt":9.37},{"city":"Rome","state_name":"Illinois","lat":40.88102,"lng":-89.50144,"zip":"61562","miles_from_dt":9.97},{"city":"Peoria","state_name":"Illinois","lat":40.62895,"lng":-89.68627,"zip":"61607","miles_from_dt":10.11},{"city":"Groveland","state_name":"Illinois","lat":40.58578,"lng":-89.52316,"zip":"61535","miles_from_dt":11.4},{"city":"Morton","state_name":"Illinois","lat":40.61054,"lng":-89.44049,"zip":"61550","miles_from_dt":11.67},{"city":"Hanna City","state_name":"Illinois","lat":40.69051,"lng":-89.78688,"zip":"61536","miles_from_dt":11.93},{"city":"Chillicothe","state_name":"Illinois","lat":40.91751,"lng":-89.53562,"zip":"61523","miles_from_dt":11.93},{"city":"Pekin","state_name":"Illinois","lat":40.56747,"lng":-89.63825,"zip":"61558","miles_from_dt":12.86},{"city":"Mapleton","state_name":"Illinois","lat":40.60962,"lng":-89.73847,"zip":"61547","miles_from_dt":12.89},{"city":"Edelstein","state_name":"Illinois","lat":40.92899,"lng":-89.62599,"zip":"61526","miles_from_dt":12.89},{"city":"Pekin","state_name":"Illinois","lat":40.56675,"lng":-89.64293,"zip":"61555","miles_from_dt":12.97},{"city":"Pekin","state_name":"Illinois","lat":40.54441,"lng":-89.62181,"zip":"61554","miles_from_dt":14.21},{"city":"Lowpoint","state_name":"Illinois","lat":40.86837,"lng":-89.35253,"zip":"61545","miles_from_dt":14.24},{"city":"Deer Creek","state_name":"Illinois","lat":40.62421,"lng":-89.33573,"zip":"61733","miles_from_dt":15.02},{"city":"Brimfield","state_name":"Illinois","lat":40.823,"lng":-89.85155,"zip":"61517","miles_from_dt":15.58},{"city":"Princeville","state_name":"Illinois","lat":40.92101,"lng":-89.77438,"zip":"61559","miles_from_dt":16.03},{"city":"Eureka","state_name":"Illinois","lat":40.71146,"lng":-89.26287,"zip":"61530","miles_from_dt":16.41},{"city":"Kingston Mines","state_name":"Illinois","lat":40.55375,"lng":-89.77561,"zip":"61539","miles_from_dt":17.09},{"city":"Tremont","state_name":"Illinois","lat":40.50484,"lng":-89.47876,"zip":"61568","miles_from_dt":17.4},{"city":"Trivoli","state_name":"Illinois","lat":40.67788,"lng":-89.89324,"zip":"61569","miles_from_dt":17.53},{"city":"Goodfield","state_name":"Illinois","lat":40.63341,"lng":-89.27322,"zip":"61742","miles_from_dt":17.53},{"city":"South Pekin","state_name":"Illinois","lat":40.49848,"lng":-89.65624,"zip":"61564","miles_from_dt":17.7},{"city":"Glasford","state_name":"Illinois","lat":40.58736,"lng":-89.84029,"zip":"61533","miles_from_dt":17.88},{"city":"Washburn","state_name":"Illinois","lat":40.91933,"lng":-89.31578,"zip":"61570","miles_from_dt":17.94},{"city":"Speer","state_name":"Illinois","lat":41.00192,"lng":-89.63939,"zip":"61479","miles_from_dt":17.95},{"city":"Elmwood","state_name":"Illinois","lat":40.7809,"lng":-89.93673,"zip":"61529","miles_from_dt":19.28},{"city":"Mackinaw","state_name":"Illinois","lat":40.52661,"lng":-89.33909,"zip":"61755","miles_from_dt":19.51},{"city":"Roanoke","state_name":"Illinois","lat":40.80582,"lng":-89.20475,"zip":"61561","miles_from_dt":19.69},{"city":"Sparland","state_name":"Illinois","lat":41.032,"lng":-89.50718,"zip":"61565","miles_from_dt":19.97},{"city":"Congerville","state_name":"Illinois","lat":40.62799,"lng":-89.22393,"zip":"61729","miles_from_dt":20.03},{"city":"Lacon","state_name":"Illinois","lat":41.01856,"lng":-89.36867,"zip":"61540","miles_from_dt":21.56},{"city":"Secor","state_name":"Illinois","lat":40.70725,"lng":-89.14184,"zip":"61771","miles_from_dt":22.74},{"city":"Camp Grove","state_name":"Illinois","lat":41.07671,"lng":-89.63513,"zip":"61424","miles_from_dt":23},{"city":"Wyoming","state_name":"Illinois","lat":41.05982,"lng":-89.72525,"zip":"61491","miles_from_dt":23.04},{"city":"Laura","state_name":"Illinois","lat":40.94117,"lng":-89.93555,"zip":"61451","miles_from_dt":23.3},{"city":"Green Valley","state_name":"Illinois","lat":40.41499,"lng":-89.66464,"zip":"61534","miles_from_dt":23.41},{"city":"Manito","state_name":"Illinois","lat":40.45212,"lng":-89.80172,"zip":"61546","miles_from_dt":23.65},{"city":"Hopedale","state_name":"Illinois","lat":40.4174,"lng":-89.43295,"zip":"61747","miles_from_dt":23.88},{"city":"La Rose","state_name":"Illinois","lat":40.98039,"lng":-89.23497,"zip":"61541","miles_from_dt":23.9},{"city":"Benson","state_name":"Illinois","lat":40.85555,"lng":-89.13197,"zip":"61516","miles_from_dt":24.26},{"city":"Danvers","state_name":"Illinois","lat":40.53123,"lng":-89.20646,"zip":"61732","miles_from_dt":24.3},{"city":"Yates City","state_name":"Illinois","lat":40.79768,"lng":-90.0343,"zip":"61572","miles_from_dt":24.51},{"city":"Farmington","state_name":"Illinois","lat":40.68291,"lng":-90.03482,"zip":"61531","miles_from_dt":24.7},{"city":"Minier","state_name":"Illinois","lat":40.4347,"lng":-89.32418,"zip":"61759","miles_from_dt":25.17},{"city":"Norris","state_name":"Illinois","lat":40.62136,"lng":-90.02686,"zip":"61553","miles_from_dt":25.42},{"city":"Carlock","state_name":"Illinois","lat":40.61201,"lng":-89.11717,"zip":"61725","miles_from_dt":25.64},{"city":"Delavan","state_name":"Illinois","lat":40.37431,"lng":-89.52549,"zip":"61734","miles_from_dt":25.82},{"city":"Henry","state_name":"Illinois","lat":41.11607,"lng":-89.47035,"zip":"61537","miles_from_dt":26.03},{"city":"Varna","state_name":"Illinois","lat":41.03254,"lng":-89.24688,"zip":"61375","miles_from_dt":26.05},{"city":"Castleton","state_name":"Illinois","lat":41.11964,"lng":-89.70601,"zip":"61426","miles_from_dt":26.67},{"city":"Williamsfield","state_name":"Illinois","lat":40.93462,"lng":-90.02664,"zip":"61489","miles_from_dt":27.12},{"city":"Toluca","state_name":"Illinois","lat":40.9827,"lng":-89.15397,"zip":"61369","miles_from_dt":27.28},{"city":"Canton","state_name":"Illinois","lat":40.54197,"lng":-90.02156,"zip":"61520","miles_from_dt":27.54},{"city":"Toulon","state_name":"Illinois","lat":41.08157,"lng":-89.87186,"zip":"61483","miles_from_dt":27.93},{"city":"El Paso","state_name":"Illinois","lat":40.74925,"lng":-89.02821,"zip":"61738","miles_from_dt":28.53},{"city":"Stanford","state_name":"Illinois","lat":40.42945,"lng":-89.20145,"zip":"61774","miles_from_dt":29.32},{"city":"Minonk","state_name":"Illinois","lat":40.88713,"lng":-89.03263,"zip":"61760","miles_from_dt":29.88}],"targetCityZipCode":"61616","targetCityState":"Illinois"},"__N_SSG":true}