{"pageProps":{"stateName":"Illinois","cityName":"rinard","nearbyCities":[{"city":"Cisne","state_name":"Illinois","lat":38.51864,"lng":-88.43816,"zip":"62823","miles_from_dt":5.04},{"city":"Flora","state_name":"Illinois","lat":38.66403,"lng":-88.49689,"zip":"62839","miles_from_dt":5.99},{"city":"Johnsonville","state_name":"Illinois","lat":38.49552,"lng":-88.58841,"zip":"62850","miles_from_dt":7.62},{"city":"Xenia","state_name":"Illinois","lat":38.63032,"lng":-88.64367,"zip":"62899","miles_from_dt":8.9},{"city":"Geff","state_name":"Illinois","lat":38.47038,"lng":-88.38007,"zip":"62842","miles_from_dt":9.6},{"city":"Clay City","state_name":"Illinois","lat":38.67076,"lng":-88.34686,"zip":"62824","miles_from_dt":10.24},{"city":"Keenes","state_name":"Illinois","lat":38.42185,"lng":-88.66237,"zip":"62851","miles_from_dt":14.08},{"city":"Sims","state_name":"Illinois","lat":38.37486,"lng":-88.53572,"zip":"62886","miles_from_dt":14.14},{"city":"Sailor Springs","state_name":"Illinois","lat":38.7651,"lng":-88.35907,"zip":"62879","miles_from_dt":14.87},{"city":"Iuka","state_name":"Illinois","lat":38.58803,"lng":-88.77221,"zip":"62849","miles_from_dt":15.09},{"city":"Noble","state_name":"Illinois","lat":38.68073,"lng":-88.22939,"zip":"62868","miles_from_dt":15.99},{"city":"Mount Erie","state_name":"Illinois","lat":38.49115,"lng":-88.21478,"zip":"62446","miles_from_dt":16.24},{"city":"Louisville","state_name":"Illinois","lat":38.81271,"lng":-88.49353,"zip":"62858","miles_from_dt":16.25},{"city":"Fairfield","state_name":"Illinois","lat":38.36608,"lng":-88.35999,"zip":"62837","miles_from_dt":16.27},{"city":"Bluford","state_name":"Illinois","lat":38.37641,"lng":-88.73054,"zip":"62814","miles_from_dt":18.88},{"city":"Wayne City","state_name":"Illinois","lat":38.30364,"lng":-88.54702,"zip":"62895","miles_from_dt":19.09},{"city":"Texico","state_name":"Illinois","lat":38.46011,"lng":-88.82893,"zip":"62889","miles_from_dt":19.88},{"city":"Ingraham","state_name":"Illinois","lat":38.84217,"lng":-88.3253,"zip":"62434","miles_from_dt":20.42},{"city":"Golden Gate","state_name":"Illinois","lat":38.3828,"lng":-88.19893,"zip":"62843","miles_from_dt":20.86},{"city":"Kinmundy","state_name":"Illinois","lat":38.76458,"lng":-88.81172,"zip":"62854","miles_from_dt":21.51},{"city":"Barnhill","state_name":"Illinois","lat":38.28023,"lng":-88.33756,"zip":"62809","miles_from_dt":22.17},{"city":"Kell","state_name":"Illinois","lat":38.51734,"lng":-88.91571,"zip":"62853","miles_from_dt":23.23},{"city":"Salem","state_name":"Illinois","lat":38.63544,"lng":-88.9288,"zip":"62881","miles_from_dt":23.89},{"city":"Olney","state_name":"Illinois","lat":38.71436,"lng":-88.08777,"zip":"62450","miles_from_dt":23.91},{"city":"Edgewood","state_name":"Illinois","lat":38.8999,"lng":-88.66639,"zip":"62426","miles_from_dt":24.14},{"city":"Ellery","state_name":"Illinois","lat":38.34071,"lng":-88.16355,"zip":"62833","miles_from_dt":24.22},{"city":"Farina","state_name":"Illinois","lat":38.86855,"lng":-88.74889,"zip":"62838","miles_from_dt":24.37},{"city":"Parkersburg","state_name":"Illinois","lat":38.58715,"lng":-88.01774,"zip":"62452","miles_from_dt":25.78},{"city":"Albion","state_name":"Illinois","lat":38.38405,"lng":-88.07492,"zip":"62806","miles_from_dt":26.33},{"city":"Alma","state_name":"Illinois","lat":38.74767,"lng":-88.93412,"zip":"62807","miles_from_dt":26.56},{"city":"West Salem","state_name":"Illinois","lat":38.53412,"lng":-88.00509,"zip":"62476","miles_from_dt":26.63},{"city":"Burnt Prairie","state_name":"Illinois","lat":38.24873,"lng":-88.23561,"zip":"62820","miles_from_dt":26.64},{"city":"Mason","state_name":"Illinois","lat":38.95397,"lng":-88.62902,"zip":"62443","miles_from_dt":27},{"city":"Dix","state_name":"Illinois","lat":38.44559,"lng":-88.96424,"zip":"62830","miles_from_dt":27.06},{"city":"Dahlgren","state_name":"Illinois","lat":38.19536,"lng":-88.60864,"zip":"62828","miles_from_dt":27.06},{"city":"Mill Shoals","state_name":"Illinois","lat":38.2166,"lng":-88.29685,"zip":"62862","miles_from_dt":27.07},{"city":"Opdyke","state_name":"Illinois","lat":38.26776,"lng":-88.8032,"zip":"62872","miles_from_dt":27.15},{"city":"Dundas","state_name":"Illinois","lat":38.83363,"lng":-88.10383,"zip":"62425","miles_from_dt":27.52},{"city":"Calhoun","state_name":"Illinois","lat":38.62201,"lng":-87.98425,"zip":"62419","miles_from_dt":27.75},{"city":"Springerton","state_name":"Illinois","lat":38.18478,"lng":-88.36871,"zip":"62887","miles_from_dt":27.9},{"city":"Mount Vernon","state_name":"Illinois","lat":38.33041,"lng":-88.90272,"zip":"62864","miles_from_dt":27.96},{"city":"Dieterich","state_name":"Illinois","lat":38.98784,"lng":-88.42124,"zip":"62424","miles_from_dt":28.6},{"city":"Bone Gap","state_name":"Illinois","lat":38.45707,"lng":-87.98698,"zip":"62815","miles_from_dt":28.69},{"city":"Belle Rive","state_name":"Illinois","lat":38.20515,"lng":-88.74388,"zip":"62810","miles_from_dt":29.03},{"city":"Saint Peter","state_name":"Illinois","lat":38.86751,"lng":-88.88593,"zip":"62880","miles_from_dt":29.16}],"targetCityZipCode":"62878","targetCityState":"Illinois"},"__N_SSG":true}