{"pageProps":{"stateName":"Illinois","cityName":"saint-francisville","nearbyCities":[{"city":"Allendale","state_name":"Illinois","lat":38.53254,"lng":-87.72783,"zip":"62410","miles_from_dt":5.39},{"city":"Bridgeport","state_name":"Illinois","lat":38.70304,"lng":-87.76779,"zip":"62417","miles_from_dt":7.69},{"city":"Decker","state_name":"Indiana","lat":38.48312,"lng":-87.61733,"zip":"47524","miles_from_dt":9.53},{"city":"Lawrenceville","state_name":"Illinois","lat":38.74668,"lng":-87.63754,"zip":"62439","miles_from_dt":10.17},{"city":"Vincennes","state_name":"Indiana","lat":38.62136,"lng":-87.50594,"zip":"47591","miles_from_dt":10.36},{"city":"Sumner","state_name":"Illinois","lat":38.72707,"lng":-87.84957,"zip":"62466","miles_from_dt":11.73},{"city":"Patoka","state_name":"Indiana","lat":38.41922,"lng":-87.60042,"zip":"47666","miles_from_dt":13.93},{"city":"Hazleton","state_name":"Indiana","lat":38.47708,"lng":-87.49301,"zip":"47640","miles_from_dt":14.18},{"city":"Calhoun","state_name":"Illinois","lat":38.62201,"lng":-87.98425,"zip":"62419","miles_from_dt":15.61},{"city":"Mount Carmel","state_name":"Illinois","lat":38.41575,"lng":-87.85526,"zip":"62863","miles_from_dt":15.73},{"city":"Claremont","state_name":"Illinois","lat":38.75219,"lng":-87.94345,"zip":"62421","miles_from_dt":16.71},{"city":"West Salem","state_name":"Illinois","lat":38.53412,"lng":-88.00509,"zip":"62476","miles_from_dt":17.45},{"city":"Parkersburg","state_name":"Illinois","lat":38.58715,"lng":-88.01774,"zip":"62452","miles_from_dt":17.45},{"city":"Flat Rock","state_name":"Illinois","lat":38.87301,"lng":-87.65891,"zip":"62427","miles_from_dt":18.49},{"city":"Bruceville","state_name":"Indiana","lat":38.7645,"lng":-87.41857,"zip":"47516","miles_from_dt":18.55},{"city":"Bone Gap","state_name":"Illinois","lat":38.45707,"lng":-87.98698,"zip":"62815","miles_from_dt":18.82},{"city":"Bellmont","state_name":"Illinois","lat":38.38739,"lng":-87.90361,"zip":"62811","miles_from_dt":18.84},{"city":"Princeton","state_name":"Indiana","lat":38.34355,"lng":-87.57797,"zip":"47670","miles_from_dt":19.25},{"city":"Monroe City","state_name":"Indiana","lat":38.57005,"lng":-87.34132,"zip":"47557","miles_from_dt":19.39},{"city":"Keensburg","state_name":"Illinois","lat":38.34992,"lng":-87.86676,"zip":"62852","miles_from_dt":19.97},{"city":"Browns","state_name":"Illinois","lat":38.37772,"lng":-87.96749,"zip":"62818","miles_from_dt":21.57},{"city":"Wheatland","state_name":"Indiana","lat":38.64745,"lng":-87.29802,"zip":"47597","miles_from_dt":21.74},{"city":"Francisco","state_name":"Indiana","lat":38.35154,"lng":-87.44786,"zip":"47649","miles_from_dt":22.16},{"city":"Oaktown","state_name":"Indiana","lat":38.85705,"lng":-87.43611,"zip":"47561","miles_from_dt":22.28},{"city":"Ragsdale","state_name":"Indiana","lat":38.74418,"lng":-87.322,"zip":"47573","miles_from_dt":22.36},{"city":"Olney","state_name":"Illinois","lat":38.71436,"lng":-88.08777,"zip":"62450","miles_from_dt":22.43},{"city":"Owensville","state_name":"Indiana","lat":38.28016,"lng":-87.72738,"zip":"47665","miles_from_dt":22.58},{"city":"Petersburg","state_name":"Indiana","lat":38.46954,"lng":-87.30554,"zip":"47567","miles_from_dt":23.19},{"city":"Bicknell","state_name":"Indiana","lat":38.779,"lng":-87.31809,"zip":"47512","miles_from_dt":23.66},{"city":"Albion","state_name":"Illinois","lat":38.38405,"lng":-88.07492,"zip":"62806","miles_from_dt":25.63},{"city":"Fort Branch","state_name":"Indiana","lat":38.24611,"lng":-87.54851,"zip":"47648","miles_from_dt":26.13},{"city":"West Liberty","state_name":"Illinois","lat":38.88441,"lng":-88.04645,"zip":"62475","miles_from_dt":26.92},{"city":"Dundas","state_name":"Illinois","lat":38.83363,"lng":-88.10383,"zip":"62425","miles_from_dt":27.02},{"city":"Robinson","state_name":"Illinois","lat":38.99725,"lng":-87.75767,"zip":"62454","miles_from_dt":27.15},{"city":"Palestine","state_name":"Illinois","lat":38.99394,"lng":-87.6066,"zip":"62451","miles_from_dt":27.15},{"city":"Freelandville","state_name":"Indiana","lat":38.86265,"lng":-87.31285,"zip":"47535","miles_from_dt":27.23},{"city":"Stoy","state_name":"Illinois","lat":38.99793,"lng":-87.82385,"zip":"62464","miles_from_dt":27.86},{"city":"Griffin","state_name":"Indiana","lat":38.23482,"lng":-87.91038,"zip":"47616","miles_from_dt":28.15},{"city":"Edwardsport","state_name":"Indiana","lat":38.84447,"lng":-87.26806,"zip":"47528","miles_from_dt":28.37},{"city":"Cynthiana","state_name":"Indiana","lat":38.1946,"lng":-87.70155,"zip":"47612","miles_from_dt":28.42},{"city":"Washington","state_name":"Indiana","lat":38.66139,"lng":-87.17479,"zip":"47501","miles_from_dt":28.47},{"city":"Somerville","state_name":"Indiana","lat":38.27696,"lng":-87.37744,"zip":"47683","miles_from_dt":28.57},{"city":"Sainte Marie","state_name":"Illinois","lat":38.92997,"lng":-88.0278,"zip":"62459","miles_from_dt":28.6},{"city":"Oakland City","state_name":"Indiana","lat":38.29712,"lng":-87.33191,"zip":"47660","miles_from_dt":29.1},{"city":"Mount Erie","state_name":"Illinois","lat":38.49115,"lng":-88.21478,"zip":"62446","miles_from_dt":29.19},{"city":"Noble","state_name":"Illinois","lat":38.68073,"lng":-88.22939,"zip":"62868","miles_from_dt":29.28},{"city":"Buckskin","state_name":"Indiana","lat":38.22958,"lng":-87.44517,"zip":"47647","miles_from_dt":29.36},{"city":"Mackey","state_name":"Indiana","lat":38.2534,"lng":-87.391,"zip":"47654","miles_from_dt":29.46},{"city":"Carlisle","state_name":"Indiana","lat":38.95679,"lng":-87.37812,"zip":"47838","miles_from_dt":29.64},{"city":"Oblong","state_name":"Illinois","lat":39.00419,"lng":-87.91069,"zip":"62449","miles_from_dt":29.76}],"targetCityZipCode":"62460","targetCityState":"Illinois"},"__N_SSG":true}