{"pageProps":{"stateName":"Illinois","cityName":"scottville","nearbyCities":[{"city":"Palmyra","state_name":"Illinois","lat":39.43486,"lng":-90.02952,"zip":"62674","miles_from_dt":4.51},{"city":"Modesto","state_name":"Illinois","lat":39.49372,"lng":-89.99016,"zip":"62667","miles_from_dt":5.9},{"city":"Hettick","state_name":"Illinois","lat":39.36451,"lng":-90.0664,"zip":"62649","miles_from_dt":7.7},{"city":"Franklin","state_name":"Illinois","lat":39.60714,"lng":-90.08226,"zip":"62638","miles_from_dt":9.26},{"city":"Greenfield","state_name":"Illinois","lat":39.36618,"lng":-90.20907,"zip":"62044","miles_from_dt":9.51},{"city":"Murrayville","state_name":"Illinois","lat":39.57474,"lng":-90.23667,"zip":"62668","miles_from_dt":10.2},{"city":"Waverly","state_name":"Illinois","lat":39.5832,"lng":-89.93936,"zip":"62692","miles_from_dt":11.34},{"city":"Roodhouse","state_name":"Illinois","lat":39.49392,"lng":-90.32157,"zip":"62082","miles_from_dt":12.06},{"city":"Woodson","state_name":"Illinois","lat":39.61943,"lng":-90.22418,"zip":"62695","miles_from_dt":12.13},{"city":"Wrights","state_name":"Illinois","lat":39.38377,"lng":-90.29946,"zip":"62098","miles_from_dt":12.46},{"city":"Manchester","state_name":"Illinois","lat":39.54106,"lng":-90.32748,"zip":"62663","miles_from_dt":13.15},{"city":"Lowder","state_name":"Illinois","lat":39.55309,"lng":-89.84646,"zip":"62662","miles_from_dt":14.49},{"city":"Chesterfield","state_name":"Illinois","lat":39.26255,"lng":-90.08315,"zip":"62630","miles_from_dt":14.57},{"city":"Girard","state_name":"Illinois","lat":39.43183,"lng":-89.80746,"zip":"62640","miles_from_dt":15.77},{"city":"Rockbridge","state_name":"Illinois","lat":39.26262,"lng":-90.23452,"zip":"62081","miles_from_dt":16.29},{"city":"Nilwood","state_name":"Illinois","lat":39.39802,"lng":-89.80444,"zip":"62672","miles_from_dt":16.52},{"city":"White Hall","state_name":"Illinois","lat":39.41839,"lng":-90.41291,"zip":"62092","miles_from_dt":17.3},{"city":"Carlinville","state_name":"Illinois","lat":39.28459,"lng":-89.88362,"zip":"62626","miles_from_dt":17.35},{"city":"Virden","state_name":"Illinois","lat":39.50572,"lng":-89.76662,"zip":"62690","miles_from_dt":17.82},{"city":"Thayer","state_name":"Illinois","lat":39.53402,"lng":-89.76555,"zip":"62689","miles_from_dt":18.22},{"city":"Alsey","state_name":"Illinois","lat":39.5526,"lng":-90.42708,"zip":"62610","miles_from_dt":18.44},{"city":"Loami","state_name":"Illinois","lat":39.66513,"lng":-89.84057,"zip":"62661","miles_from_dt":19.05},{"city":"Medora","state_name":"Illinois","lat":39.1982,"lng":-90.14836,"zip":"62063","miles_from_dt":19.19},{"city":"Alexander","state_name":"Illinois","lat":39.75032,"lng":-90.03904,"zip":"62601","miles_from_dt":19.35},{"city":"Jacksonville","state_name":"Illinois","lat":39.73799,"lng":-90.22027,"zip":"62650","miles_from_dt":19.39},{"city":"Jacksonville","state_name":"Illinois","lat":39.72757,"lng":-90.26403,"zip":"62651","miles_from_dt":19.65},{"city":"Auburn","state_name":"Illinois","lat":39.58568,"lng":-89.75406,"zip":"62615","miles_from_dt":19.91},{"city":"Patterson","state_name":"Illinois","lat":39.47984,"lng":-90.48686,"zip":"62078","miles_from_dt":20.82},{"city":"Carrollton","state_name":"Illinois","lat":39.29517,"lng":-90.41462,"zip":"62016","miles_from_dt":20.97},{"city":"New Berlin","state_name":"Illinois","lat":39.74431,"lng":-89.89601,"zip":"62670","miles_from_dt":21.55},{"city":"Fidelity","state_name":"Illinois","lat":39.15463,"lng":-90.16445,"zip":"62030","miles_from_dt":22.29},{"city":"Winchester","state_name":"Illinois","lat":39.62463,"lng":-90.47274,"zip":"62694","miles_from_dt":22.59},{"city":"Waggoner","state_name":"Illinois","lat":39.35908,"lng":-89.69778,"zip":"62572","miles_from_dt":22.8},{"city":"Kane","state_name":"Illinois","lat":39.2012,"lng":-90.34693,"zip":"62054","miles_from_dt":23.05},{"city":"Shipman","state_name":"Illinois","lat":39.14209,"lng":-89.99689,"zip":"62685","miles_from_dt":23.49},{"city":"Divernon","state_name":"Illinois","lat":39.56206,"lng":-89.65626,"zip":"62530","miles_from_dt":24.35},{"city":"Hillview","state_name":"Illinois","lat":39.43734,"lng":-90.55544,"zip":"62050","miles_from_dt":24.62},{"city":"Chatham","state_name":"Illinois","lat":39.67858,"lng":-89.71978,"zip":"62629","miles_from_dt":24.63},{"city":"Piasa","state_name":"Illinois","lat":39.11457,"lng":-90.12642,"zip":"62079","miles_from_dt":24.81},{"city":"Farmersville","state_name":"Illinois","lat":39.44483,"lng":-89.626,"zip":"62533","miles_from_dt":25.29},{"city":"Glenarm","state_name":"Illinois","lat":39.63022,"lng":-89.65023,"zip":"62536","miles_from_dt":26.22},{"city":"Chapin","state_name":"Illinois","lat":39.7794,"lng":-90.40199,"zip":"62628","miles_from_dt":26.63},{"city":"Gillespie","state_name":"Illinois","lat":39.13561,"lng":-89.84447,"zip":"62033","miles_from_dt":26.97},{"city":"Literberry","state_name":"Illinois","lat":39.85677,"lng":-90.19761,"zip":"62660","miles_from_dt":26.98},{"city":"Jerseyville","state_name":"Illinois","lat":39.11179,"lng":-90.32004,"zip":"62052","miles_from_dt":27.66},{"city":"Concord","state_name":"Illinois","lat":39.82531,"lng":-90.36122,"zip":"62631","miles_from_dt":28.05},{"city":"Springfield","state_name":"Illinois","lat":39.76662,"lng":-89.73195,"zip":"62711","miles_from_dt":28.09},{"city":"Pleasant Plains","state_name":"Illinois","lat":39.85168,"lng":-89.87694,"zip":"62677","miles_from_dt":28.62},{"city":"Raymond","state_name":"Illinois","lat":39.3005,"lng":-89.60377,"zip":"62560","miles_from_dt":29},{"city":"Pearl","state_name":"Illinois","lat":39.48734,"lng":-90.64191,"zip":"62361","miles_from_dt":29.12},{"city":"Eldred","state_name":"Illinois","lat":39.24686,"lng":-90.55725,"zip":"62027","miles_from_dt":29.17},{"city":"Bluffs","state_name":"Illinois","lat":39.73174,"lng":-90.5309,"zip":"62621","miles_from_dt":29.2},{"city":"Ashland","state_name":"Illinois","lat":39.89864,"lng":-90.0683,"zip":"62612","miles_from_dt":29.37},{"city":"Brighton","state_name":"Illinois","lat":39.04225,"lng":-90.15027,"zip":"62012","miles_from_dt":29.88}],"targetCityZipCode":"62683","targetCityState":"Illinois"},"__N_SSG":true}