{"pageProps":{"stateName":"Illinois","cityName":"trenton","nearbyCities":[{"city":"Summerfield","state_name":"Illinois","lat":38.59788,"lng":-89.75096,"zip":"62289","miles_from_dt":3.22},{"city":"Aviston","state_name":"Illinois","lat":38.62559,"lng":-89.60313,"zip":"62216","miles_from_dt":5.13},{"city":"Lebanon","state_name":"Illinois","lat":38.6098,"lng":-89.81901,"zip":"62254","miles_from_dt":6.6},{"city":"Saint Jacob","state_name":"Illinois","lat":38.70405,"lng":-89.78288,"zip":"62281","miles_from_dt":7.5},{"city":"New Baden","state_name":"Illinois","lat":38.50808,"lng":-89.67797,"zip":"62265","miles_from_dt":7.68},{"city":"Germantown","state_name":"Illinois","lat":38.54783,"lng":-89.57446,"zip":"62245","miles_from_dt":8.25},{"city":"Albers","state_name":"Illinois","lat":38.50672,"lng":-89.60515,"zip":"62215","miles_from_dt":9.18},{"city":"Breese","state_name":"Illinois","lat":38.63855,"lng":-89.52742,"zip":"62230","miles_from_dt":9.31},{"city":"Highland","state_name":"Illinois","lat":38.75469,"lng":-89.66436,"zip":"62249","miles_from_dt":9.57},{"city":"Scott Air Force Base","state_name":"Illinois","lat":38.54065,"lng":-89.85503,"zip":"62225","miles_from_dt":10.08},{"city":"New Memphis","state_name":"Illinois","lat":38.47481,"lng":-89.64988,"zip":"62266","miles_from_dt":10.23},{"city":"Troy","state_name":"Illinois","lat":38.70374,"lng":-89.87242,"zip":"62294","miles_from_dt":11.14},{"city":"Mascoutah","state_name":"Illinois","lat":38.46014,"lng":-89.77287,"zip":"62258","miles_from_dt":11.65},{"city":"O'Fallon","state_name":"Illinois","lat":38.59844,"lng":-89.91294,"zip":"62269","miles_from_dt":11.74},{"city":"Marine","state_name":"Illinois","lat":38.79077,"lng":-89.77624,"zip":"62061","miles_from_dt":12.63},{"city":"Pierron","state_name":"Illinois","lat":38.78673,"lng":-89.58389,"zip":"62273","miles_from_dt":13.14},{"city":"Belleville","state_name":"Illinois","lat":38.51187,"lng":-89.89922,"zip":"62221","miles_from_dt":13.17},{"city":"Bartelso","state_name":"Illinois","lat":38.52069,"lng":-89.47738,"zip":"62218","miles_from_dt":13.69},{"city":"Beckemeyer","state_name":"Illinois","lat":38.60371,"lng":-89.43698,"zip":"62219","miles_from_dt":14.13},{"city":"Okawville","state_name":"Illinois","lat":38.44028,"lng":-89.52209,"zip":"62271","miles_from_dt":15.53},{"city":"Pocahontas","state_name":"Illinois","lat":38.81507,"lng":-89.54496,"zip":"62275","miles_from_dt":15.87},{"city":"Collinsville","state_name":"Illinois","lat":38.68214,"lng":-89.9815,"zip":"62234","miles_from_dt":15.98},{"city":"Maryville","state_name":"Illinois","lat":38.72719,"lng":-89.96253,"zip":"62062","miles_from_dt":16.18},{"city":"Caseyville","state_name":"Illinois","lat":38.63266,"lng":-90.00509,"zip":"62232","miles_from_dt":16.67},{"city":"Fairview Heights","state_name":"Illinois","lat":38.59641,"lng":-90.00528,"zip":"62208","miles_from_dt":16.73},{"city":"Freeburg","state_name":"Illinois","lat":38.41841,"lng":-89.88978,"zip":"62243","miles_from_dt":17.29},{"city":"Belleville","state_name":"Illinois","lat":38.53634,"lng":-90.00057,"zip":"62226","miles_from_dt":17.36},{"city":"Addieville","state_name":"Illinois","lat":38.37682,"lng":-89.60529,"zip":"62214","miles_from_dt":17.4},{"city":"Glen Carbon","state_name":"Illinois","lat":38.75639,"lng":-89.96897,"zip":"62034","miles_from_dt":17.49},{"city":"Saint Libory","state_name":"Illinois","lat":38.35644,"lng":-89.71334,"zip":"62282","miles_from_dt":18.09},{"city":"Alhambra","state_name":"Illinois","lat":38.87971,"lng":-89.74562,"zip":"62001","miles_from_dt":18.21},{"city":"Belleville","state_name":"Illinois","lat":38.46845,"lng":-89.98146,"zip":"62222","miles_from_dt":18.54},{"city":"Belleville","state_name":"Illinois","lat":38.47247,"lng":-89.98704,"zip":"62220","miles_from_dt":18.64},{"city":"Edwardsville","state_name":"Illinois","lat":38.83004,"lng":-89.93298,"zip":"62025","miles_from_dt":19.37},{"city":"Carlyle","state_name":"Illinois","lat":38.64402,"lng":-89.32642,"zip":"62231","miles_from_dt":20.15},{"city":"Hamel","state_name":"Illinois","lat":38.88935,"lng":-89.84397,"zip":"62046","miles_from_dt":20.3},{"city":"Edwardsville","state_name":"Illinois","lat":38.79062,"lng":-90.00394,"zip":"62026","miles_from_dt":20.38},{"city":"Belleville","state_name":"Illinois","lat":38.53491,"lng":-90.06027,"zip":"62223","miles_from_dt":20.47},{"city":"East Saint Louis","state_name":"Illinois","lat":38.60223,"lng":-90.07534,"zip":"62203","miles_from_dt":20.48},{"city":"Lenzburg","state_name":"Illinois","lat":38.31244,"lng":-89.77842,"zip":"62255","miles_from_dt":21.55},{"city":"East Saint Louis","state_name":"Illinois","lat":38.63033,"lng":-90.09642,"zip":"62204","miles_from_dt":21.6},{"city":"Huey","state_name":"Illinois","lat":38.60427,"lng":-89.29024,"zip":"62252","miles_from_dt":22.06},{"city":"East Saint Louis","state_name":"Illinois","lat":38.60259,"lng":-90.11469,"zip":"62205","miles_from_dt":22.61},{"city":"Granite City","state_name":"Illinois","lat":38.71592,"lng":-90.10078,"zip":"62040","miles_from_dt":22.82},{"city":"Smithton","state_name":"Illinois","lat":38.38845,"lng":-90.00773,"zip":"62285","miles_from_dt":23.12},{"city":"East Saint Louis","state_name":"Illinois","lat":38.58327,"lng":-90.12544,"zip":"62207","miles_from_dt":23.29},{"city":"New Douglas","state_name":"Illinois","lat":38.95594,"lng":-89.68338,"zip":"62074","miles_from_dt":23.3},{"city":"Marissa","state_name":"Illinois","lat":38.28048,"lng":-89.73262,"zip":"62257","miles_from_dt":23.38},{"city":"Worden","state_name":"Illinois","lat":38.93719,"lng":-89.85507,"zip":"62097","miles_from_dt":23.58},{"city":"Greenville","state_name":"Illinois","lat":38.88834,"lng":-89.42533,"zip":"62246","miles_from_dt":23.72},{"city":"New Athens","state_name":"Illinois","lat":38.31612,"lng":-89.90721,"zip":"62264","miles_from_dt":23.75},{"city":"East Saint Louis","state_name":"Illinois","lat":38.63567,"lng":-90.14162,"zip":"62201","miles_from_dt":24.06},{"city":"Hoffman","state_name":"Illinois","lat":38.54042,"lng":-89.26436,"zip":"62250","miles_from_dt":24.06},{"city":"Keyesport","state_name":"Illinois","lat":38.77554,"lng":-89.29738,"zip":"62253","miles_from_dt":24.19},{"city":"South Roxana","state_name":"Illinois","lat":38.81754,"lng":-90.06767,"zip":"62087","miles_from_dt":24.27},{"city":"Millstadt","state_name":"Illinois","lat":38.46097,"lng":-90.09891,"zip":"62260","miles_from_dt":24.31},{"city":"Livingston","state_name":"Illinois","lat":38.96793,"lng":-89.76491,"zip":"62058","miles_from_dt":24.38},{"city":"Hoyleton","state_name":"Illinois","lat":38.45461,"lng":-89.29822,"zip":"62803","miles_from_dt":24.4},{"city":"Madison","state_name":"Illinois","lat":38.67664,"lng":-90.14686,"zip":"62060","miles_from_dt":24.64},{"city":"National Stock Yards","state_name":"Illinois","lat":38.64666,"lng":-90.1579,"zip":"62071","miles_from_dt":24.99},{"city":"Roxana","state_name":"Illinois","lat":38.84082,"lng":-90.06365,"zip":"62084","miles_from_dt":25.04},{"city":"East Saint Louis","state_name":"Illinois","lat":38.61664,"lng":-90.16095,"zip":"62202","miles_from_dt":25.08},{"city":"Nashville","state_name":"Illinois","lat":38.33168,"lng":-89.39706,"zip":"62263","miles_from_dt":25.62},{"city":"Oakdale","state_name":"Illinois","lat":38.27208,"lng":-89.52612,"zip":"62268","miles_from_dt":25.63},{"city":"Lovejoy","state_name":"Illinois","lat":38.65434,"lng":-90.17097,"zip":"62059","miles_from_dt":25.74},{"city":"East Saint Louis","state_name":"Illinois","lat":38.56796,"lng":-90.16981,"zip":"62206","miles_from_dt":25.8},{"city":"Venice","state_name":"Illinois","lat":38.66925,"lng":-90.17044,"zip":"62090","miles_from_dt":25.82},{"city":"Sorento","state_name":"Illinois","lat":38.98302,"lng":-89.58556,"zip":"62086","miles_from_dt":25.87},{"city":"Hartford","state_name":"Illinois","lat":38.77004,"lng":-90.13895,"zip":"62048","miles_from_dt":26.06},{"city":"Saint Louis","state_name":"Missouri","lat":38.63622,"lng":-90.18582,"zip":"63164","miles_from_dt":26.45},{"city":"Saint Louis","state_name":"Missouri","lat":38.63453,"lng":-90.18627,"zip":"63102","miles_from_dt":26.47},{"city":"Wood River","state_name":"Illinois","lat":38.86307,"lng":-90.07545,"zip":"62095","miles_from_dt":26.49},{"city":"Saint Louis","state_name":"Missouri","lat":38.63756,"lng":-90.18699,"zip":"63160","miles_from_dt":26.52},{"city":"Moro","state_name":"Illinois","lat":38.92961,"lng":-89.98837,"zip":"62067","miles_from_dt":26.6},{"city":"Saint Louis","state_name":"Missouri","lat":38.62908,"lng":-90.19002,"zip":"63169","miles_from_dt":26.66},{"city":"Saint Louis","state_name":"Missouri","lat":38.63127,"lng":-90.19275,"zip":"63101","miles_from_dt":26.81},{"city":"Saint Louis","state_name":"Missouri","lat":38.63263,"lng":-90.19304,"zip":"63150","miles_from_dt":26.83},{"city":"Dupo","state_name":"Illinois","lat":38.528,"lng":-90.1803,"zip":"62239","miles_from_dt":26.88},{"city":"Hecker","state_name":"Illinois","lat":38.30543,"lng":-89.99341,"zip":"62248","miles_from_dt":26.9},{"city":"Saint Louis","state_name":"Missouri","lat":38.62919,"lng":-90.19719,"zip":"63188","miles_from_dt":27.05},{"city":"Smithboro","state_name":"Illinois","lat":38.86867,"lng":-89.31107,"zip":"62284","miles_from_dt":27.09},{"city":"Saint Louis","state_name":"Missouri","lat":38.62687,"lng":-90.20188,"zip":"63197","miles_from_dt":27.3},{"city":"Saint Louis","state_name":"Missouri","lat":38.63242,"lng":-90.20295,"zip":"63180","miles_from_dt":27.37},{"city":"Saint Louis","state_name":"Missouri","lat":38.62788,"lng":-90.20545,"zip":"63155","miles_from_dt":27.49},{"city":"Saint Louis","state_name":"Missouri","lat":38.64445,"lng":-90.20795,"zip":"63106","miles_from_dt":27.68},{"city":"Staunton","state_name":"Illinois","lat":39.01318,"lng":-89.79764,"zip":"62088","miles_from_dt":27.76},{"city":"Saint Louis","state_name":"Missouri","lat":38.61078,"lng":-90.21276,"zip":"63104","miles_from_dt":27.89},{"city":"East Alton","state_name":"Illinois","lat":38.88343,"lng":-90.08879,"zip":"62024","miles_from_dt":27.95},{"city":"Tilden","state_name":"Illinois","lat":38.21299,"lng":-89.68261,"zip":"62292","miles_from_dt":27.97},{"city":"Saint Louis","state_name":"Missouri","lat":38.66373,"lng":-90.21201,"zip":"63107","miles_from_dt":28.01},{"city":"Saint Louis","state_name":"Missouri","lat":38.61645,"lng":-90.21527,"zip":"63157","miles_from_dt":28.02},{"city":"Saint Louis","state_name":"Missouri","lat":38.63067,"lng":-90.21635,"zip":"63179","miles_from_dt":28.09},{"city":"Bethalto","state_name":"Illinois","lat":38.91944,"lng":-90.04789,"zip":"62010","miles_from_dt":28.1},{"city":"Saint Louis","state_name":"Missouri","lat":38.62916,"lng":-90.21701,"zip":"63177","miles_from_dt":28.12},{"city":"Saint Louis","state_name":"Missouri","lat":38.62986,"lng":-90.217,"zip":"63103","miles_from_dt":28.12},{"city":"Saint Louis","state_name":"Missouri","lat":38.62992,"lng":-90.21736,"zip":"63178","miles_from_dt":28.14},{"city":"Saint Louis","state_name":"Missouri","lat":38.63044,"lng":-90.2175,"zip":"63166","miles_from_dt":28.15},{"city":"Saint Louis","state_name":"Missouri","lat":38.60459,"lng":-90.22368,"zip":"63158","miles_from_dt":28.49},{"city":"Saint Louis","state_name":"Missouri","lat":38.69567,"lng":-90.21589,"zip":"63147","miles_from_dt":28.54},{"city":"East Carondelet","state_name":"Illinois","lat":38.52084,"lng":-90.21011,"zip":"62240","miles_from_dt":28.56},{"city":"Saint Louis","state_name":"Missouri","lat":38.59237,"lng":-90.22534,"zip":"63118","miles_from_dt":28.63},{"city":"Cottage Hills","state_name":"Illinois","lat":38.90847,"lng":-90.08574,"zip":"62018","miles_from_dt":28.98},{"city":"Saint Louis","state_name":"Missouri","lat":38.79904,"lng":-90.1822,"zip":"63138","miles_from_dt":29.01},{"city":"Dorsey","state_name":"Illinois","lat":38.97797,"lng":-89.981,"zip":"62021","miles_from_dt":29.15},{"city":"Saint Louis","state_name":"Missouri","lat":38.74974,"lng":-90.21297,"zip":"63137","miles_from_dt":29.31},{"city":"Saint Louis","state_name":"Missouri","lat":38.63462,"lng":-90.24199,"zip":"63156","miles_from_dt":29.48},{"city":"Saint Louis","state_name":"Missouri","lat":38.59734,"lng":-90.24218,"zip":"63163","miles_from_dt":29.52},{"city":"Saint Louis","state_name":"Missouri","lat":38.68211,"lng":-90.23994,"zip":"63115","miles_from_dt":29.67},{"city":"Saint Louis","state_name":"Missouri","lat":38.65797,"lng":-90.2475,"zip":"63113","miles_from_dt":29.88}],"targetCityZipCode":"62293","targetCityState":"Illinois"},"__N_SSG":true}