{"pageProps":{"stateName":"Illinois","cityName":"villa-ridge","nearbyCities":[{"city":"Mounds","state_name":"Illinois","lat":37.12705,"lng":-89.21526,"zip":"62964","miles_from_dt":4.08},{"city":"Pulaski","state_name":"Illinois","lat":37.21954,"lng":-89.2095,"zip":"62976","miles_from_dt":4.58},{"city":"Olmsted","state_name":"Illinois","lat":37.21362,"lng":-89.10119,"zip":"62970","miles_from_dt":4.6},{"city":"Mound City","state_name":"Illinois","lat":37.0933,"lng":-89.16263,"zip":"62963","miles_from_dt":5.03},{"city":"Ullin","state_name":"Illinois","lat":37.27855,"lng":-89.1556,"zip":"62992","miles_from_dt":7.75},{"city":"Unity","state_name":"Illinois","lat":37.23641,"lng":-89.2696,"zip":"62993","miles_from_dt":7.75},{"city":"Barlow","state_name":"Kentucky","lat":37.0742,"lng":-89.05026,"zip":"42024","miles_from_dt":8.77},{"city":"Tamms","state_name":"Illinois","lat":37.23184,"lng":-89.29629,"zip":"62988","miles_from_dt":8.78},{"city":"Cairo","state_name":"Illinois","lat":37.04076,"lng":-89.20329,"zip":"62914","miles_from_dt":8.98},{"city":"Olive Branch","state_name":"Illinois","lat":37.15181,"lng":-89.34674,"zip":"62969","miles_from_dt":10.36},{"city":"La Center","state_name":"Kentucky","lat":37.11088,"lng":-88.98452,"zip":"42056","miles_from_dt":10.4},{"city":"Perks","state_name":"Illinois","lat":37.30855,"lng":-89.0797,"zip":"62973","miles_from_dt":10.76},{"city":"Miller City","state_name":"Illinois","lat":37.07431,"lng":-89.33537,"zip":"62962","miles_from_dt":11.58},{"city":"Grand Chain","state_name":"Illinois","lat":37.24142,"lng":-88.97186,"zip":"62941","miles_from_dt":11.59},{"city":"Bandana","state_name":"Kentucky","lat":37.14593,"lng":-88.94553,"zip":"42022","miles_from_dt":11.91},{"city":"Millcreek","state_name":"Illinois","lat":37.34063,"lng":-89.25378,"zip":"62961","miles_from_dt":13.09},{"city":"Cypress","state_name":"Illinois","lat":37.33709,"lng":-89.03671,"zip":"62923","miles_from_dt":13.6},{"city":"Dongola","state_name":"Illinois","lat":37.3692,"lng":-89.13589,"zip":"62926","miles_from_dt":14.06},{"city":"Thebes","state_name":"Illinois","lat":37.22924,"lng":-89.40493,"zip":"62990","miles_from_dt":14.2},{"city":"Karnak","state_name":"Illinois","lat":37.27805,"lng":-88.93127,"zip":"62956","miles_from_dt":14.78},{"city":"Commerce","state_name":"Missouri","lat":37.1583,"lng":-89.44672,"zip":"63742","miles_from_dt":15.84},{"city":"Wickliffe","state_name":"Kentucky","lat":36.97328,"lng":-89.00323,"zip":"42087","miles_from_dt":15.87},{"city":"Kevil","state_name":"Kentucky","lat":37.1033,"lng":-88.87606,"zip":"42053","miles_from_dt":16.26},{"city":"Wyatt","state_name":"Missouri","lat":36.91639,"lng":-89.21974,"zip":"63882","miles_from_dt":17.54},{"city":"Joppa","state_name":"Illinois","lat":37.20684,"lng":-88.84533,"zip":"62953","miles_from_dt":17.58},{"city":"McClure","state_name":"Illinois","lat":37.31355,"lng":-89.42669,"zip":"62957","miles_from_dt":17.88},{"city":"Charleston","state_name":"Missouri","lat":36.91989,"lng":-89.27885,"zip":"63834","miles_from_dt":18.22},{"city":"Scott City","state_name":"Missouri","lat":37.17797,"lng":-89.50138,"zip":"63780","miles_from_dt":18.87},{"city":"Belknap","state_name":"Illinois","lat":37.30827,"lng":-88.86603,"zip":"62908","miles_from_dt":18.93},{"city":"Jonesboro","state_name":"Illinois","lat":37.42065,"lng":-89.33187,"zip":"62952","miles_from_dt":19.94},{"city":"Anna","state_name":"Illinois","lat":37.45746,"lng":-89.18899,"zip":"62906","miles_from_dt":20.15},{"city":"Benton","state_name":"Missouri","lat":37.08033,"lng":-89.52072,"zip":"63736","miles_from_dt":20.79},{"city":"Kelso","state_name":"Missouri","lat":37.19212,"lng":-89.55064,"zip":"63758","miles_from_dt":21.64},{"city":"Bardwell","state_name":"Kentucky","lat":36.87623,"lng":-88.98742,"zip":"42023","miles_from_dt":22.15},{"city":"Cape Girardeau","state_name":"Missouri","lat":37.27373,"lng":-89.53981,"zip":"63703","miles_from_dt":22.23},{"city":"West Paducah","state_name":"Kentucky","lat":37.0828,"lng":-88.76838,"zip":"42086","miles_from_dt":22.37},{"city":"Buncombe","state_name":"Illinois","lat":37.47598,"lng":-89.0388,"zip":"62912","miles_from_dt":22.38},{"city":"Boles","state_name":"Illinois","lat":37.46581,"lng":-88.99636,"zip":"62909","miles_from_dt":22.54},{"city":"Lovelaceville","state_name":"Kentucky","lat":36.96385,"lng":-88.82778,"zip":"42060","miles_from_dt":23.05},{"city":"Blodgett","state_name":"Missouri","lat":37.00513,"lng":-89.52638,"zip":"63824","miles_from_dt":23.1},{"city":"Vienna","state_name":"Illinois","lat":37.41945,"lng":-88.88244,"zip":"62995","miles_from_dt":23.21},{"city":"Bertrand","state_name":"Missouri","lat":36.89628,"lng":-89.45367,"zip":"63823","miles_from_dt":24.71},{"city":"Metropolis","state_name":"Illinois","lat":37.22515,"lng":-88.71097,"zip":"62960","miles_from_dt":25.09},{"city":"Anniston","state_name":"Missouri","lat":36.82427,"lng":-89.32564,"zip":"63820","miles_from_dt":25.3},{"city":"Cunningham","state_name":"Kentucky","lat":36.90392,"lng":-88.83674,"zip":"42035","miles_from_dt":25.42},{"city":"Cape Girardeau","state_name":"Missouri","lat":37.33522,"lng":-89.58043,"zip":"63701","miles_from_dt":25.95},{"city":"Grantsburg","state_name":"Illinois","lat":37.35586,"lng":-88.74669,"zip":"62943","miles_from_dt":26.26},{"city":"Morley","state_name":"Missouri","lat":37.04356,"lng":-89.61038,"zip":"63767","miles_from_dt":26.28},{"city":"Paducah","state_name":"Kentucky","lat":37.03317,"lng":-88.7135,"zip":"42001","miles_from_dt":26.31},{"city":"Arlington","state_name":"Kentucky","lat":36.80129,"lng":-88.9957,"zip":"42021","miles_from_dt":26.75},{"city":"Cobden","state_name":"Illinois","lat":37.55095,"lng":-89.23208,"zip":"62920","miles_from_dt":26.83},{"city":"Cape Girardeau","state_name":"Missouri","lat":37.31095,"lng":-89.62594,"zip":"63702","miles_from_dt":27.57},{"city":"Melber","state_name":"Kentucky","lat":36.92328,"lng":-88.75828,"zip":"42069","miles_from_dt":27.81},{"city":"Goreville","state_name":"Illinois","lat":37.5489,"lng":-88.98088,"zip":"62939","miles_from_dt":28.17},{"city":"Dutchtown","state_name":"Missouri","lat":37.25596,"lng":-89.65946,"zip":"63745","miles_from_dt":28.24},{"city":"Columbus","state_name":"Kentucky","lat":36.751,"lng":-89.10378,"zip":"42032","miles_from_dt":28.8},{"city":"Wolf Lake","state_name":"Illinois","lat":37.51649,"lng":-89.44698,"zip":"62998","miles_from_dt":28.87},{"city":"Chaffee","state_name":"Missouri","lat":37.17564,"lng":-89.68557,"zip":"63740","miles_from_dt":29.02},{"city":"Lowes","state_name":"Kentucky","lat":36.88262,"lng":-88.76959,"zip":"42061","miles_from_dt":29.12},{"city":"Milburn","state_name":"Kentucky","lat":36.79794,"lng":-88.89766,"zip":"42070","miles_from_dt":29.25},{"city":"Wolf Island","state_name":"Missouri","lat":36.7379,"lng":-89.21183,"zip":"63881","miles_from_dt":29.68}],"targetCityZipCode":"62996","targetCityState":"Illinois"},"__N_SSG":true}