{"pageProps":{"stateName":"Illinois","cityName":"warrensburg","nearbyCities":[{"city":"Latham","state_name":"Illinois","lat":39.97084,"lng":-89.1518,"zip":"62543","miles_from_dt":4.55},{"city":"Decatur","state_name":"Illinois","lat":39.90322,"lng":-88.9902,"zip":"62526","miles_from_dt":5.26},{"city":"Forsyth","state_name":"Illinois","lat":39.92549,"lng":-88.96604,"zip":"62535","miles_from_dt":5.83},{"city":"Decatur","state_name":"Illinois","lat":39.90411,"lng":-88.96666,"zip":"62524","miles_from_dt":6.31},{"city":"Harristown","state_name":"Illinois","lat":39.85263,"lng":-89.09324,"zip":"62537","miles_from_dt":6.5},{"city":"Niantic","state_name":"Illinois","lat":39.85357,"lng":-89.15631,"zip":"62551","miles_from_dt":7.75},{"city":"Decatur","state_name":"Illinois","lat":39.83008,"lng":-89.04743,"zip":"62522","miles_from_dt":8.08},{"city":"Maroa","state_name":"Illinois","lat":40.03311,"lng":-88.96368,"zip":"61756","miles_from_dt":8.36},{"city":"Decatur","state_name":"Illinois","lat":39.84372,"lng":-88.95289,"zip":"62523","miles_from_dt":9.48},{"city":"Chestnut","state_name":"Illinois","lat":40.05154,"lng":-89.19037,"zip":"62518","miles_from_dt":9.62},{"city":"Kenney","state_name":"Illinois","lat":40.09209,"lng":-89.10943,"zip":"61749","miles_from_dt":10.3},{"city":"Decatur","state_name":"Illinois","lat":39.83282,"lng":-88.9444,"zip":"62525","miles_from_dt":10.34},{"city":"Oreana","state_name":"Illinois","lat":39.94976,"lng":-88.87107,"zip":"62554","miles_from_dt":10.71},{"city":"Illiopolis","state_name":"Illinois","lat":39.86681,"lng":-89.24914,"zip":"62539","miles_from_dt":10.84},{"city":"Mount Pulaski","state_name":"Illinois","lat":39.97849,"lng":-89.27988,"zip":"62548","miles_from_dt":11.24},{"city":"Decatur","state_name":"Illinois","lat":39.81435,"lng":-88.93086,"zip":"62521","miles_from_dt":11.78},{"city":"Boody","state_name":"Illinois","lat":39.76753,"lng":-89.04508,"zip":"62514","miles_from_dt":12.37},{"city":"Elwin","state_name":"Illinois","lat":39.77633,"lng":-88.97781,"zip":"62532","miles_from_dt":12.71},{"city":"Argenta","state_name":"Illinois","lat":39.92973,"lng":-88.80528,"zip":"62501","miles_from_dt":14.24},{"city":"Clinton","state_name":"Illinois","lat":40.14701,"lng":-88.95245,"zip":"61727","miles_from_dt":15.29},{"city":"Mount Auburn","state_name":"Illinois","lat":39.76883,"lng":-89.24929,"zip":"62547","miles_from_dt":15.39},{"city":"Beason","state_name":"Illinois","lat":40.14601,"lng":-89.20312,"zip":"62512","miles_from_dt":15.47},{"city":"Lake Fork","state_name":"Illinois","lat":39.95657,"lng":-89.37085,"zip":"62541","miles_from_dt":15.85},{"city":"Blue Mound","state_name":"Illinois","lat":39.72341,"lng":-89.15296,"zip":"62513","miles_from_dt":15.91},{"city":"Mt Zion","state_name":"Illinois","lat":39.76985,"lng":-88.8657,"zip":"62549","miles_from_dt":16.37},{"city":"Buffalo","state_name":"Illinois","lat":39.8561,"lng":-89.36622,"zip":"62515","miles_from_dt":16.78},{"city":"Lane","state_name":"Illinois","lat":40.12251,"lng":-88.8557,"zip":"61750","miles_from_dt":16.78},{"city":"Macon","state_name":"Illinois","lat":39.70854,"lng":-88.97375,"zip":"62544","miles_from_dt":17.17},{"city":"Cornland","state_name":"Illinois","lat":39.92879,"lng":-89.3953,"zip":"62519","miles_from_dt":17.18},{"city":"Cisco","state_name":"Illinois","lat":40.01122,"lng":-88.72926,"zip":"61830","miles_from_dt":18.78},{"city":"Cerro Gordo","state_name":"Illinois","lat":39.88455,"lng":-88.71798,"zip":"61818","miles_from_dt":19.31},{"city":"Waynesville","state_name":"Illinois","lat":40.22575,"lng":-89.09104,"zip":"61778","miles_from_dt":19.36},{"city":"Dalton City","state_name":"Illinois","lat":39.72444,"lng":-88.83548,"zip":"61925","miles_from_dt":19.79},{"city":"Weldon","state_name":"Illinois","lat":40.11203,"lng":-88.75969,"zip":"61882","miles_from_dt":20.19},{"city":"Lincoln","state_name":"Illinois","lat":40.13948,"lng":-89.36622,"zip":"62656","miles_from_dt":20.53},{"city":"Elkhart","state_name":"Illinois","lat":40.0166,"lng":-89.45107,"zip":"62634","miles_from_dt":20.68},{"city":"Mechanicsburg","state_name":"Illinois","lat":39.7661,"lng":-89.38737,"zip":"62545","miles_from_dt":20.82},{"city":"La Place","state_name":"Illinois","lat":39.80319,"lng":-88.72684,"zip":"61936","miles_from_dt":20.84},{"city":"Stonington","state_name":"Illinois","lat":39.64668,"lng":-89.19082,"zip":"62567","miles_from_dt":21.55},{"city":"Wapella","state_name":"Illinois","lat":40.243,"lng":-88.93948,"zip":"61777","miles_from_dt":21.7},{"city":"Milmine","state_name":"Illinois","lat":39.92438,"lng":-88.66056,"zip":"61855","miles_from_dt":21.93},{"city":"Lawndale","state_name":"Illinois","lat":40.21455,"lng":-89.29926,"zip":"61751","miles_from_dt":22.11},{"city":"Dawson","state_name":"Illinois","lat":39.82185,"lng":-89.45904,"zip":"62520","miles_from_dt":22.24},{"city":"Dewitt","state_name":"Illinois","lat":40.20561,"lng":-88.81072,"zip":"61735","miles_from_dt":22.69},{"city":"Moweaqua","state_name":"Illinois","lat":39.61154,"lng":-88.99283,"zip":"62550","miles_from_dt":23.43},{"city":"Riverton","state_name":"Illinois","lat":39.86754,"lng":-89.50498,"zip":"62561","miles_from_dt":23.59},{"city":"Williamsville","state_name":"Illinois","lat":39.95761,"lng":-89.52041,"zip":"62693","miles_from_dt":23.79},{"city":"Atlanta","state_name":"Illinois","lat":40.26139,"lng":-89.26703,"zip":"61723","miles_from_dt":24.11},{"city":"Edinburg","state_name":"Illinois","lat":39.66754,"lng":-89.37395,"zip":"62531","miles_from_dt":25},{"city":"Hammond","state_name":"Illinois","lat":39.82338,"lng":-88.62271,"zip":"61929","miles_from_dt":25.36},{"city":"Lovington","state_name":"Illinois","lat":39.73872,"lng":-88.65542,"zip":"61937","miles_from_dt":26.38},{"city":"De Land","state_name":"Illinois","lat":40.13184,"lng":-88.63694,"zip":"61839","miles_from_dt":26.44},{"city":"Heyworth","state_name":"Illinois","lat":40.32152,"lng":-88.96684,"zip":"61745","miles_from_dt":26.54},{"city":"Monticello","state_name":"Illinois","lat":40.02838,"lng":-88.58211,"zip":"61856","miles_from_dt":26.65},{"city":"Middletown","state_name":"Illinois","lat":40.08384,"lng":-89.54364,"zip":"62666","miles_from_dt":26.75},{"city":"McLean","state_name":"Illinois","lat":40.3287,"lng":-89.15744,"zip":"61754","miles_from_dt":26.82},{"city":"Bethany","state_name":"Illinois","lat":39.63409,"lng":-88.76783,"zip":"61914","miles_from_dt":26.92},{"city":"Sherman","state_name":"Illinois","lat":39.91019,"lng":-89.58474,"zip":"62684","miles_from_dt":27.31},{"city":"Bement","state_name":"Illinois","lat":39.90933,"lng":-88.55796,"zip":"61813","miles_from_dt":27.45},{"city":"Rochester","state_name":"Illinois","lat":39.71675,"lng":-89.50017,"zip":"62563","miles_from_dt":27.68},{"city":"Assumption","state_name":"Illinois","lat":39.5315,"lng":-89.02706,"zip":"62510","miles_from_dt":28.67},{"city":"Hartsburg","state_name":"Illinois","lat":40.24154,"lng":-89.45774,"zip":"62643","miles_from_dt":28.87},{"city":"Taylorville","state_name":"Illinois","lat":39.55974,"lng":-89.29016,"zip":"62568","miles_from_dt":29.03},{"city":"Farmer City","state_name":"Illinois","lat":40.23889,"lng":-88.66411,"zip":"61842","miles_from_dt":29.64},{"city":"New Holland","state_name":"Illinois","lat":40.16707,"lng":-89.55755,"zip":"62671","miles_from_dt":29.91}],"targetCityZipCode":"62573","targetCityState":"Illinois"},"__N_SSG":true}