{"pageProps":{"stateName":"Illinois","cityName":"wayne-city","nearbyCities":[{"city":"Sims","state_name":"Illinois","lat":38.37486,"lng":-88.53572,"zip":"62886","miles_from_dt":4.95},{"city":"Dahlgren","state_name":"Illinois","lat":38.19536,"lng":-88.60864,"zip":"62828","miles_from_dt":8.19},{"city":"Keenes","state_name":"Illinois","lat":38.42185,"lng":-88.66237,"zip":"62851","miles_from_dt":10.28},{"city":"Fairfield","state_name":"Illinois","lat":38.36608,"lng":-88.35999,"zip":"62837","miles_from_dt":11.04},{"city":"Bluford","state_name":"Illinois","lat":38.37641,"lng":-88.73054,"zip":"62814","miles_from_dt":11.16},{"city":"Barnhill","state_name":"Illinois","lat":38.28023,"lng":-88.33756,"zip":"62809","miles_from_dt":11.5},{"city":"Belle Rive","state_name":"Illinois","lat":38.20515,"lng":-88.74388,"zip":"62810","miles_from_dt":12.68},{"city":"Springerton","state_name":"Illinois","lat":38.18478,"lng":-88.36871,"zip":"62887","miles_from_dt":12.7},{"city":"Johnsonville","state_name":"Illinois","lat":38.49552,"lng":-88.58841,"zip":"62850","miles_from_dt":13.42},{"city":"Opdyke","state_name":"Illinois","lat":38.26776,"lng":-88.8032,"zip":"62872","miles_from_dt":14.15},{"city":"Geff","state_name":"Illinois","lat":38.47038,"lng":-88.38007,"zip":"62842","miles_from_dt":14.64},{"city":"Mill Shoals","state_name":"Illinois","lat":38.2166,"lng":-88.29685,"zip":"62862","miles_from_dt":14.87},{"city":"Cisne","state_name":"Illinois","lat":38.51864,"lng":-88.43816,"zip":"62823","miles_from_dt":15.96},{"city":"McLeansboro","state_name":"Illinois","lat":38.07094,"lng":-88.54289,"zip":"62859","miles_from_dt":16.05},{"city":"Burnt Prairie","state_name":"Illinois","lat":38.24873,"lng":-88.23561,"zip":"62820","miles_from_dt":17.35},{"city":"Enfield","state_name":"Illinois","lat":38.10573,"lng":-88.32406,"zip":"62835","miles_from_dt":18.26},{"city":"Texico","state_name":"Illinois","lat":38.46011,"lng":-88.82893,"zip":"62889","miles_from_dt":18.73},{"city":"Rinard","state_name":"Illinois","lat":38.57718,"lng":-88.49378,"zip":"62878","miles_from_dt":19.09},{"city":"Mount Vernon","state_name":"Illinois","lat":38.33041,"lng":-88.90272,"zip":"62864","miles_from_dt":19.42},{"city":"Golden Gate","state_name":"Illinois","lat":38.3828,"lng":-88.19893,"zip":"62843","miles_from_dt":19.68},{"city":"Ina","state_name":"Illinois","lat":38.15042,"lng":-88.85485,"zip":"62846","miles_from_dt":19.8},{"city":"Ewing","state_name":"Illinois","lat":38.0973,"lng":-88.80568,"zip":"62836","miles_from_dt":20.02},{"city":"Macedonia","state_name":"Illinois","lat":38.04022,"lng":-88.72921,"zip":"62860","miles_from_dt":20.7},{"city":"Ellery","state_name":"Illinois","lat":38.34071,"lng":-88.16355,"zip":"62833","miles_from_dt":20.99},{"city":"Dale","state_name":"Illinois","lat":37.99956,"lng":-88.49061,"zip":"62829","miles_from_dt":21.2},{"city":"Mount Erie","state_name":"Illinois","lat":38.49115,"lng":-88.21478,"zip":"62446","miles_from_dt":22.19},{"city":"Bonnie","state_name":"Illinois","lat":38.18156,"lng":-88.92473,"zip":"62816","miles_from_dt":22.2},{"city":"Iuka","state_name":"Illinois","lat":38.58803,"lng":-88.77221,"zip":"62849","miles_from_dt":23.11},{"city":"Xenia","state_name":"Illinois","lat":38.63032,"lng":-88.64367,"zip":"62899","miles_from_dt":23.13},{"city":"Broughton","state_name":"Illinois","lat":37.9545,"lng":-88.47762,"zip":"62817","miles_from_dt":24.38},{"city":"Whittington","state_name":"Illinois","lat":38.09763,"lng":-88.91504,"zip":"62897","miles_from_dt":24.56},{"city":"Dix","state_name":"Illinois","lat":38.44559,"lng":-88.96424,"zip":"62830","miles_from_dt":24.68},{"city":"Kell","state_name":"Illinois","lat":38.51734,"lng":-88.91571,"zip":"62853","miles_from_dt":24.85},{"city":"Flora","state_name":"Illinois","lat":38.66403,"lng":-88.49689,"zip":"62839","miles_from_dt":25.01},{"city":"Nason","state_name":"Illinois","lat":38.16171,"lng":-88.97947,"zip":"62866","miles_from_dt":25.48},{"city":"Albion","state_name":"Illinois","lat":38.38405,"lng":-88.07492,"zip":"62806","miles_from_dt":26.24},{"city":"Grayville","state_name":"Illinois","lat":38.25525,"lng":-88.05018,"zip":"62844","miles_from_dt":27.22},{"city":"Norris City","state_name":"Illinois","lat":37.96608,"lng":-88.28336,"zip":"62869","miles_from_dt":27.36},{"city":"Clay City","state_name":"Illinois","lat":38.67076,"lng":-88.34686,"zip":"62824","miles_from_dt":27.55},{"city":"Waltonville","state_name":"Illinois","lat":38.20952,"lng":-89.03931,"zip":"62894","miles_from_dt":27.55},{"city":"Carmi","state_name":"Illinois","lat":38.07301,"lng":-88.13357,"zip":"62821","miles_from_dt":27.56},{"city":"Woodlawn","state_name":"Illinois","lat":38.35041,"lng":-89.06209,"zip":"62898","miles_from_dt":28.17},{"city":"Walnut Hill","state_name":"Illinois","lat":38.46776,"lng":-89.03087,"zip":"62893","miles_from_dt":28.6},{"city":"Logan","state_name":"Illinois","lat":37.95246,"lng":-88.83549,"zip":"62856","miles_from_dt":28.87},{"city":"Benton","state_name":"Illinois","lat":38.00487,"lng":-88.92249,"zip":"62812","miles_from_dt":29.03},{"city":"Crossville","state_name":"Illinois","lat":38.16573,"lng":-88.04157,"zip":"62827","miles_from_dt":29.1},{"city":"Thompsonville","state_name":"Illinois","lat":37.90574,"lng":-88.73944,"zip":"62890","miles_from_dt":29.38}],"targetCityZipCode":"62895","targetCityState":"Illinois"},"__N_SSG":true}