{"pageProps":{"stateName":"Illinois","cityName":"winthrop-harbor","nearbyCities":[{"city":"Zion","state_name":"Illinois","lat":42.46053,"lng":-87.86901,"zip":"60099","miles_from_dt":2.45},{"city":"Pleasant Prairie","state_name":"Wisconsin","lat":42.52418,"lng":-87.88869,"zip":"53158","miles_from_dt":4.24},{"city":"Russell","state_name":"Illinois","lat":42.49245,"lng":-87.91205,"zip":"60075","miles_from_dt":4.28},{"city":"Waukegan","state_name":"Illinois","lat":42.40444,"lng":-87.85631,"zip":"60087","miles_from_dt":5.45},{"city":"Kenosha","state_name":"Wisconsin","lat":42.56109,"lng":-87.83038,"zip":"53143","miles_from_dt":5.53},{"city":"Wadsworth","state_name":"Illinois","lat":42.43716,"lng":-87.94663,"zip":"60083","miles_from_dt":6.69},{"city":"Kenosha","state_name":"Wisconsin","lat":42.54464,"lng":-87.93765,"zip":"53142","miles_from_dt":7.05},{"city":"Kenosha","state_name":"Wisconsin","lat":42.58387,"lng":-87.82244,"zip":"53141","miles_from_dt":7.12},{"city":"Waukegan","state_name":"Illinois","lat":42.37022,"lng":-87.86854,"zip":"60079","miles_from_dt":7.89},{"city":"Waukegan","state_name":"Illinois","lat":42.35498,"lng":-87.86467,"zip":"60085","miles_from_dt":8.87},{"city":"Gurnee","state_name":"Illinois","lat":42.37494,"lng":-87.94119,"zip":"60031","miles_from_dt":9.27},{"city":"Kenosha","state_name":"Wisconsin","lat":42.61963,"lng":-87.82987,"zip":"53140","miles_from_dt":9.58},{"city":"Kenosha","state_name":"Wisconsin","lat":42.61991,"lng":-87.92291,"zip":"53144","miles_from_dt":10.71},{"city":"North Chicago","state_name":"Illinois","lat":42.3237,"lng":-87.86122,"zip":"60064","miles_from_dt":10.97},{"city":"North Chicago","state_name":"Illinois","lat":42.32027,"lng":-87.85965,"zip":"60086","miles_from_dt":11.19},{"city":"Somers","state_name":"Wisconsin","lat":42.6361,"lng":-87.90979,"zip":"53171","miles_from_dt":11.46},{"city":"Bristol","state_name":"Wisconsin","lat":42.55731,"lng":-88.03416,"zip":"53104","miles_from_dt":11.69},{"city":"Great Lakes","state_name":"Illinois","lat":42.30685,"lng":-87.85232,"zip":"60088","miles_from_dt":12.07},{"city":"Lake Villa","state_name":"Illinois","lat":42.41572,"lng":-88.06094,"zip":"60046","miles_from_dt":12.64},{"city":"Benet Lake","state_name":"Wisconsin","lat":42.50437,"lng":-88.07726,"zip":"53102","miles_from_dt":12.75},{"city":"Antioch","state_name":"Illinois","lat":42.4674,"lng":-88.09419,"zip":"60002","miles_from_dt":13.54},{"city":"Woodworth","state_name":"Wisconsin","lat":42.56281,"lng":-88.07223,"zip":"53194","miles_from_dt":13.61},{"city":"Lake Bluff","state_name":"Illinois","lat":42.2842,"lng":-87.86392,"zip":"60044","miles_from_dt":13.69},{"city":"Libertyville","state_name":"Illinois","lat":42.29494,"lng":-87.9466,"zip":"60048","miles_from_dt":14.16},{"city":"Racine","state_name":"Wisconsin","lat":42.68738,"lng":-87.82587,"zip":"53403","miles_from_dt":14.25},{"city":"Racine","state_name":"Wisconsin","lat":42.69196,"lng":-87.81478,"zip":"53401","miles_from_dt":14.59},{"city":"Grayslake","state_name":"Illinois","lat":42.33536,"lng":-88.04519,"zip":"60030","miles_from_dt":14.91},{"city":"Trevor","state_name":"Wisconsin","lat":42.5133,"lng":-88.13159,"zip":"53179","miles_from_dt":15.58},{"city":"Sturtevant","state_name":"Wisconsin","lat":42.70047,"lng":-87.93474,"zip":"53177","miles_from_dt":16.07},{"city":"Camp Lake","state_name":"Wisconsin","lat":42.54094,"lng":-88.14002,"zip":"53109","miles_from_dt":16.38},{"city":"Round Lake","state_name":"Illinois","lat":42.3516,"lng":-88.10597,"zip":"60073","miles_from_dt":16.71},{"city":"Salem","state_name":"Wisconsin","lat":42.57858,"lng":-88.12999,"zip":"53168","miles_from_dt":16.74},{"city":"Lake Forest","state_name":"Illinois","lat":42.23807,"lng":-87.87006,"zip":"60045","miles_from_dt":16.89},{"city":"Racine","state_name":"Wisconsin","lat":42.7253,"lng":-87.80891,"zip":"53408","miles_from_dt":16.9},{"city":"Racine","state_name":"Wisconsin","lat":42.72712,"lng":-87.82588,"zip":"53405","miles_from_dt":17},{"city":"Racine","state_name":"Wisconsin","lat":42.72608,"lng":-87.78338,"zip":"53407","miles_from_dt":17.09},{"city":"Racine","state_name":"Wisconsin","lat":42.73014,"lng":-87.86549,"zip":"53406","miles_from_dt":17.3},{"city":"Silver Lake","state_name":"Wisconsin","lat":42.5519,"lng":-88.16149,"zip":"53170","miles_from_dt":17.63},{"city":"Mundelein","state_name":"Illinois","lat":42.26945,"lng":-88.03997,"zip":"60060","miles_from_dt":18.13},{"city":"Wilmot","state_name":"Wisconsin","lat":42.51172,"lng":-88.18412,"zip":"53192","miles_from_dt":18.22},{"city":"Ingleside","state_name":"Illinois","lat":42.36939,"lng":-88.15309,"zip":"60041","miles_from_dt":18.24},{"city":"Vernon Hills","state_name":"Illinois","lat":42.2334,"lng":-87.96046,"zip":"60061","miles_from_dt":18.35},{"city":"Union Grove","state_name":"Wisconsin","lat":42.69815,"lng":-88.04096,"zip":"53182","miles_from_dt":18.46},{"city":"Northbrook","state_name":"Illinois","lat":42.2162,"lng":-87.88392,"zip":"60065","miles_from_dt":18.48},{"city":"Fox Lake","state_name":"Illinois","lat":42.39543,"lng":-88.17349,"zip":"60020","miles_from_dt":18.54},{"city":"Fort Sheridan","state_name":"Illinois","lat":42.20941,"lng":-87.80657,"zip":"60037","miles_from_dt":18.78},{"city":"Highwood","state_name":"Illinois","lat":42.20652,"lng":-87.81274,"zip":"60040","miles_from_dt":18.96},{"city":"Racine","state_name":"Wisconsin","lat":42.7572,"lng":-87.81246,"zip":"53404","miles_from_dt":19.09},{"city":"Spring Grove","state_name":"Illinois","lat":42.45115,"lng":-88.22173,"zip":"60081","miles_from_dt":20.14},{"city":"Lincolnshire","state_name":"Illinois","lat":42.19588,"lng":-87.92439,"zip":"60069","miles_from_dt":20.26},{"city":"Highland Park","state_name":"Illinois","lat":42.18358,"lng":-87.8106,"zip":"60035","miles_from_dt":20.55},{"city":"Kansasville","state_name":"Wisconsin","lat":42.68795,"lng":-88.12,"zip":"53139","miles_from_dt":20.58},{"city":"Bassett","state_name":"Wisconsin","lat":42.5386,"lng":-88.22784,"zip":"53101","miles_from_dt":20.71},{"city":"Twin Lakes","state_name":"Wisconsin","lat":42.51711,"lng":-88.24305,"zip":"53181","miles_from_dt":21.26},{"city":"New Munster","state_name":"Wisconsin","lat":42.57724,"lng":-88.22602,"zip":"53152","miles_from_dt":21.29},{"city":"Deerfield","state_name":"Illinois","lat":42.17239,"lng":-87.87486,"zip":"60015","miles_from_dt":21.42},{"city":"Wauconda","state_name":"Illinois","lat":42.26807,"lng":-88.13856,"zip":"60084","miles_from_dt":21.58},{"city":"Racine","state_name":"Wisconsin","lat":42.7989,"lng":-87.82385,"zip":"53402","miles_from_dt":21.95},{"city":"Mchenry","state_name":"Illinois","lat":42.35099,"lng":-88.22412,"zip":"60051","miles_from_dt":22.07},{"city":"Lake Zurich","state_name":"Illinois","lat":42.20202,"lng":-88.04522,"zip":"60047","miles_from_dt":22.19},{"city":"Buffalo Grove","state_name":"Illinois","lat":42.16736,"lng":-87.96076,"zip":"60089","miles_from_dt":22.66},{"city":"Franksville","state_name":"Wisconsin","lat":42.78848,"lng":-87.9966,"zip":"53126","miles_from_dt":22.87},{"city":"Island Lake","state_name":"Illinois","lat":42.27913,"lng":-88.19777,"zip":"60042","miles_from_dt":23.42},{"city":"Palatine","state_name":"Illinois","lat":42.14196,"lng":-87.92246,"zip":"60078","miles_from_dt":23.87},{"city":"Glencoe","state_name":"Illinois","lat":42.13637,"lng":-87.7664,"zip":"60022","miles_from_dt":24},{"city":"Caledonia","state_name":"Wisconsin","lat":42.82043,"lng":-87.94696,"zip":"53108","miles_from_dt":24.18},{"city":"Powers Lake","state_name":"Wisconsin","lat":42.55316,"lng":-88.29399,"zip":"53159","miles_from_dt":24.22},{"city":"Northbrook","state_name":"Illinois","lat":42.12663,"lng":-87.84235,"zip":"60062","miles_from_dt":24.46},{"city":"Richmond","state_name":"Illinois","lat":42.46403,"lng":-88.30975,"zip":"60071","miles_from_dt":24.55},{"city":"Wheeling","state_name":"Illinois","lat":42.13031,"lng":-87.92268,"zip":"60090","miles_from_dt":24.66},{"city":"Ringwood","state_name":"Illinois","lat":42.40647,"lng":-88.30637,"zip":"60072","miles_from_dt":24.9},{"city":"Techny","state_name":"Illinois","lat":42.10815,"lng":-87.8075,"zip":"60082","miles_from_dt":25.75},{"city":"Mchenry","state_name":"Illinois","lat":42.32915,"lng":-88.29363,"zip":"60050","miles_from_dt":25.94},{"city":"Palatine","state_name":"Illinois","lat":42.13179,"lng":-88.02658,"zip":"60074","miles_from_dt":26.12},{"city":"Genoa City","state_name":"Wisconsin","lat":42.52979,"lng":-88.33857,"zip":"53128","miles_from_dt":26.2},{"city":"Burlington","state_name":"Wisconsin","lat":42.66412,"lng":-88.28045,"zip":"53105","miles_from_dt":26.24},{"city":"Winnetka","state_name":"Illinois","lat":42.10333,"lng":-87.75826,"zip":"60093","miles_from_dt":26.32},{"city":"Prospect Heights","state_name":"Illinois","lat":42.10406,"lng":-87.92768,"zip":"60070","miles_from_dt":26.49},{"city":"Arlington Heights","state_name":"Illinois","lat":42.11206,"lng":-87.97895,"zip":"60004","miles_from_dt":26.58},{"city":"Rochester","state_name":"Wisconsin","lat":42.73526,"lng":-88.22552,"zip":"53167","miles_from_dt":26.75},{"city":"Glenview","state_name":"Illinois","lat":42.09221,"lng":-87.83789,"zip":"60026","miles_from_dt":26.83},{"city":"Cary","state_name":"Illinois","lat":42.22027,"lng":-88.23568,"zip":"60013","miles_from_dt":27.49},{"city":"Palatine","state_name":"Illinois","lat":42.12521,"lng":-88.07503,"zip":"60055","miles_from_dt":27.58},{"city":"Arlington Heights","state_name":"Illinois","lat":42.13061,"lng":-88.09234,"zip":"60006","miles_from_dt":27.67},{"city":"Kenilworth","state_name":"Illinois","lat":42.08882,"lng":-87.71445,"zip":"60043","miles_from_dt":27.7},{"city":"Pell Lake","state_name":"Wisconsin","lat":42.5377,"lng":-88.36855,"zip":"53157","miles_from_dt":27.79},{"city":"Oak Creek","state_name":"Wisconsin","lat":42.8803,"lng":-87.90092,"zip":"53154","miles_from_dt":27.81},{"city":"Wonder Lake","state_name":"Illinois","lat":42.39343,"lng":-88.36164,"zip":"60097","miles_from_dt":27.85},{"city":"Fox River Grove","state_name":"Illinois","lat":42.19511,"lng":-88.21768,"zip":"60021","miles_from_dt":27.99},{"city":"Palatine","state_name":"Illinois","lat":42.09808,"lng":-88.01065,"zip":"60095","miles_from_dt":28},{"city":"Glenview","state_name":"Illinois","lat":42.07466,"lng":-87.81204,"zip":"60025","miles_from_dt":28.05},{"city":"Palatine","state_name":"Illinois","lat":42.0966,"lng":-88.01131,"zip":"60038","miles_from_dt":28.11},{"city":"Wilmette","state_name":"Illinois","lat":42.07693,"lng":-87.72812,"zip":"60091","miles_from_dt":28.37},{"city":"Palatine","state_name":"Illinois","lat":42.10773,"lng":-88.06478,"zip":"60067","miles_from_dt":28.43},{"city":"Barrington","state_name":"Illinois","lat":42.15255,"lng":-88.16519,"zip":"60010","miles_from_dt":28.44},{"city":"Waterford","state_name":"Wisconsin","lat":42.79519,"lng":-88.19313,"zip":"53185","miles_from_dt":28.52},{"city":"Barrington","state_name":"Illinois","lat":42.18603,"lng":-88.22026,"zip":"60011","miles_from_dt":28.53},{"city":"Crystal Lake","state_name":"Illinois","lat":42.27199,"lng":-88.31157,"zip":"60012","miles_from_dt":28.56},{"city":"Mount Prospect","state_name":"Illinois","lat":42.06618,"lng":-87.93473,"zip":"60056","miles_from_dt":29.13},{"city":"Golf","state_name":"Illinois","lat":42.05857,"lng":-87.78496,"zip":"60029","miles_from_dt":29.24},{"city":"Lyons","state_name":"Wisconsin","lat":42.64919,"lng":-88.35589,"zip":"53148","miles_from_dt":29.25},{"city":"Franklin","state_name":"Wisconsin","lat":42.88589,"lng":-88.01063,"zip":"53132","miles_from_dt":29.43},{"city":"Palatine","state_name":"Illinois","lat":42.09915,"lng":-88.09751,"zip":"60094","miles_from_dt":29.71},{"city":"Des Plaines","state_name":"Illinois","lat":42.05232,"lng":-87.8899,"zip":"60016","miles_from_dt":29.74},{"city":"Rolling Meadows","state_name":"Illinois","lat":42.0739,"lng":-88.0229,"zip":"60008","miles_from_dt":29.79},{"city":"South Milwaukee","state_name":"Wisconsin","lat":42.91197,"lng":-87.86266,"zip":"53172","miles_from_dt":29.8},{"city":"Arlington Heights","state_name":"Illinois","lat":42.06518,"lng":-87.98676,"zip":"60005","miles_from_dt":29.8}],"targetCityZipCode":"60096","targetCityState":"Illinois"},"__N_SSG":true}