{"pageProps":{"stateName":"Illinois","cityName":"aviston","nearbyCities":[{"city":"Breese","state_name":"Illinois","lat":38.63855,"lng":-89.52742,"zip":"62230","miles_from_dt":4.19},{"city":"Trenton","state_name":"Illinois","lat":38.61838,"lng":-89.69748,"zip":"62293","miles_from_dt":5.13},{"city":"Germantown","state_name":"Illinois","lat":38.54783,"lng":-89.57446,"zip":"62245","miles_from_dt":5.58},{"city":"Albers","state_name":"Illinois","lat":38.50672,"lng":-89.60515,"zip":"62215","miles_from_dt":8.2},{"city":"Summerfield","state_name":"Illinois","lat":38.59788,"lng":-89.75096,"zip":"62289","miles_from_dt":8.23},{"city":"New Baden","state_name":"Illinois","lat":38.50808,"lng":-89.67797,"zip":"62265","miles_from_dt":9.06},{"city":"Beckemeyer","state_name":"Illinois","lat":38.60371,"lng":-89.43698,"zip":"62219","miles_from_dt":9.12},{"city":"Highland","state_name":"Illinois","lat":38.75469,"lng":-89.66436,"zip":"62249","miles_from_dt":9.5},{"city":"Bartelso","state_name":"Illinois","lat":38.52069,"lng":-89.47738,"zip":"62218","miles_from_dt":9.94},{"city":"New Memphis","state_name":"Illinois","lat":38.47481,"lng":-89.64988,"zip":"62266","miles_from_dt":10.7},{"city":"Saint Jacob","state_name":"Illinois","lat":38.70405,"lng":-89.78288,"zip":"62281","miles_from_dt":11.13},{"city":"Pierron","state_name":"Illinois","lat":38.78673,"lng":-89.58389,"zip":"62273","miles_from_dt":11.16},{"city":"Lebanon","state_name":"Illinois","lat":38.6098,"lng":-89.81901,"zip":"62254","miles_from_dt":11.73},{"city":"Pocahontas","state_name":"Illinois","lat":38.81507,"lng":-89.54496,"zip":"62275","miles_from_dt":13.44},{"city":"Okawville","state_name":"Illinois","lat":38.44028,"lng":-89.52209,"zip":"62271","miles_from_dt":13.52},{"city":"Mascoutah","state_name":"Illinois","lat":38.46014,"lng":-89.77287,"zip":"62258","miles_from_dt":14.66},{"city":"Marine","state_name":"Illinois","lat":38.79077,"lng":-89.77624,"zip":"62061","miles_from_dt":14.74},{"city":"Scott Air Force Base","state_name":"Illinois","lat":38.54065,"lng":-89.85503,"zip":"62225","miles_from_dt":14.84},{"city":"Carlyle","state_name":"Illinois","lat":38.64402,"lng":-89.32642,"zip":"62231","miles_from_dt":15.02},{"city":"Troy","state_name":"Illinois","lat":38.70374,"lng":-89.87242,"zip":"62294","miles_from_dt":15.53},{"city":"O'Fallon","state_name":"Illinois","lat":38.59844,"lng":-89.91294,"zip":"62269","miles_from_dt":16.87},{"city":"Huey","state_name":"Illinois","lat":38.60427,"lng":-89.29024,"zip":"62252","miles_from_dt":17},{"city":"Addieville","state_name":"Illinois","lat":38.37682,"lng":-89.60529,"zip":"62214","miles_from_dt":17.16},{"city":"Belleville","state_name":"Illinois","lat":38.51187,"lng":-89.89922,"zip":"62221","miles_from_dt":17.85},{"city":"Alhambra","state_name":"Illinois","lat":38.87971,"lng":-89.74562,"zip":"62001","miles_from_dt":19.14},{"city":"Hoffman","state_name":"Illinois","lat":38.54042,"lng":-89.26436,"zip":"62250","miles_from_dt":19.26},{"city":"Saint Libory","state_name":"Illinois","lat":38.35644,"lng":-89.71334,"zip":"62282","miles_from_dt":19.5},{"city":"Keyesport","state_name":"Illinois","lat":38.77554,"lng":-89.29738,"zip":"62253","miles_from_dt":19.5},{"city":"Hoyleton","state_name":"Illinois","lat":38.45461,"lng":-89.29822,"zip":"62803","miles_from_dt":20.3},{"city":"Greenville","state_name":"Illinois","lat":38.88834,"lng":-89.42533,"zip":"62246","miles_from_dt":20.51},{"city":"Maryville","state_name":"Illinois","lat":38.72719,"lng":-89.96253,"zip":"62062","miles_from_dt":20.66},{"city":"Collinsville","state_name":"Illinois","lat":38.68214,"lng":-89.9815,"zip":"62234","miles_from_dt":20.83},{"city":"Freeburg","state_name":"Illinois","lat":38.41841,"lng":-89.88978,"zip":"62243","miles_from_dt":21.11},{"city":"Glen Carbon","state_name":"Illinois","lat":38.75639,"lng":-89.96897,"zip":"62034","miles_from_dt":21.74},{"city":"Caseyville","state_name":"Illinois","lat":38.63266,"lng":-90.00509,"zip":"62232","miles_from_dt":21.75},{"city":"Fairview Heights","state_name":"Illinois","lat":38.59641,"lng":-90.00528,"zip":"62208","miles_from_dt":21.86},{"city":"Hamel","state_name":"Illinois","lat":38.88935,"lng":-89.84397,"zip":"62046","miles_from_dt":22.37},{"city":"Belleville","state_name":"Illinois","lat":38.53634,"lng":-90.00057,"zip":"62226","miles_from_dt":22.38},{"city":"Edwardsville","state_name":"Illinois","lat":38.83004,"lng":-89.93298,"zip":"62025","miles_from_dt":22.73},{"city":"Smithboro","state_name":"Illinois","lat":38.86867,"lng":-89.31107,"zip":"62284","miles_from_dt":23.02},{"city":"Nashville","state_name":"Illinois","lat":38.33168,"lng":-89.39706,"zip":"62263","miles_from_dt":23.15},{"city":"Belleville","state_name":"Illinois","lat":38.46845,"lng":-89.98146,"zip":"62222","miles_from_dt":23.18},{"city":"New Douglas","state_name":"Illinois","lat":38.95594,"lng":-89.68338,"zip":"62074","miles_from_dt":23.2},{"city":"Belleville","state_name":"Illinois","lat":38.47247,"lng":-89.98704,"zip":"62220","miles_from_dt":23.32},{"city":"Lenzburg","state_name":"Illinois","lat":38.31244,"lng":-89.77842,"zip":"62255","miles_from_dt":23.6},{"city":"Edwardsville","state_name":"Illinois","lat":38.79062,"lng":-90.00394,"zip":"62026","miles_from_dt":24.47},{"city":"Sorento","state_name":"Illinois","lat":38.98302,"lng":-89.58556,"zip":"62086","miles_from_dt":24.67},{"city":"Oakdale","state_name":"Illinois","lat":38.27208,"lng":-89.52612,"zip":"62268","miles_from_dt":24.74},{"city":"Marissa","state_name":"Illinois","lat":38.28048,"lng":-89.73262,"zip":"62257","miles_from_dt":24.82},{"city":"Livingston","state_name":"Illinois","lat":38.96793,"lng":-89.76491,"zip":"62058","miles_from_dt":25.18},{"city":"Worden","state_name":"Illinois","lat":38.93719,"lng":-89.85507,"zip":"62097","miles_from_dt":25.44},{"city":"Belleville","state_name":"Illinois","lat":38.53491,"lng":-90.06027,"zip":"62223","miles_from_dt":25.53},{"city":"East Saint Louis","state_name":"Illinois","lat":38.60223,"lng":-90.07534,"zip":"62203","miles_from_dt":25.61},{"city":"Sandoval","state_name":"Illinois","lat":38.63474,"lng":-89.1197,"zip":"62882","miles_from_dt":26.16},{"city":"Centralia","state_name":"Illinois","lat":38.51097,"lng":-89.1412,"zip":"62801","miles_from_dt":26.23},{"city":"East Saint Louis","state_name":"Illinois","lat":38.63033,"lng":-90.09642,"zip":"62204","miles_from_dt":26.69},{"city":"Irvington","state_name":"Illinois","lat":38.43794,"lng":-89.16665,"zip":"62848","miles_from_dt":26.96},{"city":"New Athens","state_name":"Illinois","lat":38.31612,"lng":-89.90721,"zip":"62264","miles_from_dt":26.97},{"city":"Richview","state_name":"Illinois","lat":38.38983,"lng":-89.2057,"zip":"62877","miles_from_dt":26.99},{"city":"Smithton","state_name":"Illinois","lat":38.38845,"lng":-90.00773,"zip":"62285","miles_from_dt":27.36},{"city":"Patoka","state_name":"Illinois","lat":38.75789,"lng":-89.12482,"zip":"62875","miles_from_dt":27.42},{"city":"Granite City","state_name":"Illinois","lat":38.71592,"lng":-90.10078,"zip":"62040","miles_from_dt":27.62},{"city":"East Saint Louis","state_name":"Illinois","lat":38.60259,"lng":-90.11469,"zip":"62205","miles_from_dt":27.73},{"city":"Mulberry Grove","state_name":"Illinois","lat":38.9371,"lng":-89.26916,"zip":"62262","miles_from_dt":28.05},{"city":"Donnellson","state_name":"Illinois","lat":39.01598,"lng":-89.45195,"zip":"62019","miles_from_dt":28.14},{"city":"South Roxana","state_name":"Illinois","lat":38.81754,"lng":-90.06767,"zip":"62087","miles_from_dt":28.38},{"city":"Panama","state_name":"Illinois","lat":39.03133,"lng":-89.51605,"zip":"62077","miles_from_dt":28.38},{"city":"East Saint Louis","state_name":"Illinois","lat":38.58327,"lng":-90.12544,"zip":"62207","miles_from_dt":28.42},{"city":"Staunton","state_name":"Illinois","lat":39.01318,"lng":-89.79764,"zip":"62088","miles_from_dt":28.72},{"city":"Tilden","state_name":"Illinois","lat":38.21299,"lng":-89.68261,"zip":"62292","miles_from_dt":28.78},{"city":"Roxana","state_name":"Illinois","lat":38.84082,"lng":-90.06365,"zip":"62084","miles_from_dt":28.97},{"city":"East Saint Louis","state_name":"Illinois","lat":38.63567,"lng":-90.14162,"zip":"62201","miles_from_dt":29.14},{"city":"Millstadt","state_name":"Illinois","lat":38.46097,"lng":-90.09891,"zip":"62260","miles_from_dt":29.16},{"city":"Moro","state_name":"Illinois","lat":38.92961,"lng":-89.98837,"zip":"62067","miles_from_dt":29.54},{"city":"Madison","state_name":"Illinois","lat":38.67664,"lng":-90.14686,"zip":"62060","miles_from_dt":29.62},{"city":"Walshville","state_name":"Illinois","lat":39.05594,"lng":-89.61222,"zip":"62091","miles_from_dt":29.69},{"city":"Odin","state_name":"Illinois","lat":38.63463,"lng":-89.05063,"zip":"62870","miles_from_dt":29.9},{"city":"Coulterville","state_name":"Illinois","lat":38.1916,"lng":-89.57046,"zip":"62237","miles_from_dt":29.99}],"targetCityZipCode":"62216","targetCityState":"Illinois"},"__N_SSG":true}