{"pageProps":{"stateName":"Illinois","cityName":"baldwin","nearbyCities":[{"city":"Sparta","state_name":"Illinois","lat":38.11756,"lng":-89.7154,"zip":"62286","miles_from_dt":7.77},{"city":"Evansville","state_name":"Illinois","lat":38.09257,"lng":-89.94339,"zip":"62242","miles_from_dt":7.93},{"city":"Red Bud","state_name":"Illinois","lat":38.20528,"lng":-89.99116,"zip":"62278","miles_from_dt":8.55},{"city":"Walsh","state_name":"Illinois","lat":38.04938,"lng":-89.81239,"zip":"62297","miles_from_dt":8.67},{"city":"Tilden","state_name":"Illinois","lat":38.21299,"lng":-89.68261,"zip":"62292","miles_from_dt":8.97},{"city":"Marissa","state_name":"Illinois","lat":38.28048,"lng":-89.73262,"zip":"62257","miles_from_dt":9.41},{"city":"Lenzburg","state_name":"Illinois","lat":38.31244,"lng":-89.77842,"zip":"62255","miles_from_dt":10.16},{"city":"New Athens","state_name":"Illinois","lat":38.31612,"lng":-89.90721,"zip":"62264","miles_from_dt":10.52},{"city":"Ellis Grove","state_name":"Illinois","lat":38.01474,"lng":-89.88845,"zip":"62241","miles_from_dt":11.25},{"city":"Hecker","state_name":"Illinois","lat":38.30543,"lng":-89.99341,"zip":"62248","miles_from_dt":12.38},{"city":"Modoc","state_name":"Illinois","lat":38.01218,"lng":-89.99774,"zip":"62261","miles_from_dt":14.06},{"city":"Saint Libory","state_name":"Illinois","lat":38.35644,"lng":-89.71334,"zip":"62282","miles_from_dt":14.38},{"city":"Coulterville","state_name":"Illinois","lat":38.1916,"lng":-89.57046,"zip":"62237","miles_from_dt":14.7},{"city":"Steeleville","state_name":"Illinois","lat":37.99267,"lng":-89.69106,"zip":"62288","miles_from_dt":14.85},{"city":"Prairie Du Rocher","state_name":"Illinois","lat":38.09844,"lng":-90.11081,"zip":"62277","miles_from_dt":15.65},{"city":"Renault","state_name":"Illinois","lat":38.13796,"lng":-90.13695,"zip":"62279","miles_from_dt":16.38},{"city":"Chester","state_name":"Illinois","lat":37.93719,"lng":-89.78842,"zip":"62233","miles_from_dt":16.51},{"city":"Percy","state_name":"Illinois","lat":38.00241,"lng":-89.61562,"zip":"62272","miles_from_dt":16.96},{"city":"Freeburg","state_name":"Illinois","lat":38.41841,"lng":-89.88978,"zip":"62243","miles_from_dt":17.13},{"city":"Smithton","state_name":"Illinois","lat":38.38845,"lng":-90.00773,"zip":"62285","miles_from_dt":17.44},{"city":"Menard","state_name":"Illinois","lat":37.91019,"lng":-89.8398,"zip":"62259","miles_from_dt":18.14},{"city":"Oakdale","state_name":"Illinois","lat":38.27208,"lng":-89.52612,"zip":"62268","miles_from_dt":18.37},{"city":"Willisville","state_name":"Illinois","lat":37.98357,"lng":-89.59013,"zip":"62997","miles_from_dt":18.87},{"city":"Cutler","state_name":"Illinois","lat":38.04499,"lng":-89.5319,"zip":"62238","miles_from_dt":18.95},{"city":"Addieville","state_name":"Illinois","lat":38.37682,"lng":-89.60529,"zip":"62214","miles_from_dt":18.96},{"city":"Waterloo","state_name":"Illinois","lat":38.30906,"lng":-90.15132,"zip":"62298","miles_from_dt":19.38},{"city":"Fults","state_name":"Illinois","lat":38.19142,"lng":-90.1965,"zip":"62244","miles_from_dt":19.47},{"city":"Mascoutah","state_name":"Illinois","lat":38.46014,"lng":-89.77287,"zip":"62258","miles_from_dt":20.12},{"city":"Maeystown","state_name":"Illinois","lat":38.22623,"lng":-90.23152,"zip":"62256","miles_from_dt":21.65},{"city":"Belleville","state_name":"Illinois","lat":38.46845,"lng":-89.98146,"zip":"62222","miles_from_dt":21.78},{"city":"Campbell Hill","state_name":"Illinois","lat":37.93722,"lng":-89.56947,"zip":"62916","miles_from_dt":21.95},{"city":"Belleville","state_name":"Illinois","lat":38.47247,"lng":-89.98704,"zip":"62220","miles_from_dt":22.14},{"city":"New Memphis","state_name":"Illinois","lat":38.47481,"lng":-89.64988,"zip":"62266","miles_from_dt":23.22},{"city":"Belleville","state_name":"Illinois","lat":38.51187,"lng":-89.89922,"zip":"62221","miles_from_dt":23.58},{"city":"Millstadt","state_name":"Illinois","lat":38.46097,"lng":-90.09891,"zip":"62260","miles_from_dt":24.34},{"city":"Bloomsdale","state_name":"Missouri","lat":38.03625,"lng":-90.25317,"zip":"63627","miles_from_dt":24.44},{"city":"Pinckneyville","state_name":"Illinois","lat":38.09312,"lng":-89.40064,"zip":"62274","miles_from_dt":24.54},{"city":"Saint Mary","state_name":"Missouri","lat":37.83641,"lng":-89.98861,"zip":"63673","miles_from_dt":24.61},{"city":"New Baden","state_name":"Illinois","lat":38.50808,"lng":-89.67797,"zip":"62265","miles_from_dt":24.71},{"city":"Okawville","state_name":"Illinois","lat":38.44028,"lng":-89.52209,"zip":"62271","miles_from_dt":25.24},{"city":"Scott Air Force Base","state_name":"Illinois","lat":38.54065,"lng":-89.85503,"zip":"62225","miles_from_dt":25.36},{"city":"Rockwood","state_name":"Illinois","lat":37.83179,"lng":-89.65952,"zip":"62280","miles_from_dt":25.51},{"city":"Sainte Genevieve","state_name":"Missouri","lat":37.89667,"lng":-90.16245,"zip":"63670","miles_from_dt":25.96},{"city":"Albers","state_name":"Illinois","lat":38.50672,"lng":-89.60515,"zip":"62215","miles_from_dt":26.29},{"city":"Valmeyer","state_name":"Illinois","lat":38.27126,"lng":-90.30895,"zip":"62295","miles_from_dt":26.42},{"city":"Nashville","state_name":"Illinois","lat":38.33168,"lng":-89.39706,"zip":"62263","miles_from_dt":26.43},{"city":"Belleville","state_name":"Illinois","lat":38.53634,"lng":-90.00057,"zip":"62226","miles_from_dt":26.53},{"city":"Columbia","state_name":"Illinois","lat":38.43391,"lng":-90.21141,"zip":"62236","miles_from_dt":27.05},{"city":"Belleville","state_name":"Illinois","lat":38.53491,"lng":-90.06027,"zip":"62223","miles_from_dt":27.68},{"city":"Ava","state_name":"Illinois","lat":37.86503,"lng":-89.50009,"zip":"62907","miles_from_dt":28.19},{"city":"Crystal City","state_name":"Missouri","lat":38.229,"lng":-90.37684,"zip":"63019","miles_from_dt":29.5},{"city":"Germantown","state_name":"Illinois","lat":38.54783,"lng":-89.57446,"zip":"62245","miles_from_dt":29.58},{"city":"O'Fallon","state_name":"Illinois","lat":38.59844,"lng":-89.91294,"zip":"62269","miles_from_dt":29.6},{"city":"Summerfield","state_name":"Illinois","lat":38.59788,"lng":-89.75096,"zip":"62289","miles_from_dt":29.68}],"targetCityZipCode":"62217","targetCityState":"Illinois"},"__N_SSG":true}