{"pageProps":{"stateName":"Illinois","cityName":"blue-mound","nearbyCities":[{"city":"Stonington","state_name":"Illinois","lat":39.64668,"lng":-89.19082,"zip":"62567","miles_from_dt":5.67},{"city":"Mount Auburn","state_name":"Illinois","lat":39.76883,"lng":-89.24929,"zip":"62547","miles_from_dt":6.01},{"city":"Boody","state_name":"Illinois","lat":39.76753,"lng":-89.04508,"zip":"62514","miles_from_dt":6.5},{"city":"Niantic","state_name":"Illinois","lat":39.85357,"lng":-89.15631,"zip":"62551","miles_from_dt":8.98},{"city":"Decatur","state_name":"Illinois","lat":39.83008,"lng":-89.04743,"zip":"62522","miles_from_dt":9.26},{"city":"Harristown","state_name":"Illinois","lat":39.85263,"lng":-89.09324,"zip":"62537","miles_from_dt":9.46},{"city":"Macon","state_name":"Illinois","lat":39.70854,"lng":-88.97375,"zip":"62544","miles_from_dt":9.6},{"city":"Elwin","state_name":"Illinois","lat":39.77633,"lng":-88.97781,"zip":"62532","miles_from_dt":10.02},{"city":"Illiopolis","state_name":"Illinois","lat":39.86681,"lng":-89.24914,"zip":"62539","miles_from_dt":11.14},{"city":"Moweaqua","state_name":"Illinois","lat":39.61154,"lng":-88.99283,"zip":"62550","miles_from_dt":11.51},{"city":"Edinburg","state_name":"Illinois","lat":39.66754,"lng":-89.37395,"zip":"62531","miles_from_dt":12.39},{"city":"Mechanicsburg","state_name":"Illinois","lat":39.7661,"lng":-89.38737,"zip":"62545","miles_from_dt":12.83},{"city":"Decatur","state_name":"Illinois","lat":39.81435,"lng":-88.93086,"zip":"62521","miles_from_dt":13.39},{"city":"Decatur","state_name":"Illinois","lat":39.83282,"lng":-88.9444,"zip":"62525","miles_from_dt":13.43},{"city":"Taylorville","state_name":"Illinois","lat":39.55974,"lng":-89.29016,"zip":"62568","miles_from_dt":13.46},{"city":"Decatur","state_name":"Illinois","lat":39.84372,"lng":-88.95289,"zip":"62523","miles_from_dt":13.5},{"city":"Buffalo","state_name":"Illinois","lat":39.8561,"lng":-89.36622,"zip":"62515","miles_from_dt":14.58},{"city":"Assumption","state_name":"Illinois","lat":39.5315,"lng":-89.02706,"zip":"62510","miles_from_dt":14.85},{"city":"Decatur","state_name":"Illinois","lat":39.90322,"lng":-88.9902,"zip":"62526","miles_from_dt":15.13},{"city":"Mt Zion","state_name":"Illinois","lat":39.76985,"lng":-88.8657,"zip":"62549","miles_from_dt":15.63},{"city":"Warrensburg","state_name":"Illinois","lat":39.94551,"lng":-89.07264,"zip":"62573","miles_from_dt":15.91},{"city":"Decatur","state_name":"Illinois","lat":39.90411,"lng":-88.96666,"zip":"62524","miles_from_dt":15.93},{"city":"Dalton City","state_name":"Illinois","lat":39.72444,"lng":-88.83548,"zip":"61925","miles_from_dt":16.91},{"city":"Latham","state_name":"Illinois","lat":39.97084,"lng":-89.1518,"zip":"62543","miles_from_dt":17.07},{"city":"Kincaid","state_name":"Illinois","lat":39.58496,"lng":-89.41938,"zip":"62540","miles_from_dt":17.12},{"city":"Forsyth","state_name":"Illinois","lat":39.92549,"lng":-88.96604,"zip":"62535","miles_from_dt":17.12},{"city":"Bulpitt","state_name":"Illinois","lat":39.59365,"lng":-89.43285,"zip":"62517","miles_from_dt":17.4},{"city":"Dawson","state_name":"Illinois","lat":39.82185,"lng":-89.45904,"zip":"62520","miles_from_dt":17.65},{"city":"Owaneco","state_name":"Illinois","lat":39.46755,"lng":-89.21982,"zip":"62555","miles_from_dt":18.01},{"city":"Rochester","state_name":"Illinois","lat":39.71675,"lng":-89.50017,"zip":"62563","miles_from_dt":18.5},{"city":"Tovey","state_name":"Illinois","lat":39.58023,"lng":-89.45107,"zip":"62570","miles_from_dt":18.72},{"city":"Mount Pulaski","state_name":"Illinois","lat":39.97849,"lng":-89.27988,"zip":"62548","miles_from_dt":18.85},{"city":"Cornland","state_name":"Illinois","lat":39.92879,"lng":-89.3953,"zip":"62519","miles_from_dt":19.16},{"city":"Lake Fork","state_name":"Illinois","lat":39.95657,"lng":-89.37085,"zip":"62541","miles_from_dt":19.83},{"city":"Palmer","state_name":"Illinois","lat":39.46674,"lng":-89.37049,"zip":"62556","miles_from_dt":21.17},{"city":"Riverton","state_name":"Illinois","lat":39.86754,"lng":-89.50498,"zip":"62561","miles_from_dt":21.21},{"city":"Bethany","state_name":"Illinois","lat":39.63409,"lng":-88.76783,"zip":"61914","miles_from_dt":21.44},{"city":"Oreana","state_name":"Illinois","lat":39.94976,"lng":-88.87107,"zip":"62554","miles_from_dt":21.65},{"city":"Pana","state_name":"Illinois","lat":39.39974,"lng":-89.10503,"zip":"62557","miles_from_dt":22.48},{"city":"Pawnee","state_name":"Illinois","lat":39.58967,"lng":-89.54239,"zip":"62558","miles_from_dt":22.72},{"city":"Chestnut","state_name":"Illinois","lat":40.05154,"lng":-89.19037,"zip":"62518","miles_from_dt":22.73},{"city":"Springfield","state_name":"Illinois","lat":39.74883,"lng":-89.58344,"zip":"62712","miles_from_dt":23},{"city":"Findlay","state_name":"Illinois","lat":39.53519,"lng":-88.79603,"zip":"62534","miles_from_dt":23.05},{"city":"Argenta","state_name":"Illinois","lat":39.92973,"lng":-88.80528,"zip":"62501","miles_from_dt":23.34},{"city":"La Place","state_name":"Illinois","lat":39.80319,"lng":-88.72684,"zip":"61936","miles_from_dt":23.35},{"city":"Maroa","state_name":"Illinois","lat":40.03311,"lng":-88.96368,"zip":"61756","miles_from_dt":23.62},{"city":"Springfield","state_name":"Illinois","lat":39.77425,"lng":-89.60784,"zip":"62766","miles_from_dt":24.48},{"city":"Springfield","state_name":"Illinois","lat":39.74815,"lng":-89.61177,"zip":"62716","miles_from_dt":24.5},{"city":"Williamsville","state_name":"Illinois","lat":39.95761,"lng":-89.52041,"zip":"62693","miles_from_dt":25.36},{"city":"Morrisonville","state_name":"Illinois","lat":39.43042,"lng":-89.44281,"zip":"62546","miles_from_dt":25.46},{"city":"Springfield","state_name":"Illinois","lat":39.7973,"lng":-89.62153,"zip":"62796","miles_from_dt":25.47},{"city":"Kenney","state_name":"Illinois","lat":40.09209,"lng":-89.10943,"zip":"61749","miles_from_dt":25.54},{"city":"Springfield","state_name":"Illinois","lat":39.76276,"lng":-89.63106,"zip":"62703","miles_from_dt":25.61},{"city":"Springfield","state_name":"Illinois","lat":39.76184,"lng":-89.63121,"zip":"62794","miles_from_dt":25.61},{"city":"Cerro Gordo","state_name":"Illinois","lat":39.88455,"lng":-88.71798,"zip":"61818","miles_from_dt":25.68},{"city":"Elkhart","state_name":"Illinois","lat":40.0166,"lng":-89.45107,"zip":"62634","miles_from_dt":25.7},{"city":"Tower Hill","state_name":"Illinois","lat":39.38155,"lng":-88.95998,"zip":"62571","miles_from_dt":25.74},{"city":"Springfield","state_name":"Illinois","lat":39.75943,"lng":-89.63409,"zip":"62723","miles_from_dt":25.75},{"city":"Rosamond","state_name":"Illinois","lat":39.35122,"lng":-89.19842,"zip":"62083","miles_from_dt":25.79},{"city":"Springfield","state_name":"Illinois","lat":39.75763,"lng":-89.63542,"zip":"62764","miles_from_dt":25.8},{"city":"Springfield","state_name":"Illinois","lat":39.75979,"lng":-89.63518,"zip":"62708","miles_from_dt":25.81},{"city":"Sherman","state_name":"Illinois","lat":39.91019,"lng":-89.58474,"zip":"62684","miles_from_dt":26.34},{"city":"Lovington","state_name":"Illinois","lat":39.73872,"lng":-88.65542,"zip":"61937","miles_from_dt":26.52},{"city":"Ohlman","state_name":"Illinois","lat":39.34186,"lng":-89.23383,"zip":"62076","miles_from_dt":26.67},{"city":"Springfield","state_name":"Illinois","lat":39.80596,"lng":-89.64322,"zip":"62769","miles_from_dt":26.72},{"city":"Springfield","state_name":"Illinois","lat":39.79958,"lng":-89.64516,"zip":"62757","miles_from_dt":26.73},{"city":"Springfield","state_name":"Illinois","lat":39.80145,"lng":-89.64522,"zip":"62765","miles_from_dt":26.76},{"city":"Springfield","state_name":"Illinois","lat":39.79812,"lng":-89.64652,"zip":"62739","miles_from_dt":26.78},{"city":"Springfield","state_name":"Illinois","lat":39.80336,"lng":-89.64681,"zip":"62715","miles_from_dt":26.87},{"city":"Springfield","state_name":"Illinois","lat":39.79986,"lng":-89.64776,"zip":"62705","miles_from_dt":26.87},{"city":"Springfield","state_name":"Illinois","lat":39.80063,"lng":-89.64902,"zip":"62701","miles_from_dt":26.94},{"city":"Springfield","state_name":"Illinois","lat":39.78786,"lng":-89.65223,"zip":"62762","miles_from_dt":26.96},{"city":"Springfield","state_name":"Illinois","lat":39.85107,"lng":-89.63185,"zip":"62791","miles_from_dt":26.97},{"city":"Springfield","state_name":"Illinois","lat":39.82377,"lng":-89.64286,"zip":"62702","miles_from_dt":26.98},{"city":"Springfield","state_name":"Illinois","lat":39.80346,"lng":-89.65193,"zip":"62736","miles_from_dt":27.14},{"city":"Springfield","state_name":"Illinois","lat":39.79722,"lng":-89.65357,"zip":"62722","miles_from_dt":27.14},{"city":"Springfield","state_name":"Illinois","lat":39.78622,"lng":-89.65626,"zip":"62763","miles_from_dt":27.15},{"city":"Springfield","state_name":"Illinois","lat":39.80155,"lng":-89.6527,"zip":"62719","miles_from_dt":27.15},{"city":"Springfield","state_name":"Illinois","lat":39.79736,"lng":-89.65478,"zip":"62756","miles_from_dt":27.2},{"city":"Springfield","state_name":"Illinois","lat":39.80005,"lng":-89.65425,"zip":"62777","miles_from_dt":27.21},{"city":"Springfield","state_name":"Illinois","lat":39.80519,"lng":-89.65298,"zip":"62726","miles_from_dt":27.21},{"city":"Springfield","state_name":"Illinois","lat":39.80218,"lng":-89.65424,"zip":"62776","miles_from_dt":27.24},{"city":"Springfield","state_name":"Illinois","lat":39.79789,"lng":-89.6554,"zip":"62706","miles_from_dt":27.24},{"city":"Glenarm","state_name":"Illinois","lat":39.63022,"lng":-89.65023,"zip":"62536","miles_from_dt":27.28},{"city":"Springfield","state_name":"Illinois","lat":39.80464,"lng":-89.65532,"zip":"62767","miles_from_dt":27.33},{"city":"Springfield","state_name":"Illinois","lat":39.81084,"lng":-89.65576,"zip":"62781","miles_from_dt":27.44},{"city":"Springfield","state_name":"Illinois","lat":39.80314,"lng":-89.65807,"zip":"62786","miles_from_dt":27.45},{"city":"Springfield","state_name":"Illinois","lat":39.80422,"lng":-89.66064,"zip":"62761","miles_from_dt":27.6},{"city":"Springfield","state_name":"Illinois","lat":39.85506,"lng":-89.64989,"zip":"62707","miles_from_dt":27.96},{"city":"Shelbyville","state_name":"Illinois","lat":39.41334,"lng":-88.8026,"zip":"62565","miles_from_dt":28.42},{"city":"Springfield","state_name":"Illinois","lat":39.77358,"lng":-89.68503,"zip":"62704","miles_from_dt":28.55},{"city":"Hammond","state_name":"Illinois","lat":39.82338,"lng":-88.62271,"zip":"61929","miles_from_dt":29.06},{"city":"Divernon","state_name":"Illinois","lat":39.56206,"lng":-89.65626,"zip":"62530","miles_from_dt":29.06},{"city":"Beason","state_name":"Illinois","lat":40.14601,"lng":-89.20312,"zip":"62512","miles_from_dt":29.28},{"city":"Milmine","state_name":"Illinois","lat":39.92438,"lng":-88.66056,"zip":"61855","miles_from_dt":29.64}],"targetCityZipCode":"62513","targetCityState":"Illinois"},"__N_SSG":true}