{"pageProps":{"stateName":"Illinois","cityName":"bluford","nearbyCities":[{"city":"Keenes","state_name":"Illinois","lat":38.42185,"lng":-88.66237,"zip":"62851","miles_from_dt":4.85},{"city":"Texico","state_name":"Illinois","lat":38.46011,"lng":-88.82893,"zip":"62889","miles_from_dt":7.86},{"city":"Opdyke","state_name":"Illinois","lat":38.26776,"lng":-88.8032,"zip":"62872","miles_from_dt":8.47},{"city":"Mount Vernon","state_name":"Illinois","lat":38.33041,"lng":-88.90272,"zip":"62864","miles_from_dt":9.88},{"city":"Sims","state_name":"Illinois","lat":38.37486,"lng":-88.53572,"zip":"62886","miles_from_dt":10.58},{"city":"Wayne City","state_name":"Illinois","lat":38.30364,"lng":-88.54702,"zip":"62895","miles_from_dt":11.16},{"city":"Johnsonville","state_name":"Illinois","lat":38.49552,"lng":-88.58841,"zip":"62850","miles_from_dt":11.27},{"city":"Belle Rive","state_name":"Illinois","lat":38.20515,"lng":-88.74388,"zip":"62810","miles_from_dt":11.83},{"city":"Dix","state_name":"Illinois","lat":38.44559,"lng":-88.96424,"zip":"62830","miles_from_dt":13.55},{"city":"Kell","state_name":"Illinois","lat":38.51734,"lng":-88.91571,"zip":"62853","miles_from_dt":13.98},{"city":"Dahlgren","state_name":"Illinois","lat":38.19536,"lng":-88.60864,"zip":"62828","miles_from_dt":14.14},{"city":"Iuka","state_name":"Illinois","lat":38.58803,"lng":-88.77221,"zip":"62849","miles_from_dt":14.77},{"city":"Ina","state_name":"Illinois","lat":38.15042,"lng":-88.85485,"zip":"62846","miles_from_dt":16.99},{"city":"Bonnie","state_name":"Illinois","lat":38.18156,"lng":-88.92473,"zip":"62816","miles_from_dt":17.09},{"city":"Walnut Hill","state_name":"Illinois","lat":38.46776,"lng":-89.03087,"zip":"62893","miles_from_dt":17.47},{"city":"Woodlawn","state_name":"Illinois","lat":38.35041,"lng":-89.06209,"zip":"62898","miles_from_dt":18.09},{"city":"Xenia","state_name":"Illinois","lat":38.63032,"lng":-88.64367,"zip":"62899","miles_from_dt":18.14},{"city":"Cisne","state_name":"Illinois","lat":38.51864,"lng":-88.43816,"zip":"62823","miles_from_dt":18.65},{"city":"Rinard","state_name":"Illinois","lat":38.57718,"lng":-88.49378,"zip":"62878","miles_from_dt":18.88},{"city":"Ewing","state_name":"Illinois","lat":38.0973,"lng":-88.80568,"zip":"62836","miles_from_dt":19.68},{"city":"Nason","state_name":"Illinois","lat":38.16171,"lng":-88.97947,"zip":"62866","miles_from_dt":20.06},{"city":"Geff","state_name":"Illinois","lat":38.47038,"lng":-88.38007,"zip":"62842","miles_from_dt":20.09},{"city":"Fairfield","state_name":"Illinois","lat":38.36608,"lng":-88.35999,"zip":"62837","miles_from_dt":20.13},{"city":"Waltonville","state_name":"Illinois","lat":38.20952,"lng":-89.03931,"zip":"62894","miles_from_dt":20.35},{"city":"Salem","state_name":"Illinois","lat":38.63544,"lng":-88.9288,"zip":"62881","miles_from_dt":20.85},{"city":"Whittington","state_name":"Illinois","lat":38.09763,"lng":-88.91504,"zip":"62897","miles_from_dt":21.69},{"city":"Barnhill","state_name":"Illinois","lat":38.28023,"lng":-88.33756,"zip":"62809","miles_from_dt":22.36},{"city":"Macedonia","state_name":"Illinois","lat":38.04022,"lng":-88.72921,"zip":"62860","miles_from_dt":23.19},{"city":"McLeansboro","state_name":"Illinois","lat":38.07094,"lng":-88.54289,"zip":"62859","miles_from_dt":23.41},{"city":"Flora","state_name":"Illinois","lat":38.66403,"lng":-88.49689,"zip":"62839","miles_from_dt":23.53},{"city":"Springerton","state_name":"Illinois","lat":38.18478,"lng":-88.36871,"zip":"62887","miles_from_dt":23.7},{"city":"Irvington","state_name":"Illinois","lat":38.43794,"lng":-89.16665,"zip":"62848","miles_from_dt":24.05},{"city":"Centralia","state_name":"Illinois","lat":38.51097,"lng":-89.1412,"zip":"62801","miles_from_dt":24.13},{"city":"Odin","state_name":"Illinois","lat":38.63463,"lng":-89.05063,"zip":"62870","miles_from_dt":24.86},{"city":"Ashley","state_name":"Illinois","lat":38.30328,"lng":-89.1884,"zip":"62808","miles_from_dt":25.38},{"city":"Scheller","state_name":"Illinois","lat":38.162,"lng":-89.11192,"zip":"62883","miles_from_dt":25.47},{"city":"Richview","state_name":"Illinois","lat":38.38983,"lng":-89.2057,"zip":"62877","miles_from_dt":25.81},{"city":"Mill Shoals","state_name":"Illinois","lat":38.2166,"lng":-88.29685,"zip":"62862","miles_from_dt":26.02},{"city":"Radom","state_name":"Illinois","lat":38.27713,"lng":-89.19487,"zip":"62876","miles_from_dt":26.14},{"city":"Sesser","state_name":"Illinois","lat":38.08482,"lng":-89.04196,"zip":"62884","miles_from_dt":26.3},{"city":"Kinmundy","state_name":"Illinois","lat":38.76458,"lng":-88.81172,"zip":"62854","miles_from_dt":27.13},{"city":"Sandoval","state_name":"Illinois","lat":38.63474,"lng":-89.1197,"zip":"62882","miles_from_dt":27.61},{"city":"Benton","state_name":"Illinois","lat":38.00487,"lng":-88.92249,"zip":"62812","miles_from_dt":27.67},{"city":"Alma","state_name":"Illinois","lat":38.74767,"lng":-88.93412,"zip":"62807","miles_from_dt":27.88},{"city":"Burnt Prairie","state_name":"Illinois","lat":38.24873,"lng":-88.23561,"zip":"62820","miles_from_dt":28.3},{"city":"Du Bois","state_name":"Illinois","lat":38.23042,"lng":-89.22167,"zip":"62831","miles_from_dt":28.53},{"city":"Golden Gate","state_name":"Illinois","lat":38.3828,"lng":-88.19893,"zip":"62843","miles_from_dt":28.87},{"city":"Enfield","state_name":"Illinois","lat":38.10573,"lng":-88.32406,"zip":"62835","miles_from_dt":28.94},{"city":"Clay City","state_name":"Illinois","lat":38.67076,"lng":-88.34686,"zip":"62824","miles_from_dt":29.06},{"city":"Mount Erie","state_name":"Illinois","lat":38.49115,"lng":-88.21478,"zip":"62446","miles_from_dt":29.08},{"city":"Dale","state_name":"Illinois","lat":37.99956,"lng":-88.49061,"zip":"62829","miles_from_dt":29.09},{"city":"Logan","state_name":"Illinois","lat":37.95246,"lng":-88.83549,"zip":"62856","miles_from_dt":29.79}],"targetCityZipCode":"62814","targetCityState":"Illinois"},"__N_SSG":true}