{"pageProps":{"stateName":"Illinois","cityName":"buffalo","nearbyCities":[{"city":"Cornland","state_name":"Illinois","lat":39.92879,"lng":-89.3953,"zip":"62519","miles_from_dt":5.25},{"city":"Dawson","state_name":"Illinois","lat":39.82185,"lng":-89.45904,"zip":"62520","miles_from_dt":5.47},{"city":"Illiopolis","state_name":"Illinois","lat":39.86681,"lng":-89.24914,"zip":"62539","miles_from_dt":6.27},{"city":"Mechanicsburg","state_name":"Illinois","lat":39.7661,"lng":-89.38737,"zip":"62545","miles_from_dt":6.31},{"city":"Lake Fork","state_name":"Illinois","lat":39.95657,"lng":-89.37085,"zip":"62541","miles_from_dt":6.94},{"city":"Riverton","state_name":"Illinois","lat":39.86754,"lng":-89.50498,"zip":"62561","miles_from_dt":7.42},{"city":"Mount Auburn","state_name":"Illinois","lat":39.76883,"lng":-89.24929,"zip":"62547","miles_from_dt":8.66},{"city":"Mount Pulaski","state_name":"Illinois","lat":39.97849,"lng":-89.27988,"zip":"62548","miles_from_dt":9.61},{"city":"Williamsville","state_name":"Illinois","lat":39.95761,"lng":-89.52041,"zip":"62693","miles_from_dt":10.78},{"city":"Niantic","state_name":"Illinois","lat":39.85357,"lng":-89.15631,"zip":"62551","miles_from_dt":11.16},{"city":"Elkhart","state_name":"Illinois","lat":40.0166,"lng":-89.45107,"zip":"62634","miles_from_dt":11.96},{"city":"Rochester","state_name":"Illinois","lat":39.71675,"lng":-89.50017,"zip":"62563","miles_from_dt":11.97},{"city":"Sherman","state_name":"Illinois","lat":39.91019,"lng":-89.58474,"zip":"62684","miles_from_dt":12.2},{"city":"Edinburg","state_name":"Illinois","lat":39.66754,"lng":-89.37395,"zip":"62531","miles_from_dt":13.02},{"city":"Springfield","state_name":"Illinois","lat":39.74883,"lng":-89.58344,"zip":"62712","miles_from_dt":13.73},{"city":"Latham","state_name":"Illinois","lat":39.97084,"lng":-89.1518,"zip":"62543","miles_from_dt":13.87},{"city":"Springfield","state_name":"Illinois","lat":39.77425,"lng":-89.60784,"zip":"62766","miles_from_dt":14.04},{"city":"Springfield","state_name":"Illinois","lat":39.85107,"lng":-89.63185,"zip":"62791","miles_from_dt":14.13},{"city":"Springfield","state_name":"Illinois","lat":39.7973,"lng":-89.62153,"zip":"62796","miles_from_dt":14.17},{"city":"Harristown","state_name":"Illinois","lat":39.85263,"lng":-89.09324,"zip":"62537","miles_from_dt":14.52},{"city":"Blue Mound","state_name":"Illinois","lat":39.72341,"lng":-89.15296,"zip":"62513","miles_from_dt":14.58},{"city":"Springfield","state_name":"Illinois","lat":39.82377,"lng":-89.64286,"zip":"62702","miles_from_dt":14.88},{"city":"Springfield","state_name":"Illinois","lat":39.74815,"lng":-89.61177,"zip":"62716","miles_from_dt":15.04},{"city":"Springfield","state_name":"Illinois","lat":39.85506,"lng":-89.64989,"zip":"62707","miles_from_dt":15.08},{"city":"Springfield","state_name":"Illinois","lat":39.80596,"lng":-89.64322,"zip":"62769","miles_from_dt":15.13},{"city":"Springfield","state_name":"Illinois","lat":39.80145,"lng":-89.64522,"zip":"62765","miles_from_dt":15.31},{"city":"Springfield","state_name":"Illinois","lat":39.79958,"lng":-89.64516,"zip":"62757","miles_from_dt":15.34},{"city":"Springfield","state_name":"Illinois","lat":39.80336,"lng":-89.64681,"zip":"62715","miles_from_dt":15.36},{"city":"Springfield","state_name":"Illinois","lat":39.79812,"lng":-89.64652,"zip":"62739","miles_from_dt":15.44},{"city":"Springfield","state_name":"Illinois","lat":39.79986,"lng":-89.64776,"zip":"62705","miles_from_dt":15.47},{"city":"Springfield","state_name":"Illinois","lat":39.76276,"lng":-89.63106,"zip":"62703","miles_from_dt":15.49},{"city":"Springfield","state_name":"Illinois","lat":39.80063,"lng":-89.64902,"zip":"62701","miles_from_dt":15.52},{"city":"Springfield","state_name":"Illinois","lat":39.76184,"lng":-89.63121,"zip":"62794","miles_from_dt":15.53},{"city":"Springfield","state_name":"Illinois","lat":39.80346,"lng":-89.65193,"zip":"62736","miles_from_dt":15.63},{"city":"Springfield","state_name":"Illinois","lat":39.80519,"lng":-89.65298,"zip":"62726","miles_from_dt":15.65},{"city":"Springfield","state_name":"Illinois","lat":39.80155,"lng":-89.6527,"zip":"62719","miles_from_dt":15.7},{"city":"Springfield","state_name":"Illinois","lat":39.81084,"lng":-89.65576,"zip":"62781","miles_from_dt":15.71},{"city":"Springfield","state_name":"Illinois","lat":39.75943,"lng":-89.63409,"zip":"62723","miles_from_dt":15.74},{"city":"Springfield","state_name":"Illinois","lat":39.80218,"lng":-89.65424,"zip":"62776","miles_from_dt":15.77},{"city":"Springfield","state_name":"Illinois","lat":39.80464,"lng":-89.65532,"zip":"62767","miles_from_dt":15.78},{"city":"Springfield","state_name":"Illinois","lat":39.75979,"lng":-89.63518,"zip":"62708","miles_from_dt":15.78},{"city":"Springfield","state_name":"Illinois","lat":39.80005,"lng":-89.65425,"zip":"62777","miles_from_dt":15.8},{"city":"Springfield","state_name":"Illinois","lat":39.79722,"lng":-89.65357,"zip":"62722","miles_from_dt":15.82},{"city":"Springfield","state_name":"Illinois","lat":39.75763,"lng":-89.63542,"zip":"62764","miles_from_dt":15.85},{"city":"Springfield","state_name":"Illinois","lat":39.79736,"lng":-89.65478,"zip":"62756","miles_from_dt":15.88},{"city":"Springfield","state_name":"Illinois","lat":39.79789,"lng":-89.6554,"zip":"62706","miles_from_dt":15.9},{"city":"Springfield","state_name":"Illinois","lat":39.78786,"lng":-89.65223,"zip":"62762","miles_from_dt":15.93},{"city":"Springfield","state_name":"Illinois","lat":39.80314,"lng":-89.65807,"zip":"62786","miles_from_dt":15.95},{"city":"Springfield","state_name":"Illinois","lat":39.80422,"lng":-89.66064,"zip":"62761","miles_from_dt":16.06},{"city":"Springfield","state_name":"Illinois","lat":39.78622,"lng":-89.65626,"zip":"62763","miles_from_dt":16.17},{"city":"Chestnut","state_name":"Illinois","lat":40.05154,"lng":-89.19037,"zip":"62518","miles_from_dt":16.4},{"city":"Warrensburg","state_name":"Illinois","lat":39.94551,"lng":-89.07264,"zip":"62573","miles_from_dt":16.78},{"city":"Decatur","state_name":"Illinois","lat":39.83008,"lng":-89.04743,"zip":"62522","miles_from_dt":17.05},{"city":"Stonington","state_name":"Illinois","lat":39.64668,"lng":-89.19082,"zip":"62567","miles_from_dt":17.2},{"city":"Springfield","state_name":"Illinois","lat":39.77358,"lng":-89.68503,"zip":"62704","miles_from_dt":17.89},{"city":"Boody","state_name":"Illinois","lat":39.76753,"lng":-89.04508,"zip":"62514","miles_from_dt":18.15},{"city":"Cantrall","state_name":"Illinois","lat":39.90424,"lng":-89.70185,"zip":"62625","miles_from_dt":18.15},{"city":"Middletown","state_name":"Illinois","lat":40.08384,"lng":-89.54364,"zip":"62666","miles_from_dt":18.32},{"city":"Bulpitt","state_name":"Illinois","lat":39.59365,"lng":-89.43285,"zip":"62517","miles_from_dt":18.45},{"city":"Athens","state_name":"Illinois","lat":39.99009,"lng":-89.67036,"zip":"62613","miles_from_dt":18.61},{"city":"Kincaid","state_name":"Illinois","lat":39.58496,"lng":-89.41938,"zip":"62540","miles_from_dt":18.92},{"city":"Lincoln","state_name":"Illinois","lat":40.13948,"lng":-89.36622,"zip":"62656","miles_from_dt":19.55},{"city":"Tovey","state_name":"Illinois","lat":39.58023,"lng":-89.45107,"zip":"62570","miles_from_dt":19.56},{"city":"Decatur","state_name":"Illinois","lat":39.90322,"lng":-88.9902,"zip":"62526","miles_from_dt":20.25},{"city":"Springfield","state_name":"Illinois","lat":39.76662,"lng":-89.73195,"zip":"62711","miles_from_dt":20.42},{"city":"Pawnee","state_name":"Illinois","lat":39.58967,"lng":-89.54239,"zip":"62558","miles_from_dt":20.64},{"city":"Taylorville","state_name":"Illinois","lat":39.55974,"lng":-89.29016,"zip":"62568","miles_from_dt":20.84},{"city":"Kenney","state_name":"Illinois","lat":40.09209,"lng":-89.10943,"zip":"61749","miles_from_dt":21.23},{"city":"Elwin","state_name":"Illinois","lat":39.77633,"lng":-88.97781,"zip":"62532","miles_from_dt":21.38},{"city":"Decatur","state_name":"Illinois","lat":39.90411,"lng":-88.96666,"zip":"62524","miles_from_dt":21.49},{"city":"Glenarm","state_name":"Illinois","lat":39.63022,"lng":-89.65023,"zip":"62536","miles_from_dt":21.72},{"city":"Beason","state_name":"Illinois","lat":40.14601,"lng":-89.20312,"zip":"62512","miles_from_dt":21.79},{"city":"Forsyth","state_name":"Illinois","lat":39.92549,"lng":-88.96604,"zip":"62535","miles_from_dt":21.8},{"city":"Decatur","state_name":"Illinois","lat":39.84372,"lng":-88.95289,"zip":"62523","miles_from_dt":22},{"city":"Chatham","state_name":"Illinois","lat":39.67858,"lng":-89.71978,"zip":"62629","miles_from_dt":22.46},{"city":"Decatur","state_name":"Illinois","lat":39.83282,"lng":-88.9444,"zip":"62525","miles_from_dt":22.49},{"city":"Macon","state_name":"Illinois","lat":39.70854,"lng":-88.97375,"zip":"62544","miles_from_dt":23.24},{"city":"Decatur","state_name":"Illinois","lat":39.81435,"lng":-88.93086,"zip":"62521","miles_from_dt":23.33},{"city":"New Holland","state_name":"Illinois","lat":40.16707,"lng":-89.55755,"zip":"62671","miles_from_dt":23.73},{"city":"Greenview","state_name":"Illinois","lat":40.09022,"lng":-89.71303,"zip":"62642","miles_from_dt":24.49},{"city":"Maroa","state_name":"Illinois","lat":40.03311,"lng":-88.96368,"zip":"61756","miles_from_dt":24.62},{"city":"Lawndale","state_name":"Illinois","lat":40.21455,"lng":-89.29926,"zip":"61751","miles_from_dt":24.98},{"city":"Divernon","state_name":"Illinois","lat":39.56206,"lng":-89.65626,"zip":"62530","miles_from_dt":25.5},{"city":"Moweaqua","state_name":"Illinois","lat":39.61154,"lng":-88.99283,"zip":"62550","miles_from_dt":26.08},{"city":"Palmer","state_name":"Illinois","lat":39.46674,"lng":-89.37049,"zip":"62556","miles_from_dt":26.86},{"city":"Hartsburg","state_name":"Illinois","lat":40.24154,"lng":-89.45774,"zip":"62643","miles_from_dt":27.03},{"city":"Oreana","state_name":"Illinois","lat":39.94976,"lng":-88.87107,"zip":"62554","miles_from_dt":27.09},{"city":"Pleasant Plains","state_name":"Illinois","lat":39.85168,"lng":-89.87694,"zip":"62677","miles_from_dt":27.16},{"city":"Mt Zion","state_name":"Illinois","lat":39.76985,"lng":-88.8657,"zip":"62549","miles_from_dt":27.29},{"city":"Auburn","state_name":"Illinois","lat":39.58568,"lng":-89.75406,"zip":"62615","miles_from_dt":27.84},{"city":"Owaneco","state_name":"Illinois","lat":39.46755,"lng":-89.21982,"zip":"62555","miles_from_dt":27.92},{"city":"Atlanta","state_name":"Illinois","lat":40.26139,"lng":-89.26703,"zip":"61723","miles_from_dt":28.45},{"city":"Loami","state_name":"Illinois","lat":39.66513,"lng":-89.84057,"zip":"62661","miles_from_dt":28.49},{"city":"Petersburg","state_name":"Illinois","lat":40.02109,"lng":-89.86146,"zip":"62675","miles_from_dt":28.66},{"city":"Lincolns New Salem","state_name":"Illinois","lat":40.04,"lng":-89.85219,"zip":"62659","miles_from_dt":28.76},{"city":"Assumption","state_name":"Illinois","lat":39.5315,"lng":-89.02706,"zip":"62510","miles_from_dt":28.78},{"city":"New Berlin","state_name":"Illinois","lat":39.74431,"lng":-89.89601,"zip":"62670","miles_from_dt":29.23},{"city":"Waynesville","state_name":"Illinois","lat":40.22575,"lng":-89.09104,"zip":"61778","miles_from_dt":29.38},{"city":"Morrisonville","state_name":"Illinois","lat":39.43042,"lng":-89.44281,"zip":"62546","miles_from_dt":29.65},{"city":"Dalton City","state_name":"Illinois","lat":39.72444,"lng":-88.83548,"zip":"61925","miles_from_dt":29.67},{"city":"Clinton","state_name":"Illinois","lat":40.14701,"lng":-88.95245,"zip":"61727","miles_from_dt":29.75}],"targetCityZipCode":"62515","targetCityState":"Illinois"},"__N_SSG":true}