{"pageProps":{"stateName":"Illinois","cityName":"bushnell","nearbyCities":[{"city":"Prairie City","state_name":"Illinois","lat":40.60613,"lng":-90.50623,"zip":"61470","miles_from_dt":4.03},{"city":"Bardolph","state_name":"Illinois","lat":40.49592,"lng":-90.56308,"zip":"61416","miles_from_dt":4.15},{"city":"Good Hope","state_name":"Illinois","lat":40.58538,"lng":-90.64942,"zip":"61438","miles_from_dt":6.66},{"city":"Marietta","state_name":"Illinois","lat":40.50497,"lng":-90.41453,"zip":"61459","miles_from_dt":6.91},{"city":"Avon","state_name":"Illinois","lat":40.65425,"lng":-90.42801,"zip":"61415","miles_from_dt":8.96},{"city":"Macomb","state_name":"Illinois","lat":40.44047,"lng":-90.65115,"zip":"61455","miles_from_dt":9.9},{"city":"Adair","state_name":"Illinois","lat":40.40105,"lng":-90.50544,"zip":"61411","miles_from_dt":10.42},{"city":"Smithfield","state_name":"Illinois","lat":40.4945,"lng":-90.31402,"zip":"61477","miles_from_dt":12.07},{"city":"Sciota","state_name":"Illinois","lat":40.5969,"lng":-90.7527,"zip":"61475","miles_from_dt":12.08},{"city":"Roseville","state_name":"Illinois","lat":40.70914,"lng":-90.64975,"zip":"61473","miles_from_dt":12.58},{"city":"Table Grove","state_name":"Illinois","lat":40.39362,"lng":-90.40766,"zip":"61482","miles_from_dt":12.65},{"city":"Ellisville","state_name":"Illinois","lat":40.60315,"lng":-90.2776,"zip":"61431","miles_from_dt":13.82},{"city":"Saint Augustine","state_name":"Illinois","lat":40.73419,"lng":-90.39724,"zip":"61474","miles_from_dt":14.48},{"city":"Berwick","state_name":"Illinois","lat":40.77222,"lng":-90.54413,"zip":"61417","miles_from_dt":15.29},{"city":"Industry","state_name":"Illinois","lat":40.3079,"lng":-90.59786,"zip":"61440","miles_from_dt":17.13},{"city":"Colchester","state_name":"Illinois","lat":40.42248,"lng":-90.81501,"zip":"62326","miles_from_dt":17.38},{"city":"Blandinsville","state_name":"Illinois","lat":40.5491,"lng":-90.86679,"zip":"61420","miles_from_dt":17.67},{"city":"Vermont","state_name":"Illinois","lat":40.29696,"lng":-90.44153,"zip":"61484","miles_from_dt":18.14},{"city":"Cuba","state_name":"Illinois","lat":40.49823,"lng":-90.19319,"zip":"61427","miles_from_dt":18.16},{"city":"London Mills","state_name":"Illinois","lat":40.69753,"lng":-90.24273,"zip":"61544","miles_from_dt":18.23},{"city":"Abingdon","state_name":"Illinois","lat":40.79779,"lng":-90.40703,"zip":"61410","miles_from_dt":18.24},{"city":"Raritan","state_name":"Illinois","lat":40.69583,"lng":-90.82507,"zip":"61471","miles_from_dt":18.41},{"city":"Smithshire","state_name":"Illinois","lat":40.75633,"lng":-90.76035,"zip":"61478","miles_from_dt":18.61},{"city":"Fiatt","state_name":"Illinois","lat":40.55749,"lng":-90.16866,"zip":"61433","miles_from_dt":19.08},{"city":"Ipava","state_name":"Illinois","lat":40.33957,"lng":-90.29336,"zip":"61441","miles_from_dt":19.23},{"city":"Media","state_name":"Illinois","lat":40.72159,"lng":-90.82774,"zip":"61460","miles_from_dt":19.54},{"city":"Fairview","state_name":"Illinois","lat":40.65055,"lng":-90.16086,"zip":"61432","miles_from_dt":20.65},{"city":"Tennessee","state_name":"Illinois","lat":40.40765,"lng":-90.91052,"zip":"62374","miles_from_dt":22.3},{"city":"Littleton","state_name":"Illinois","lat":40.23836,"lng":-90.66022,"zip":"61452","miles_from_dt":22.61},{"city":"Cameron","state_name":"Illinois","lat":40.8855,"lng":-90.50232,"zip":"61423","miles_from_dt":23.14},{"city":"Stronghurst","state_name":"Illinois","lat":40.72323,"lng":-90.91827,"zip":"61480","miles_from_dt":23.57},{"city":"La Harpe","state_name":"Illinois","lat":40.57629,"lng":-90.98088,"zip":"61450","miles_from_dt":23.73},{"city":"Bryant","state_name":"Illinois","lat":40.46463,"lng":-90.09309,"zip":"61519","miles_from_dt":23.82},{"city":"Lewistown","state_name":"Illinois","lat":40.38487,"lng":-90.13402,"zip":"61542","miles_from_dt":23.86},{"city":"Maquon","state_name":"Illinois","lat":40.78027,"lng":-90.18107,"zip":"61458","miles_from_dt":24.27},{"city":"Plymouth","state_name":"Illinois","lat":40.30325,"lng":-90.86687,"zip":"62367","miles_from_dt":24.6},{"city":"Astoria","state_name":"Illinois","lat":40.22797,"lng":-90.31233,"zip":"61501","miles_from_dt":25.09},{"city":"Kirkwood","state_name":"Illinois","lat":40.87105,"lng":-90.76674,"zip":"61447","miles_from_dt":25.32},{"city":"Monmouth","state_name":"Illinois","lat":40.91014,"lng":-90.65176,"zip":"61462","miles_from_dt":25.59},{"city":"Saint David","state_name":"Illinois","lat":40.4931,"lng":-90.05108,"zip":"61563","miles_from_dt":25.59},{"city":"Dunfermline","state_name":"Illinois","lat":40.49125,"lng":-90.03468,"zip":"61524","miles_from_dt":26.46},{"city":"Canton","state_name":"Illinois","lat":40.54197,"lng":-90.02156,"zip":"61520","miles_from_dt":26.83},{"city":"Biggsville","state_name":"Illinois","lat":40.84714,"lng":-90.86492,"zip":"61418","miles_from_dt":26.93},{"city":"Norris","state_name":"Illinois","lat":40.62136,"lng":-90.02686,"zip":"61553","miles_from_dt":26.97},{"city":"Gilson","state_name":"Illinois","lat":40.86067,"lng":-90.21739,"zip":"61436","miles_from_dt":26.99},{"city":"Farmington","state_name":"Illinois","lat":40.68291,"lng":-90.03482,"zip":"61531","miles_from_dt":27.64},{"city":"Galesburg","state_name":"Illinois","lat":40.93993,"lng":-90.40627,"zip":"61402","miles_from_dt":27.64},{"city":"Galesburg","state_name":"Illinois","lat":40.94451,"lng":-90.38888,"zip":"61401","miles_from_dt":28.17},{"city":"Rushville","state_name":"Illinois","lat":40.13841,"lng":-90.55885,"zip":"62681","miles_from_dt":28.49},{"city":"Lomax","state_name":"Illinois","lat":40.68152,"lng":-91.04535,"zip":"61454","miles_from_dt":28.5},{"city":"Browning","state_name":"Illinois","lat":40.14993,"lng":-90.34478,"zip":"62624","miles_from_dt":29.36},{"city":"Camden","state_name":"Illinois","lat":40.15293,"lng":-90.72997,"zip":"62319","miles_from_dt":29.39},{"city":"East Galesburg","state_name":"Illinois","lat":40.94393,"lng":-90.31135,"zip":"61430","miles_from_dt":29.47},{"city":"Huntsville","state_name":"Illinois","lat":40.1799,"lng":-90.82497,"zip":"62344","miles_from_dt":29.93}],"targetCityZipCode":"61422","targetCityState":"Illinois"},"__N_SSG":true}