{"pageProps":{"stateName":"Illinois","cityName":"capron","nearbyCities":[{"city":"Poplar Grove","state_name":"Illinois","lat":42.40786,"lng":-88.82747,"zip":"61065","miles_from_dt":3.73},{"city":"Harvard","state_name":"Illinois","lat":42.42333,"lng":-88.61104,"zip":"60033","miles_from_dt":7.42},{"city":"Caledonia","state_name":"Illinois","lat":42.38926,"lng":-88.91266,"zip":"61011","miles_from_dt":8.19},{"city":"Sharon","state_name":"Wisconsin","lat":42.53049,"lng":-88.72056,"zip":"53585","miles_from_dt":8.66},{"city":"Garden Prairie","state_name":"Illinois","lat":42.26344,"lng":-88.73586,"zip":"61038","miles_from_dt":9.99},{"city":"Clinton","state_name":"Wisconsin","lat":42.54579,"lng":-88.84907,"zip":"53525","miles_from_dt":10.7},{"city":"Walworth","state_name":"Wisconsin","lat":42.53075,"lng":-88.60945,"zip":"53184","miles_from_dt":11.28},{"city":"Belvidere","state_name":"Illinois","lat":42.24579,"lng":-88.83949,"zip":"61008","miles_from_dt":11.98},{"city":"Roscoe","state_name":"Illinois","lat":42.42434,"lng":-88.99346,"zip":"61073","miles_from_dt":12.28},{"city":"Loves Park","state_name":"Illinois","lat":42.35191,"lng":-88.99591,"zip":"61131","miles_from_dt":12.94},{"city":"Loves Park","state_name":"Illinois","lat":42.35218,"lng":-88.9962,"zip":"61132","miles_from_dt":12.95},{"city":"South Beloit","state_name":"Illinois","lat":42.47992,"lng":-88.98989,"zip":"61080","miles_from_dt":13.03},{"city":"Marengo","state_name":"Illinois","lat":42.23882,"lng":-88.62597,"zip":"60152","miles_from_dt":13.37},{"city":"Fontana","state_name":"Wisconsin","lat":42.54532,"lng":-88.56216,"zip":"53125","miles_from_dt":13.68},{"city":"Loves Park","state_name":"Illinois","lat":42.33538,"lng":-89.00369,"zip":"61111","miles_from_dt":13.69},{"city":"Darien","state_name":"Wisconsin","lat":42.60721,"lng":-88.75089,"zip":"53114","miles_from_dt":13.79},{"city":"Rockford","state_name":"Illinois","lat":42.30854,"lng":-88.9892,"zip":"61114","miles_from_dt":13.82},{"city":"Loves Park","state_name":"Illinois","lat":42.32593,"lng":-89.00394,"zip":"61130","miles_from_dt":13.96},{"city":"Machesney Park","state_name":"Illinois","lat":42.36365,"lng":-89.02869,"zip":"61115","miles_from_dt":14.35},{"city":"Rockford","state_name":"Illinois","lat":42.28344,"lng":-89.00348,"zip":"61107","miles_from_dt":15.36},{"city":"Zenda","state_name":"Wisconsin","lat":42.51397,"lng":-88.49016,"zip":"53195","miles_from_dt":15.38},{"city":"Beloit","state_name":"Wisconsin","lat":42.50764,"lng":-89.0322,"zip":"53512","miles_from_dt":15.79},{"city":"Williams Bay","state_name":"Wisconsin","lat":42.5776,"lng":-88.54574,"zip":"53191","miles_from_dt":15.86},{"city":"Rockford","state_name":"Illinois","lat":42.24193,"lng":-88.97523,"zip":"61112","miles_from_dt":16.08},{"city":"Woodstock","state_name":"Illinois","lat":42.32468,"lng":-88.45672,"zip":"60098","miles_from_dt":16.28},{"city":"Rockford","state_name":"Illinois","lat":42.25515,"lng":-89.00236,"zip":"61108","miles_from_dt":16.48},{"city":"Hebron","state_name":"Illinois","lat":42.45869,"lng":-88.42665,"zip":"60034","miles_from_dt":17.13},{"city":"Rockford","state_name":"Illinois","lat":42.25363,"lng":-89.01795,"zip":"61126","miles_from_dt":17.17},{"city":"Rockford","state_name":"Illinois","lat":42.3453,"lng":-89.08271,"zip":"61103","miles_from_dt":17.34},{"city":"Union","state_name":"Illinois","lat":42.22342,"lng":-88.52023,"zip":"60180","miles_from_dt":17.48},{"city":"Cherry Valley","state_name":"Illinois","lat":42.19761,"lng":-88.94704,"zip":"61016","miles_from_dt":17.53},{"city":"Delavan","state_name":"Wisconsin","lat":42.65443,"lng":-88.6713,"zip":"53115","miles_from_dt":17.57},{"city":"Rockford","state_name":"Illinois","lat":42.23736,"lng":-89.01238,"zip":"61125","miles_from_dt":17.68},{"city":"Avalon","state_name":"Wisconsin","lat":42.66063,"lng":-88.8176,"zip":"53505","miles_from_dt":17.77},{"city":"Rockford","state_name":"Illinois","lat":42.27183,"lng":-89.06462,"zip":"61106","miles_from_dt":18.44},{"city":"Lake Geneva","state_name":"Wisconsin","lat":42.57075,"lng":-88.45024,"zip":"53147","miles_from_dt":19.2},{"city":"Rockford","state_name":"Illinois","lat":42.26748,"lng":-89.08165,"zip":"61110","miles_from_dt":19.34},{"city":"Janesville","state_name":"Wisconsin","lat":42.65126,"lng":-88.94854,"zip":"53546","miles_from_dt":19.53},{"city":"Rockford","state_name":"Illinois","lat":42.25186,"lng":-89.07911,"zip":"61104","miles_from_dt":19.79},{"city":"Rockton","state_name":"Illinois","lat":42.44661,"lng":-89.14109,"zip":"61072","miles_from_dt":19.95},{"city":"Beloit","state_name":"Wisconsin","lat":42.54627,"lng":-89.09792,"zip":"53511","miles_from_dt":19.99},{"city":"Rockford","state_name":"Illinois","lat":42.26753,"lng":-89.09836,"zip":"61105","miles_from_dt":20.09},{"city":"Wonder Lake","state_name":"Illinois","lat":42.39343,"lng":-88.36164,"zip":"60097","miles_from_dt":20.12},{"city":"Rockford","state_name":"Illinois","lat":42.33727,"lng":-89.14725,"zip":"61101","miles_from_dt":20.68},{"city":"Genoa","state_name":"Illinois","lat":42.11265,"lng":-88.67867,"zip":"60135","miles_from_dt":20.72},{"city":"Afton","state_name":"Wisconsin","lat":42.60484,"lng":-89.07165,"zip":"53501","miles_from_dt":21.17},{"city":"Rockford","state_name":"Illinois","lat":42.1924,"lng":-89.05392,"zip":"61109","miles_from_dt":21.35},{"city":"Pell Lake","state_name":"Wisconsin","lat":42.5377,"lng":-88.36855,"zip":"53157","miles_from_dt":21.67},{"city":"Kingston","state_name":"Illinois","lat":42.09396,"lng":-88.77719,"zip":"60145","miles_from_dt":21.67},{"city":"Kirkland","state_name":"Illinois","lat":42.10091,"lng":-88.88019,"zip":"60146","miles_from_dt":22.12},{"city":"Huntley","state_name":"Illinois","lat":42.17517,"lng":-88.44486,"zip":"60142","miles_from_dt":22.56},{"city":"Genoa City","state_name":"Wisconsin","lat":42.52979,"lng":-88.33857,"zip":"53128","miles_from_dt":22.87},{"city":"Ringwood","state_name":"Illinois","lat":42.40647,"lng":-88.30637,"zip":"60072","miles_from_dt":22.92},{"city":"Richmond","state_name":"Illinois","lat":42.46403,"lng":-88.30975,"zip":"60071","miles_from_dt":23.07},{"city":"Shirland","state_name":"Illinois","lat":42.44681,"lng":-89.20955,"zip":"61079","miles_from_dt":23.43},{"city":"Springfield","state_name":"Wisconsin","lat":42.64307,"lng":-88.41444,"zip":"53176","miles_from_dt":23.79},{"city":"Elkhorn","state_name":"Wisconsin","lat":42.70989,"lng":-88.53028,"zip":"53121","miles_from_dt":23.8},{"city":"Rockford","state_name":"Illinois","lat":42.22995,"lng":-89.15632,"zip":"61102","miles_from_dt":23.96},{"city":"Monroe Center","state_name":"Illinois","lat":42.11146,"lng":-89.00011,"zip":"61052","miles_from_dt":24},{"city":"Mchenry","state_name":"Illinois","lat":42.32915,"lng":-88.29363,"zip":"60050","miles_from_dt":24.2},{"city":"Janesville","state_name":"Wisconsin","lat":42.70503,"lng":-89.00642,"zip":"53547","miles_from_dt":24.23},{"city":"Crystal Lake","state_name":"Illinois","lat":42.27199,"lng":-88.31157,"zip":"60012","miles_from_dt":24.53},{"city":"Crystal Lake","state_name":"Illinois","lat":42.22837,"lng":-88.33123,"zip":"60039","miles_from_dt":24.96},{"city":"Crystal Lake","state_name":"Illinois","lat":42.23126,"lng":-88.32679,"zip":"60014","miles_from_dt":25.06},{"city":"Powers Lake","state_name":"Wisconsin","lat":42.55316,"lng":-88.29399,"zip":"53159","miles_from_dt":25.58},{"city":"Lake In The Hills","state_name":"Illinois","lat":42.19121,"lng":-88.34788,"zip":"60156","miles_from_dt":25.63},{"city":"Hampshire","state_name":"Illinois","lat":42.08003,"lng":-88.5086,"zip":"60140","miles_from_dt":25.88},{"city":"Hanover","state_name":"Wisconsin","lat":42.63262,"lng":-89.16567,"zip":"53542","miles_from_dt":26.12},{"city":"Lyons","state_name":"Wisconsin","lat":42.64919,"lng":-88.35589,"zip":"53148","miles_from_dt":26.31},{"city":"Janesville","state_name":"Wisconsin","lat":42.73113,"lng":-89.03613,"zip":"53545","miles_from_dt":26.56},{"city":"Burlington","state_name":"Illinois","lat":42.04448,"lng":-88.56261,"zip":"60109","miles_from_dt":26.92},{"city":"Davis Junction","state_name":"Illinois","lat":42.11035,"lng":-89.09807,"zip":"61020","miles_from_dt":27.04},{"city":"Twin Lakes","state_name":"Wisconsin","lat":42.51711,"lng":-88.24305,"zip":"53181","miles_from_dt":27.21},{"city":"Janesville","state_name":"Wisconsin","lat":42.68907,"lng":-89.13095,"zip":"53548","miles_from_dt":27.33},{"city":"Winnebago","state_name":"Illinois","lat":42.26995,"lng":-89.25509,"zip":"61088","miles_from_dt":27.34},{"city":"Spring Grove","state_name":"Illinois","lat":42.45115,"lng":-88.22173,"zip":"60081","miles_from_dt":27.41},{"city":"Mchenry","state_name":"Illinois","lat":42.35099,"lng":-88.22412,"zip":"60051","miles_from_dt":27.42},{"city":"Milton","state_name":"Wisconsin","lat":42.78276,"lng":-88.93127,"zip":"53563","miles_from_dt":27.43},{"city":"Durand","state_name":"Illinois","lat":42.43629,"lng":-89.29183,"zip":"61024","miles_from_dt":27.55},{"city":"Whitewater","state_name":"Wisconsin","lat":42.80775,"lng":-88.73129,"zip":"53190","miles_from_dt":27.65},{"city":"Clare","state_name":"Illinois","lat":42.00721,"lng":-88.83114,"zip":"60111","miles_from_dt":27.91},{"city":"Esmond","state_name":"Illinois","lat":42.02963,"lng":-88.95371,"zip":"60129","miles_from_dt":28.01},{"city":"Sycamore","state_name":"Illinois","lat":42.00625,"lng":-88.67205,"zip":"60178","miles_from_dt":28.01},{"city":"Lindenwood","state_name":"Illinois","lat":42.04417,"lng":-89.00753,"zip":"61049","miles_from_dt":28.24},{"city":"Algonquin","state_name":"Illinois","lat":42.16406,"lng":-88.30928,"zip":"60102","miles_from_dt":28.33},{"city":"Bassett","state_name":"Wisconsin","lat":42.5386,"lng":-88.22784,"zip":"53101","miles_from_dt":28.39},{"city":"Gilberts","state_name":"Illinois","lat":42.1053,"lng":-88.37808,"zip":"60136","miles_from_dt":28.42},{"city":"Orfordville","state_name":"Wisconsin","lat":42.62543,"lng":-89.23949,"zip":"53576","miles_from_dt":28.98},{"city":"New Munster","state_name":"Wisconsin","lat":42.57724,"lng":-88.22602,"zip":"53152","miles_from_dt":29.43},{"city":"Cary","state_name":"Illinois","lat":42.22027,"lng":-88.23568,"zip":"60013","miles_from_dt":29.55},{"city":"Holcomb","state_name":"Illinois","lat":42.06676,"lng":-89.10499,"zip":"61043","miles_from_dt":29.6},{"city":"Footville","state_name":"Wisconsin","lat":42.67267,"lng":-89.21056,"zip":"53537","miles_from_dt":29.61},{"city":"Fox Lake","state_name":"Illinois","lat":42.39543,"lng":-88.17349,"zip":"60020","miles_from_dt":29.73},{"city":"Island Lake","state_name":"Illinois","lat":42.27913,"lng":-88.19777,"zip":"60042","miles_from_dt":29.85},{"city":"Stillman Valley","state_name":"Illinois","lat":42.11843,"lng":-89.18867,"zip":"61084","miles_from_dt":29.89},{"city":"Burlington","state_name":"Wisconsin","lat":42.66412,"lng":-88.28045,"zip":"53105","miles_from_dt":29.99}],"targetCityZipCode":"61012","targetCityState":"Illinois"},"__N_SSG":true}