{"pageProps":{"stateName":"Illinois","cityName":"carthage","nearbyCities":[{"city":"Ferris","state_name":"Illinois","lat":40.46759,"lng":-91.17333,"zip":"62336","miles_from_dt":5.35},{"city":"Elvaston","state_name":"Illinois","lat":40.39598,"lng":-91.24912,"zip":"62334","miles_from_dt":7.6},{"city":"Basco","state_name":"Illinois","lat":40.31782,"lng":-91.2251,"zip":"62313","miles_from_dt":8.91},{"city":"Tennessee","state_name":"Illinois","lat":40.40765,"lng":-90.91052,"zip":"62374","miles_from_dt":10.31},{"city":"Hamilton","state_name":"Illinois","lat":40.42566,"lng":-91.30555,"zip":"62341","miles_from_dt":10.58},{"city":"Dallas City","state_name":"Illinois","lat":40.57217,"lng":-91.12187,"zip":"62330","miles_from_dt":11.26},{"city":"West Point","state_name":"Illinois","lat":40.24249,"lng":-91.19174,"zip":"62380","miles_from_dt":12.38},{"city":"Bowen","state_name":"Illinois","lat":40.23341,"lng":-91.05495,"zip":"62316","miles_from_dt":12.44},{"city":"Colusa","state_name":"Illinois","lat":40.59863,"lng":-91.13788,"zip":"62329","miles_from_dt":13.16},{"city":"La Harpe","state_name":"Illinois","lat":40.57629,"lng":-90.98088,"zip":"61450","miles_from_dt":13.26},{"city":"Nauvoo","state_name":"Illinois","lat":40.52087,"lng":-91.33305,"zip":"62354","miles_from_dt":14.22},{"city":"Plymouth","state_name":"Illinois","lat":40.30325,"lng":-90.86687,"zip":"62367","miles_from_dt":14.6},{"city":"Niota","state_name":"Illinois","lat":40.58527,"lng":-91.26113,"zip":"62358","miles_from_dt":14.62},{"city":"Colchester","state_name":"Illinois","lat":40.42248,"lng":-90.81501,"zip":"62326","miles_from_dt":15.38},{"city":"Blandinsville","state_name":"Illinois","lat":40.5491,"lng":-90.86679,"zip":"61420","miles_from_dt":15.87},{"city":"Augusta","state_name":"Illinois","lat":40.22195,"lng":-90.9212,"zip":"62311","miles_from_dt":16.21},{"city":"Loraine","state_name":"Illinois","lat":40.16958,"lng":-91.19986,"zip":"62349","miles_from_dt":17.28},{"city":"Keokuk","state_name":"Iowa","lat":40.44072,"lng":-91.43973,"zip":"52632","miles_from_dt":17.73},{"city":"Sutter","state_name":"Illinois","lat":40.23643,"lng":-91.35863,"zip":"62373","miles_from_dt":17.9},{"city":"Warsaw","state_name":"Illinois","lat":40.26867,"lng":-91.4061,"zip":"62379","miles_from_dt":18.58},{"city":"Lomax","state_name":"Illinois","lat":40.68152,"lng":-91.04535,"zip":"61454","miles_from_dt":19.04},{"city":"Golden","state_name":"Illinois","lat":40.12898,"lng":-91.04196,"zip":"62339","miles_from_dt":19.65},{"city":"La Prairie","state_name":"Illinois","lat":40.14367,"lng":-90.93418,"zip":"62346","miles_from_dt":20.47},{"city":"Montrose","state_name":"Iowa","lat":40.52763,"lng":-91.46409,"zip":"52639","miles_from_dt":20.55},{"city":"Lima","state_name":"Illinois","lat":40.18836,"lng":-91.37126,"zip":"62348","miles_from_dt":20.71},{"city":"Wever","state_name":"Iowa","lat":40.69998,"lng":-91.22657,"zip":"52658","miles_from_dt":21.02},{"city":"Fort Madison","state_name":"Iowa","lat":40.65973,"lng":-91.35145,"zip":"52627","miles_from_dt":21.56},{"city":"Huntsville","state_name":"Illinois","lat":40.1799,"lng":-90.82497,"zip":"62344","miles_from_dt":21.71},{"city":"Mendon","state_name":"Illinois","lat":40.11374,"lng":-91.26751,"zip":"62351","miles_from_dt":22.12},{"city":"Sciota","state_name":"Illinois","lat":40.5969,"lng":-90.7527,"zip":"61475","miles_from_dt":22.66},{"city":"Alexandria","state_name":"Missouri","lat":40.38972,"lng":-91.53958,"zip":"63430","miles_from_dt":22.91},{"city":"Stronghurst","state_name":"Illinois","lat":40.72323,"lng":-90.91827,"zip":"61480","miles_from_dt":23.8},{"city":"Macomb","state_name":"Illinois","lat":40.44047,"lng":-90.65115,"zip":"61455","miles_from_dt":24.08},{"city":"Carman","state_name":"Illinois","lat":40.76297,"lng":-91.04575,"zip":"61425","miles_from_dt":24.6},{"city":"Raritan","state_name":"Illinois","lat":40.69583,"lng":-90.82507,"zip":"61471","miles_from_dt":24.68},{"city":"Coatsburg","state_name":"Illinois","lat":40.05307,"lng":-91.16564,"zip":"62325","miles_from_dt":24.79},{"city":"Wayland","state_name":"Missouri","lat":40.4053,"lng":-91.57734,"zip":"63472","miles_from_dt":24.86},{"city":"Argyle","state_name":"Iowa","lat":40.5246,"lng":-91.56566,"zip":"52619","miles_from_dt":25.49},{"city":"Denmark","state_name":"Iowa","lat":40.7348,"lng":-91.33609,"zip":"52624","miles_from_dt":25.5},{"city":"Ursa","state_name":"Illinois","lat":40.1148,"lng":-91.40662,"zip":"62376","miles_from_dt":25.8},{"city":"Media","state_name":"Illinois","lat":40.72159,"lng":-90.82774,"zip":"61460","miles_from_dt":26.04},{"city":"Littleton","state_name":"Illinois","lat":40.23836,"lng":-90.66022,"zip":"61452","miles_from_dt":26.34},{"city":"Paloma","state_name":"Illinois","lat":40.03239,"lng":-91.20851,"zip":"62359","miles_from_dt":26.58},{"city":"Camden","state_name":"Illinois","lat":40.15293,"lng":-90.72997,"zip":"62319","miles_from_dt":26.61},{"city":"Camp Point","state_name":"Illinois","lat":40.02343,"lng":-91.08295,"zip":"62320","miles_from_dt":26.66},{"city":"Good Hope","state_name":"Illinois","lat":40.58538,"lng":-90.64942,"zip":"61438","miles_from_dt":26.94},{"city":"Industry","state_name":"Illinois","lat":40.3079,"lng":-90.59786,"zip":"61440","miles_from_dt":27.72},{"city":"Middletown","state_name":"Iowa","lat":40.79864,"lng":-91.24577,"zip":"52638","miles_from_dt":27.84},{"city":"Saint Patrick","state_name":"Missouri","lat":40.26627,"lng":-91.61751,"zip":"63466","miles_from_dt":28.75},{"city":"Canton","state_name":"Missouri","lat":40.20299,"lng":-91.58267,"zip":"63435","miles_from_dt":28.93},{"city":"Bardolph","state_name":"Illinois","lat":40.49592,"lng":-90.56308,"zip":"61416","miles_from_dt":29.23},{"city":"West Point","state_name":"Iowa","lat":40.73844,"lng":-91.4611,"zip":"52656","miles_from_dt":29.4},{"city":"Fowler","state_name":"Illinois","lat":39.99309,"lng":-91.23889,"zip":"62338","miles_from_dt":29.58},{"city":"Clayton","state_name":"Illinois","lat":39.9901,"lng":-90.96302,"zip":"62324","miles_from_dt":29.91}],"targetCityZipCode":"62321","targetCityState":"Illinois"},"__N_SSG":true}