{"pageProps":{"stateName":"Illinois","cityName":"dalton-city","nearbyCities":[{"city":"Mt Zion","state_name":"Illinois","lat":39.76985,"lng":-88.8657,"zip":"62549","miles_from_dt":3.52},{"city":"Bethany","state_name":"Illinois","lat":39.63409,"lng":-88.76783,"zip":"61914","miles_from_dt":7.2},{"city":"Macon","state_name":"Illinois","lat":39.70854,"lng":-88.97375,"zip":"62544","miles_from_dt":7.45},{"city":"La Place","state_name":"Illinois","lat":39.80319,"lng":-88.72684,"zip":"61936","miles_from_dt":7.94},{"city":"Decatur","state_name":"Illinois","lat":39.81435,"lng":-88.93086,"zip":"62521","miles_from_dt":8.02},{"city":"Elwin","state_name":"Illinois","lat":39.77633,"lng":-88.97781,"zip":"62532","miles_from_dt":8.38},{"city":"Decatur","state_name":"Illinois","lat":39.83282,"lng":-88.9444,"zip":"62525","miles_from_dt":9.46},{"city":"Lovington","state_name":"Illinois","lat":39.73872,"lng":-88.65542,"zip":"61937","miles_from_dt":9.64},{"city":"Decatur","state_name":"Illinois","lat":39.84372,"lng":-88.95289,"zip":"62523","miles_from_dt":10.33},{"city":"Moweaqua","state_name":"Illinois","lat":39.61154,"lng":-88.99283,"zip":"62550","miles_from_dt":11.45},{"city":"Boody","state_name":"Illinois","lat":39.76753,"lng":-89.04508,"zip":"62514","miles_from_dt":11.55},{"city":"Cerro Gordo","state_name":"Illinois","lat":39.88455,"lng":-88.71798,"zip":"61818","miles_from_dt":12.69},{"city":"Findlay","state_name":"Illinois","lat":39.53519,"lng":-88.79603,"zip":"62534","miles_from_dt":13.22},{"city":"Hammond","state_name":"Illinois","lat":39.82338,"lng":-88.62271,"zip":"61929","miles_from_dt":13.22},{"city":"Decatur","state_name":"Illinois","lat":39.83008,"lng":-89.04743,"zip":"62522","miles_from_dt":13.43},{"city":"Decatur","state_name":"Illinois","lat":39.90411,"lng":-88.96666,"zip":"62524","miles_from_dt":14.23},{"city":"Argenta","state_name":"Illinois","lat":39.92973,"lng":-88.80528,"zip":"62501","miles_from_dt":14.25},{"city":"Decatur","state_name":"Illinois","lat":39.90322,"lng":-88.9902,"zip":"62526","miles_from_dt":14.83},{"city":"Forsyth","state_name":"Illinois","lat":39.92549,"lng":-88.96604,"zip":"62535","miles_from_dt":15.51},{"city":"Oreana","state_name":"Illinois","lat":39.94976,"lng":-88.87107,"zip":"62554","miles_from_dt":15.66},{"city":"Sullivan","state_name":"Illinois","lat":39.59118,"lng":-88.5865,"zip":"61951","miles_from_dt":16.15},{"city":"Harristown","state_name":"Illinois","lat":39.85263,"lng":-89.09324,"zip":"62537","miles_from_dt":16.32},{"city":"Milmine","state_name":"Illinois","lat":39.92438,"lng":-88.66056,"zip":"61855","miles_from_dt":16.64},{"city":"Assumption","state_name":"Illinois","lat":39.5315,"lng":-89.02706,"zip":"62510","miles_from_dt":16.78},{"city":"Blue Mound","state_name":"Illinois","lat":39.72341,"lng":-89.15296,"zip":"62513","miles_from_dt":16.91},{"city":"Niantic","state_name":"Illinois","lat":39.85357,"lng":-89.15631,"zip":"62551","miles_from_dt":19.26},{"city":"Arthur","state_name":"Illinois","lat":39.70452,"lng":-88.47068,"zip":"61911","miles_from_dt":19.49},{"city":"Bement","state_name":"Illinois","lat":39.90933,"lng":-88.55796,"zip":"61813","miles_from_dt":19.51},{"city":"Stonington","state_name":"Illinois","lat":39.64668,"lng":-89.19082,"zip":"62567","miles_from_dt":19.69},{"city":"Warrensburg","state_name":"Illinois","lat":39.94551,"lng":-89.07264,"zip":"62573","miles_from_dt":19.79},{"city":"Cisco","state_name":"Illinois","lat":40.01122,"lng":-88.72926,"zip":"61830","miles_from_dt":20.58},{"city":"Atwood","state_name":"Illinois","lat":39.82657,"lng":-88.47156,"zip":"61913","miles_from_dt":20.61},{"city":"Shelbyville","state_name":"Illinois","lat":39.41334,"lng":-88.8026,"zip":"62565","miles_from_dt":21.53},{"city":"Mount Auburn","state_name":"Illinois","lat":39.76883,"lng":-89.24929,"zip":"62547","miles_from_dt":22.25},{"city":"Maroa","state_name":"Illinois","lat":40.03311,"lng":-88.96368,"zip":"61756","miles_from_dt":22.36},{"city":"Windsor","state_name":"Illinois","lat":39.4397,"lng":-88.60495,"zip":"61957","miles_from_dt":23.18},{"city":"Latham","state_name":"Illinois","lat":39.97084,"lng":-89.1518,"zip":"62543","miles_from_dt":23.92},{"city":"Illiopolis","state_name":"Illinois","lat":39.86681,"lng":-89.24914,"zip":"62539","miles_from_dt":24.11},{"city":"Tower Hill","state_name":"Illinois","lat":39.38155,"lng":-88.95998,"zip":"62571","miles_from_dt":24.57},{"city":"Monticello","state_name":"Illinois","lat":40.02838,"lng":-88.58211,"zip":"61856","miles_from_dt":24.92},{"city":"Gays","state_name":"Illinois","lat":39.45524,"lng":-88.50284,"zip":"61928","miles_from_dt":25.69},{"city":"Pana","state_name":"Illinois","lat":39.39974,"lng":-89.10503,"zip":"62557","miles_from_dt":26.63},{"city":"Taylorville","state_name":"Illinois","lat":39.55974,"lng":-89.29016,"zip":"62568","miles_from_dt":26.78},{"city":"Ivesdale","state_name":"Illinois","lat":39.96507,"lng":-88.43544,"zip":"61851","miles_from_dt":26.99},{"city":"Humboldt","state_name":"Illinois","lat":39.59067,"lng":-88.35883,"zip":"61931","miles_from_dt":27.04},{"city":"Weldon","state_name":"Illinois","lat":40.11203,"lng":-88.75969,"zip":"61882","miles_from_dt":27.04},{"city":"Owaneco","state_name":"Illinois","lat":39.46755,"lng":-89.21982,"zip":"62555","miles_from_dt":27.11},{"city":"Lane","state_name":"Illinois","lat":40.12251,"lng":-88.8557,"zip":"61750","miles_from_dt":27.48},{"city":"Lakewood","state_name":"Illinois","lat":39.32553,"lng":-88.87005,"zip":"62438","miles_from_dt":27.58},{"city":"Strasburg","state_name":"Illinois","lat":39.34614,"lng":-88.63827,"zip":"62465","miles_from_dt":28.14},{"city":"Sadorus","state_name":"Illinois","lat":39.93586,"lng":-88.38018,"zip":"61872","miles_from_dt":28.27},{"city":"Arcola","state_name":"Illinois","lat":39.67283,"lng":-88.30035,"zip":"61910","miles_from_dt":28.74},{"city":"Edinburg","state_name":"Illinois","lat":39.66754,"lng":-89.37395,"zip":"62531","miles_from_dt":28.97},{"city":"Kenney","state_name":"Illinois","lat":40.09209,"lng":-89.10943,"zip":"61749","miles_from_dt":29.24},{"city":"Chestnut","state_name":"Illinois","lat":40.05154,"lng":-89.19037,"zip":"62518","miles_from_dt":29.41},{"city":"Mount Pulaski","state_name":"Illinois","lat":39.97849,"lng":-89.27988,"zip":"62548","miles_from_dt":29.42},{"city":"Tuscola","state_name":"Illinois","lat":39.79803,"lng":-88.28991,"zip":"61953","miles_from_dt":29.49},{"city":"Mechanicsburg","state_name":"Illinois","lat":39.7661,"lng":-89.38737,"zip":"62545","miles_from_dt":29.53},{"city":"Buffalo","state_name":"Illinois","lat":39.8561,"lng":-89.36622,"zip":"62515","miles_from_dt":29.67},{"city":"Mattoon","state_name":"Illinois","lat":39.48004,"lng":-88.37571,"zip":"61938","miles_from_dt":29.77},{"city":"Clinton","state_name":"Illinois","lat":40.14701,"lng":-88.95245,"zip":"61727","miles_from_dt":29.81}],"targetCityZipCode":"61925","targetCityState":"Illinois"},"__N_SSG":true}