{"pageProps":{"stateName":"Illinois","cityName":"dunfermline","nearbyCities":[{"city":"Saint David","state_name":"Illinois","lat":40.4931,"lng":-90.05108,"zip":"61563","miles_from_dt":0.87},{"city":"Canton","state_name":"Illinois","lat":40.54197,"lng":-90.02156,"zip":"61520","miles_from_dt":3.57},{"city":"Bryant","state_name":"Illinois","lat":40.46463,"lng":-90.09309,"zip":"61519","miles_from_dt":3.58},{"city":"Liverpool","state_name":"Illinois","lat":40.42213,"lng":-89.96842,"zip":"61543","miles_from_dt":5.91},{"city":"Cuba","state_name":"Illinois","lat":40.49823,"lng":-90.19319,"zip":"61427","miles_from_dt":8.36},{"city":"Fiatt","state_name":"Illinois","lat":40.55749,"lng":-90.16866,"zip":"61433","miles_from_dt":8.41},{"city":"Norris","state_name":"Illinois","lat":40.62136,"lng":-90.02686,"zip":"61553","miles_from_dt":8.99},{"city":"Lewistown","state_name":"Illinois","lat":40.38487,"lng":-90.13402,"zip":"61542","miles_from_dt":9.02},{"city":"Topeka","state_name":"Illinois","lat":40.35077,"lng":-89.89899,"zip":"61567","miles_from_dt":12.05},{"city":"Glasford","state_name":"Illinois","lat":40.58736,"lng":-89.84029,"zip":"61533","miles_from_dt":12.19},{"city":"Manito","state_name":"Illinois","lat":40.45212,"lng":-89.80172,"zip":"61546","miles_from_dt":12.57},{"city":"Fairview","state_name":"Illinois","lat":40.65055,"lng":-90.16086,"zip":"61432","miles_from_dt":12.84},{"city":"Farmington","state_name":"Illinois","lat":40.68291,"lng":-90.03482,"zip":"61531","miles_from_dt":13.22},{"city":"Havana","state_name":"Illinois","lat":40.28553,"lng":-90.06022,"zip":"62644","miles_from_dt":14.26},{"city":"Kingston Mines","state_name":"Illinois","lat":40.55375,"lng":-89.77561,"zip":"61539","miles_from_dt":14.31},{"city":"Smithfield","state_name":"Illinois","lat":40.4945,"lng":-90.31402,"zip":"61477","miles_from_dt":14.72},{"city":"Trivoli","state_name":"Illinois","lat":40.67788,"lng":-89.89324,"zip":"61569","miles_from_dt":14.87},{"city":"Ellisville","state_name":"Illinois","lat":40.60315,"lng":-90.2776,"zip":"61431","miles_from_dt":14.94},{"city":"Forest City","state_name":"Illinois","lat":40.34851,"lng":-89.80692,"zip":"61532","miles_from_dt":15.53},{"city":"Ipava","state_name":"Illinois","lat":40.33957,"lng":-90.29336,"zip":"61441","miles_from_dt":17.19},{"city":"Mapleton","state_name":"Illinois","lat":40.60962,"lng":-89.73847,"zip":"61547","miles_from_dt":17.6},{"city":"London Mills","state_name":"Illinois","lat":40.69753,"lng":-90.24273,"zip":"61544","miles_from_dt":17.95},{"city":"Hanna City","state_name":"Illinois","lat":40.69051,"lng":-89.78688,"zip":"61536","miles_from_dt":18.95},{"city":"South Pekin","state_name":"Illinois","lat":40.49848,"lng":-89.65624,"zip":"61564","miles_from_dt":19.94},{"city":"Marietta","state_name":"Illinois","lat":40.50497,"lng":-90.41453,"zip":"61459","miles_from_dt":20.03},{"city":"Easton","state_name":"Illinois","lat":40.22577,"lng":-89.8763,"zip":"62633","miles_from_dt":20.14},{"city":"Green Valley","state_name":"Illinois","lat":40.41499,"lng":-89.66464,"zip":"61534","miles_from_dt":20.2},{"city":"Elmwood","state_name":"Illinois","lat":40.7809,"lng":-89.93673,"zip":"61529","miles_from_dt":20.64},{"city":"Peoria","state_name":"Illinois","lat":40.62895,"lng":-89.68627,"zip":"61607","miles_from_dt":20.65},{"city":"Table Grove","state_name":"Illinois","lat":40.39362,"lng":-90.40766,"zip":"61482","miles_from_dt":20.78},{"city":"Yates City","state_name":"Illinois","lat":40.79768,"lng":-90.0343,"zip":"61572","miles_from_dt":21.14},{"city":"Pekin","state_name":"Illinois","lat":40.56675,"lng":-89.64293,"zip":"61555","miles_from_dt":21.27},{"city":"Maquon","state_name":"Illinois","lat":40.78027,"lng":-90.18107,"zip":"61458","miles_from_dt":21.38},{"city":"Pekin","state_name":"Illinois","lat":40.56747,"lng":-89.63825,"zip":"61558","miles_from_dt":21.52},{"city":"Peoria","state_name":"Illinois","lat":40.65306,"lng":-89.68375,"zip":"61641","miles_from_dt":21.58},{"city":"Pekin","state_name":"Illinois","lat":40.54441,"lng":-89.62181,"zip":"61554","miles_from_dt":22.05},{"city":"Kilbourne","state_name":"Illinois","lat":40.16523,"lng":-89.99515,"zip":"62655","miles_from_dt":22.59},{"city":"Astoria","state_name":"Illinois","lat":40.22797,"lng":-90.31233,"zip":"61501","miles_from_dt":23.34},{"city":"Avon","state_name":"Illinois","lat":40.65425,"lng":-90.42801,"zip":"61415","miles_from_dt":23.55},{"city":"Peoria","state_name":"Illinois","lat":40.70828,"lng":-89.66265,"zip":"61633","miles_from_dt":24.64},{"city":"Peoria","state_name":"Illinois","lat":40.6765,"lng":-89.63317,"zip":"61605","miles_from_dt":24.69},{"city":"Bath","state_name":"Illinois","lat":40.14948,"lng":-90.18109,"zip":"62617","miles_from_dt":24.82},{"city":"Brimfield","state_name":"Illinois","lat":40.823,"lng":-89.85155,"zip":"61517","miles_from_dt":24.83},{"city":"Peoria","state_name":"Illinois","lat":40.70525,"lng":-89.65297,"zip":"61604","miles_from_dt":24.92},{"city":"San Jose","state_name":"Illinois","lat":40.29487,"lng":-89.63541,"zip":"62682","miles_from_dt":25.05},{"city":"Creve Coeur","state_name":"Illinois","lat":40.64294,"lng":-89.59882,"zip":"61610","miles_from_dt":25.21},{"city":"Mason City","state_name":"Illinois","lat":40.21106,"lng":-89.72629,"zip":"62664","miles_from_dt":25.27},{"city":"Vermont","state_name":"Illinois","lat":40.29696,"lng":-90.44153,"zip":"61484","miles_from_dt":25.31},{"city":"Saint Augustine","state_name":"Illinois","lat":40.73419,"lng":-90.39724,"zip":"61474","miles_from_dt":25.39},{"city":"Adair","state_name":"Illinois","lat":40.40105,"lng":-90.50544,"zip":"61411","miles_from_dt":25.58},{"city":"Edwards","state_name":"Illinois","lat":40.7757,"lng":-89.7227,"zip":"61528","miles_from_dt":25.58},{"city":"Peoria","state_name":"Illinois","lat":40.67885,"lng":-89.6076,"zip":"61652","miles_from_dt":25.93},{"city":"Prairie City","state_name":"Illinois","lat":40.60613,"lng":-90.50623,"zip":"61470","miles_from_dt":26.05},{"city":"Peoria","state_name":"Illinois","lat":40.67769,"lng":-89.60371,"zip":"61654","miles_from_dt":26.07},{"city":"Peoria","state_name":"Illinois","lat":40.68,"lng":-89.60427,"zip":"61653","miles_from_dt":26.12},{"city":"Peoria","state_name":"Illinois","lat":40.68351,"lng":-89.60653,"zip":"61656","miles_from_dt":26.14},{"city":"Peoria","state_name":"Illinois","lat":40.68005,"lng":-89.60395,"zip":"61602","miles_from_dt":26.14},{"city":"Peoria","state_name":"Illinois","lat":40.67987,"lng":-89.60219,"zip":"61651","miles_from_dt":26.21},{"city":"Peoria","state_name":"Illinois","lat":40.6978,"lng":-89.61455,"zip":"61625","miles_from_dt":26.3},{"city":"Peoria","state_name":"Illinois","lat":40.68284,"lng":-89.60181,"zip":"61630","miles_from_dt":26.33},{"city":"Bushnell","state_name":"Illinois","lat":40.55084,"lng":-90.53113,"zip":"61422","miles_from_dt":26.46},{"city":"Peoria","state_name":"Illinois","lat":40.70011,"lng":-89.61187,"zip":"61606","miles_from_dt":26.5},{"city":"Peoria","state_name":"Illinois","lat":40.68166,"lng":-89.59449,"zip":"61612","miles_from_dt":26.62},{"city":"Peoria","state_name":"Illinois","lat":40.68366,"lng":-89.59519,"zip":"61655","miles_from_dt":26.66},{"city":"Peoria","state_name":"Illinois","lat":40.693,"lng":-89.59305,"zip":"61629","miles_from_dt":27.08},{"city":"Peoria","state_name":"Illinois","lat":40.7002,"lng":-89.59859,"zip":"61636","miles_from_dt":27.09},{"city":"Peoria","state_name":"Illinois","lat":40.69138,"lng":-89.58871,"zip":"61634","miles_from_dt":27.22},{"city":"Peoria","state_name":"Illinois","lat":40.69401,"lng":-89.59085,"zip":"61601","miles_from_dt":27.22},{"city":"Gilson","state_name":"Illinois","lat":40.86067,"lng":-90.21739,"zip":"61436","miles_from_dt":27.24},{"city":"Peoria","state_name":"Illinois","lat":40.69951,"lng":-89.59014,"zip":"61637","miles_from_dt":27.44},{"city":"Peoria","state_name":"Illinois","lat":40.74237,"lng":-89.62819,"zip":"61613","miles_from_dt":27.51},{"city":"Oakford","state_name":"Illinois","lat":40.09586,"lng":-89.9674,"zip":"62673","miles_from_dt":27.51},{"city":"Groveland","state_name":"Illinois","lat":40.58578,"lng":-89.52316,"zip":"61535","miles_from_dt":27.71},{"city":"Bardolph","state_name":"Illinois","lat":40.49592,"lng":-90.56308,"zip":"61416","miles_from_dt":27.84},{"city":"Delavan","state_name":"Illinois","lat":40.37431,"lng":-89.52549,"zip":"61734","miles_from_dt":28.03},{"city":"Peoria","state_name":"Illinois","lat":40.7122,"lng":-89.57465,"zip":"61603","miles_from_dt":28.6},{"city":"Browning","state_name":"Illinois","lat":40.14993,"lng":-90.34478,"zip":"62624","miles_from_dt":28.68},{"city":"Abingdon","state_name":"Illinois","lat":40.79779,"lng":-90.40703,"zip":"61410","miles_from_dt":28.82},{"city":"Peoria","state_name":"Illinois","lat":40.70966,"lng":-89.5664,"zip":"61639","miles_from_dt":28.87},{"city":"Peoria","state_name":"Illinois","lat":40.78088,"lng":-89.63102,"zip":"61615","miles_from_dt":29.15},{"city":"Peoria","state_name":"Illinois","lat":40.75872,"lng":-89.60486,"zip":"61614","miles_from_dt":29.18},{"city":"Tremont","state_name":"Illinois","lat":40.50484,"lng":-89.47876,"zip":"61568","miles_from_dt":29.3},{"city":"Peoria","state_name":"Illinois","lat":40.72414,"lng":-89.55686,"zip":"61643","miles_from_dt":29.83}],"targetCityZipCode":"61524","targetCityState":"Illinois"},"__N_SSG":true}