{"pageProps":{"stateName":"Illinois","cityName":"fithian","nearbyCities":[{"city":"Muncie","state_name":"Illinois","lat":40.11862,"lng":-87.84337,"zip":"61857","miles_from_dt":2.3},{"city":"Ogden","state_name":"Illinois","lat":40.15065,"lng":-87.96163,"zip":"61859","miles_from_dt":4.81},{"city":"Oakwood","state_name":"Illinois","lat":40.13166,"lng":-87.76438,"zip":"61858","miles_from_dt":5.72},{"city":"Royal","state_name":"Illinois","lat":40.19118,"lng":-87.97925,"zip":"61871","miles_from_dt":6.57},{"city":"Collison","state_name":"Illinois","lat":40.22623,"lng":-87.79705,"zip":"61831","miles_from_dt":6.88},{"city":"Armstrong","state_name":"Illinois","lat":40.25869,"lng":-87.88989,"zip":"61812","miles_from_dt":7.95},{"city":"Fairmount","state_name":"Illinois","lat":40.02775,"lng":-87.82459,"zip":"61841","miles_from_dt":8.41},{"city":"Saint Joseph","state_name":"Illinois","lat":40.14069,"lng":-88.03817,"zip":"61873","miles_from_dt":8.85},{"city":"Homer","state_name":"Illinois","lat":40.01145,"lng":-87.96185,"zip":"61849","miles_from_dt":10.35},{"city":"Catlin","state_name":"Illinois","lat":40.03088,"lng":-87.71991,"zip":"61817","miles_from_dt":11.2},{"city":"Potomac","state_name":"Illinois","lat":40.30362,"lng":-87.80047,"zip":"61865","miles_from_dt":11.61},{"city":"Penfield","state_name":"Illinois","lat":40.30474,"lng":-87.95103,"zip":"61862","miles_from_dt":11.85},{"city":"Tilton","state_name":"Illinois","lat":40.09914,"lng":-87.64718,"zip":"61833","miles_from_dt":12.26},{"city":"Danville","state_name":"Illinois","lat":40.16428,"lng":-87.64028,"zip":"61834","miles_from_dt":12.3},{"city":"Danville","state_name":"Illinois","lat":40.13186,"lng":-87.63256,"zip":"61832","miles_from_dt":12.66},{"city":"Gifford","state_name":"Illinois","lat":40.31148,"lng":-88.01581,"zip":"61847","miles_from_dt":13.84},{"city":"Henning","state_name":"Illinois","lat":40.30694,"lng":-87.70096,"zip":"61848","miles_from_dt":14.38},{"city":"Westville","state_name":"Illinois","lat":40.03494,"lng":-87.63992,"zip":"61883","miles_from_dt":14.39},{"city":"Urbana","state_name":"Illinois","lat":40.12288,"lng":-88.14863,"zip":"61802","miles_from_dt":14.77},{"city":"Sidney","state_name":"Illinois","lat":39.99456,"lng":-88.07764,"zip":"61877","miles_from_dt":15.05},{"city":"Thomasboro","state_name":"Illinois","lat":40.23953,"lng":-88.14945,"zip":"61878","miles_from_dt":16.13},{"city":"Indianola","state_name":"Illinois","lat":39.9301,"lng":-87.74346,"zip":"61850","miles_from_dt":16.26},{"city":"Allerton","state_name":"Illinois","lat":39.91019,"lng":-87.91837,"zip":"61810","miles_from_dt":16.35},{"city":"Sidell","state_name":"Illinois","lat":39.90534,"lng":-87.8398,"zip":"61876","miles_from_dt":16.57},{"city":"Broadlands","state_name":"Illinois","lat":39.92444,"lng":-88.00398,"zip":"61816","miles_from_dt":16.73},{"city":"Alvin","state_name":"Illinois","lat":40.29531,"lng":-87.62162,"zip":"61811","miles_from_dt":16.81},{"city":"Bismarck","state_name":"Illinois","lat":40.23191,"lng":-87.57018,"zip":"61814","miles_from_dt":17.03},{"city":"Georgetown","state_name":"Illinois","lat":39.97601,"lng":-87.61222,"zip":"61846","miles_from_dt":17.98},{"city":"Urbana","state_name":"Illinois","lat":40.10937,"lng":-88.21175,"zip":"61801","miles_from_dt":18.2},{"city":"Urbana","state_name":"Illinois","lat":40.10639,"lng":-88.21405,"zip":"61803","miles_from_dt":18.35},{"city":"Philo","state_name":"Illinois","lat":39.97989,"lng":-88.14437,"zip":"61864","miles_from_dt":18.4},{"city":"State Line","state_name":"Indiana","lat":40.19728,"lng":-87.5268,"zip":"47982","miles_from_dt":18.59},{"city":"Rantoul","state_name":"Illinois","lat":40.31148,"lng":-88.15837,"zip":"61866","miles_from_dt":19.07},{"city":"Rossville","state_name":"Illinois","lat":40.36848,"lng":-87.65115,"zip":"60963","miles_from_dt":19.35},{"city":"Champaign","state_name":"Illinois","lat":40.12077,"lng":-88.2437,"zip":"61824","miles_from_dt":19.8},{"city":"Champaign","state_name":"Illinois","lat":40.10879,"lng":-88.24328,"zip":"61825","miles_from_dt":19.86},{"city":"Champaign","state_name":"Illinois","lat":40.112,"lng":-88.24423,"zip":"61820","miles_from_dt":19.89},{"city":"Longview","state_name":"Illinois","lat":39.89951,"lng":-88.07277,"zip":"61852","miles_from_dt":19.99},{"city":"Rankin","state_name":"Illinois","lat":40.43879,"lng":-87.89132,"zip":"60960","miles_from_dt":20.35},{"city":"Ludlow","state_name":"Illinois","lat":40.38042,"lng":-88.10239,"zip":"60949","miles_from_dt":20.37},{"city":"Ridge Farm","state_name":"Illinois","lat":39.90325,"lng":-87.61562,"zip":"61870","miles_from_dt":21.45},{"city":"Champaign","state_name":"Illinois","lat":40.13706,"lng":-88.27853,"zip":"61826","miles_from_dt":21.58},{"city":"Champaign","state_name":"Illinois","lat":40.11041,"lng":-88.27611,"zip":"61821","miles_from_dt":21.58},{"city":"Savoy","state_name":"Illinois","lat":40.05062,"lng":-88.26078,"zip":"61874","miles_from_dt":21.64},{"city":"Perrysville","state_name":"Indiana","lat":40.04297,"lng":-87.47356,"zip":"47974","miles_from_dt":22.2},{"city":"East Lynn","state_name":"Illinois","lat":40.46513,"lng":-87.80013,"zip":"60932","miles_from_dt":22.45},{"city":"Champaign","state_name":"Illinois","lat":40.13693,"lng":-88.30453,"zip":"61822","miles_from_dt":22.96},{"city":"Tolono","state_name":"Illinois","lat":39.97482,"lng":-88.2458,"zip":"61880","miles_from_dt":23.05},{"city":"Metcalf","state_name":"Illinois","lat":39.80395,"lng":-87.81249,"zip":"61940","miles_from_dt":23.69},{"city":"Hume","state_name":"Illinois","lat":39.79968,"lng":-87.87493,"zip":"61932","miles_from_dt":23.78},{"city":"Newman","state_name":"Illinois","lat":39.81515,"lng":-88.00818,"zip":"61942","miles_from_dt":23.85},{"city":"West Lebanon","state_name":"Indiana","lat":40.28034,"lng":-87.44794,"zip":"47991","miles_from_dt":24.27},{"city":"Covington","state_name":"Indiana","lat":40.12764,"lng":-87.40761,"zip":"47932","miles_from_dt":24.57},{"city":"Villa Grove","state_name":"Illinois","lat":39.8537,"lng":-88.14433,"zip":"61956","miles_from_dt":24.74},{"city":"Hoopeston","state_name":"Illinois","lat":40.46678,"lng":-87.66134,"zip":"60942","miles_from_dt":24.86},{"city":"Paxton","state_name":"Illinois","lat":40.44037,"lng":-88.13977,"zip":"60957","miles_from_dt":24.88},{"city":"Dewey","state_name":"Illinois","lat":40.29663,"lng":-88.30187,"zip":"61840","miles_from_dt":25.09},{"city":"Murdock","state_name":"Illinois","lat":39.80457,"lng":-88.07505,"zip":"61941","miles_from_dt":25.82},{"city":"Cayuga","state_name":"Indiana","lat":39.93237,"lng":-87.46501,"zip":"47928","miles_from_dt":26.03},{"city":"Bondville","state_name":"Illinois","lat":40.11075,"lng":-88.3679,"zip":"61815","miles_from_dt":26.41},{"city":"Williamsport","state_name":"Indiana","lat":40.31161,"lng":-87.41603,"zip":"47993","miles_from_dt":26.69},{"city":"Chrisman","state_name":"Illinois","lat":39.79269,"lng":-87.6506,"zip":"61924","miles_from_dt":26.94},{"city":"Pesotum","state_name":"Illinois","lat":39.90575,"lng":-88.28194,"zip":"61863","miles_from_dt":27.31},{"city":"Loda","state_name":"Illinois","lat":40.52413,"lng":-88.07698,"zip":"60948","miles_from_dt":28.37},{"city":"Cissna Park","state_name":"Illinois","lat":40.55855,"lng":-87.88454,"zip":"60924","miles_from_dt":28.59},{"city":"Camargo","state_name":"Illinois","lat":39.7789,"lng":-88.13727,"zip":"61919","miles_from_dt":28.9},{"city":"Wellington","state_name":"Illinois","lat":40.53654,"lng":-87.66265,"zip":"60973","miles_from_dt":29.22},{"city":"Mahomet","state_name":"Illinois","lat":40.22344,"lng":-88.41555,"zip":"61853","miles_from_dt":29.32},{"city":"Seymour","state_name":"Illinois","lat":40.10421,"lng":-88.42267,"zip":"61875","miles_from_dt":29.34},{"city":"Fisher","state_name":"Illinois","lat":40.31593,"lng":-88.38053,"zip":"61843","miles_from_dt":29.43},{"city":"Brocton","state_name":"Illinois","lat":39.71746,"lng":-87.8941,"zip":"61917","miles_from_dt":29.47},{"city":"Claytonville","state_name":"Illinois","lat":40.56937,"lng":-87.81208,"zip":"60926","miles_from_dt":29.49},{"city":"Goodwine","state_name":"Illinois","lat":40.56696,"lng":-87.77714,"zip":"60939","miles_from_dt":29.58},{"city":"Newport","state_name":"Indiana","lat":39.88843,"lng":-87.41433,"zip":"47966","miles_from_dt":29.98}],"targetCityZipCode":"61844","targetCityState":"Illinois"},"__N_SSG":true}