{"pageProps":{"stateName":"Illinois","cityName":"frederick","nearbyCities":[{"city":"Beardstown","state_name":"Illinois","lat":40.00534,"lng":-90.39542,"zip":"62618","miles_from_dt":5.55},{"city":"Rushville","state_name":"Illinois","lat":40.13841,"lng":-90.55885,"zip":"62681","miles_from_dt":7.56},{"city":"Bluff Springs","state_name":"Illinois","lat":39.97786,"lng":-90.34302,"zip":"62622","miles_from_dt":8.9},{"city":"Browning","state_name":"Illinois","lat":40.14993,"lng":-90.34478,"zip":"62624","miles_from_dt":10.54},{"city":"Arenzville","state_name":"Illinois","lat":39.88493,"lng":-90.39984,"zip":"62611","miles_from_dt":11.89},{"city":"Versailles","state_name":"Illinois","lat":39.89602,"lng":-90.63652,"zip":"62378","miles_from_dt":12.89},{"city":"Camden","state_name":"Illinois","lat":40.15293,"lng":-90.72997,"zip":"62319","miles_from_dt":14.9},{"city":"Mount Sterling","state_name":"Illinois","lat":39.97277,"lng":-90.75735,"zip":"62353","miles_from_dt":15.12},{"city":"Virginia","state_name":"Illinois","lat":39.95731,"lng":-90.22246,"zip":"62691","miles_from_dt":15.27},{"city":"Astoria","state_name":"Illinois","lat":40.22797,"lng":-90.31233,"zip":"61501","miles_from_dt":15.75},{"city":"Meredosia","state_name":"Illinois","lat":39.81627,"lng":-90.53462,"zip":"62665","miles_from_dt":15.88},{"city":"Littleton","state_name":"Illinois","lat":40.23836,"lng":-90.66022,"zip":"61452","miles_from_dt":16.26},{"city":"Concord","state_name":"Illinois","lat":39.82531,"lng":-90.36122,"zip":"62631","miles_from_dt":16.48},{"city":"Vermont","state_name":"Illinois","lat":40.29696,"lng":-90.44153,"zip":"61484","miles_from_dt":17.66},{"city":"Bath","state_name":"Illinois","lat":40.14948,"lng":-90.18109,"zip":"62617","miles_from_dt":17.81},{"city":"Chapin","state_name":"Illinois","lat":39.7794,"lng":-90.40199,"zip":"62628","miles_from_dt":18.78},{"city":"Chandlerville","state_name":"Illinois","lat":40.05425,"lng":-90.12887,"zip":"62627","miles_from_dt":19.03},{"city":"Chambersburg","state_name":"Illinois","lat":39.81306,"lng":-90.68607,"zip":"62323","miles_from_dt":19.08},{"city":"Industry","state_name":"Illinois","lat":40.3079,"lng":-90.59786,"zip":"61440","miles_from_dt":19.15},{"city":"Literberry","state_name":"Illinois","lat":39.85677,"lng":-90.19761,"zip":"62660","miles_from_dt":20.07},{"city":"Huntsville","state_name":"Illinois","lat":40.1799,"lng":-90.82497,"zip":"62344","miles_from_dt":20.2},{"city":"Timewell","state_name":"Illinois","lat":39.99782,"lng":-90.87176,"zip":"62375","miles_from_dt":20.62},{"city":"Bluffs","state_name":"Illinois","lat":39.73174,"lng":-90.5309,"zip":"62621","miles_from_dt":21.63},{"city":"Ipava","state_name":"Illinois","lat":40.33957,"lng":-90.29336,"zip":"61441","miles_from_dt":22.87},{"city":"Perry","state_name":"Illinois","lat":39.77618,"lng":-90.76429,"zip":"62362","miles_from_dt":23.59},{"city":"Ashland","state_name":"Illinois","lat":39.89864,"lng":-90.0683,"zip":"62612","miles_from_dt":24.4},{"city":"Table Grove","state_name":"Illinois","lat":40.39362,"lng":-90.40766,"zip":"61482","miles_from_dt":24.52},{"city":"La Prairie","state_name":"Illinois","lat":40.14367,"lng":-90.93418,"zip":"62346","miles_from_dt":24.66},{"city":"Adair","state_name":"Illinois","lat":40.40105,"lng":-90.50544,"zip":"61411","miles_from_dt":24.69},{"city":"Jacksonville","state_name":"Illinois","lat":39.72757,"lng":-90.26403,"zip":"62651","miles_from_dt":24.82},{"city":"Jacksonville","state_name":"Illinois","lat":39.73799,"lng":-90.22027,"zip":"62650","miles_from_dt":25.42},{"city":"Clayton","state_name":"Illinois","lat":39.9901,"lng":-90.96302,"zip":"62324","miles_from_dt":25.49},{"city":"Griggsville","state_name":"Illinois","lat":39.7228,"lng":-90.72588,"zip":"62340","miles_from_dt":25.5},{"city":"Augusta","state_name":"Illinois","lat":40.22195,"lng":-90.9212,"zip":"62311","miles_from_dt":26.06},{"city":"Plymouth","state_name":"Illinois","lat":40.30325,"lng":-90.86687,"zip":"62367","miles_from_dt":26.91},{"city":"Kilbourne","state_name":"Illinois","lat":40.16523,"lng":-89.99515,"zip":"62655","miles_from_dt":27.41},{"city":"Oakford","state_name":"Illinois","lat":40.09586,"lng":-89.9674,"zip":"62673","miles_from_dt":27.81},{"city":"Havana","state_name":"Illinois","lat":40.28553,"lng":-90.06022,"zip":"62644","miles_from_dt":28.12},{"city":"Baylis","state_name":"Illinois","lat":39.76967,"lng":-90.89204,"zip":"62314","miles_from_dt":28.62},{"city":"Macomb","state_name":"Illinois","lat":40.44047,"lng":-90.65115,"zip":"61455","miles_from_dt":28.72},{"city":"Winchester","state_name":"Illinois","lat":39.62463,"lng":-90.47274,"zip":"62694","miles_from_dt":28.91},{"city":"Golden","state_name":"Illinois","lat":40.12898,"lng":-91.04196,"zip":"62339","miles_from_dt":29.97}],"targetCityZipCode":"62639","targetCityState":"Illinois"},"__N_SSG":true}