{"pageProps":{"stateName":"Illinois","cityName":"hampshire","nearbyCities":[{"city":"Burlington","state_name":"Illinois","lat":42.04448,"lng":-88.56261,"zip":"60109","miles_from_dt":3.71},{"city":"Elgin","state_name":"Illinois","lat":42.02621,"lng":-88.39691,"zip":"60124","miles_from_dt":6.84},{"city":"Gilberts","state_name":"Illinois","lat":42.1053,"lng":-88.37808,"zip":"60136","miles_from_dt":6.93},{"city":"Huntley","state_name":"Illinois","lat":42.17517,"lng":-88.44486,"zip":"60142","miles_from_dt":7.34},{"city":"Genoa","state_name":"Illinois","lat":42.11265,"lng":-88.67867,"zip":"60135","miles_from_dt":9.03},{"city":"Sycamore","state_name":"Illinois","lat":42.00625,"lng":-88.67205,"zip":"60178","miles_from_dt":9.83},{"city":"Union","state_name":"Illinois","lat":42.22342,"lng":-88.52023,"zip":"60180","miles_from_dt":9.91},{"city":"Elgin","state_name":"Illinois","lat":42.04011,"lng":-88.31166,"zip":"60123","miles_from_dt":10.5},{"city":"Dundee","state_name":"Illinois","lat":42.10793,"lng":-88.30614,"zip":"60118","miles_from_dt":10.58},{"city":"Wasco","state_name":"Illinois","lat":41.94019,"lng":-88.40908,"zip":"60183","miles_from_dt":10.93},{"city":"Saint Charles","state_name":"Illinois","lat":41.94695,"lng":-88.3913,"zip":"60175","miles_from_dt":10.99},{"city":"Lake In The Hills","state_name":"Illinois","lat":42.19121,"lng":-88.34788,"zip":"60156","miles_from_dt":11.27},{"city":"Maple Park","state_name":"Illinois","lat":41.9172,"lng":-88.56613,"zip":"60151","miles_from_dt":11.62},{"city":"Carpentersville","state_name":"Illinois","lat":42.12296,"lng":-88.2883,"zip":"60110","miles_from_dt":11.7},{"city":"Carol Stream","state_name":"Illinois","lat":42.03672,"lng":-88.28834,"zip":"60122","miles_from_dt":11.72},{"city":"Algonquin","state_name":"Illinois","lat":42.16406,"lng":-88.30928,"zip":"60102","miles_from_dt":11.77},{"city":"South Elgin","state_name":"Illinois","lat":41.98931,"lng":-88.30987,"zip":"60177","miles_from_dt":11.99},{"city":"Elgin","state_name":"Illinois","lat":42.03786,"lng":-88.27964,"zip":"60121","miles_from_dt":12.13},{"city":"Marengo","state_name":"Illinois","lat":42.23882,"lng":-88.62597,"zip":"60152","miles_from_dt":12.51},{"city":"Crystal Lake","state_name":"Illinois","lat":42.22837,"lng":-88.33123,"zip":"60039","miles_from_dt":13.7},{"city":"Kingston","state_name":"Illinois","lat":42.09396,"lng":-88.77719,"zip":"60145","miles_from_dt":13.84},{"city":"Crystal Lake","state_name":"Illinois","lat":42.23126,"lng":-88.32679,"zip":"60014","miles_from_dt":14},{"city":"Lafox","state_name":"Illinois","lat":41.88416,"lng":-88.43245,"zip":"60147","miles_from_dt":14.08},{"city":"Cortland","state_name":"Illinois","lat":41.92391,"lng":-88.68994,"zip":"60112","miles_from_dt":14.26},{"city":"Elgin","state_name":"Illinois","lat":42.03317,"lng":-88.2374,"zip":"60120","miles_from_dt":14.32},{"city":"Hoffman Estates","state_name":"Illinois","lat":42.07971,"lng":-88.22425,"zip":"60179","miles_from_dt":14.62},{"city":"Saint Charles","state_name":"Illinois","lat":41.92759,"lng":-88.29906,"zip":"60174","miles_from_dt":15.07},{"city":"Elburn","state_name":"Illinois","lat":41.86154,"lng":-88.47702,"zip":"60119","miles_from_dt":15.17},{"city":"Wayne","state_name":"Illinois","lat":41.95208,"lng":-88.25323,"zip":"60184","miles_from_dt":15.83},{"city":"Geneva","state_name":"Illinois","lat":41.8784,"lng":-88.34189,"zip":"60134","miles_from_dt":16.35},{"city":"Barrington","state_name":"Illinois","lat":42.18603,"lng":-88.22026,"zip":"60011","miles_from_dt":16.52},{"city":"Crystal Lake","state_name":"Illinois","lat":42.27199,"lng":-88.31157,"zip":"60012","miles_from_dt":16.67},{"city":"Kaneville","state_name":"Illinois","lat":41.83507,"lng":-88.51984,"zip":"60144","miles_from_dt":16.92},{"city":"Fox River Grove","state_name":"Illinois","lat":42.19511,"lng":-88.21768,"zip":"60021","miles_from_dt":16.92},{"city":"Cary","state_name":"Illinois","lat":42.22027,"lng":-88.23568,"zip":"60013","miles_from_dt":17.03},{"city":"Woodstock","state_name":"Illinois","lat":42.32468,"lng":-88.45672,"zip":"60098","miles_from_dt":17.09},{"city":"Bartlett","state_name":"Illinois","lat":41.97816,"lng":-88.20511,"zip":"60103","miles_from_dt":17.13},{"city":"Garden Prairie","state_name":"Illinois","lat":42.26344,"lng":-88.73586,"zip":"61038","miles_from_dt":17.22},{"city":"Clare","state_name":"Illinois","lat":42.00721,"lng":-88.83114,"zip":"60111","miles_from_dt":17.34},{"city":"Streamwood","state_name":"Illinois","lat":42.02148,"lng":-88.1783,"zip":"60107","miles_from_dt":17.46},{"city":"Hoffman Estates","state_name":"Illinois","lat":42.07265,"lng":-88.16797,"zip":"60192","miles_from_dt":17.52},{"city":"Dekalb","state_name":"Illinois","lat":41.90109,"lng":-88.75469,"zip":"60115","miles_from_dt":17.69},{"city":"Barrington","state_name":"Illinois","lat":42.15255,"lng":-88.16519,"zip":"60010","miles_from_dt":18.34},{"city":"Kirkland","state_name":"Illinois","lat":42.10091,"lng":-88.88019,"zip":"60146","miles_from_dt":19.16},{"city":"Batavia","state_name":"Illinois","lat":41.84283,"lng":-88.31189,"zip":"60510","miles_from_dt":19.25},{"city":"Mooseheart","state_name":"Illinois","lat":41.825,"lng":-88.33529,"zip":"60539","miles_from_dt":19.74},{"city":"Schaumburg","state_name":"Illinois","lat":42.04543,"lng":-88.12663,"zip":"60168","miles_from_dt":19.79},{"city":"West Chicago","state_name":"Illinois","lat":41.89308,"lng":-88.21498,"zip":"60185","miles_from_dt":19.88},{"city":"Hanover Park","state_name":"Illinois","lat":41.97805,"lng":-88.14291,"zip":"60133","miles_from_dt":20.09},{"city":"Hoffman Estates","state_name":"Illinois","lat":42.05192,"lng":-88.11656,"zip":"60169","miles_from_dt":20.25},{"city":"Mchenry","state_name":"Illinois","lat":42.32915,"lng":-88.29363,"zip":"60050","miles_from_dt":20.43},{"city":"North Aurora","state_name":"Illinois","lat":41.80878,"lng":-88.3489,"zip":"60542","miles_from_dt":20.45},{"city":"Belvidere","state_name":"Illinois","lat":42.24579,"lng":-88.83949,"zip":"61008","miles_from_dt":20.48},{"city":"West Chicago","state_name":"Illinois","lat":41.88491,"lng":-88.20651,"zip":"60186","miles_from_dt":20.58},{"city":"Schaumburg","state_name":"Illinois","lat":42.03339,"lng":-88.11125,"zip":"60194","miles_from_dt":20.69},{"city":"Sugar Grove","state_name":"Illinois","lat":41.77852,"lng":-88.45838,"zip":"60554","miles_from_dt":20.97},{"city":"Island Lake","state_name":"Illinois","lat":42.27913,"lng":-88.19777,"zip":"60042","miles_from_dt":21.06},{"city":"Palatine","state_name":"Illinois","lat":42.09915,"lng":-88.09751,"zip":"60094","miles_from_dt":21.17},{"city":"Arlington Heights","state_name":"Illinois","lat":42.13061,"lng":-88.09234,"zip":"60006","miles_from_dt":21.68},{"city":"Schaumburg","state_name":"Illinois","lat":42.06541,"lng":-88.08657,"zip":"60195","miles_from_dt":21.73},{"city":"Schaumburg","state_name":"Illinois","lat":42.01195,"lng":-88.09552,"zip":"60193","miles_from_dt":21.76},{"city":"Hinckley","state_name":"Illinois","lat":41.7826,"lng":-88.65808,"zip":"60520","miles_from_dt":21.93},{"city":"Schaumburg","state_name":"Illinois","lat":42.03662,"lng":-88.0833,"zip":"60159","miles_from_dt":22.08},{"city":"Carol Stream","state_name":"Illinois","lat":41.91446,"lng":-88.13831,"zip":"60197","miles_from_dt":22.23},{"city":"Big Rock","state_name":"Illinois","lat":41.75778,"lng":-88.55601,"zip":"60511","miles_from_dt":22.37},{"city":"Carol Stream","state_name":"Illinois","lat":41.9137,"lng":-88.13383,"zip":"60116","miles_from_dt":22.45},{"city":"Malta","state_name":"Illinois","lat":41.92106,"lng":-88.88982,"zip":"60150","miles_from_dt":22.48},{"city":"Palatine","state_name":"Illinois","lat":42.12521,"lng":-88.07503,"zip":"60055","miles_from_dt":22.5},{"city":"Carol Stream","state_name":"Illinois","lat":41.91562,"lng":-88.12958,"zip":"60188","miles_from_dt":22.57},{"city":"Aurora","state_name":"Illinois","lat":41.78532,"lng":-88.31845,"zip":"60507","miles_from_dt":22.58},{"city":"Fox Valley","state_name":"Illinois","lat":41.7721,"lng":-88.3574,"zip":"60599","miles_from_dt":22.64},{"city":"Roselle","state_name":"Illinois","lat":41.97976,"lng":-88.08937,"zip":"60172","miles_from_dt":22.66},{"city":"Palatine","state_name":"Illinois","lat":42.10773,"lng":-88.06478,"zip":"60067","miles_from_dt":22.89},{"city":"Wonder Lake","state_name":"Illinois","lat":42.39343,"lng":-88.36164,"zip":"60097","miles_from_dt":22.91},{"city":"Wauconda","state_name":"Illinois","lat":42.26807,"lng":-88.13856,"zip":"60084","miles_from_dt":23.01},{"city":"Winfield","state_name":"Illinois","lat":41.87319,"lng":-88.1576,"zip":"60190","miles_from_dt":23.03},{"city":"Aurora","state_name":"Illinois","lat":41.76176,"lng":-88.37125,"zip":"60506","miles_from_dt":23.08},{"city":"Esmond","state_name":"Illinois","lat":42.02963,"lng":-88.95371,"zip":"60129","miles_from_dt":23.16},{"city":"Bloomingdale","state_name":"Illinois","lat":41.94905,"lng":-88.09232,"zip":"60108","miles_from_dt":23.25},{"city":"Schaumburg","state_name":"Illinois","lat":42.05287,"lng":-88.0526,"zip":"60173","miles_from_dt":23.53},{"city":"Carol Stream","state_name":"Illinois","lat":41.91685,"lng":-88.10577,"zip":"60128","miles_from_dt":23.6},{"city":"Schaumburg","state_name":"Illinois","lat":42.07148,"lng":-88.04924,"zip":"60196","miles_from_dt":23.63},{"city":"Bloomingdale","state_name":"Illinois","lat":41.94579,"lng":-88.08482,"zip":"60117","miles_from_dt":23.7},{"city":"Mchenry","state_name":"Illinois","lat":42.35099,"lng":-88.22412,"zip":"60051","miles_from_dt":23.72},{"city":"Carol Stream","state_name":"Illinois","lat":41.91951,"lng":-88.10095,"zip":"60132","miles_from_dt":23.73},{"city":"Aurora","state_name":"Illinois","lat":41.76606,"lng":-88.32002,"zip":"60572","miles_from_dt":23.75},{"city":"Carol Stream","state_name":"Illinois","lat":41.91612,"lng":-88.10308,"zip":"60199","miles_from_dt":23.75},{"city":"Aurora","state_name":"Illinois","lat":41.81211,"lng":-88.21715,"zip":"60569","miles_from_dt":23.82},{"city":"Aurora","state_name":"Illinois","lat":41.78911,"lng":-88.25952,"zip":"60502","miles_from_dt":23.83},{"city":"Cherry Valley","state_name":"Illinois","lat":42.19761,"lng":-88.94704,"zip":"61016","miles_from_dt":23.94},{"city":"Warrenville","state_name":"Illinois","lat":41.82261,"lng":-88.18854,"zip":"60555","miles_from_dt":24.24},{"city":"Harvard","state_name":"Illinois","lat":42.42333,"lng":-88.61104,"zip":"60033","miles_from_dt":24.27},{"city":"Aurora","state_name":"Illinois","lat":41.76527,"lng":-88.29576,"zip":"60505","miles_from_dt":24.34},{"city":"Medinah","state_name":"Illinois","lat":41.974,"lng":-88.05476,"zip":"60157","miles_from_dt":24.47},{"city":"Ringwood","state_name":"Illinois","lat":42.40647,"lng":-88.30637,"zip":"60072","miles_from_dt":24.8},{"city":"Glendale Heights","state_name":"Illinois","lat":41.91916,"lng":-88.07735,"zip":"60139","miles_from_dt":24.82},{"city":"Aurora","state_name":"Illinois","lat":41.77478,"lng":-88.25068,"zip":"60598","miles_from_dt":24.91},{"city":"Wheaton","state_name":"Illinois","lat":41.87231,"lng":-88.1126,"zip":"60187","miles_from_dt":24.93},{"city":"Rolling Meadows","state_name":"Illinois","lat":42.0739,"lng":-88.0229,"zip":"60008","miles_from_dt":24.98},{"city":"Eola","state_name":"Illinois","lat":41.77724,"lng":-88.24255,"zip":"60519","miles_from_dt":24.99},{"city":"Palatine","state_name":"Illinois","lat":42.13179,"lng":-88.02658,"zip":"60074","miles_from_dt":25.03},{"city":"Aurora","state_name":"Illinois","lat":41.77339,"lng":-88.24738,"zip":"60568","miles_from_dt":25.08},{"city":"Lake Zurich","state_name":"Illinois","lat":42.20202,"lng":-88.04522,"zip":"60047","miles_from_dt":25.25},{"city":"Monroe Center","state_name":"Illinois","lat":42.11146,"lng":-89.00011,"zip":"61052","miles_from_dt":25.36},{"city":"Palatine","state_name":"Illinois","lat":42.0966,"lng":-88.01131,"zip":"60038","miles_from_dt":25.59},{"city":"Creston","state_name":"Illinois","lat":41.93142,"lng":-88.96421,"zip":"60113","miles_from_dt":25.6},{"city":"Palatine","state_name":"Illinois","lat":42.09808,"lng":-88.01065,"zip":"60095","miles_from_dt":25.63},{"city":"Waterman","state_name":"Illinois","lat":41.76507,"lng":-88.77373,"zip":"60556","miles_from_dt":25.68},{"city":"Lindenwood","state_name":"Illinois","lat":42.04417,"lng":-89.00753,"zip":"61049","miles_from_dt":25.78},{"city":"Capron","state_name":"Illinois","lat":42.40749,"lng":-88.75446,"zip":"61012","miles_from_dt":25.88},{"city":"Montgomery","state_name":"Illinois","lat":41.72165,"lng":-88.35637,"zip":"60538","miles_from_dt":25.95},{"city":"Wheaton","state_name":"Illinois","lat":41.83957,"lng":-88.12128,"zip":"60189","miles_from_dt":25.95},{"city":"Naperville","state_name":"Illinois","lat":41.79933,"lng":-88.16884,"zip":"60563","miles_from_dt":26.11},{"city":"Itasca","state_name":"Illinois","lat":41.97351,"lng":-88.02071,"zip":"60143","miles_from_dt":26.16},{"city":"Bristol","state_name":"Illinois","lat":41.70134,"lng":-88.43986,"zip":"60512","miles_from_dt":26.38},{"city":"Rockford","state_name":"Illinois","lat":42.24193,"lng":-88.97523,"zip":"61112","miles_from_dt":26.44},{"city":"Hebron","state_name":"Illinois","lat":42.45869,"lng":-88.42665,"zip":"60034","miles_from_dt":26.47},{"city":"Elk Grove Village","state_name":"Illinois","lat":42.01431,"lng":-87.99828,"zip":"60007","miles_from_dt":26.64},{"city":"Glen Ellyn","state_name":"Illinois","lat":41.87982,"lng":-88.06434,"zip":"60138","miles_from_dt":26.73},{"city":"Arlington Heights","state_name":"Illinois","lat":42.06518,"lng":-87.98676,"zip":"60005","miles_from_dt":26.85},{"city":"Aurora","state_name":"Illinois","lat":41.74649,"lng":-88.23957,"zip":"60504","miles_from_dt":26.87},{"city":"Ingleside","state_name":"Illinois","lat":42.36939,"lng":-88.15309,"zip":"60041","miles_from_dt":27.05},{"city":"Elk Grove Village","state_name":"Illinois","lat":42.00838,"lng":-87.99153,"zip":"60009","miles_from_dt":27.06},{"city":"Arlington Heights","state_name":"Illinois","lat":42.11206,"lng":-87.97895,"zip":"60004","miles_from_dt":27.32},{"city":"Glen Ellyn","state_name":"Illinois","lat":41.86539,"lng":-88.06225,"zip":"60137","miles_from_dt":27.35},{"city":"Mundelein","state_name":"Illinois","lat":42.26945,"lng":-88.03997,"zip":"60060","miles_from_dt":27.38},{"city":"Addison","state_name":"Illinois","lat":41.931,"lng":-88.01072,"zip":"60101","miles_from_dt":27.62},{"city":"Naperville","state_name":"Illinois","lat":41.78382,"lng":-88.1469,"zip":"60567","miles_from_dt":27.67},{"city":"Fox Lake","state_name":"Illinois","lat":42.39543,"lng":-88.17349,"zip":"60020","miles_from_dt":27.74},{"city":"Plano","state_name":"Illinois","lat":41.67815,"lng":-88.53587,"zip":"60545","miles_from_dt":27.77},{"city":"Round Lake","state_name":"Illinois","lat":42.3516,"lng":-88.10597,"zip":"60073","miles_from_dt":27.89},{"city":"Poplar Grove","state_name":"Illinois","lat":42.40786,"lng":-88.82747,"zip":"61065","miles_from_dt":27.92},{"city":"Rockford","state_name":"Illinois","lat":42.23736,"lng":-89.01238,"zip":"61125","miles_from_dt":28.06},{"city":"Rockford","state_name":"Illinois","lat":42.25515,"lng":-89.00236,"zip":"61108","miles_from_dt":28.09},{"city":"Shabbona","state_name":"Illinois","lat":41.77708,"lng":-88.87777,"zip":"60550","miles_from_dt":28.27},{"city":"Wood Dale","state_name":"Illinois","lat":41.9647,"lng":-87.98087,"zip":"60191","miles_from_dt":28.3},{"city":"Richmond","state_name":"Illinois","lat":42.46403,"lng":-88.30975,"zip":"60071","miles_from_dt":28.4},{"city":"Rockford","state_name":"Illinois","lat":42.25363,"lng":-89.01795,"zip":"61126","miles_from_dt":28.77},{"city":"Naperville","state_name":"Illinois","lat":41.76361,"lng":-88.14476,"zip":"60540","miles_from_dt":28.79},{"city":"Buffalo Grove","state_name":"Illinois","lat":42.16736,"lng":-87.96076,"zip":"60089","miles_from_dt":28.79},{"city":"Aurora","state_name":"Illinois","lat":41.7079,"lng":-88.25475,"zip":"60503","miles_from_dt":28.83},{"city":"Lombard","state_name":"Illinois","lat":41.87505,"lng":-88.01859,"zip":"60148","miles_from_dt":28.93},{"city":"Rockford","state_name":"Illinois","lat":42.28344,"lng":-89.00348,"zip":"61107","miles_from_dt":29.03},{"city":"Rockford","state_name":"Illinois","lat":42.1924,"lng":-89.05392,"zip":"61109","miles_from_dt":29.07},{"city":"Rockford","state_name":"Illinois","lat":42.30854,"lng":-88.9892,"zip":"61114","miles_from_dt":29.28},{"city":"Lisle","state_name":"Illinois","lat":41.79153,"lng":-88.08576,"zip":"60532","miles_from_dt":29.52},{"city":"Mount Prospect","state_name":"Illinois","lat":42.06618,"lng":-87.93473,"zip":"60056","miles_from_dt":29.53},{"city":"Spring Grove","state_name":"Illinois","lat":42.45115,"lng":-88.22173,"zip":"60081","miles_from_dt":29.54},{"city":"Grayslake","state_name":"Illinois","lat":42.33536,"lng":-88.04519,"zip":"60030","miles_from_dt":29.6},{"city":"Caledonia","state_name":"Illinois","lat":42.38926,"lng":-88.91266,"zip":"61011","miles_from_dt":29.75},{"city":"Prospect Heights","state_name":"Illinois","lat":42.10406,"lng":-87.92768,"zip":"60070","miles_from_dt":29.91},{"city":"Zenda","state_name":"Wisconsin","lat":42.51397,"lng":-88.49016,"zip":"53195","miles_from_dt":29.97}],"targetCityZipCode":"60140","targetCityState":"Illinois"},"__N_SSG":true}