{"pageProps":{"stateName":"Illinois","cityName":"hillsboro","nearbyCities":[{"city":"Taylor Springs","state_name":"Illinois","lat":39.12111,"lng":-89.48673,"zip":"62089","miles_from_dt":0.58},{"city":"Irving","state_name":"Illinois","lat":39.20309,"lng":-89.40244,"zip":"62051","miles_from_dt":6.77},{"city":"Butler","state_name":"Illinois","lat":39.22011,"lng":-89.54203,"zip":"62015","miles_from_dt":6.94},{"city":"Panama","state_name":"Illinois","lat":39.03133,"lng":-89.51605,"zip":"62077","miles_from_dt":6.97},{"city":"Coffeen","state_name":"Illinois","lat":39.06597,"lng":-89.36945,"zip":"62017","miles_from_dt":7.63},{"city":"Donnellson","state_name":"Illinois","lat":39.01598,"lng":-89.45195,"zip":"62019","miles_from_dt":8.04},{"city":"Walshville","state_name":"Illinois","lat":39.05594,"lng":-89.61222,"zip":"62091","miles_from_dt":8.48},{"city":"Litchfield","state_name":"Illinois","lat":39.1765,"lng":-89.67165,"zip":"62056","miles_from_dt":10.5},{"city":"Fillmore","state_name":"Illinois","lat":39.1158,"lng":-89.28833,"zip":"62032","miles_from_dt":10.65},{"city":"Witt","state_name":"Illinois","lat":39.2441,"lng":-89.34871,"zip":"62094","miles_from_dt":10.8},{"city":"Sorento","state_name":"Illinois","lat":38.98302,"lng":-89.58556,"zip":"62086","miles_from_dt":11.44},{"city":"Raymond","state_name":"Illinois","lat":39.3005,"lng":-89.60377,"zip":"62560","miles_from_dt":13.39},{"city":"Mount Olive","state_name":"Illinois","lat":39.08892,"lng":-89.74044,"zip":"62069","miles_from_dt":13.97},{"city":"Bingham","state_name":"Illinois","lat":39.12862,"lng":-89.21755,"zip":"62011","miles_from_dt":14.41},{"city":"Nokomis","state_name":"Illinois","lat":39.30143,"lng":-89.29676,"zip":"62075","miles_from_dt":15.6},{"city":"Harvel","state_name":"Illinois","lat":39.35631,"lng":-89.52051,"zip":"62538","miles_from_dt":15.76},{"city":"New Douglas","state_name":"Illinois","lat":38.95594,"lng":-89.68338,"zip":"62074","miles_from_dt":16.01},{"city":"Eagarville","state_name":"Illinois","lat":39.10794,"lng":-89.78278,"zip":"62023","miles_from_dt":16.03},{"city":"Greenville","state_name":"Illinois","lat":38.88834,"lng":-89.42533,"zip":"62246","miles_from_dt":16.95},{"city":"Benld","state_name":"Illinois","lat":39.09351,"lng":-89.79856,"zip":"62009","miles_from_dt":17},{"city":"Sawyerville","state_name":"Illinois","lat":39.07839,"lng":-89.80308,"zip":"62085","miles_from_dt":17.42},{"city":"Mulberry Grove","state_name":"Illinois","lat":38.9371,"lng":-89.26916,"zip":"62262","miles_from_dt":17.66},{"city":"Staunton","state_name":"Illinois","lat":39.01318,"lng":-89.79764,"zip":"62088","miles_from_dt":18.59},{"city":"Livingston","state_name":"Illinois","lat":38.96793,"lng":-89.76491,"zip":"62058","miles_from_dt":18.7},{"city":"Gillespie","state_name":"Illinois","lat":39.13561,"lng":-89.84447,"zip":"62033","miles_from_dt":19.28},{"city":"Waggoner","state_name":"Illinois","lat":39.35908,"lng":-89.69778,"zip":"62572","miles_from_dt":19.5},{"city":"Wilsonville","state_name":"Illinois","lat":39.06858,"lng":-89.84573,"zip":"62093","miles_from_dt":19.8},{"city":"Ohlman","state_name":"Illinois","lat":39.34186,"lng":-89.23383,"zip":"62076","miles_from_dt":19.93},{"city":"Smithboro","state_name":"Illinois","lat":38.86867,"lng":-89.31107,"zip":"62284","miles_from_dt":20.3},{"city":"Ramsey","state_name":"Illinois","lat":39.14115,"lng":-89.10569,"zip":"62080","miles_from_dt":20.43},{"city":"Morrisonville","state_name":"Illinois","lat":39.43042,"lng":-89.44281,"zip":"62546","miles_from_dt":20.89},{"city":"Rosamond","state_name":"Illinois","lat":39.35122,"lng":-89.19842,"zip":"62083","miles_from_dt":21.71},{"city":"Pocahontas","state_name":"Illinois","lat":38.81507,"lng":-89.54496,"zip":"62275","miles_from_dt":21.92},{"city":"Alhambra","state_name":"Illinois","lat":38.87971,"lng":-89.74562,"zip":"62001","miles_from_dt":22.19},{"city":"Vandalia","state_name":"Illinois","lat":38.95859,"lng":-89.13257,"zip":"62471","miles_from_dt":22.36},{"city":"Oconee","state_name":"Illinois","lat":39.27182,"lng":-89.10509,"zip":"62553","miles_from_dt":22.67},{"city":"Farmersville","state_name":"Illinois","lat":39.44483,"lng":-89.626,"zip":"62533","miles_from_dt":23.02},{"city":"Carlinville","state_name":"Illinois","lat":39.28459,"lng":-89.88362,"zip":"62626","miles_from_dt":23.89},{"city":"Worden","state_name":"Illinois","lat":38.93719,"lng":-89.85507,"zip":"62097","miles_from_dt":23.89},{"city":"Palmer","state_name":"Illinois","lat":39.46674,"lng":-89.37049,"zip":"62556","miles_from_dt":24.07},{"city":"Pierron","state_name":"Illinois","lat":38.78673,"lng":-89.58389,"zip":"62273","miles_from_dt":24.23},{"city":"Nilwood","state_name":"Illinois","lat":39.39802,"lng":-89.80444,"zip":"62672","miles_from_dt":25.2},{"city":"Hamel","state_name":"Illinois","lat":38.88935,"lng":-89.84397,"zip":"62046","miles_from_dt":25.42},{"city":"Bunker Hill","state_name":"Illinois","lat":39.04313,"lng":-89.94999,"zip":"62014","miles_from_dt":25.66},{"city":"Keyesport","state_name":"Illinois","lat":38.77554,"lng":-89.29738,"zip":"62253","miles_from_dt":26.44},{"city":"Girard","state_name":"Illinois","lat":39.43183,"lng":-89.80746,"zip":"62640","miles_from_dt":27.07},{"city":"Herrick","state_name":"Illinois","lat":39.22981,"lng":-88.99382,"zip":"62431","miles_from_dt":27.3},{"city":"Owaneco","state_name":"Illinois","lat":39.46755,"lng":-89.21982,"zip":"62555","miles_from_dt":27.33},{"city":"Shipman","state_name":"Illinois","lat":39.14209,"lng":-89.99689,"zip":"62685","miles_from_dt":27.48},{"city":"Highland","state_name":"Illinois","lat":38.75469,"lng":-89.66436,"zip":"62249","miles_from_dt":27.59},{"city":"Pana","state_name":"Illinois","lat":39.39974,"lng":-89.10503,"zip":"62557","miles_from_dt":27.65},{"city":"Marine","state_name":"Illinois","lat":38.79077,"lng":-89.77624,"zip":"62061","miles_from_dt":28.12},{"city":"Brownstown","state_name":"Illinois","lat":39.02009,"lng":-88.97463,"zip":"62418","miles_from_dt":28.5},{"city":"Dorsey","state_name":"Illinois","lat":38.97797,"lng":-89.981,"zip":"62021","miles_from_dt":28.62},{"city":"Shobonier","state_name":"Illinois","lat":38.86289,"lng":-89.06286,"zip":"62885","miles_from_dt":29.26}],"targetCityZipCode":"62049","targetCityState":"Illinois"},"__N_SSG":true}