{"pageProps":{"stateName":"Illinois","cityName":"kampsville","nearbyCities":[{"city":"Mozier","state_name":"Illinois","lat":39.29101,"lng":-90.72278,"zip":"62070","miles_from_dt":3.89},{"city":"Hamburg","state_name":"Illinois","lat":39.26297,"lng":-90.70921,"zip":"62045","miles_from_dt":4.57},{"city":"Michael","state_name":"Illinois","lat":39.22889,"lng":-90.63046,"zip":"62065","miles_from_dt":6.16},{"city":"Eldred","state_name":"Illinois","lat":39.24686,"lng":-90.55725,"zip":"62027","miles_from_dt":7.18},{"city":"Annada","state_name":"Missouri","lat":39.26151,"lng":-90.79214,"zip":"63330","miles_from_dt":8.12},{"city":"Nebo","state_name":"Illinois","lat":39.40963,"lng":-90.77936,"zip":"62355","miles_from_dt":9.19},{"city":"Hillview","state_name":"Illinois","lat":39.43734,"lng":-90.55544,"zip":"62050","miles_from_dt":10.02},{"city":"Pearl","state_name":"Illinois","lat":39.48734,"lng":-90.64191,"zip":"62361","miles_from_dt":11.87},{"city":"Hardin","state_name":"Illinois","lat":39.13314,"lng":-90.62273,"zip":"62047","miles_from_dt":12.73},{"city":"Carrollton","state_name":"Illinois","lat":39.29517,"lng":-90.41462,"zip":"62016","miles_from_dt":13.1},{"city":"Elsberry","state_name":"Missouri","lat":39.15775,"lng":-90.82815,"zip":"63343","miles_from_dt":14.23},{"city":"Patterson","state_name":"Illinois","lat":39.47984,"lng":-90.48686,"zip":"62078","miles_from_dt":14.55},{"city":"White Hall","state_name":"Illinois","lat":39.41839,"lng":-90.41291,"zip":"62092","miles_from_dt":14.9},{"city":"Clarksville","state_name":"Missouri","lat":39.33335,"lng":-90.9388,"zip":"63336","miles_from_dt":15.11},{"city":"Fieldon","state_name":"Illinois","lat":39.1123,"lng":-90.53355,"zip":"62031","miles_from_dt":15.53},{"city":"Pleasant Hill","state_name":"Illinois","lat":39.46253,"lng":-90.89402,"zip":"62366","miles_from_dt":16.21},{"city":"Batchtown","state_name":"Illinois","lat":39.06433,"lng":-90.66714,"zip":"62006","miles_from_dt":17.35},{"city":"Milton","state_name":"Illinois","lat":39.56818,"lng":-90.65455,"zip":"62352","miles_from_dt":17.42},{"city":"Foley","state_name":"Missouri","lat":39.0708,"lng":-90.76352,"zip":"63347","miles_from_dt":17.83},{"city":"Kane","state_name":"Illinois","lat":39.2012,"lng":-90.34693,"zip":"62054","miles_from_dt":18.44},{"city":"Wrights","state_name":"Illinois","lat":39.38377,"lng":-90.29946,"zip":"62098","miles_from_dt":19.75},{"city":"Eolia","state_name":"Missouri","lat":39.23078,"lng":-91.01115,"zip":"63344","miles_from_dt":19.84},{"city":"Pittsfield","state_name":"Illinois","lat":39.59163,"lng":-90.7784,"zip":"62363","miles_from_dt":20.1},{"city":"Alsey","state_name":"Illinois","lat":39.5526,"lng":-90.42708,"zip":"62610","miles_from_dt":20.47},{"city":"Whiteside","state_name":"Missouri","lat":39.18415,"lng":-91.01677,"zip":"63387","miles_from_dt":21.29},{"city":"Roodhouse","state_name":"Illinois","lat":39.49392,"lng":-90.32157,"zip":"62082","miles_from_dt":21.79},{"city":"Winfield","state_name":"Missouri","lat":38.99969,"lng":-90.76875,"zip":"63389","miles_from_dt":22.6},{"city":"Jerseyville","state_name":"Illinois","lat":39.11179,"lng":-90.32004,"zip":"62052","miles_from_dt":22.94},{"city":"Rockbridge","state_name":"Illinois","lat":39.26262,"lng":-90.23452,"zip":"62081","miles_from_dt":22.98},{"city":"Rockport","state_name":"Illinois","lat":39.51818,"lng":-90.99881,"zip":"62370","miles_from_dt":22.99},{"city":"Winchester","state_name":"Illinois","lat":39.62463,"lng":-90.47274,"zip":"62694","miles_from_dt":23.49},{"city":"Manchester","state_name":"Illinois","lat":39.54106,"lng":-90.32748,"zip":"62663","miles_from_dt":23.53},{"city":"Grafton","state_name":"Illinois","lat":39.00826,"lng":-90.4664,"zip":"62037","miles_from_dt":23.57},{"city":"Greenfield","state_name":"Illinois","lat":39.36618,"lng":-90.20907,"zip":"62044","miles_from_dt":24.28},{"city":"Brussels","state_name":"Illinois","lat":38.96421,"lng":-90.56518,"zip":"62013","miles_from_dt":24.75},{"city":"Louisiana","state_name":"Missouri","lat":39.44375,"lng":-91.12,"zip":"63353","miles_from_dt":26.28},{"city":"Old Monroe","state_name":"Missouri","lat":38.93758,"lng":-90.77766,"zip":"63369","miles_from_dt":26.87},{"city":"Golden Eagle","state_name":"Illinois","lat":38.91866,"lng":-90.59079,"zip":"62036","miles_from_dt":27.62},{"city":"Silex","state_name":"Missouri","lat":39.11016,"lng":-91.10053,"zip":"63377","miles_from_dt":27.68},{"city":"New Salem","state_name":"Illinois","lat":39.68671,"lng":-90.86374,"zip":"62357","miles_from_dt":27.86},{"city":"Dow","state_name":"Illinois","lat":39.00139,"lng":-90.32972,"zip":"62022","miles_from_dt":27.93},{"city":"Troy","state_name":"Missouri","lat":38.99817,"lng":-90.99037,"zip":"63379","miles_from_dt":28.27},{"city":"Griggsville","state_name":"Illinois","lat":39.7228,"lng":-90.72588,"zip":"62340","miles_from_dt":28.32},{"city":"Ashburn","state_name":"Missouri","lat":39.51838,"lng":-91.11816,"zip":"63433","miles_from_dt":28.33},{"city":"Bowling Green","state_name":"Missouri","lat":39.30747,"lng":-91.18838,"zip":"63334","miles_from_dt":28.45},{"city":"Medora","state_name":"Illinois","lat":39.1982,"lng":-90.14836,"zip":"62063","miles_from_dt":28.49},{"city":"Fidelity","state_name":"Illinois","lat":39.15463,"lng":-90.16445,"zip":"62030","miles_from_dt":28.7},{"city":"Murrayville","state_name":"Illinois","lat":39.57474,"lng":-90.23667,"zip":"62668","miles_from_dt":28.75},{"city":"Moscow Mills","state_name":"Missouri","lat":38.93276,"lng":-90.88227,"zip":"63362","miles_from_dt":29.04},{"city":"Bluffs","state_name":"Illinois","lat":39.73174,"lng":-90.5309,"zip":"62621","miles_from_dt":29.49},{"city":"Elsah","state_name":"Illinois","lat":38.95932,"lng":-90.35353,"zip":"62028","miles_from_dt":29.52}],"targetCityZipCode":"62053","targetCityState":"Illinois"},"__N_SSG":true}