{"pageProps":{"stateName":"Illinois","cityName":"lanark","nearbyCities":[{"city":"Shannon","state_name":"Illinois","lat":42.16729,"lng":-89.73062,"zip":"61078","miles_from_dt":6.09},{"city":"Mount Carroll","state_name":"Illinois","lat":42.11506,"lng":-89.98335,"zip":"61053","miles_from_dt":8.77},{"city":"Milledgeville","state_name":"Illinois","lat":41.98289,"lng":-89.7619,"zip":"61051","miles_from_dt":8.77},{"city":"Chadwick","state_name":"Illinois","lat":41.97501,"lng":-89.8865,"zip":"61014","miles_from_dt":9.67},{"city":"Pearl City","state_name":"Illinois","lat":42.25254,"lng":-89.84263,"zip":"61062","miles_from_dt":10.36},{"city":"Forreston","state_name":"Illinois","lat":42.11578,"lng":-89.58898,"zip":"61030","miles_from_dt":11.56},{"city":"Baileyville","state_name":"Illinois","lat":42.19941,"lng":-89.59109,"zip":"61007","miles_from_dt":13.17},{"city":"Polo","state_name":"Illinois","lat":41.9893,"lng":-89.5873,"zip":"61064","miles_from_dt":14.07},{"city":"Kent","state_name":"Illinois","lat":42.32336,"lng":-89.9099,"zip":"61044","miles_from_dt":15.93},{"city":"Eleroy","state_name":"Illinois","lat":42.3333,"lng":-89.75553,"zip":"61027","miles_from_dt":16.1},{"city":"Thomson","state_name":"Illinois","lat":41.98307,"lng":-90.0811,"zip":"61285","miles_from_dt":16.11},{"city":"Savanna","state_name":"Illinois","lat":42.12615,"lng":-90.13061,"zip":"61074","miles_from_dt":16.38},{"city":"Freeport","state_name":"Illinois","lat":42.31509,"lng":-89.63598,"zip":"61032","miles_from_dt":17.17},{"city":"Sterling","state_name":"Illinois","lat":41.84425,"lng":-89.73613,"zip":"61081","miles_from_dt":18.37},{"city":"Woosung","state_name":"Illinois","lat":41.90818,"lng":-89.55234,"zip":"61091","miles_from_dt":19.06},{"city":"German Valley","state_name":"Illinois","lat":42.20805,"lng":-89.46931,"zip":"61039","miles_from_dt":19.07},{"city":"Mount Morris","state_name":"Illinois","lat":42.05573,"lng":-89.44548,"zip":"61054","miles_from_dt":19.2},{"city":"Lena","state_name":"Illinois","lat":42.38524,"lng":-89.83526,"zip":"61048","miles_from_dt":19.44},{"city":"Stockton","state_name":"Illinois","lat":42.34268,"lng":-90.03077,"zip":"61085","miles_from_dt":19.89},{"city":"Morrison","state_name":"Illinois","lat":41.82971,"lng":-89.9656,"zip":"61270","miles_from_dt":20.49},{"city":"Cedarville","state_name":"Illinois","lat":42.37544,"lng":-89.63623,"zip":"61013","miles_from_dt":20.82},{"city":"Sabula","state_name":"Iowa","lat":42.08146,"lng":-90.21771,"zip":"52070","miles_from_dt":20.85},{"city":"Leaf River","state_name":"Illinois","lat":42.15305,"lng":-89.39597,"zip":"61047","miles_from_dt":21.71},{"city":"Galt","state_name":"Illinois","lat":41.7882,"lng":-89.75978,"zip":"61037","miles_from_dt":21.97},{"city":"Ridott","state_name":"Illinois","lat":42.30472,"lng":-89.47454,"zip":"61067","miles_from_dt":22.23},{"city":"Elizabeth","state_name":"Illinois","lat":42.29366,"lng":-90.16935,"zip":"61028","miles_from_dt":22.48},{"city":"McConnell","state_name":"Illinois","lat":42.43932,"lng":-89.7319,"zip":"61050","miles_from_dt":23.51},{"city":"Teeds Grove","state_name":"Iowa","lat":42.01958,"lng":-90.25707,"zip":"52771","miles_from_dt":23.56},{"city":"Andover","state_name":"Iowa","lat":41.98198,"lng":-90.24908,"zip":"52701","miles_from_dt":23.95},{"city":"Fulton","state_name":"Illinois","lat":41.8435,"lng":-90.12272,"zip":"61252","miles_from_dt":24.03},{"city":"Nora","state_name":"Illinois","lat":42.45465,"lng":-89.94084,"zip":"61059","miles_from_dt":25.07},{"city":"Dakota","state_name":"Illinois","lat":42.41599,"lng":-89.55558,"zip":"61018","miles_from_dt":25.26},{"city":"Oregon","state_name":"Illinois","lat":41.99851,"lng":-89.33819,"zip":"61061","miles_from_dt":25.5},{"city":"Winslow","state_name":"Illinois","lat":42.47349,"lng":-89.82335,"zip":"61089","miles_from_dt":25.51},{"city":"Miles","state_name":"Iowa","lat":42.08977,"lng":-90.31076,"zip":"52064","miles_from_dt":25.59},{"city":"Seward","state_name":"Illinois","lat":42.24012,"lng":-89.34806,"zip":"61077","miles_from_dt":25.67},{"city":"Dixon","state_name":"Illinois","lat":41.82908,"lng":-89.47764,"zip":"61021","miles_from_dt":25.67},{"city":"Clinton","state_name":"Iowa","lat":41.8477,"lng":-90.18734,"zip":"52733","miles_from_dt":26.16},{"city":"Lyndon","state_name":"Illinois","lat":41.72928,"lng":-89.91166,"zip":"61261","miles_from_dt":26.36},{"city":"Clinton","state_name":"Iowa","lat":41.90126,"lng":-90.25083,"zip":"52732","miles_from_dt":26.52},{"city":"Rock Falls","state_name":"Illinois","lat":41.72599,"lng":-89.70006,"zip":"61071","miles_from_dt":26.74},{"city":"Warren","state_name":"Illinois","lat":42.48046,"lng":-89.99351,"zip":"61087","miles_from_dt":27.57},{"city":"Orangeville","state_name":"Illinois","lat":42.47876,"lng":-89.61819,"zip":"61060","miles_from_dt":27.73},{"city":"Rock City","state_name":"Illinois","lat":42.41571,"lng":-89.47177,"zip":"61070","miles_from_dt":27.74},{"city":"Pecatonica","state_name":"Illinois","lat":42.31305,"lng":-89.34691,"zip":"61063","miles_from_dt":27.94},{"city":"Clinton","state_name":"Iowa","lat":41.84253,"lng":-90.23168,"zip":"52736","miles_from_dt":28.11},{"city":"Byron","state_name":"Illinois","lat":42.136,"lng":-89.26751,"zip":"61010","miles_from_dt":28.13},{"city":"Hanover","state_name":"Illinois","lat":42.272,"lng":-90.3202,"zip":"61041","miles_from_dt":28.48},{"city":"Bryant","state_name":"Iowa","lat":41.95834,"lng":-90.33341,"zip":"52727","miles_from_dt":28.59},{"city":"Nachusa","state_name":"Illinois","lat":41.83357,"lng":-89.38401,"zip":"61057","miles_from_dt":28.94},{"city":"Fenton","state_name":"Illinois","lat":41.72909,"lng":-90.07291,"zip":"61251","miles_from_dt":29.13},{"city":"Apple River","state_name":"Illinois","lat":42.4612,"lng":-90.12226,"zip":"61001","miles_from_dt":29.3},{"city":"Clinton","state_name":"Iowa","lat":41.81909,"lng":-90.23587,"zip":"52734","miles_from_dt":29.34}],"targetCityZipCode":"61046","targetCityState":"Illinois"},"__N_SSG":true}