{"pageProps":{"stateName":"Illinois","cityName":"loda","nearbyCities":[{"city":"Buckley","state_name":"Illinois","lat":40.59681,"lng":-88.02968,"zip":"60918","miles_from_dt":5.6},{"city":"Paxton","state_name":"Illinois","lat":40.44037,"lng":-88.13977,"zip":"60957","miles_from_dt":6.66},{"city":"Roberts","state_name":"Illinois","lat":40.62248,"lng":-88.18442,"zip":"60962","miles_from_dt":8.83},{"city":"Melvin","state_name":"Illinois","lat":40.56373,"lng":-88.25142,"zip":"60952","miles_from_dt":9.58},{"city":"Ludlow","state_name":"Illinois","lat":40.38042,"lng":-88.10239,"zip":"60949","miles_from_dt":10.01},{"city":"Cissna Park","state_name":"Illinois","lat":40.55855,"lng":-87.88454,"zip":"60924","miles_from_dt":10.4},{"city":"Thawville","state_name":"Illinois","lat":40.6746,"lng":-88.12049,"zip":"60968","miles_from_dt":10.63},{"city":"Elliott","state_name":"Illinois","lat":40.46258,"lng":-88.27381,"zip":"60933","miles_from_dt":11.2},{"city":"Rankin","state_name":"Illinois","lat":40.43879,"lng":-87.89132,"zip":"60960","miles_from_dt":11.42},{"city":"Onarga","state_name":"Illinois","lat":40.7004,"lng":-87.98008,"zip":"60955","miles_from_dt":13.19},{"city":"Claytonville","state_name":"Illinois","lat":40.56937,"lng":-87.81208,"zip":"60926","miles_from_dt":14.29},{"city":"Gifford","state_name":"Illinois","lat":40.31148,"lng":-88.01581,"zip":"61847","miles_from_dt":15.02},{"city":"East Lynn","state_name":"Illinois","lat":40.46513,"lng":-87.80013,"zip":"60932","miles_from_dt":15.14},{"city":"Rantoul","state_name":"Illinois","lat":40.31148,"lng":-88.15837,"zip":"61866","miles_from_dt":15.29},{"city":"Gibson City","state_name":"Illinois","lat":40.46456,"lng":-88.36103,"zip":"60936","miles_from_dt":15.52},{"city":"Goodwine","state_name":"Illinois","lat":40.56696,"lng":-87.77714,"zip":"60939","miles_from_dt":16.06},{"city":"Sibley","state_name":"Illinois","lat":40.57209,"lng":-88.37605,"zip":"61773","miles_from_dt":16.09},{"city":"Penfield","state_name":"Illinois","lat":40.30474,"lng":-87.95103,"zip":"61862","miles_from_dt":16.53},{"city":"Strawn","state_name":"Illinois","lat":40.64971,"lng":-88.37069,"zip":"61775","miles_from_dt":17.71},{"city":"Gilman","state_name":"Illinois","lat":40.77456,"lng":-87.98355,"zip":"60938","miles_from_dt":17.96},{"city":"Chatsworth","state_name":"Illinois","lat":40.73513,"lng":-88.28894,"zip":"60921","miles_from_dt":18.33},{"city":"Piper City","state_name":"Illinois","lat":40.7895,"lng":-88.1832,"zip":"60959","miles_from_dt":19.14},{"city":"Crescent City","state_name":"Illinois","lat":40.74568,"lng":-87.85078,"zip":"60928","miles_from_dt":19.37},{"city":"Dewey","state_name":"Illinois","lat":40.29663,"lng":-88.30187,"zip":"61840","miles_from_dt":19.67},{"city":"Foosland","state_name":"Illinois","lat":40.37308,"lng":-88.40076,"zip":"61845","miles_from_dt":20},{"city":"Thomasboro","state_name":"Illinois","lat":40.23953,"lng":-88.14945,"zip":"61878","miles_from_dt":20.01},{"city":"Armstrong","state_name":"Illinois","lat":40.25869,"lng":-87.88989,"zip":"61812","miles_from_dt":20.81},{"city":"Potomac","state_name":"Illinois","lat":40.30362,"lng":-87.80047,"zip":"61865","miles_from_dt":21.08},{"city":"Fisher","state_name":"Illinois","lat":40.31593,"lng":-88.38053,"zip":"61843","miles_from_dt":21.51},{"city":"Danforth","state_name":"Illinois","lat":40.83231,"lng":-88.00286,"zip":"60930","miles_from_dt":21.62},{"city":"Milford","state_name":"Illinois","lat":40.62854,"lng":-87.6894,"zip":"60953","miles_from_dt":21.63},{"city":"Wellington","state_name":"Illinois","lat":40.53654,"lng":-87.66265,"zip":"60973","miles_from_dt":21.83},{"city":"Hoopeston","state_name":"Illinois","lat":40.46678,"lng":-87.66134,"zip":"60942","miles_from_dt":22.25},{"city":"Cropsey","state_name":"Illinois","lat":40.61255,"lng":-88.48386,"zip":"61731","miles_from_dt":22.26},{"city":"Woodland","state_name":"Illinois","lat":40.71807,"lng":-87.73588,"zip":"60974","miles_from_dt":22.38},{"city":"Anchor","state_name":"Illinois","lat":40.55228,"lng":-88.50498,"zip":"61720","miles_from_dt":22.61},{"city":"Royal","state_name":"Illinois","lat":40.19118,"lng":-87.97925,"zip":"61871","miles_from_dt":23.54},{"city":"Forrest","state_name":"Illinois","lat":40.76045,"lng":-88.40057,"zip":"61741","miles_from_dt":23.56},{"city":"Saybrook","state_name":"Illinois","lat":40.43965,"lng":-88.52457,"zip":"61770","miles_from_dt":24.29},{"city":"Henning","state_name":"Illinois","lat":40.30694,"lng":-87.70096,"zip":"61848","miles_from_dt":24.86},{"city":"Rossville","state_name":"Illinois","lat":40.36848,"lng":-87.65115,"zip":"60963","miles_from_dt":24.88},{"city":"Ashkum","state_name":"Illinois","lat":40.87856,"lng":-87.98059,"zip":"60911","miles_from_dt":24.97},{"city":"Collison","state_name":"Illinois","lat":40.22623,"lng":-87.79705,"zip":"61831","miles_from_dt":25.31},{"city":"Watseka","state_name":"Illinois","lat":40.79221,"lng":-87.74039,"zip":"60970","miles_from_dt":25.59},{"city":"Ogden","state_name":"Illinois","lat":40.15065,"lng":-87.96163,"zip":"61859","miles_from_dt":26.48},{"city":"Saint Joseph","state_name":"Illinois","lat":40.14069,"lng":-88.03817,"zip":"61873","miles_from_dt":26.54},{"city":"Cullom","state_name":"Illinois","lat":40.87601,"lng":-88.29242,"zip":"60929","miles_from_dt":26.79},{"city":"Stockland","state_name":"Illinois","lat":40.6241,"lng":-87.58123,"zip":"60967","miles_from_dt":26.98},{"city":"Bellflower","state_name":"Illinois","lat":40.33418,"lng":-88.52654,"zip":"61724","miles_from_dt":27.09},{"city":"Mahomet","state_name":"Illinois","lat":40.22344,"lng":-88.41555,"zip":"61853","miles_from_dt":27.38},{"city":"Fairbury","state_name":"Illinois","lat":40.73342,"lng":-88.51938,"zip":"61739","miles_from_dt":27.38},{"city":"Kempton","state_name":"Illinois","lat":40.91307,"lng":-88.20072,"zip":"60946","miles_from_dt":27.61},{"city":"Urbana","state_name":"Illinois","lat":40.12288,"lng":-88.14863,"zip":"61802","miles_from_dt":27.94},{"city":"Fithian","state_name":"Illinois","lat":40.14431,"lng":-87.8711,"zip":"61844","miles_from_dt":28.37},{"city":"Alvin","state_name":"Illinois","lat":40.29531,"lng":-87.62162,"zip":"61811","miles_from_dt":28.74},{"city":"Champaign","state_name":"Illinois","lat":40.13706,"lng":-88.27853,"zip":"61826","miles_from_dt":28.75},{"city":"Colfax","state_name":"Illinois","lat":40.57546,"lng":-88.62539,"zip":"61728","miles_from_dt":29.08},{"city":"Champaign","state_name":"Illinois","lat":40.12077,"lng":-88.2437,"zip":"61824","miles_from_dt":29.19},{"city":"Clifton","state_name":"Illinois","lat":40.93933,"lng":-87.96744,"zip":"60927","miles_from_dt":29.22},{"city":"Champaign","state_name":"Illinois","lat":40.13693,"lng":-88.30453,"zip":"61822","miles_from_dt":29.29},{"city":"Urbana","state_name":"Illinois","lat":40.10937,"lng":-88.21175,"zip":"61801","miles_from_dt":29.49},{"city":"Urbana","state_name":"Illinois","lat":40.10639,"lng":-88.21405,"zip":"61803","miles_from_dt":29.72},{"city":"Champaign","state_name":"Illinois","lat":40.112,"lng":-88.24423,"zip":"61820","miles_from_dt":29.78},{"city":"Saunemin","state_name":"Illinois","lat":40.88106,"lng":-88.39804,"zip":"61769","miles_from_dt":29.85},{"city":"Champaign","state_name":"Illinois","lat":40.10879,"lng":-88.24328,"zip":"61825","miles_from_dt":29.97}],"targetCityZipCode":"60948","targetCityState":"Illinois"},"__N_SSG":true}