{"pageProps":{"stateName":"Illinois","cityName":"niantic","nearbyCities":[{"city":"Harristown","state_name":"Illinois","lat":39.85263,"lng":-89.09324,"zip":"62537","miles_from_dt":3.35},{"city":"Illiopolis","state_name":"Illinois","lat":39.86681,"lng":-89.24914,"zip":"62539","miles_from_dt":5.02},{"city":"Decatur","state_name":"Illinois","lat":39.83008,"lng":-89.04743,"zip":"62522","miles_from_dt":6.01},{"city":"Mount Auburn","state_name":"Illinois","lat":39.76883,"lng":-89.24929,"zip":"62547","miles_from_dt":7.66},{"city":"Warrensburg","state_name":"Illinois","lat":39.94551,"lng":-89.07264,"zip":"62573","miles_from_dt":7.75},{"city":"Latham","state_name":"Illinois","lat":39.97084,"lng":-89.1518,"zip":"62543","miles_from_dt":8.09},{"city":"Boody","state_name":"Illinois","lat":39.76753,"lng":-89.04508,"zip":"62514","miles_from_dt":8.38},{"city":"Blue Mound","state_name":"Illinois","lat":39.72341,"lng":-89.15296,"zip":"62513","miles_from_dt":8.98},{"city":"Decatur","state_name":"Illinois","lat":39.90322,"lng":-88.9902,"zip":"62526","miles_from_dt":9.47},{"city":"Decatur","state_name":"Illinois","lat":39.90411,"lng":-88.96666,"zip":"62524","miles_from_dt":10.67},{"city":"Mount Pulaski","state_name":"Illinois","lat":39.97849,"lng":-89.27988,"zip":"62548","miles_from_dt":10.83},{"city":"Decatur","state_name":"Illinois","lat":39.84372,"lng":-88.95289,"zip":"62523","miles_from_dt":10.84},{"city":"Elwin","state_name":"Illinois","lat":39.77633,"lng":-88.97781,"zip":"62532","miles_from_dt":10.89},{"city":"Buffalo","state_name":"Illinois","lat":39.8561,"lng":-89.36622,"zip":"62515","miles_from_dt":11.16},{"city":"Forsyth","state_name":"Illinois","lat":39.92549,"lng":-88.96604,"zip":"62535","miles_from_dt":11.26},{"city":"Decatur","state_name":"Illinois","lat":39.83282,"lng":-88.9444,"zip":"62525","miles_from_dt":11.36},{"city":"Decatur","state_name":"Illinois","lat":39.81435,"lng":-88.93086,"zip":"62521","miles_from_dt":12.29},{"city":"Lake Fork","state_name":"Illinois","lat":39.95657,"lng":-89.37085,"zip":"62541","miles_from_dt":13.43},{"city":"Mechanicsburg","state_name":"Illinois","lat":39.7661,"lng":-89.38737,"zip":"62545","miles_from_dt":13.7},{"city":"Cornland","state_name":"Illinois","lat":39.92879,"lng":-89.3953,"zip":"62519","miles_from_dt":13.72},{"city":"Chestnut","state_name":"Illinois","lat":40.05154,"lng":-89.19037,"zip":"62518","miles_from_dt":13.78},{"city":"Macon","state_name":"Illinois","lat":39.70854,"lng":-88.97375,"zip":"62544","miles_from_dt":13.95},{"city":"Stonington","state_name":"Illinois","lat":39.64668,"lng":-89.19082,"zip":"62567","miles_from_dt":14.39},{"city":"Maroa","state_name":"Illinois","lat":40.03311,"lng":-88.96368,"zip":"61756","miles_from_dt":16.06},{"city":"Dawson","state_name":"Illinois","lat":39.82185,"lng":-89.45904,"zip":"62520","miles_from_dt":16.25},{"city":"Mt Zion","state_name":"Illinois","lat":39.76985,"lng":-88.8657,"zip":"62549","miles_from_dt":16.51},{"city":"Oreana","state_name":"Illinois","lat":39.94976,"lng":-88.87107,"zip":"62554","miles_from_dt":16.55},{"city":"Kenney","state_name":"Illinois","lat":40.09209,"lng":-89.10943,"zip":"61749","miles_from_dt":16.64},{"city":"Edinburg","state_name":"Illinois","lat":39.66754,"lng":-89.37395,"zip":"62531","miles_from_dt":17.29},{"city":"Riverton","state_name":"Illinois","lat":39.86754,"lng":-89.50498,"zip":"62561","miles_from_dt":18.56},{"city":"Moweaqua","state_name":"Illinois","lat":39.61154,"lng":-88.99283,"zip":"62550","miles_from_dt":18.83},{"city":"Dalton City","state_name":"Illinois","lat":39.72444,"lng":-88.83548,"zip":"61925","miles_from_dt":19.26},{"city":"Elkhart","state_name":"Illinois","lat":40.0166,"lng":-89.45107,"zip":"62634","miles_from_dt":19.28},{"city":"Argenta","state_name":"Illinois","lat":39.92973,"lng":-88.80528,"zip":"62501","miles_from_dt":19.38},{"city":"Beason","state_name":"Illinois","lat":40.14601,"lng":-89.20312,"zip":"62512","miles_from_dt":20.33},{"city":"Rochester","state_name":"Illinois","lat":39.71675,"lng":-89.50017,"zip":"62563","miles_from_dt":20.59},{"city":"Williamsville","state_name":"Illinois","lat":39.95761,"lng":-89.52041,"zip":"62693","miles_from_dt":20.63},{"city":"Taylorville","state_name":"Illinois","lat":39.55974,"lng":-89.29016,"zip":"62568","miles_from_dt":21.49},{"city":"Lincoln","state_name":"Illinois","lat":40.13948,"lng":-89.36622,"zip":"62656","miles_from_dt":22.65},{"city":"Clinton","state_name":"Illinois","lat":40.14701,"lng":-88.95245,"zip":"61727","miles_from_dt":22.95},{"city":"Sherman","state_name":"Illinois","lat":39.91019,"lng":-89.58474,"zip":"62684","miles_from_dt":23.1},{"city":"La Place","state_name":"Illinois","lat":39.80319,"lng":-88.72684,"zip":"61936","miles_from_dt":23.11},{"city":"Bulpitt","state_name":"Illinois","lat":39.59365,"lng":-89.43285,"zip":"62517","miles_from_dt":23.21},{"city":"Kincaid","state_name":"Illinois","lat":39.58496,"lng":-89.41938,"zip":"62540","miles_from_dt":23.23},{"city":"Assumption","state_name":"Illinois","lat":39.5315,"lng":-89.02706,"zip":"62510","miles_from_dt":23.26},{"city":"Cerro Gordo","state_name":"Illinois","lat":39.88455,"lng":-88.71798,"zip":"61818","miles_from_dt":23.4},{"city":"Springfield","state_name":"Illinois","lat":39.74883,"lng":-89.58344,"zip":"62712","miles_from_dt":23.85},{"city":"Lane","state_name":"Illinois","lat":40.12251,"lng":-88.8557,"zip":"61750","miles_from_dt":24.47},{"city":"Tovey","state_name":"Illinois","lat":39.58023,"lng":-89.45107,"zip":"62570","miles_from_dt":24.54},{"city":"Springfield","state_name":"Illinois","lat":39.77425,"lng":-89.60784,"zip":"62766","miles_from_dt":24.64},{"city":"Springfield","state_name":"Illinois","lat":39.7973,"lng":-89.62153,"zip":"62796","miles_from_dt":25.05},{"city":"Cisco","state_name":"Illinois","lat":40.01122,"lng":-88.72926,"zip":"61830","miles_from_dt":25.16},{"city":"Springfield","state_name":"Illinois","lat":39.85107,"lng":-89.63185,"zip":"62791","miles_from_dt":25.29},{"city":"Springfield","state_name":"Illinois","lat":39.74815,"lng":-89.61177,"zip":"62716","miles_from_dt":25.31},{"city":"Bethany","state_name":"Illinois","lat":39.63409,"lng":-88.76783,"zip":"61914","miles_from_dt":25.64},{"city":"Waynesville","state_name":"Illinois","lat":40.22575,"lng":-89.09104,"zip":"61778","miles_from_dt":25.91},{"city":"Springfield","state_name":"Illinois","lat":39.82377,"lng":-89.64286,"zip":"62702","miles_from_dt":25.96},{"city":"Middletown","state_name":"Illinois","lat":40.08384,"lng":-89.54364,"zip":"62666","miles_from_dt":25.98},{"city":"Springfield","state_name":"Illinois","lat":39.76276,"lng":-89.63106,"zip":"62703","miles_from_dt":26.03},{"city":"Lawndale","state_name":"Illinois","lat":40.21455,"lng":-89.29926,"zip":"61751","miles_from_dt":26.03},{"city":"Springfield","state_name":"Illinois","lat":39.76184,"lng":-89.63121,"zip":"62794","miles_from_dt":26.05},{"city":"Springfield","state_name":"Illinois","lat":39.80596,"lng":-89.64322,"zip":"62769","miles_from_dt":26.11},{"city":"Springfield","state_name":"Illinois","lat":39.75943,"lng":-89.63409,"zip":"62723","miles_from_dt":26.24},{"city":"Springfield","state_name":"Illinois","lat":39.80145,"lng":-89.64522,"zip":"62765","miles_from_dt":26.25},{"city":"Springfield","state_name":"Illinois","lat":39.85506,"lng":-89.64989,"zip":"62707","miles_from_dt":26.25},{"city":"Springfield","state_name":"Illinois","lat":39.79958,"lng":-89.64516,"zip":"62757","miles_from_dt":26.27},{"city":"Springfield","state_name":"Illinois","lat":39.75979,"lng":-89.63518,"zip":"62708","miles_from_dt":26.29},{"city":"Springfield","state_name":"Illinois","lat":39.80336,"lng":-89.64681,"zip":"62715","miles_from_dt":26.32},{"city":"Springfield","state_name":"Illinois","lat":39.75763,"lng":-89.63542,"zip":"62764","miles_from_dt":26.34},{"city":"Springfield","state_name":"Illinois","lat":39.79812,"lng":-89.64652,"zip":"62739","miles_from_dt":26.36},{"city":"Springfield","state_name":"Illinois","lat":39.79986,"lng":-89.64776,"zip":"62705","miles_from_dt":26.4},{"city":"Springfield","state_name":"Illinois","lat":39.80063,"lng":-89.64902,"zip":"62701","miles_from_dt":26.46},{"city":"Springfield","state_name":"Illinois","lat":39.80346,"lng":-89.65193,"zip":"62736","miles_from_dt":26.59},{"city":"Springfield","state_name":"Illinois","lat":39.80519,"lng":-89.65298,"zip":"62726","miles_from_dt":26.63},{"city":"Springfield","state_name":"Illinois","lat":39.80155,"lng":-89.6527,"zip":"62719","miles_from_dt":26.65},{"city":"Springfield","state_name":"Illinois","lat":39.80218,"lng":-89.65424,"zip":"62776","miles_from_dt":26.72},{"city":"Springfield","state_name":"Illinois","lat":39.81084,"lng":-89.65576,"zip":"62781","miles_from_dt":26.73},{"city":"Springfield","state_name":"Illinois","lat":39.79722,"lng":-89.65357,"zip":"62722","miles_from_dt":26.74},{"city":"Springfield","state_name":"Illinois","lat":39.80005,"lng":-89.65425,"zip":"62777","miles_from_dt":26.74},{"city":"Springfield","state_name":"Illinois","lat":39.80464,"lng":-89.65532,"zip":"62767","miles_from_dt":26.76},{"city":"Springfield","state_name":"Illinois","lat":39.78786,"lng":-89.65223,"zip":"62762","miles_from_dt":26.77},{"city":"Milmine","state_name":"Illinois","lat":39.92438,"lng":-88.66056,"zip":"61855","miles_from_dt":26.8},{"city":"Springfield","state_name":"Illinois","lat":39.79736,"lng":-89.65478,"zip":"62756","miles_from_dt":26.8},{"city":"Springfield","state_name":"Illinois","lat":39.79789,"lng":-89.6554,"zip":"62706","miles_from_dt":26.83},{"city":"Owaneco","state_name":"Illinois","lat":39.46755,"lng":-89.21982,"zip":"62555","miles_from_dt":26.85},{"city":"Springfield","state_name":"Illinois","lat":39.80314,"lng":-89.65807,"zip":"62786","miles_from_dt":26.92},{"city":"Springfield","state_name":"Illinois","lat":39.78622,"lng":-89.65626,"zip":"62763","miles_from_dt":27},{"city":"Springfield","state_name":"Illinois","lat":39.80422,"lng":-89.66064,"zip":"62761","miles_from_dt":27.04},{"city":"Pawnee","state_name":"Illinois","lat":39.58967,"lng":-89.54239,"zip":"62558","miles_from_dt":27.47},{"city":"Weldon","state_name":"Illinois","lat":40.11203,"lng":-88.75969,"zip":"61882","miles_from_dt":27.59},{"city":"Lovington","state_name":"Illinois","lat":39.73872,"lng":-88.65542,"zip":"61937","miles_from_dt":27.81},{"city":"Hammond","state_name":"Illinois","lat":39.82338,"lng":-88.62271,"zip":"61929","miles_from_dt":28.46},{"city":"Springfield","state_name":"Illinois","lat":39.77358,"lng":-89.68503,"zip":"62704","miles_from_dt":28.67},{"city":"Atlanta","state_name":"Illinois","lat":40.26139,"lng":-89.26703,"zip":"61723","miles_from_dt":28.74},{"city":"Athens","state_name":"Illinois","lat":39.99009,"lng":-89.67036,"zip":"62613","miles_from_dt":28.89},{"city":"Palmer","state_name":"Illinois","lat":39.46674,"lng":-89.37049,"zip":"62556","miles_from_dt":29.03},{"city":"Findlay","state_name":"Illinois","lat":39.53519,"lng":-88.79603,"zip":"62534","miles_from_dt":29.17},{"city":"Cantrall","state_name":"Illinois","lat":39.90424,"lng":-89.70185,"zip":"62625","miles_from_dt":29.21},{"city":"Wapella","state_name":"Illinois","lat":40.243,"lng":-88.93948,"zip":"61777","miles_from_dt":29.22}],"targetCityZipCode":"62551","targetCityState":"Illinois"},"__N_SSG":true}