{"pageProps":{"stateName":"Illinois","cityName":"paris","nearbyCities":[{"city":"Vermilion","state_name":"Illinois","lat":39.58162,"lng":-87.5875,"zip":"61955","miles_from_dt":6.21},{"city":"Redmon","state_name":"Illinois","lat":39.65753,"lng":-87.85844,"zip":"61949","miles_from_dt":9.28},{"city":"Blanford","state_name":"Indiana","lat":39.66549,"lng":-87.52177,"zip":"47831","miles_from_dt":10.61},{"city":"Dennison","state_name":"Illinois","lat":39.46208,"lng":-87.5819,"zip":"62423","miles_from_dt":11.44},{"city":"Kansas","state_name":"Illinois","lat":39.55099,"lng":-87.91502,"zip":"61933","miles_from_dt":11.89},{"city":"Saint Bernice","state_name":"Indiana","lat":39.71447,"lng":-87.52222,"zip":"47875","miles_from_dt":12.41},{"city":"New Goshen","state_name":"Indiana","lat":39.57848,"lng":-87.45921,"zip":"47863","miles_from_dt":13.01},{"city":"Brocton","state_name":"Illinois","lat":39.71746,"lng":-87.8941,"zip":"61917","miles_from_dt":13.1},{"city":"Universal","state_name":"Indiana","lat":39.62308,"lng":-87.45362,"zip":"47884","miles_from_dt":13.32},{"city":"West Terre Haute","state_name":"Indiana","lat":39.50872,"lng":-87.47679,"zip":"47885","miles_from_dt":13.54},{"city":"Chrisman","state_name":"Illinois","lat":39.79269,"lng":-87.6506,"zip":"61924","miles_from_dt":13.59},{"city":"Clinton","state_name":"Indiana","lat":39.67569,"lng":-87.462,"zip":"47842","miles_from_dt":13.81},{"city":"Marshall","state_name":"Illinois","lat":39.39392,"lng":-87.69795,"zip":"62441","miles_from_dt":14.2},{"city":"Saint Mary Of The Woods","state_name":"Indiana","lat":39.50996,"lng":-87.46113,"zip":"47876","miles_from_dt":14.25},{"city":"Shepardsville","state_name":"Indiana","lat":39.59976,"lng":-87.41885,"zip":"47880","miles_from_dt":15.08},{"city":"Metcalf","state_name":"Illinois","lat":39.80395,"lng":-87.81249,"zip":"61940","miles_from_dt":15.28},{"city":"Hume","state_name":"Illinois","lat":39.79968,"lng":-87.87493,"zip":"61932","miles_from_dt":16.61},{"city":"Oakland","state_name":"Illinois","lat":39.6608,"lng":-88.0248,"zip":"61943","miles_from_dt":17.76},{"city":"Terre Haute","state_name":"Indiana","lat":39.47136,"lng":-87.40986,"zip":"47809","miles_from_dt":17.92},{"city":"Terre Haute","state_name":"Indiana","lat":39.49756,"lng":-87.39031,"zip":"47804","miles_from_dt":18.05},{"city":"Terre Haute","state_name":"Indiana","lat":39.46712,"lng":-87.41014,"zip":"47801","miles_from_dt":18.05},{"city":"Terre Haute","state_name":"Indiana","lat":39.47061,"lng":-87.40262,"zip":"47807","miles_from_dt":18.28},{"city":"Ashmore","state_name":"Illinois","lat":39.52825,"lng":-88.03357,"zip":"61912","miles_from_dt":18.41},{"city":"Dana","state_name":"Indiana","lat":39.82293,"lng":-87.48865,"zip":"47847","miles_from_dt":19.13},{"city":"Westfield","state_name":"Illinois","lat":39.43526,"lng":-87.99462,"zip":"62474","miles_from_dt":19.34},{"city":"Terre Haute","state_name":"Indiana","lat":39.51273,"lng":-87.35199,"zip":"47808","miles_from_dt":19.6},{"city":"Prairieton","state_name":"Indiana","lat":39.37016,"lng":-87.47353,"zip":"47870","miles_from_dt":19.98},{"city":"Terre Haute","state_name":"Indiana","lat":39.54768,"lng":-87.32739,"zip":"47805","miles_from_dt":20.29},{"city":"Hillsdale","state_name":"Indiana","lat":39.80874,"lng":-87.41299,"zip":"47854","miles_from_dt":21.08},{"city":"Ridge Farm","state_name":"Illinois","lat":39.90325,"lng":-87.61562,"zip":"61870","miles_from_dt":21.44},{"city":"Martinsville","state_name":"Illinois","lat":39.31269,"lng":-87.85602,"zip":"62442","miles_from_dt":21.46},{"city":"Mecca","state_name":"Indiana","lat":39.72215,"lng":-87.33013,"zip":"47860","miles_from_dt":21.53},{"city":"Newman","state_name":"Illinois","lat":39.81515,"lng":-88.00818,"zip":"61942","miles_from_dt":22.09},{"city":"Sidell","state_name":"Illinois","lat":39.90534,"lng":-87.8398,"zip":"61876","miles_from_dt":22.34},{"city":"Montezuma","state_name":"Indiana","lat":39.77184,"lng":-87.34527,"zip":"47862","miles_from_dt":22.39},{"city":"Rosedale","state_name":"Indiana","lat":39.62913,"lng":-87.27792,"zip":"47874","miles_from_dt":22.69},{"city":"Indianola","state_name":"Illinois","lat":39.9301,"lng":-87.74346,"zip":"61850","miles_from_dt":22.9},{"city":"Terre Haute","state_name":"Indiana","lat":39.46433,"lng":-87.30855,"zip":"47803","miles_from_dt":22.97},{"city":"Terre Haute","state_name":"Indiana","lat":39.35153,"lng":-87.4106,"zip":"47802","miles_from_dt":23.13},{"city":"Hindsboro","state_name":"Illinois","lat":39.67935,"lng":-88.12899,"zip":"61930","miles_from_dt":23.46},{"city":"Allerton","state_name":"Illinois","lat":39.91019,"lng":-87.91837,"zip":"61810","miles_from_dt":24.34},{"city":"Fontanet","state_name":"Indiana","lat":39.5736,"lng":-87.24594,"zip":"47851","miles_from_dt":24.38},{"city":"Murdock","state_name":"Illinois","lat":39.80457,"lng":-88.07505,"zip":"61941","miles_from_dt":24.42},{"city":"Seelyville","state_name":"Indiana","lat":39.49516,"lng":-87.26368,"zip":"47878","miles_from_dt":24.47},{"city":"Prairie Creek","state_name":"Indiana","lat":39.2751,"lng":-87.49658,"zip":"47869","miles_from_dt":24.93},{"city":"Newport","state_name":"Indiana","lat":39.88843,"lng":-87.41433,"zip":"47966","miles_from_dt":25.11},{"city":"West Union","state_name":"Illinois","lat":39.23369,"lng":-87.66024,"zip":"62477","miles_from_dt":25.35},{"city":"Charleston","state_name":"Illinois","lat":39.50415,"lng":-88.16448,"zip":"61920","miles_from_dt":25.59},{"city":"Riley","state_name":"Indiana","lat":39.38978,"lng":-87.30026,"zip":"47871","miles_from_dt":25.88},{"city":"Cayuga","state_name":"Indiana","lat":39.93237,"lng":-87.46501,"zip":"47928","miles_from_dt":26.18},{"city":"Camargo","state_name":"Illinois","lat":39.7789,"lng":-88.13727,"zip":"61919","miles_from_dt":26.31},{"city":"Georgetown","state_name":"Illinois","lat":39.97601,"lng":-87.61222,"zip":"61846","miles_from_dt":26.39},{"city":"Casey","state_name":"Illinois","lat":39.29065,"lng":-88.0005,"zip":"62420","miles_from_dt":26.65},{"city":"Broadlands","state_name":"Illinois","lat":39.92444,"lng":-88.00398,"zip":"61816","miles_from_dt":27.59},{"city":"Farmersburg","state_name":"Indiana","lat":39.24441,"lng":-87.43763,"zip":"47850","miles_from_dt":28.28},{"city":"Staunton","state_name":"Indiana","lat":39.48722,"lng":-87.19029,"zip":"47881","miles_from_dt":28.38},{"city":"Bridgeton","state_name":"Indiana","lat":39.64924,"lng":-87.17221,"zip":"47836","miles_from_dt":28.44},{"city":"Longview","state_name":"Illinois","lat":39.89951,"lng":-88.07277,"zip":"61852","miles_from_dt":28.62},{"city":"Fairbanks","state_name":"Indiana","lat":39.19196,"lng":-87.56131,"zip":"47849","miles_from_dt":29.11},{"city":"West York","state_name":"Illinois","lat":39.17874,"lng":-87.74367,"zip":"62478","miles_from_dt":29.13},{"city":"Villa Grove","state_name":"Illinois","lat":39.8537,"lng":-88.14433,"zip":"61956","miles_from_dt":29.39},{"city":"Pimento","state_name":"Indiana","lat":39.28302,"lng":-87.3247,"zip":"47866","miles_from_dt":29.72},{"city":"Catlin","state_name":"Illinois","lat":40.03088,"lng":-87.71991,"zip":"61817","miles_from_dt":29.76}],"targetCityZipCode":"61944","targetCityState":"Illinois"},"__N_SSG":true}