{"pageProps":{"stateName":"Illinois","cityName":"rockton","nearbyCities":[{"city":"Shirland","state_name":"Illinois","lat":42.44681,"lng":-89.20955,"zip":"61079","miles_from_dt":3.5},{"city":"Beloit","state_name":"Wisconsin","lat":42.50764,"lng":-89.0322,"zip":"53512","miles_from_dt":6.98},{"city":"Beloit","state_name":"Wisconsin","lat":42.54627,"lng":-89.09792,"zip":"53511","miles_from_dt":7.22},{"city":"Rockford","state_name":"Illinois","lat":42.33727,"lng":-89.14725,"zip":"61101","miles_from_dt":7.55},{"city":"Rockford","state_name":"Illinois","lat":42.3453,"lng":-89.08271,"zip":"61103","miles_from_dt":7.6},{"city":"Roscoe","state_name":"Illinois","lat":42.42434,"lng":-88.99346,"zip":"61073","miles_from_dt":7.7},{"city":"Durand","state_name":"Illinois","lat":42.43629,"lng":-89.29183,"zip":"61024","miles_from_dt":7.74},{"city":"South Beloit","state_name":"Illinois","lat":42.47992,"lng":-88.98989,"zip":"61080","miles_from_dt":8.06},{"city":"Machesney Park","state_name":"Illinois","lat":42.36365,"lng":-89.02869,"zip":"61115","miles_from_dt":8.11},{"city":"Loves Park","state_name":"Illinois","lat":42.35218,"lng":-88.9962,"zip":"61132","miles_from_dt":9.87},{"city":"Loves Park","state_name":"Illinois","lat":42.35191,"lng":-88.99591,"zip":"61131","miles_from_dt":9.89},{"city":"Loves Park","state_name":"Illinois","lat":42.33538,"lng":-89.00369,"zip":"61111","miles_from_dt":10.41},{"city":"Loves Park","state_name":"Illinois","lat":42.32593,"lng":-89.00394,"zip":"61130","miles_from_dt":10.89},{"city":"Afton","state_name":"Wisconsin","lat":42.60484,"lng":-89.07165,"zip":"53501","miles_from_dt":11.48},{"city":"Rockford","state_name":"Illinois","lat":42.30854,"lng":-88.9892,"zip":"61114","miles_from_dt":12.3},{"city":"Caledonia","state_name":"Illinois","lat":42.38926,"lng":-88.91266,"zip":"61011","miles_from_dt":12.33},{"city":"Rockford","state_name":"Illinois","lat":42.26753,"lng":-89.09836,"zip":"61105","miles_from_dt":12.55},{"city":"Rockford","state_name":"Illinois","lat":42.27183,"lng":-89.06462,"zip":"61106","miles_from_dt":12.68},{"city":"Rockford","state_name":"Illinois","lat":42.26748,"lng":-89.08165,"zip":"61110","miles_from_dt":12.73},{"city":"Hanover","state_name":"Wisconsin","lat":42.63262,"lng":-89.16567,"zip":"53542","miles_from_dt":12.9},{"city":"Rockford","state_name":"Illinois","lat":42.28344,"lng":-89.00348,"zip":"61107","miles_from_dt":13.28},{"city":"Orfordville","state_name":"Wisconsin","lat":42.62543,"lng":-89.23949,"zip":"53576","miles_from_dt":13.33},{"city":"Winnebago","state_name":"Illinois","lat":42.26995,"lng":-89.25509,"zip":"61088","miles_from_dt":13.52},{"city":"Davis","state_name":"Illinois","lat":42.44093,"lng":-89.40863,"zip":"61019","miles_from_dt":13.68},{"city":"Rockford","state_name":"Illinois","lat":42.25186,"lng":-89.07911,"zip":"61104","miles_from_dt":13.81},{"city":"Pecatonica","state_name":"Illinois","lat":42.31305,"lng":-89.34691,"zip":"61063","miles_from_dt":14},{"city":"Rockford","state_name":"Illinois","lat":42.25363,"lng":-89.01795,"zip":"61126","miles_from_dt":14.74},{"city":"Rockford","state_name":"Illinois","lat":42.22995,"lng":-89.15632,"zip":"61102","miles_from_dt":14.97},{"city":"Rockford","state_name":"Illinois","lat":42.25515,"lng":-89.00236,"zip":"61108","miles_from_dt":15},{"city":"Brodhead","state_name":"Wisconsin","lat":42.60133,"lng":-89.36123,"zip":"53520","miles_from_dt":15.5},{"city":"Rockford","state_name":"Illinois","lat":42.23736,"lng":-89.01238,"zip":"61125","miles_from_dt":15.88},{"city":"Footville","state_name":"Wisconsin","lat":42.67267,"lng":-89.21056,"zip":"53537","miles_from_dt":16},{"city":"Poplar Grove","state_name":"Illinois","lat":42.40786,"lng":-88.82747,"zip":"61065","miles_from_dt":16.26},{"city":"Clinton","state_name":"Wisconsin","lat":42.54579,"lng":-88.84907,"zip":"53525","miles_from_dt":16.41},{"city":"Rockford","state_name":"Illinois","lat":42.24193,"lng":-88.97523,"zip":"61112","miles_from_dt":16.48},{"city":"Janesville","state_name":"Wisconsin","lat":42.68907,"lng":-89.13095,"zip":"53548","miles_from_dt":16.74},{"city":"Rock City","state_name":"Illinois","lat":42.41571,"lng":-89.47177,"zip":"61070","miles_from_dt":17.04},{"city":"Janesville","state_name":"Wisconsin","lat":42.65126,"lng":-88.94854,"zip":"53546","miles_from_dt":17.21},{"city":"Seward","state_name":"Illinois","lat":42.24012,"lng":-89.34806,"zip":"61077","miles_from_dt":17.76},{"city":"Rockford","state_name":"Illinois","lat":42.1924,"lng":-89.05392,"zip":"61109","miles_from_dt":18.11},{"city":"Janesville","state_name":"Wisconsin","lat":42.70503,"lng":-89.00642,"zip":"53547","miles_from_dt":19.11},{"city":"Juda","state_name":"Wisconsin","lat":42.5581,"lng":-89.49348,"zip":"53550","miles_from_dt":19.57},{"city":"Ridott","state_name":"Illinois","lat":42.30472,"lng":-89.47454,"zip":"61067","miles_from_dt":19.68},{"city":"Cherry Valley","state_name":"Illinois","lat":42.19761,"lng":-88.94704,"zip":"61016","miles_from_dt":19.85},{"city":"Capron","state_name":"Illinois","lat":42.40749,"lng":-88.75446,"zip":"61012","miles_from_dt":19.95},{"city":"Janesville","state_name":"Wisconsin","lat":42.73113,"lng":-89.03613,"zip":"53545","miles_from_dt":20.36},{"city":"Belvidere","state_name":"Illinois","lat":42.24579,"lng":-88.83949,"zip":"61008","miles_from_dt":20.75},{"city":"Dakota","state_name":"Illinois","lat":42.41599,"lng":-89.55558,"zip":"61018","miles_from_dt":21.3},{"city":"Avalon","state_name":"Wisconsin","lat":42.66063,"lng":-88.8176,"zip":"53505","miles_from_dt":22.15},{"city":"Sharon","state_name":"Wisconsin","lat":42.53049,"lng":-88.72056,"zip":"53585","miles_from_dt":22.25},{"city":"Byron","state_name":"Illinois","lat":42.136,"lng":-89.26751,"zip":"61010","miles_from_dt":22.4},{"city":"Stillman Valley","state_name":"Illinois","lat":42.11843,"lng":-89.18867,"zip":"61084","miles_from_dt":22.78},{"city":"Darien","state_name":"Wisconsin","lat":42.60721,"lng":-88.75089,"zip":"53114","miles_from_dt":22.8},{"city":"Evansville","state_name":"Wisconsin","lat":42.76366,"lng":-89.26983,"zip":"53536","miles_from_dt":22.85},{"city":"Davis Junction","state_name":"Illinois","lat":42.11035,"lng":-89.09807,"zip":"61020","miles_from_dt":23.31},{"city":"German Valley","state_name":"Illinois","lat":42.20805,"lng":-89.46931,"zip":"61039","miles_from_dt":23.53},{"city":"Leaf River","state_name":"Illinois","lat":42.15305,"lng":-89.39597,"zip":"61047","miles_from_dt":24.11},{"city":"Monroe Center","state_name":"Illinois","lat":42.11146,"lng":-89.00011,"zip":"61052","miles_from_dt":24.23},{"city":"Garden Prairie","state_name":"Illinois","lat":42.26344,"lng":-88.73586,"zip":"61038","miles_from_dt":24.29},{"city":"Orangeville","state_name":"Illinois","lat":42.47876,"lng":-89.61819,"zip":"61060","miles_from_dt":24.48},{"city":"Albany","state_name":"Wisconsin","lat":42.73219,"lng":-89.44071,"zip":"53502","miles_from_dt":24.94},{"city":"Milton","state_name":"Wisconsin","lat":42.78276,"lng":-88.93127,"zip":"53563","miles_from_dt":25.55},{"city":"Cedarville","state_name":"Illinois","lat":42.37544,"lng":-89.63623,"zip":"61013","miles_from_dt":25.8},{"city":"Holcomb","state_name":"Illinois","lat":42.06676,"lng":-89.10499,"zip":"61043","miles_from_dt":26.28},{"city":"Freeport","state_name":"Illinois","lat":42.31509,"lng":-89.63598,"zip":"61032","miles_from_dt":26.9},{"city":"Harvard","state_name":"Illinois","lat":42.42333,"lng":-88.61104,"zip":"60033","miles_from_dt":27.15},{"city":"Kirkland","state_name":"Illinois","lat":42.10091,"lng":-88.88019,"zip":"60146","miles_from_dt":27.35},{"city":"Walworth","state_name":"Wisconsin","lat":42.53075,"lng":-88.60945,"zip":"53184","miles_from_dt":27.77},{"city":"Edgerton","state_name":"Wisconsin","lat":42.84763,"lng":-89.09032,"zip":"53534","miles_from_dt":27.8},{"city":"Delavan","state_name":"Wisconsin","lat":42.65443,"lng":-88.6713,"zip":"53115","miles_from_dt":27.94},{"city":"Monroe","state_name":"Wisconsin","lat":42.60912,"lng":-89.64817,"zip":"53566","miles_from_dt":28.21},{"city":"Lindenwood","state_name":"Illinois","lat":42.04417,"lng":-89.00753,"zip":"61049","miles_from_dt":28.61},{"city":"Baileyville","state_name":"Illinois","lat":42.19941,"lng":-89.59109,"zip":"61007","miles_from_dt":28.68}],"targetCityZipCode":"61072","targetCityState":"Illinois"},"__N_SSG":true}