{"pageProps":{"stateName":"Illinois","cityName":"saint-libory","nearbyCities":[{"city":"Lenzburg","state_name":"Illinois","lat":38.31244,"lng":-89.77842,"zip":"62255","miles_from_dt":4.66},{"city":"Marissa","state_name":"Illinois","lat":38.28048,"lng":-89.73262,"zip":"62257","miles_from_dt":5.34},{"city":"Addieville","state_name":"Illinois","lat":38.37682,"lng":-89.60529,"zip":"62214","miles_from_dt":6.03},{"city":"Mascoutah","state_name":"Illinois","lat":38.46014,"lng":-89.77287,"zip":"62258","miles_from_dt":7.85},{"city":"New Memphis","state_name":"Illinois","lat":38.47481,"lng":-89.64988,"zip":"62266","miles_from_dt":8.86},{"city":"Tilden","state_name":"Illinois","lat":38.21299,"lng":-89.68261,"zip":"62292","miles_from_dt":10.03},{"city":"Freeburg","state_name":"Illinois","lat":38.41841,"lng":-89.88978,"zip":"62243","miles_from_dt":10.49},{"city":"New Baden","state_name":"Illinois","lat":38.50808,"lng":-89.67797,"zip":"62265","miles_from_dt":10.63},{"city":"New Athens","state_name":"Illinois","lat":38.31612,"lng":-89.90721,"zip":"62264","miles_from_dt":10.89},{"city":"Oakdale","state_name":"Illinois","lat":38.27208,"lng":-89.52612,"zip":"62268","miles_from_dt":11.72},{"city":"Okawville","state_name":"Illinois","lat":38.44028,"lng":-89.52209,"zip":"62271","miles_from_dt":11.88},{"city":"Albers","state_name":"Illinois","lat":38.50672,"lng":-89.60515,"zip":"62215","miles_from_dt":11.91},{"city":"Coulterville","state_name":"Illinois","lat":38.1916,"lng":-89.57046,"zip":"62237","miles_from_dt":13.77},{"city":"Baldwin","state_name":"Illinois","lat":38.1732,"lng":-89.83954,"zip":"62217","miles_from_dt":14.38},{"city":"Belleville","state_name":"Illinois","lat":38.51187,"lng":-89.89922,"zip":"62221","miles_from_dt":14.72},{"city":"Scott Air Force Base","state_name":"Illinois","lat":38.54065,"lng":-89.85503,"zip":"62225","miles_from_dt":14.85},{"city":"Germantown","state_name":"Illinois","lat":38.54783,"lng":-89.57446,"zip":"62245","miles_from_dt":15.2},{"city":"Hecker","state_name":"Illinois","lat":38.30543,"lng":-89.99341,"zip":"62248","miles_from_dt":15.62},{"city":"Smithton","state_name":"Illinois","lat":38.38845,"lng":-90.00773,"zip":"62285","miles_from_dt":16.14},{"city":"Belleville","state_name":"Illinois","lat":38.46845,"lng":-89.98146,"zip":"62222","miles_from_dt":16.47},{"city":"Sparta","state_name":"Illinois","lat":38.11756,"lng":-89.7154,"zip":"62286","miles_from_dt":16.48},{"city":"Summerfield","state_name":"Illinois","lat":38.59788,"lng":-89.75096,"zip":"62289","miles_from_dt":16.78},{"city":"Belleville","state_name":"Illinois","lat":38.47247,"lng":-89.98704,"zip":"62220","miles_from_dt":16.87},{"city":"Bartelso","state_name":"Illinois","lat":38.52069,"lng":-89.47738,"zip":"62218","miles_from_dt":17.09},{"city":"Nashville","state_name":"Illinois","lat":38.33168,"lng":-89.39706,"zip":"62263","miles_from_dt":17.27},{"city":"Trenton","state_name":"Illinois","lat":38.61838,"lng":-89.69748,"zip":"62293","miles_from_dt":18.09},{"city":"Red Bud","state_name":"Illinois","lat":38.20528,"lng":-89.99116,"zip":"62278","miles_from_dt":18.35},{"city":"Lebanon","state_name":"Illinois","lat":38.6098,"lng":-89.81901,"zip":"62254","miles_from_dt":18.39},{"city":"Aviston","state_name":"Illinois","lat":38.62559,"lng":-89.60313,"zip":"62216","miles_from_dt":19.5},{"city":"O'Fallon","state_name":"Illinois","lat":38.59844,"lng":-89.91294,"zip":"62269","miles_from_dt":19.89},{"city":"Belleville","state_name":"Illinois","lat":38.53634,"lng":-90.00057,"zip":"62226","miles_from_dt":19.92},{"city":"Walsh","state_name":"Illinois","lat":38.04938,"lng":-89.81239,"zip":"62297","miles_from_dt":21.85},{"city":"Breese","state_name":"Illinois","lat":38.63855,"lng":-89.52742,"zip":"62230","miles_from_dt":21.91},{"city":"Evansville","state_name":"Illinois","lat":38.09257,"lng":-89.94339,"zip":"62242","miles_from_dt":22.09},{"city":"Millstadt","state_name":"Illinois","lat":38.46097,"lng":-90.09891,"zip":"62260","miles_from_dt":22.13},{"city":"Belleville","state_name":"Illinois","lat":38.53491,"lng":-90.06027,"zip":"62223","miles_from_dt":22.49},{"city":"Beckemeyer","state_name":"Illinois","lat":38.60371,"lng":-89.43698,"zip":"62219","miles_from_dt":22.7},{"city":"Fairview Heights","state_name":"Illinois","lat":38.59641,"lng":-90.00528,"zip":"62208","miles_from_dt":22.9},{"city":"Hoyleton","state_name":"Illinois","lat":38.45461,"lng":-89.29822,"zip":"62803","miles_from_dt":23.53},{"city":"Cutler","state_name":"Illinois","lat":38.04499,"lng":-89.5319,"zip":"62238","miles_from_dt":23.64},{"city":"Waterloo","state_name":"Illinois","lat":38.30906,"lng":-90.15132,"zip":"62298","miles_from_dt":24.02},{"city":"Saint Jacob","state_name":"Illinois","lat":38.70405,"lng":-89.78288,"zip":"62281","miles_from_dt":24.27},{"city":"Caseyville","state_name":"Illinois","lat":38.63266,"lng":-90.00509,"zip":"62232","miles_from_dt":24.76},{"city":"Pinckneyville","state_name":"Illinois","lat":38.09312,"lng":-89.40064,"zip":"62274","miles_from_dt":24.89},{"city":"Percy","state_name":"Illinois","lat":38.00241,"lng":-89.61562,"zip":"62272","miles_from_dt":24.99},{"city":"Steeleville","state_name":"Illinois","lat":37.99267,"lng":-89.69106,"zip":"62288","miles_from_dt":25.12},{"city":"Ellis Grove","state_name":"Illinois","lat":38.01474,"lng":-89.88845,"zip":"62241","miles_from_dt":25.42},{"city":"Troy","state_name":"Illinois","lat":38.70374,"lng":-89.87242,"zip":"62294","miles_from_dt":25.46},{"city":"East Saint Louis","state_name":"Illinois","lat":38.60223,"lng":-90.07534,"zip":"62203","miles_from_dt":25.94},{"city":"Willisville","state_name":"Illinois","lat":37.98357,"lng":-89.59013,"zip":"62997","miles_from_dt":26.58},{"city":"Collinsville","state_name":"Illinois","lat":38.68214,"lng":-89.9815,"zip":"62234","miles_from_dt":26.76},{"city":"East Saint Louis","state_name":"Illinois","lat":38.58327,"lng":-90.12544,"zip":"62207","miles_from_dt":27.28},{"city":"Hoffman","state_name":"Illinois","lat":38.54042,"lng":-89.26436,"zip":"62250","miles_from_dt":27.46},{"city":"Renault","state_name":"Illinois","lat":38.13796,"lng":-90.13695,"zip":"62279","miles_from_dt":27.53},{"city":"Columbia","state_name":"Illinois","lat":38.43391,"lng":-90.21141,"zip":"62236","miles_from_dt":27.56},{"city":"Highland","state_name":"Illinois","lat":38.75469,"lng":-89.66436,"zip":"62249","miles_from_dt":27.6},{"city":"East Saint Louis","state_name":"Illinois","lat":38.60259,"lng":-90.11469,"zip":"62205","miles_from_dt":27.6},{"city":"Richview","state_name":"Illinois","lat":38.38983,"lng":-89.2057,"zip":"62877","miles_from_dt":27.66},{"city":"Dupo","state_name":"Illinois","lat":38.528,"lng":-90.1803,"zip":"62239","miles_from_dt":27.96},{"city":"Prairie Du Rocher","state_name":"Illinois","lat":38.09844,"lng":-90.11081,"zip":"62277","miles_from_dt":28.01},{"city":"East Saint Louis","state_name":"Illinois","lat":38.63033,"lng":-90.09642,"zip":"62204","miles_from_dt":28.07},{"city":"Du Bois","state_name":"Illinois","lat":38.23042,"lng":-89.22167,"zip":"62831","miles_from_dt":28.1},{"city":"Modoc","state_name":"Illinois","lat":38.01218,"lng":-89.99774,"zip":"62261","miles_from_dt":28.35},{"city":"Huey","state_name":"Illinois","lat":38.60427,"lng":-89.29024,"zip":"62252","miles_from_dt":28.61},{"city":"Fults","state_name":"Illinois","lat":38.19142,"lng":-90.1965,"zip":"62244","miles_from_dt":28.63},{"city":"Radom","state_name":"Illinois","lat":38.27713,"lng":-89.19487,"zip":"62876","miles_from_dt":28.7},{"city":"East Saint Louis","state_name":"Illinois","lat":38.56796,"lng":-90.16981,"zip":"62206","miles_from_dt":28.73},{"city":"Ashley","state_name":"Illinois","lat":38.30328,"lng":-89.1884,"zip":"62808","miles_from_dt":28.76},{"city":"Carlyle","state_name":"Illinois","lat":38.64402,"lng":-89.32642,"zip":"62231","miles_from_dt":28.87},{"city":"Maryville","state_name":"Illinois","lat":38.72719,"lng":-89.96253,"zip":"62062","miles_from_dt":28.92},{"city":"Chester","state_name":"Illinois","lat":37.93719,"lng":-89.78842,"zip":"62233","miles_from_dt":29.2},{"city":"East Carondelet","state_name":"Illinois","lat":38.52084,"lng":-90.21011,"zip":"62240","miles_from_dt":29.24},{"city":"Maeystown","state_name":"Illinois","lat":38.22623,"lng":-90.23152,"zip":"62256","miles_from_dt":29.57},{"city":"Campbell Hill","state_name":"Illinois","lat":37.93722,"lng":-89.56947,"zip":"62916","miles_from_dt":29.96}],"targetCityZipCode":"62282","targetCityState":"Illinois"},"__N_SSG":true}