{"pageProps":{"stateName":"Illinois","cityName":"topeka","nearbyCities":[{"city":"Forest City","state_name":"Illinois","lat":40.34851,"lng":-89.80692,"zip":"61532","miles_from_dt":4.86},{"city":"Liverpool","state_name":"Illinois","lat":40.42213,"lng":-89.96842,"zip":"61543","miles_from_dt":6.14},{"city":"Manito","state_name":"Illinois","lat":40.45212,"lng":-89.80172,"zip":"61546","miles_from_dt":8.67},{"city":"Easton","state_name":"Illinois","lat":40.22577,"lng":-89.8763,"zip":"62633","miles_from_dt":8.71},{"city":"Havana","state_name":"Illinois","lat":40.28553,"lng":-90.06022,"zip":"62644","miles_from_dt":9.63},{"city":"Dunfermline","state_name":"Illinois","lat":40.49125,"lng":-90.03468,"zip":"61524","miles_from_dt":12.05},{"city":"Lewistown","state_name":"Illinois","lat":40.38487,"lng":-90.13402,"zip":"61542","miles_from_dt":12.62},{"city":"Saint David","state_name":"Illinois","lat":40.4931,"lng":-90.05108,"zip":"61563","miles_from_dt":12.68},{"city":"Bryant","state_name":"Illinois","lat":40.46463,"lng":-90.09309,"zip":"61519","miles_from_dt":12.9},{"city":"Green Valley","state_name":"Illinois","lat":40.41499,"lng":-89.66464,"zip":"61534","miles_from_dt":13.14},{"city":"Mason City","state_name":"Illinois","lat":40.21106,"lng":-89.72629,"zip":"62664","miles_from_dt":13.27},{"city":"Kilbourne","state_name":"Illinois","lat":40.16523,"lng":-89.99515,"zip":"62655","miles_from_dt":13.77},{"city":"San Jose","state_name":"Illinois","lat":40.29487,"lng":-89.63541,"zip":"62682","miles_from_dt":14.44},{"city":"Canton","state_name":"Illinois","lat":40.54197,"lng":-90.02156,"zip":"61520","miles_from_dt":14.69},{"city":"Kingston Mines","state_name":"Illinois","lat":40.55375,"lng":-89.77561,"zip":"61539","miles_from_dt":15.44},{"city":"South Pekin","state_name":"Illinois","lat":40.49848,"lng":-89.65624,"zip":"61564","miles_from_dt":16.36},{"city":"Glasford","state_name":"Illinois","lat":40.58736,"lng":-89.84029,"zip":"61533","miles_from_dt":16.62},{"city":"Oakford","state_name":"Illinois","lat":40.09586,"lng":-89.9674,"zip":"62673","miles_from_dt":17.96},{"city":"Cuba","state_name":"Illinois","lat":40.49823,"lng":-90.19319,"zip":"61427","miles_from_dt":18.55},{"city":"Mapleton","state_name":"Illinois","lat":40.60962,"lng":-89.73847,"zip":"61547","miles_from_dt":19.76},{"city":"Delavan","state_name":"Illinois","lat":40.37431,"lng":-89.52549,"zip":"61734","miles_from_dt":19.78},{"city":"Pekin","state_name":"Illinois","lat":40.54441,"lng":-89.62181,"zip":"61554","miles_from_dt":19.8},{"city":"Norris","state_name":"Illinois","lat":40.62136,"lng":-90.02686,"zip":"61553","miles_from_dt":19.85},{"city":"Pekin","state_name":"Illinois","lat":40.56675,"lng":-89.64293,"zip":"61555","miles_from_dt":20.1},{"city":"Fiatt","state_name":"Illinois","lat":40.55749,"lng":-90.16866,"zip":"61433","miles_from_dt":20.14},{"city":"Pekin","state_name":"Illinois","lat":40.56747,"lng":-89.63825,"zip":"61558","miles_from_dt":20.31},{"city":"Bath","state_name":"Illinois","lat":40.14948,"lng":-90.18109,"zip":"62617","miles_from_dt":20.38},{"city":"Greenview","state_name":"Illinois","lat":40.09022,"lng":-89.71303,"zip":"62642","miles_from_dt":20.49},{"city":"Ipava","state_name":"Illinois","lat":40.33957,"lng":-90.29336,"zip":"61441","miles_from_dt":20.83},{"city":"Lincolns New Salem","state_name":"Illinois","lat":40.04,"lng":-89.85219,"zip":"62659","miles_from_dt":21.58},{"city":"New Holland","state_name":"Illinois","lat":40.16707,"lng":-89.55755,"zip":"62671","miles_from_dt":22.05},{"city":"Peoria","state_name":"Illinois","lat":40.62895,"lng":-89.68627,"zip":"61607","miles_from_dt":22.23},{"city":"Trivoli","state_name":"Illinois","lat":40.67788,"lng":-89.89324,"zip":"61569","miles_from_dt":22.57},{"city":"Petersburg","state_name":"Illinois","lat":40.02109,"lng":-89.86146,"zip":"62675","miles_from_dt":22.83},{"city":"Emden","state_name":"Illinois","lat":40.29653,"lng":-89.46573,"zip":"62635","miles_from_dt":23.18},{"city":"Astoria","state_name":"Illinois","lat":40.22797,"lng":-90.31233,"zip":"61501","miles_from_dt":23.43},{"city":"Peoria","state_name":"Illinois","lat":40.65306,"lng":-89.68375,"zip":"61641","miles_from_dt":23.74},{"city":"Chandlerville","state_name":"Illinois","lat":40.05425,"lng":-90.12887,"zip":"62627","miles_from_dt":23.8},{"city":"Farmington","state_name":"Illinois","lat":40.68291,"lng":-90.03482,"zip":"61531","miles_from_dt":24.01},{"city":"Smithfield","state_name":"Illinois","lat":40.4945,"lng":-90.31402,"zip":"61477","miles_from_dt":24.03},{"city":"Hanna City","state_name":"Illinois","lat":40.69051,"lng":-89.78688,"zip":"61536","miles_from_dt":24.17},{"city":"Hartsburg","state_name":"Illinois","lat":40.24154,"lng":-89.45774,"zip":"62643","miles_from_dt":24.5},{"city":"Tremont","state_name":"Illinois","lat":40.50484,"lng":-89.47876,"zip":"61568","miles_from_dt":24.58},{"city":"Fairview","state_name":"Illinois","lat":40.65055,"lng":-90.16086,"zip":"61432","miles_from_dt":24.86},{"city":"Hopedale","state_name":"Illinois","lat":40.4174,"lng":-89.43295,"zip":"61747","miles_from_dt":25.02},{"city":"Groveland","state_name":"Illinois","lat":40.58578,"lng":-89.52316,"zip":"61535","miles_from_dt":25.6},{"city":"Creve Coeur","state_name":"Illinois","lat":40.64294,"lng":-89.59882,"zip":"61610","miles_from_dt":25.62},{"city":"Middletown","state_name":"Illinois","lat":40.08384,"lng":-89.54364,"zip":"62666","miles_from_dt":26.31},{"city":"Peoria","state_name":"Illinois","lat":40.6765,"lng":-89.63317,"zip":"61605","miles_from_dt":26.48},{"city":"Ellisville","state_name":"Illinois","lat":40.60315,"lng":-90.2776,"zip":"61431","miles_from_dt":26.48},{"city":"Table Grove","state_name":"Illinois","lat":40.39362,"lng":-90.40766,"zip":"61482","miles_from_dt":27.01},{"city":"Browning","state_name":"Illinois","lat":40.14993,"lng":-90.34478,"zip":"62624","miles_from_dt":27.34},{"city":"Peoria","state_name":"Illinois","lat":40.67885,"lng":-89.6076,"zip":"61652","miles_from_dt":27.35},{"city":"Peoria","state_name":"Illinois","lat":40.67769,"lng":-89.60371,"zip":"61654","miles_from_dt":27.4},{"city":"Peoria","state_name":"Illinois","lat":40.68,"lng":-89.60427,"zip":"61653","miles_from_dt":27.51},{"city":"Peoria","state_name":"Illinois","lat":40.68005,"lng":-89.60395,"zip":"61602","miles_from_dt":27.52},{"city":"Peoria","state_name":"Illinois","lat":40.67987,"lng":-89.60219,"zip":"61651","miles_from_dt":27.57},{"city":"Peoria","state_name":"Illinois","lat":40.70828,"lng":-89.66265,"zip":"61633","miles_from_dt":27.63},{"city":"Peoria","state_name":"Illinois","lat":40.68351,"lng":-89.60653,"zip":"61656","miles_from_dt":27.65},{"city":"Athens","state_name":"Illinois","lat":39.99009,"lng":-89.67036,"zip":"62613","miles_from_dt":27.67},{"city":"Peoria","state_name":"Illinois","lat":40.70525,"lng":-89.65297,"zip":"61604","miles_from_dt":27.68},{"city":"Peoria","state_name":"Illinois","lat":40.68284,"lng":-89.60181,"zip":"61630","miles_from_dt":27.75},{"city":"Peoria","state_name":"Illinois","lat":40.68166,"lng":-89.59449,"zip":"61612","miles_from_dt":27.9},{"city":"Peoria","state_name":"Illinois","lat":40.68366,"lng":-89.59519,"zip":"61655","miles_from_dt":27.99},{"city":"Tallula","state_name":"Illinois","lat":39.945,"lng":-89.92415,"zip":"62688","miles_from_dt":28.03},{"city":"Peoria","state_name":"Illinois","lat":40.6978,"lng":-89.61455,"zip":"61625","miles_from_dt":28.24},{"city":"Peoria","state_name":"Illinois","lat":40.70011,"lng":-89.61187,"zip":"61606","miles_from_dt":28.45},{"city":"Peoria","state_name":"Illinois","lat":40.693,"lng":-89.59305,"zip":"61629","miles_from_dt":28.59},{"city":"Peoria","state_name":"Illinois","lat":40.69138,"lng":-89.58871,"zip":"61634","miles_from_dt":28.62},{"city":"Peoria","state_name":"Illinois","lat":40.69401,"lng":-89.59085,"zip":"61601","miles_from_dt":28.71},{"city":"Peoria","state_name":"Illinois","lat":40.7002,"lng":-89.59859,"zip":"61636","miles_from_dt":28.84},{"city":"Vermont","state_name":"Illinois","lat":40.29696,"lng":-90.44153,"zip":"61484","miles_from_dt":28.89},{"city":"Peoria","state_name":"Illinois","lat":40.6375,"lng":-89.49684,"zip":"61650","miles_from_dt":28.99},{"city":"Peoria","state_name":"Illinois","lat":40.69951,"lng":-89.59014,"zip":"61637","miles_from_dt":29.04},{"city":"Marietta","state_name":"Illinois","lat":40.50497,"lng":-90.41453,"zip":"61459","miles_from_dt":29.19},{"city":"Elmwood","state_name":"Illinois","lat":40.7809,"lng":-89.93673,"zip":"61529","miles_from_dt":29.75}],"targetCityZipCode":"61567","targetCityState":"Illinois"},"__N_SSG":true}