{"pageProps":{"stateName":"Illinois","cityName":"toulon","nearbyCities":[{"city":"La Fayette","state_name":"Illinois","lat":41.08926,"lng":-89.97051,"zip":"61449","miles_from_dt":5.18},{"city":"Wyoming","state_name":"Illinois","lat":41.05982,"lng":-89.72525,"zip":"61491","miles_from_dt":7.8},{"city":"Castleton","state_name":"Illinois","lat":41.11964,"lng":-89.70601,"zip":"61426","miles_from_dt":9.05},{"city":"Laura","state_name":"Illinois","lat":40.94117,"lng":-89.93555,"zip":"61451","miles_from_dt":10.24},{"city":"Galva","state_name":"Illinois","lat":41.17387,"lng":-90.03598,"zip":"61434","miles_from_dt":10.67},{"city":"Princeville","state_name":"Illinois","lat":40.92101,"lng":-89.77438,"zip":"61559","miles_from_dt":12.2},{"city":"Camp Grove","state_name":"Illinois","lat":41.07671,"lng":-89.63513,"zip":"61424","miles_from_dt":12.37},{"city":"Victoria","state_name":"Illinois","lat":41.01677,"lng":-90.09764,"zip":"61485","miles_from_dt":12.61},{"city":"Kewanee","state_name":"Illinois","lat":41.25972,"lng":-89.94242,"zip":"61443","miles_from_dt":12.83},{"city":"Williamsfield","state_name":"Illinois","lat":40.93462,"lng":-90.02664,"zip":"61489","miles_from_dt":12.97},{"city":"Speer","state_name":"Illinois","lat":41.00192,"lng":-89.63939,"zip":"61479","miles_from_dt":13.33},{"city":"Bradford","state_name":"Illinois","lat":41.1792,"lng":-89.65083,"zip":"61421","miles_from_dt":13.36},{"city":"Neponset","state_name":"Illinois","lat":41.27981,"lng":-89.78878,"zip":"61345","miles_from_dt":14.35},{"city":"Altona","state_name":"Illinois","lat":41.12597,"lng":-90.15495,"zip":"61414","miles_from_dt":15.09},{"city":"Bishop Hill","state_name":"Illinois","lat":41.19982,"lng":-90.11751,"zip":"61419","miles_from_dt":15.19},{"city":"Dahinda","state_name":"Illinois","lat":40.93262,"lng":-90.10977,"zip":"61428","miles_from_dt":16.13},{"city":"Edelstein","state_name":"Illinois","lat":40.92899,"lng":-89.62599,"zip":"61526","miles_from_dt":16.61},{"city":"Brimfield","state_name":"Illinois","lat":40.823,"lng":-89.85155,"zip":"61517","miles_from_dt":17.87},{"city":"Buda","state_name":"Illinois","lat":41.29745,"lng":-89.67474,"zip":"61314","miles_from_dt":18.1},{"city":"Dunlap","state_name":"Illinois","lat":40.84776,"lng":-89.67047,"zip":"61525","miles_from_dt":19.27},{"city":"Sparland","state_name":"Illinois","lat":41.032,"lng":-89.50718,"zip":"61565","miles_from_dt":19.35},{"city":"Oneida","state_name":"Illinois","lat":41.07115,"lng":-90.24338,"zip":"61467","miles_from_dt":19.41},{"city":"Chillicothe","state_name":"Illinois","lat":40.91751,"lng":-89.53562,"zip":"61523","miles_from_dt":20.91},{"city":"Elmwood","state_name":"Illinois","lat":40.7809,"lng":-89.93673,"zip":"61529","miles_from_dt":21.02},{"city":"Henry","state_name":"Illinois","lat":41.11607,"lng":-89.47035,"zip":"61537","miles_from_dt":21.09},{"city":"Cambridge","state_name":"Illinois","lat":41.28727,"lng":-90.17647,"zip":"61238","miles_from_dt":21.3},{"city":"Yates City","state_name":"Illinois","lat":40.79768,"lng":-90.0343,"zip":"61572","miles_from_dt":21.35},{"city":"Woodhull","state_name":"Illinois","lat":41.18263,"lng":-90.26518,"zip":"61490","miles_from_dt":21.67},{"city":"Knoxville","state_name":"Illinois","lat":40.93385,"lng":-90.24374,"zip":"61448","miles_from_dt":21.95},{"city":"Tiskilwa","state_name":"Illinois","lat":41.26113,"lng":-89.51981,"zip":"61368","miles_from_dt":22.15},{"city":"Edwards","state_name":"Illinois","lat":40.7757,"lng":-89.7227,"zip":"61528","miles_from_dt":22.5},{"city":"Mineral","state_name":"Illinois","lat":41.41245,"lng":-89.8344,"zip":"61344","miles_from_dt":22.92},{"city":"Peoria","state_name":"Illinois","lat":40.80424,"lng":-89.62971,"zip":"61638","miles_from_dt":22.95},{"city":"Sheffield","state_name":"Illinois","lat":41.40913,"lng":-89.76778,"zip":"61361","miles_from_dt":23.25},{"city":"Atkinson","state_name":"Illinois","lat":41.39972,"lng":-90.0237,"zip":"61235","miles_from_dt":23.34},{"city":"Annawan","state_name":"Illinois","lat":41.41804,"lng":-89.91947,"zip":"61234","miles_from_dt":23.35},{"city":"Gilson","state_name":"Illinois","lat":40.86067,"lng":-90.21739,"zip":"61436","miles_from_dt":23.64},{"city":"Wataga","state_name":"Illinois","lat":41.03004,"lng":-90.32071,"zip":"61488","miles_from_dt":23.71},{"city":"Rome","state_name":"Illinois","lat":40.88102,"lng":-89.50144,"zip":"61562","miles_from_dt":23.81},{"city":"Mossville","state_name":"Illinois","lat":40.82133,"lng":-89.56496,"zip":"61552","miles_from_dt":24.09},{"city":"Peoria","state_name":"Illinois","lat":40.78088,"lng":-89.63102,"zip":"61615","miles_from_dt":24.28},{"city":"Wyanet","state_name":"Illinois","lat":41.38144,"lng":-89.61077,"zip":"61379","miles_from_dt":24.76},{"city":"East Galesburg","state_name":"Illinois","lat":40.94393,"lng":-90.31135,"zip":"61430","miles_from_dt":24.86},{"city":"Henderson","state_name":"Illinois","lat":41.02923,"lng":-90.35019,"zip":"61439","miles_from_dt":25.25},{"city":"Putnam","state_name":"Illinois","lat":41.18581,"lng":-89.40077,"zip":"61560","miles_from_dt":25.61},{"city":"Peoria","state_name":"Illinois","lat":40.75872,"lng":-89.60486,"zip":"61614","miles_from_dt":26.3},{"city":"Andover","state_name":"Illinois","lat":41.29464,"lng":-90.29129,"zip":"61233","miles_from_dt":26.35},{"city":"Maquon","state_name":"Illinois","lat":40.78027,"lng":-90.18107,"zip":"61458","miles_from_dt":26.35},{"city":"Lacon","state_name":"Illinois","lat":41.01856,"lng":-89.36867,"zip":"61540","miles_from_dt":26.64},{"city":"Peoria","state_name":"Illinois","lat":40.74237,"lng":-89.62819,"zip":"61613","miles_from_dt":26.66},{"city":"Rio","state_name":"Illinois","lat":41.10327,"lng":-90.38345,"zip":"61472","miles_from_dt":26.75},{"city":"Alpha","state_name":"Illinois","lat":41.19135,"lng":-90.37227,"zip":"61413","miles_from_dt":27.18},{"city":"Hanna City","state_name":"Illinois","lat":40.69051,"lng":-89.78688,"zip":"61536","miles_from_dt":27.35},{"city":"Trivoli","state_name":"Illinois","lat":40.67788,"lng":-89.89324,"zip":"61569","miles_from_dt":27.88},{"city":"Peoria Heights","state_name":"Illinois","lat":40.74682,"lng":-89.57195,"zip":"61616","miles_from_dt":27.93},{"city":"Peoria","state_name":"Illinois","lat":40.70828,"lng":-89.66265,"zip":"61633","miles_from_dt":27.99},{"city":"Peoria","state_name":"Illinois","lat":40.70525,"lng":-89.65297,"zip":"61604","miles_from_dt":28.38},{"city":"Galesburg","state_name":"Illinois","lat":40.94451,"lng":-90.38888,"zip":"61401","miles_from_dt":28.63},{"city":"Lynn Center","state_name":"Illinois","lat":41.27799,"lng":-90.35699,"zip":"61262","miles_from_dt":28.7},{"city":"Farmington","state_name":"Illinois","lat":40.68291,"lng":-90.03482,"zip":"61531","miles_from_dt":28.8},{"city":"Manlius","state_name":"Illinois","lat":41.47014,"lng":-89.66517,"zip":"61338","miles_from_dt":28.89},{"city":"Osco","state_name":"Illinois","lat":41.37031,"lng":-90.27666,"zip":"61274","miles_from_dt":29.01},{"city":"Ophiem","state_name":"Illinois","lat":41.2565,"lng":-90.38751,"zip":"61468","miles_from_dt":29.47},{"city":"Galesburg","state_name":"Illinois","lat":40.93993,"lng":-90.40627,"zip":"61402","miles_from_dt":29.59},{"city":"Peoria","state_name":"Illinois","lat":40.70011,"lng":-89.61187,"zip":"61606","miles_from_dt":29.63},{"city":"Peoria","state_name":"Illinois","lat":40.72414,"lng":-89.55686,"zip":"61643","miles_from_dt":29.67},{"city":"Peoria","state_name":"Illinois","lat":40.6978,"lng":-89.61455,"zip":"61625","miles_from_dt":29.71},{"city":"Peoria","state_name":"Illinois","lat":40.7122,"lng":-89.57465,"zip":"61603","miles_from_dt":29.86},{"city":"Peoria","state_name":"Illinois","lat":40.7002,"lng":-89.59859,"zip":"61636","miles_from_dt":29.96},{"city":"Bureau","state_name":"Illinois","lat":41.2865,"lng":-89.36477,"zip":"61315","miles_from_dt":29.98}],"targetCityZipCode":"61483","targetCityState":"Illinois"},"__N_SSG":true}