{"pageProps":{"stateName":"Maryland","cityName":"barstow","nearbyCities":[{"city":"Prince Frederick","state_name":"Maryland","lat":38.52164,"lng":-76.60072,"zip":"20678","miles_from_dt":1.18},{"city":"Benedict","state_name":"Maryland","lat":38.50708,"lng":-76.67789,"zip":"20612","miles_from_dt":3.77},{"city":"Port Republic","state_name":"Maryland","lat":38.4869,"lng":-76.54788,"zip":"20676","miles_from_dt":4.91},{"city":"Huntingtown","state_name":"Maryland","lat":38.60823,"lng":-76.6086,"zip":"20639","miles_from_dt":5.2},{"city":"Aquasco","state_name":"Maryland","lat":38.58638,"lng":-76.70702,"zip":"20608","miles_from_dt":6.11},{"city":"Saint Leonard","state_name":"Maryland","lat":38.43465,"lng":-76.52904,"zip":"20685","miles_from_dt":8.3},{"city":"Broomes Island","state_name":"Maryland","lat":38.4204,"lng":-76.54772,"zip":"20615","miles_from_dt":8.63},{"city":"Hughesville","state_name":"Maryland","lat":38.52577,"lng":-76.77897,"zip":"20637","miles_from_dt":8.8},{"city":"Chesapeake Beach","state_name":"Maryland","lat":38.65573,"lng":-76.54292,"zip":"20732","miles_from_dt":9.35},{"city":"Sunderland","state_name":"Maryland","lat":38.66963,"lng":-76.58591,"zip":"20689","miles_from_dt":9.56},{"city":"Mechanicsville","state_name":"Maryland","lat":38.41886,"lng":-76.73238,"zip":"20659","miles_from_dt":10.07},{"city":"Owings","state_name":"Maryland","lat":38.6913,"lng":-76.62855,"zip":"20736","miles_from_dt":10.93},{"city":"Morganza","state_name":"Maryland","lat":38.36928,"lng":-76.70741,"zip":"20660","miles_from_dt":12.33},{"city":"Hollywood","state_name":"Maryland","lat":38.35582,"lng":-76.57212,"zip":"20636","miles_from_dt":12.47},{"city":"Bryantown","state_name":"Maryland","lat":38.54351,"lng":-76.854,"zip":"20617","miles_from_dt":12.87},{"city":"North Beach","state_name":"Maryland","lat":38.71813,"lng":-76.53987,"zip":"20714","miles_from_dt":13.42},{"city":"Charlotte Hall","state_name":"Maryland","lat":38.45281,"lng":-76.84504,"zip":"20622","miles_from_dt":13.56},{"city":"Loveville","state_name":"Maryland","lat":38.33914,"lng":-76.6787,"zip":"20656","miles_from_dt":13.8},{"city":"Lusby","state_name":"Maryland","lat":38.38358,"lng":-76.44537,"zip":"20657","miles_from_dt":13.89},{"city":"Friendship","state_name":"Maryland","lat":38.73399,"lng":-76.58961,"zip":"20758","miles_from_dt":13.93},{"city":"Brandywine","state_name":"Maryland","lat":38.67179,"lng":-76.80576,"zip":"20613","miles_from_dt":14},{"city":"Dunkirk","state_name":"Maryland","lat":38.736,"lng":-76.65493,"zip":"20754","miles_from_dt":14.14},{"city":"Waldorf","state_name":"Maryland","lat":38.61863,"lng":-76.85715,"zip":"20601","miles_from_dt":14.29},{"city":"Clements","state_name":"Maryland","lat":38.33523,"lng":-76.73451,"zip":"20624","miles_from_dt":15.07},{"city":"Waldorf","state_name":"Maryland","lat":38.58335,"lng":-76.89466,"zip":"20602","miles_from_dt":15.44},{"city":"Compton","state_name":"Maryland","lat":38.30501,"lng":-76.63201,"zip":"20627","miles_from_dt":15.76},{"city":"Solomons","state_name":"Maryland","lat":38.33475,"lng":-76.46965,"zip":"20688","miles_from_dt":15.84},{"city":"Dowell","state_name":"Maryland","lat":38.33996,"lng":-76.45388,"zip":"20629","miles_from_dt":15.99},{"city":"Waldorf","state_name":"Maryland","lat":38.61797,"lng":-76.89208,"zip":"20604","miles_from_dt":16.01},{"city":"Tracys Landing","state_name":"Maryland","lat":38.76388,"lng":-76.57665,"zip":"20779","miles_from_dt":16.06},{"city":"Chaptico","state_name":"Maryland","lat":38.33062,"lng":-76.79438,"zip":"20621","miles_from_dt":16.97},{"city":"California","state_name":"Maryland","lat":38.2919,"lng":-76.52714,"zip":"20619","miles_from_dt":17.34},{"city":"Leonardtown","state_name":"Maryland","lat":38.27186,"lng":-76.63276,"zip":"20650","miles_from_dt":18.04},{"city":"Deale","state_name":"Maryland","lat":38.79552,"lng":-76.56221,"zip":"20751","miles_from_dt":18.34},{"city":"Taylors Island","state_name":"Maryland","lat":38.45897,"lng":-76.28509,"zip":"21669","miles_from_dt":18.69},{"city":"Cheltenham","state_name":"Maryland","lat":38.7423,"lng":-76.83747,"zip":"20623","miles_from_dt":18.73},{"city":"Upper Marlboro","state_name":"Maryland","lat":38.7785,"lng":-76.76911,"zip":"20772","miles_from_dt":18.82},{"city":"Lothian","state_name":"Maryland","lat":38.80485,"lng":-76.65245,"zip":"20711","miles_from_dt":18.84},{"city":"Tilghman","state_name":"Maryland","lat":38.69658,"lng":-76.33562,"zip":"21671","miles_from_dt":18.94},{"city":"Upper Marlboro","state_name":"Maryland","lat":38.78269,"lng":-76.76782,"zip":"20775","miles_from_dt":19.05},{"city":"Avenue","state_name":"Maryland","lat":38.27191,"lng":-76.74625,"zip":"20609","miles_from_dt":19.34},{"city":"Churchton","state_name":"Maryland","lat":38.80628,"lng":-76.53139,"zip":"20733","miles_from_dt":19.4},{"city":"White Plains","state_name":"Maryland","lat":38.58885,"lng":-76.97269,"zip":"20695","miles_from_dt":19.65},{"city":"Bushwood","state_name":"Maryland","lat":38.28152,"lng":-76.78891,"zip":"20618","miles_from_dt":19.71},{"city":"Faulkner","state_name":"Maryland","lat":38.42591,"lng":-76.95682,"zip":"20632","miles_from_dt":19.86},{"city":"Patuxent River","state_name":"Maryland","lat":38.2824,"lng":-76.42031,"zip":"20670","miles_from_dt":20.32},{"city":"Abell","state_name":"Maryland","lat":38.25412,"lng":-76.73878,"zip":"20606","miles_from_dt":20.35},{"city":"Waldorf","state_name":"Maryland","lat":38.62972,"lng":-76.97473,"zip":"20603","miles_from_dt":20.49},{"city":"Bel Alton","state_name":"Maryland","lat":38.46251,"lng":-76.98538,"zip":"20611","miles_from_dt":20.56},{"city":"Newburg","state_name":"Maryland","lat":38.35062,"lng":-76.91631,"zip":"20664","miles_from_dt":20.56},{"city":"La Plata","state_name":"Maryland","lat":38.52114,"lng":-76.99989,"zip":"20646","miles_from_dt":20.77},{"city":"Upper Marlboro","state_name":"Maryland","lat":38.81455,"lng":-76.75425,"zip":"20773","miles_from_dt":20.78},{"city":"Great Mills","state_name":"Maryland","lat":38.24582,"lng":-76.49412,"zip":"20634","miles_from_dt":20.91},{"city":"Madison","state_name":"Maryland","lat":38.4966,"lng":-76.23386,"zip":"21648","miles_from_dt":20.91},{"city":"Rock Point","state_name":"Maryland","lat":38.34621,"lng":-76.92068,"zip":"20682","miles_from_dt":20.93},{"city":"Sherwood","state_name":"Maryland","lat":38.75158,"lng":-76.34469,"zip":"21665","miles_from_dt":21.06},{"city":"Upper Marlboro","state_name":"Maryland","lat":38.82,"lng":-76.75219,"zip":"20792","miles_from_dt":21.1},{"city":"West River","state_name":"Maryland","lat":38.83733,"lng":-76.56647,"zip":"20778","miles_from_dt":21.16},{"city":"Callaway","state_name":"Maryland","lat":38.23288,"lng":-76.52196,"zip":"20620","miles_from_dt":21.34},{"city":"Shady Side","state_name":"Maryland","lat":38.83374,"lng":-76.51146,"zip":"20764","miles_from_dt":21.5},{"city":"Clinton","state_name":"Maryland","lat":38.75034,"lng":-76.90566,"zip":"20735","miles_from_dt":21.65},{"city":"Pomfret","state_name":"Maryland","lat":38.58349,"lng":-77.01522,"zip":"20675","miles_from_dt":21.86},{"city":"Galesville","state_name":"Maryland","lat":38.84533,"lng":-76.54654,"zip":"20765","miles_from_dt":21.87},{"city":"Coltons Point","state_name":"Maryland","lat":38.23256,"lng":-76.76404,"zip":"20626","miles_from_dt":22.22},{"city":"Mount Victoria","state_name":"Maryland","lat":38.26474,"lng":-76.84473,"zip":"20661","miles_from_dt":22.27},{"city":"Neavitt","state_name":"Maryland","lat":38.72028,"lng":-76.28108,"zip":"21652","miles_from_dt":22.28},{"city":"Cobb Island","state_name":"Maryland","lat":38.26212,"lng":-76.84877,"zip":"20625","miles_from_dt":22.54},{"city":"Issue","state_name":"Maryland","lat":38.29838,"lng":-76.91413,"zip":"20645","miles_from_dt":22.86},{"city":"Port Tobacco","state_name":"Maryland","lat":38.49992,"lng":-77.04016,"zip":"20677","miles_from_dt":23.06},{"city":"Harwood","state_name":"Maryland","lat":38.86913,"lng":-76.6067,"zip":"20776","miles_from_dt":23.18},{"city":"Lexington Park","state_name":"Maryland","lat":38.22795,"lng":-76.43139,"zip":"20653","miles_from_dt":23.33},{"city":"Andrews Air Force Base","state_name":"Maryland","lat":38.80748,"lng":-76.87457,"zip":"20762","miles_from_dt":23.5},{"city":"Woolford","state_name":"Maryland","lat":38.48454,"lng":-76.18544,"zip":"21677","miles_from_dt":23.62},{"city":"Park Hall","state_name":"Maryland","lat":38.21782,"lng":-76.44537,"zip":"20667","miles_from_dt":23.66},{"city":"Bozman","state_name":"Maryland","lat":38.74928,"lng":-76.27695,"zip":"21612","miles_from_dt":23.67},{"city":"Accokeek","state_name":"Maryland","lat":38.67161,"lng":-77.02478,"zip":"20607","miles_from_dt":24.06},{"city":"Wittman","state_name":"Maryland","lat":38.78628,"lng":-76.30548,"zip":"21676","miles_from_dt":24.26},{"city":"Mayo","state_name":"Maryland","lat":38.8799,"lng":-76.50746,"zip":"21106","miles_from_dt":24.64},{"city":"Valley Lee","state_name":"Maryland","lat":38.18352,"lng":-76.50682,"zip":"20692","miles_from_dt":24.84},{"city":"Fort Washington","state_name":"Maryland","lat":38.75362,"lng":-76.98393,"zip":"20744","miles_from_dt":25.01},{"city":"Upper Marlboro","state_name":"Maryland","lat":38.87589,"lng":-76.76925,"zip":"20774","miles_from_dt":25.04},{"city":"Fort Washington","state_name":"Maryland","lat":38.73353,"lng":-77.00301,"zip":"20749","miles_from_dt":25.05},{"city":"Church Creek","state_name":"Maryland","lat":38.40821,"lng":-76.17381,"zip":"21622","miles_from_dt":25.52},{"city":"Royal Oak","state_name":"Maryland","lat":38.7136,"lng":-76.20209,"zip":"21662","miles_from_dt":25.66},{"city":"Mcdaniel","state_name":"Maryland","lat":38.80114,"lng":-76.2831,"zip":"21647","miles_from_dt":25.83},{"city":"Saint Marys City","state_name":"Maryland","lat":38.18557,"lng":-76.43898,"zip":"20686","miles_from_dt":25.85},{"city":"Temple Hills","state_name":"Maryland","lat":38.8068,"lng":-76.94718,"zip":"20757","miles_from_dt":25.99},{"city":"Welcome","state_name":"Maryland","lat":38.45924,"lng":-77.08931,"zip":"20693","miles_from_dt":26.12},{"city":"Dahlgren","state_name":"Virginia","lat":38.33996,"lng":-77.03238,"zip":"22448","miles_from_dt":26.19},{"city":"Tall Timbers","state_name":"Maryland","lat":38.15916,"lng":-76.52631,"zip":"20690","miles_from_dt":26.26},{"city":"Temple Hills","state_name":"Maryland","lat":38.81692,"lng":-76.94124,"zip":"20748","miles_from_dt":26.28},{"city":"District Heights","state_name":"Maryland","lat":38.85348,"lng":-76.88377,"zip":"20747","miles_from_dt":26.39},{"city":"Capitol Heights","state_name":"Maryland","lat":38.81765,"lng":-76.94377,"zip":"20791","miles_from_dt":26.41},{"city":"Drayden","state_name":"Maryland","lat":38.16653,"lng":-76.47087,"zip":"20630","miles_from_dt":26.5},{"city":"Suitland","state_name":"Maryland","lat":38.83664,"lng":-76.91936,"zip":"20746","miles_from_dt":26.57},{"city":"Edgewater","state_name":"Maryland","lat":38.91476,"lng":-76.54361,"zip":"21037","miles_from_dt":26.62},{"city":"Coles Point","state_name":"Virginia","lat":38.14623,"lng":-76.63382,"zip":"22442","miles_from_dt":26.7},{"city":"District Heights","state_name":"Maryland","lat":38.85826,"lng":-76.88728,"zip":"20753","miles_from_dt":26.77},{"city":"Bryans Road","state_name":"Maryland","lat":38.65443,"lng":-77.08848,"zip":"20616","miles_from_dt":26.87},{"city":"Saint Michaels","state_name":"Maryland","lat":38.78333,"lng":-76.23303,"zip":"21663","miles_from_dt":26.99},{"city":"Capitol Heights","state_name":"Maryland","lat":38.88141,"lng":-76.85612,"zip":"20799","miles_from_dt":27.28},{"city":"Oxon Hill","state_name":"Maryland","lat":38.80142,"lng":-76.99111,"zip":"20750","miles_from_dt":27.43},{"city":"Suitland","state_name":"Maryland","lat":38.84934,"lng":-76.92508,"zip":"20752","miles_from_dt":27.45},{"city":"Alexandria","state_name":"Virginia","lat":38.72957,"lng":-77.05876,"zip":"22308","miles_from_dt":27.48},{"city":"Mount Holly","state_name":"Virginia","lat":38.13575,"lng":-76.66166,"zip":"22524","miles_from_dt":27.52},{"city":"Bowie","state_name":"Maryland","lat":38.92734,"lng":-76.71494,"zip":"20716","miles_from_dt":27.7},{"city":"Oxon Hill","state_name":"Maryland","lat":38.80552,"lng":-76.99495,"zip":"20745","miles_from_dt":27.77},{"city":"Davidsonville","state_name":"Maryland","lat":38.93637,"lng":-76.63875,"zip":"21035","miles_from_dt":27.84},{"city":"Claiborne","state_name":"Maryland","lat":38.83407,"lng":-76.27212,"zip":"21624","miles_from_dt":27.89},{"city":"Capitol Heights","state_name":"Maryland","lat":38.85464,"lng":-76.93153,"zip":"20790","miles_from_dt":27.95},{"city":"Newcomb","state_name":"Maryland","lat":38.74704,"lng":-76.17744,"zip":"21653","miles_from_dt":27.98},{"city":"Piney Point","state_name":"Maryland","lat":38.13307,"lng":-76.50019,"zip":"20674","miles_from_dt":28.31},{"city":"Bowie","state_name":"Maryland","lat":38.92106,"lng":-76.78881,"zip":"20721","miles_from_dt":28.33},{"city":"Capitol Heights","state_name":"Maryland","lat":38.88372,"lng":-76.89362,"zip":"20743","miles_from_dt":28.44},{"city":"Oxford","state_name":"Maryland","lat":38.6908,"lng":-76.12518,"zip":"21654","miles_from_dt":28.74},{"city":"Riva","state_name":"Maryland","lat":38.95062,"lng":-76.58569,"zip":"21140","miles_from_dt":28.84},{"city":"Alexandria","state_name":"Virginia","lat":38.7708,"lng":-77.05694,"zip":"22307","miles_from_dt":28.9},{"city":"Annapolis","state_name":"Maryland","lat":38.94433,"lng":-76.49296,"zip":"21403","miles_from_dt":29.14},{"city":"Saint Inigoes","state_name":"Maryland","lat":38.14308,"lng":-76.41027,"zip":"20684","miles_from_dt":29.15},{"city":"Capitol Heights","state_name":"Maryland","lat":38.88768,"lng":-76.91215,"zip":"20731","miles_from_dt":29.2},{"city":"Fishing Creek","state_name":"Maryland","lat":38.27995,"lng":-76.185,"zip":"21634","miles_from_dt":29.23},{"city":"Stratford","state_name":"Virginia","lat":38.14647,"lng":-76.84229,"zip":"22558","miles_from_dt":29.35},{"city":"Mount Vernon","state_name":"Virginia","lat":38.7167,"lng":-77.10823,"zip":"22121","miles_from_dt":29.45},{"city":"Alexandria","state_name":"Virginia","lat":38.71931,"lng":-77.10724,"zip":"22309","miles_from_dt":29.48},{"city":"Ironsides","state_name":"Maryland","lat":38.49143,"lng":-77.15828,"zip":"20643","miles_from_dt":29.49},{"city":"Marbury","state_name":"Maryland","lat":38.56973,"lng":-77.15958,"zip":"20658","miles_from_dt":29.51},{"city":"Cambridge","state_name":"Maryland","lat":38.49537,"lng":-76.07169,"zip":"21613","miles_from_dt":29.66},{"city":"Washington","state_name":"District of Columbia","lat":38.85901,"lng":-76.97556,"zip":"20395","miles_from_dt":29.69},{"city":"Indian Head","state_name":"Maryland","lat":38.55408,"lng":-77.1657,"zip":"20640","miles_from_dt":29.77},{"city":"Washington","state_name":"District of Columbia","lat":38.83142,"lng":-77.01514,"zip":"20032","miles_from_dt":29.78},{"city":"Washington","state_name":"District of Columbia","lat":38.86234,"lng":-76.97446,"zip":"20020","miles_from_dt":29.82},{"city":"Washington","state_name":"District of Columbia","lat":38.86289,"lng":-76.97473,"zip":"20030","miles_from_dt":29.86},{"city":"Ninde","state_name":"Virginia","lat":38.27014,"lng":-77.05432,"zip":"22526","miles_from_dt":29.88},{"city":"Zacata","state_name":"Virginia","lat":38.1197,"lng":-76.785,"zip":"22581","miles_from_dt":29.95},{"city":"Alexandria","state_name":"Virginia","lat":38.75655,"lng":-77.09254,"zip":"22306","miles_from_dt":30}],"targetCityZipCode":"20610","targetCityState":"Maryland"},"__N_SSG":true}