{"pageProps":{"stateName":"Maryland","cityName":"east-new-market","nearbyCities":[{"city":"Secretary","state_name":"Maryland","lat":38.6081,"lng":-75.94732,"zip":"21664","miles_from_dt":1.4},{"city":"Linkwood","state_name":"Maryland","lat":38.53355,"lng":-75.93758,"zip":"21835","miles_from_dt":3.77},{"city":"Hurlock","state_name":"Maryland","lat":38.6442,"lng":-75.87124,"zip":"21643","miles_from_dt":5.61},{"city":"Trappe","state_name":"Maryland","lat":38.65235,"lng":-76.04163,"zip":"21673","miles_from_dt":6.83},{"city":"Rhodesdale","state_name":"Maryland","lat":38.57442,"lng":-75.79985,"zip":"21659","miles_from_dt":7.97},{"city":"Cambridge","state_name":"Maryland","lat":38.49537,"lng":-76.07169,"zip":"21613","miles_from_dt":9.33},{"city":"Bethlehem","state_name":"Maryland","lat":38.74032,"lng":-75.95202,"zip":"21609","miles_from_dt":10.52},{"city":"Preston","state_name":"Maryland","lat":38.74601,"lng":-75.92103,"zip":"21655","miles_from_dt":10.99},{"city":"Vienna","state_name":"Maryland","lat":38.43246,"lng":-75.89012,"zip":"21869","miles_from_dt":11.14},{"city":"Oxford","state_name":"Maryland","lat":38.6908,"lng":-76.12518,"zip":"21654","miles_from_dt":12.02},{"city":"Sharptown","state_name":"Maryland","lat":38.53525,"lng":-75.72834,"zip":"21861","miles_from_dt":12.33},{"city":"Mardela Springs","state_name":"Maryland","lat":38.4594,"lng":-75.76731,"zip":"21837","miles_from_dt":13.12},{"city":"Federalsburg","state_name":"Maryland","lat":38.72287,"lng":-75.77478,"zip":"21632","miles_from_dt":13.13},{"city":"Woolford","state_name":"Maryland","lat":38.48454,"lng":-76.18544,"zip":"21677","miles_from_dt":14.8},{"city":"Easton","state_name":"Maryland","lat":38.79275,"lng":-76.08242,"zip":"21601","miles_from_dt":15.94},{"city":"Royal Oak","state_name":"Maryland","lat":38.7136,"lng":-76.20209,"zip":"21662","miles_from_dt":16.35},{"city":"Newcomb","state_name":"Maryland","lat":38.74704,"lng":-76.17744,"zip":"21653","miles_from_dt":16.65},{"city":"Madison","state_name":"Maryland","lat":38.4966,"lng":-76.23386,"zip":"21648","miles_from_dt":16.82},{"city":"Hebron","state_name":"Maryland","lat":38.40202,"lng":-75.72841,"zip":"21830","miles_from_dt":17.42},{"city":"Church Creek","state_name":"Maryland","lat":38.40821,"lng":-76.17381,"zip":"21622","miles_from_dt":17.49},{"city":"Seaford","state_name":"Delaware","lat":38.63404,"lng":-75.62454,"zip":"19973","miles_from_dt":17.69},{"city":"Bethel","state_name":"Delaware","lat":38.56928,"lng":-75.61029,"zip":"19931","miles_from_dt":18.22},{"city":"Crapo","state_name":"Maryland","lat":38.33902,"lng":-76.08398,"zip":"21626","miles_from_dt":18.72},{"city":"Quantico","state_name":"Maryland","lat":38.33807,"lng":-75.79224,"zip":"21856","miles_from_dt":19.14},{"city":"Manokin","state_name":"Maryland","lat":38.33073,"lng":-75.80639,"zip":"21836","miles_from_dt":19.28},{"city":"Cordova","state_name":"Maryland","lat":38.86925,"lng":-75.99216,"zip":"21625","miles_from_dt":19.57},{"city":"Denton","state_name":"Maryland","lat":38.86111,"lng":-75.82753,"zip":"21629","miles_from_dt":19.91},{"city":"Neavitt","state_name":"Maryland","lat":38.72028,"lng":-76.28108,"zip":"21652","miles_from_dt":20.3},{"city":"Taylors Island","state_name":"Maryland","lat":38.45897,"lng":-76.28509,"zip":"21669","miles_from_dt":20.41},{"city":"Saint Michaels","state_name":"Maryland","lat":38.78333,"lng":-76.23303,"zip":"21663","miles_from_dt":20.56},{"city":"Bivalve","state_name":"Maryland","lat":38.29176,"lng":-75.88669,"zip":"21814","miles_from_dt":20.67},{"city":"Bridgeville","state_name":"Delaware","lat":38.73699,"lng":-75.60586,"zip":"19933","miles_from_dt":21.08},{"city":"Bozman","state_name":"Maryland","lat":38.74928,"lng":-76.27695,"zip":"21612","miles_from_dt":21.08},{"city":"Tyaskin","state_name":"Maryland","lat":38.28605,"lng":-75.83296,"zip":"21865","miles_from_dt":21.7},{"city":"Delmar","state_name":"Delaware","lat":38.47723,"lng":-75.56828,"zip":"19940","miles_from_dt":21.84},{"city":"Salisbury","state_name":"Maryland","lat":38.38106,"lng":-75.64073,"zip":"21801","miles_from_dt":21.85},{"city":"Wingate","state_name":"Maryland","lat":38.29011,"lng":-76.0884,"zip":"21675","miles_from_dt":21.94},{"city":"Salisbury","state_name":"Maryland","lat":38.36305,"lng":-75.65682,"zip":"21803","miles_from_dt":22.05},{"city":"Laurel","state_name":"Delaware","lat":38.5465,"lng":-75.53961,"zip":"19956","miles_from_dt":22.19},{"city":"Toddville","state_name":"Maryland","lat":38.27707,"lng":-76.06148,"zip":"21672","miles_from_dt":22.33},{"city":"Tilghman","state_name":"Maryland","lat":38.69658,"lng":-76.33562,"zip":"21671","miles_from_dt":22.37},{"city":"Hillsboro","state_name":"Maryland","lat":38.91696,"lng":-75.94161,"zip":"21641","miles_from_dt":22.7},{"city":"Nanticoke","state_name":"Maryland","lat":38.25814,"lng":-75.89276,"zip":"21840","miles_from_dt":22.92},{"city":"Mcdaniel","state_name":"Maryland","lat":38.80114,"lng":-76.2831,"zip":"21647","miles_from_dt":23.42},{"city":"Wittman","state_name":"Maryland","lat":38.78628,"lng":-76.30548,"zip":"21676","miles_from_dt":23.77},{"city":"Delmar","state_name":"Maryland","lat":38.44038,"lng":-75.54559,"zip":"21875","miles_from_dt":23.96},{"city":"Wye Mills","state_name":"Maryland","lat":38.91722,"lng":-76.08875,"zip":"21679","miles_from_dt":23.99},{"city":"Sherwood","state_name":"Maryland","lat":38.75158,"lng":-76.34469,"zip":"21665","miles_from_dt":24.34},{"city":"Claiborne","state_name":"Maryland","lat":38.83407,"lng":-76.27212,"zip":"21624","miles_from_dt":24.48},{"city":"Greenwood","state_name":"Delaware","lat":38.82007,"lng":-75.59691,"zip":"19950","miles_from_dt":24.75},{"city":"Allen","state_name":"Maryland","lat":38.29005,"lng":-75.68887,"zip":"21810","miles_from_dt":24.83},{"city":"Fishing Creek","state_name":"Maryland","lat":38.27995,"lng":-76.185,"zip":"21634","miles_from_dt":24.88},{"city":"Crocheron","state_name":"Maryland","lat":38.23528,"lng":-76.04967,"zip":"21627","miles_from_dt":24.96},{"city":"Queen Anne","state_name":"Maryland","lat":38.9534,"lng":-75.99042,"zip":"21657","miles_from_dt":25.33},{"city":"Fruitland","state_name":"Maryland","lat":38.32077,"lng":-75.62353,"zip":"21826","miles_from_dt":25.4},{"city":"Ridgely","state_name":"Maryland","lat":38.95534,"lng":-75.88839,"zip":"21660","miles_from_dt":25.54},{"city":"Eden","state_name":"Maryland","lat":38.28129,"lng":-75.65566,"zip":"21822","miles_from_dt":26.37},{"city":"Queenstown","state_name":"Maryland","lat":38.94071,"lng":-76.13819,"zip":"21658","miles_from_dt":26.46},{"city":"Greensboro","state_name":"Maryland","lat":38.96533,"lng":-75.7928,"zip":"21639","miles_from_dt":27.32},{"city":"Salisbury","state_name":"Maryland","lat":38.34096,"lng":-75.53603,"zip":"21802","miles_from_dt":28},{"city":"Grasonville","state_name":"Maryland","lat":38.94513,"lng":-76.20263,"zip":"21638","miles_from_dt":28.28},{"city":"Harrington","state_name":"Delaware","lat":38.91654,"lng":-75.62531,"zip":"19952","miles_from_dt":28.53},{"city":"Salisbury","state_name":"Maryland","lat":38.31726,"lng":-75.53673,"zip":"21804","miles_from_dt":29},{"city":"Deal Island","state_name":"Maryland","lat":38.16664,"lng":-75.90611,"zip":"21821","miles_from_dt":29.13},{"city":"Princess Anne","state_name":"Maryland","lat":38.20453,"lng":-75.7102,"zip":"21853","miles_from_dt":29.37}],"targetCityZipCode":"21631","targetCityState":"Maryland"},"__N_SSG":true}