{"pageProps":{"stateName":"Maryland","cityName":"ewell","nearbyCities":[{"city":"Tylerton","state_name":"Maryland","lat":37.9672,"lng":-76.02137,"zip":"21866","miles_from_dt":0.96},{"city":"Tangier","state_name":"Virginia","lat":37.83048,"lng":-75.99019,"zip":"23440","miles_from_dt":10.51},{"city":"Crisfield","state_name":"Maryland","lat":37.98081,"lng":-75.83537,"zip":"21817","miles_from_dt":10.55},{"city":"Deal Island","state_name":"Maryland","lat":38.16664,"lng":-75.90611,"zip":"21821","miles_from_dt":14.52},{"city":"Ophelia","state_name":"Virginia","lat":37.91247,"lng":-76.28359,"zip":"22530","miles_from_dt":14.68},{"city":"Upper Fairmount","state_name":"Maryland","lat":38.11025,"lng":-75.79399,"zip":"21867","miles_from_dt":15.65},{"city":"Reedville","state_name":"Virginia","lat":37.85865,"lng":-76.28731,"zip":"22539","miles_from_dt":16.42},{"city":"Marion Station","state_name":"Maryland","lat":38.01452,"lng":-75.73098,"zip":"21838","miles_from_dt":16.42},{"city":"Crocheron","state_name":"Maryland","lat":38.23528,"lng":-76.04967,"zip":"21627","miles_from_dt":17.66},{"city":"Saxis","state_name":"Virginia","lat":37.9124,"lng":-75.71344,"zip":"23427","miles_from_dt":17.84},{"city":"Westover","state_name":"Maryland","lat":38.10489,"lng":-75.73127,"zip":"21871","miles_from_dt":18.37},{"city":"Scotland","state_name":"Maryland","lat":38.07578,"lng":-76.34382,"zip":"20687","miles_from_dt":18.42},{"city":"Edwardsville","state_name":"Virginia","lat":37.90854,"lng":-76.36714,"zip":"22456","miles_from_dt":19.13},{"city":"Burgess","state_name":"Virginia","lat":37.8637,"lng":-76.35043,"zip":"22432","miles_from_dt":19.32},{"city":"Sanford","state_name":"Virginia","lat":37.92706,"lng":-75.67506,"zip":"23426","miles_from_dt":19.65},{"city":"Rehobeth","state_name":"Maryland","lat":38.04647,"lng":-75.66726,"zip":"21857","miles_from_dt":20.25},{"city":"Toddville","state_name":"Maryland","lat":38.27707,"lng":-76.06148,"zip":"21672","miles_from_dt":20.58},{"city":"Nanticoke","state_name":"Maryland","lat":38.25814,"lng":-75.89276,"zip":"21840","miles_from_dt":20.58},{"city":"Ridge","state_name":"Maryland","lat":38.11071,"lng":-76.37353,"zip":"20680","miles_from_dt":20.86},{"city":"Dameron","state_name":"Maryland","lat":38.1459,"lng":-76.35027,"zip":"20628","miles_from_dt":20.94},{"city":"Wingate","state_name":"Maryland","lat":38.29011,"lng":-76.0884,"zip":"21675","miles_from_dt":21.65},{"city":"Westover","state_name":"Maryland","lat":38.15673,"lng":-75.6998,"zip":"21890","miles_from_dt":21.69},{"city":"Mears","state_name":"Virginia","lat":37.88017,"lng":-75.64709,"zip":"23409","miles_from_dt":21.95},{"city":"Heathsville","state_name":"Virginia","lat":37.88316,"lng":-76.41386,"zip":"22473","miles_from_dt":22.07},{"city":"Onancock","state_name":"Virginia","lat":37.73061,"lng":-75.76687,"zip":"23417","miles_from_dt":22.37},{"city":"Fishing Creek","state_name":"Maryland","lat":38.27995,"lng":-76.185,"zip":"21634","miles_from_dt":22.38},{"city":"Wicomico Church","state_name":"Virginia","lat":37.78895,"lng":-76.36013,"zip":"22579","miles_from_dt":22.39},{"city":"Bivalve","state_name":"Maryland","lat":38.29176,"lng":-75.88669,"zip":"21814","miles_from_dt":22.86},{"city":"Withams","state_name":"Virginia","lat":37.95237,"lng":-75.60831,"zip":"23488","miles_from_dt":23.03},{"city":"Princess Anne","state_name":"Maryland","lat":38.20453,"lng":-75.7102,"zip":"21853","miles_from_dt":23.27},{"city":"Tyaskin","state_name":"Maryland","lat":38.28605,"lng":-75.83296,"zip":"21865","miles_from_dt":23.66},{"city":"Saint Inigoes","state_name":"Maryland","lat":38.14308,"lng":-76.41027,"zip":"20684","miles_from_dt":23.66},{"city":"Hallwood","state_name":"Virginia","lat":37.88643,"lng":-75.60422,"zip":"23359","miles_from_dt":24.07},{"city":"Kilmarnock","state_name":"Virginia","lat":37.73723,"lng":-76.35245,"zip":"22482","miles_from_dt":24.36},{"city":"Greenbush","state_name":"Virginia","lat":37.75862,"lng":-75.67459,"zip":"23357","miles_from_dt":24.65},{"city":"Harborton","state_name":"Virginia","lat":37.65731,"lng":-75.83226,"zip":"23389","miles_from_dt":24.7},{"city":"Hacksneck","state_name":"Virginia","lat":37.64406,"lng":-75.86495,"zip":"23358","miles_from_dt":24.83},{"city":"Bloxom","state_name":"Virginia","lat":37.82431,"lng":-75.61773,"zip":"23308","miles_from_dt":24.89},{"city":"Crapo","state_name":"Maryland","lat":38.33902,"lng":-76.08398,"zip":"21626","miles_from_dt":24.96},{"city":"Temperanceville","state_name":"Virginia","lat":37.90127,"lng":-75.56874,"zip":"23442","miles_from_dt":25.7},{"city":"Tasley","state_name":"Virginia","lat":37.71208,"lng":-75.69943,"zip":"23441","miles_from_dt":25.79},{"city":"Lottsburg","state_name":"Virginia","lat":37.98352,"lng":-76.50323,"zip":"22511","miles_from_dt":25.91},{"city":"Oak Hall","state_name":"Virginia","lat":37.92528,"lng":-75.55889,"zip":"23396","miles_from_dt":25.93},{"city":"Oak Hall","state_name":"Virginia","lat":37.93371,"lng":-75.557,"zip":"23416","miles_from_dt":25.95},{"city":"Pungoteague","state_name":"Virginia","lat":37.63647,"lng":-75.82397,"zip":"23422","miles_from_dt":26.2},{"city":"Saint Marys City","state_name":"Maryland","lat":38.18557,"lng":-76.43898,"zip":"20686","miles_from_dt":26.49},{"city":"Nelsonia","state_name":"Virginia","lat":37.81375,"lng":-75.58688,"zip":"23414","miles_from_dt":26.73},{"city":"New Church","state_name":"Virginia","lat":37.97459,"lng":-75.53443,"zip":"23415","miles_from_dt":26.99},{"city":"Parksley","state_name":"Virginia","lat":37.76564,"lng":-75.61429,"zip":"23421","miles_from_dt":27.05},{"city":"Manokin","state_name":"Maryland","lat":38.33073,"lng":-75.80639,"zip":"21836","miles_from_dt":27.06},{"city":"Modest Town","state_name":"Virginia","lat":37.83336,"lng":-75.56899,"zip":"23412","miles_from_dt":27.08},{"city":"Pocomoke City","state_name":"Maryland","lat":38.07825,"lng":-75.54375,"zip":"21851","miles_from_dt":27.31},{"city":"Drayden","state_name":"Maryland","lat":38.16653,"lng":-76.47087,"zip":"20630","miles_from_dt":27.33},{"city":"Mappsville","state_name":"Virginia","lat":37.8432,"lng":-75.55362,"zip":"23407","miles_from_dt":27.62},{"city":"Piney Point","state_name":"Maryland","lat":38.13307,"lng":-76.50019,"zip":"20674","miles_from_dt":27.8},{"city":"Lexington Park","state_name":"Maryland","lat":38.22795,"lng":-76.43139,"zip":"20653","miles_from_dt":27.83},{"city":"Quantico","state_name":"Maryland","lat":38.33807,"lng":-75.79224,"zip":"21856","miles_from_dt":27.86},{"city":"Keller","state_name":"Virginia","lat":37.62776,"lng":-75.77843,"zip":"23401","miles_from_dt":27.88},{"city":"Park Hall","state_name":"Maryland","lat":38.21782,"lng":-76.44537,"zip":"20667","miles_from_dt":28.02},{"city":"Wattsville","state_name":"Virginia","lat":37.96152,"lng":-75.51341,"zip":"23483","miles_from_dt":28.16},{"city":"Melfa","state_name":"Virginia","lat":37.63802,"lng":-75.74306,"zip":"23410","miles_from_dt":28.28},{"city":"Allen","state_name":"Maryland","lat":38.29005,"lng":-75.68887,"zip":"21810","miles_from_dt":28.29},{"city":"Assawoman","state_name":"Virginia","lat":37.85858,"lng":-75.52197,"zip":"23302","miles_from_dt":28.92},{"city":"Atlantic","state_name":"Virginia","lat":37.90346,"lng":-75.50562,"zip":"23303","miles_from_dt":29.05},{"city":"Eden","state_name":"Maryland","lat":38.28129,"lng":-75.65566,"zip":"21822","miles_from_dt":29.08},{"city":"White Stone","state_name":"Virginia","lat":37.65063,"lng":-76.36268,"zip":"22578","miles_from_dt":29.14},{"city":"Davis Wharf","state_name":"Virginia","lat":37.57,"lng":-75.88845,"zip":"23345","miles_from_dt":29.29},{"city":"Accomac","state_name":"Virginia","lat":37.68402,"lng":-75.6397,"zip":"23301","miles_from_dt":29.48},{"city":"Belle Haven","state_name":"Virginia","lat":37.56859,"lng":-75.88148,"zip":"23306","miles_from_dt":29.48},{"city":"Sandy Point","state_name":"Virginia","lat":38.0653,"lng":-76.55916,"zip":"22577","miles_from_dt":29.54},{"city":"Valley Lee","state_name":"Maryland","lat":38.18352,"lng":-76.50682,"zip":"20692","miles_from_dt":29.61},{"city":"Weems","state_name":"Virginia","lat":37.69398,"lng":-76.43277,"zip":"22576","miles_from_dt":29.62},{"city":"Callao","state_name":"Virginia","lat":37.97216,"lng":-76.57288,"zip":"22435","miles_from_dt":29.71},{"city":"Tall Timbers","state_name":"Maryland","lat":38.15916,"lng":-76.52631,"zip":"20690","miles_from_dt":29.82},{"city":"Patuxent River","state_name":"Maryland","lat":38.2824,"lng":-76.42031,"zip":"20670","miles_from_dt":29.84},{"city":"Painter","state_name":"Virginia","lat":37.58275,"lng":-75.81166,"zip":"23420","miles_from_dt":29.85}],"targetCityZipCode":"21824","targetCityState":"Maryland"},"__N_SSG":true}