{"pageProps":{"stateName":"Maryland","cityName":"glen-arm","nearbyCities":[{"city":"Long Green","state_name":"Maryland","lat":39.4753,"lng":-76.52858,"zip":"21092","miles_from_dt":2.06},{"city":"Hydes","state_name":"Maryland","lat":39.48284,"lng":-76.46735,"zip":"21082","miles_from_dt":3.01},{"city":"Fork","state_name":"Maryland","lat":39.4721,"lng":-76.45388,"zip":"21051","miles_from_dt":3.14},{"city":"Parkville","state_name":"Maryland","lat":39.395,"lng":-76.53252,"zip":"21234","miles_from_dt":4.12},{"city":"Baldwin","state_name":"Maryland","lat":39.51123,"lng":-76.49124,"zip":"21013","miles_from_dt":4.22},{"city":"Towson","state_name":"Maryland","lat":39.41374,"lng":-76.57375,"zip":"21286","miles_from_dt":4.45},{"city":"Nottingham","state_name":"Maryland","lat":39.38789,"lng":-76.48552,"zip":"21236","miles_from_dt":4.5},{"city":"Perry Hall","state_name":"Maryland","lat":39.40526,"lng":-76.44628,"zip":"21128","miles_from_dt":4.5},{"city":"Kingsville","state_name":"Maryland","lat":39.44728,"lng":-76.41583,"zip":"21087","miles_from_dt":4.83},{"city":"Phoenix","state_name":"Maryland","lat":39.50338,"lng":-76.57486,"zip":"21131","miles_from_dt":5.15},{"city":"Upper Falls","state_name":"Maryland","lat":39.43752,"lng":-76.397,"zip":"21156","miles_from_dt":5.91},{"city":"Towson","state_name":"Maryland","lat":39.39969,"lng":-76.5992,"zip":"21284","miles_from_dt":6.12},{"city":"Fallston","state_name":"Maryland","lat":39.52818,"lng":-76.43781,"zip":"21047","miles_from_dt":6.45},{"city":"Lutherville Timonium","state_name":"Maryland","lat":39.42132,"lng":-76.6231,"zip":"21094","miles_from_dt":6.59},{"city":"Towson","state_name":"Maryland","lat":39.39413,"lng":-76.61144,"zip":"21252","miles_from_dt":6.87},{"city":"White Marsh","state_name":"Maryland","lat":39.39084,"lng":-76.40164,"zip":"21162","miles_from_dt":6.96},{"city":"Baltimore","state_name":"Maryland","lat":39.36517,"lng":-76.58709,"zip":"21239","miles_from_dt":7.35},{"city":"Benson","state_name":"Maryland","lat":39.50417,"lng":-76.38647,"zip":"21018","miles_from_dt":7.37},{"city":"Towson","state_name":"Maryland","lat":39.3875,"lng":-76.61702,"zip":"21285","miles_from_dt":7.38},{"city":"Lutherville Timonium","state_name":"Maryland","lat":39.43773,"lng":-76.64318,"zip":"21093","miles_from_dt":7.39},{"city":"Towson","state_name":"Maryland","lat":39.40353,"lng":-76.63024,"zip":"21204","miles_from_dt":7.41},{"city":"Baltimore","state_name":"Maryland","lat":39.35217,"lng":-76.5644,"zip":"21214","miles_from_dt":7.51},{"city":"Rosedale","state_name":"Maryland","lat":39.33938,"lng":-76.49456,"zip":"21237","miles_from_dt":7.73},{"city":"Baltimore","state_name":"Maryland","lat":39.33932,"lng":-76.53706,"zip":"21206","miles_from_dt":7.89},{"city":"Baltimore","state_name":"Maryland","lat":39.34993,"lng":-76.58027,"zip":"21251","miles_from_dt":8.03},{"city":"Joppa","state_name":"Maryland","lat":39.44462,"lng":-76.35601,"zip":"21085","miles_from_dt":8.04},{"city":"Baltimore","state_name":"Maryland","lat":39.3678,"lng":-76.61456,"zip":"21212","miles_from_dt":8.17},{"city":"Riderwood","state_name":"Maryland","lat":39.40732,"lng":-76.64849,"zip":"21139","miles_from_dt":8.2},{"city":"Hunt Valley","state_name":"Maryland","lat":39.4874,"lng":-76.65792,"zip":"21031","miles_from_dt":8.5},{"city":"Hunt Valley","state_name":"Maryland","lat":39.4939,"lng":-76.66119,"zip":"21065","miles_from_dt":8.8},{"city":"Cockeysville","state_name":"Maryland","lat":39.49002,"lng":-76.6659,"zip":"21030","miles_from_dt":8.96},{"city":"Brooklandville","state_name":"Maryland","lat":39.40753,"lng":-76.66745,"zip":"21022","miles_from_dt":9.14},{"city":"Middle River","state_name":"Maryland","lat":39.345,"lng":-76.3966,"zip":"21220","miles_from_dt":9.38},{"city":"Baltimore","state_name":"Maryland","lat":39.35878,"lng":-76.63521,"zip":"21210","miles_from_dt":9.4},{"city":"Monkton","state_name":"Maryland","lat":39.57568,"lng":-76.58089,"zip":"21111","miles_from_dt":9.48},{"city":"Chase","state_name":"Maryland","lat":39.35393,"lng":-76.37251,"zip":"21027","miles_from_dt":9.8},{"city":"Baltimore","state_name":"Maryland","lat":39.33031,"lng":-76.60235,"zip":"21218","miles_from_dt":9.8},{"city":"Bel Air","state_name":"Maryland","lat":39.53606,"lng":-76.35164,"zip":"21014","miles_from_dt":10.12},{"city":"Baltimore","state_name":"Maryland","lat":39.31501,"lng":-76.57723,"zip":"21213","miles_from_dt":10.13},{"city":"Baltimore","state_name":"Maryland","lat":39.37261,"lng":-76.66802,"zip":"21209","miles_from_dt":10.22},{"city":"Baltimore","state_name":"Maryland","lat":39.30227,"lng":-76.56413,"zip":"21205","miles_from_dt":10.73},{"city":"Baltimore","state_name":"Maryland","lat":39.31636,"lng":-76.61472,"zip":"21278","miles_from_dt":10.97},{"city":"Stevenson","state_name":"Maryland","lat":39.41649,"lng":-76.707,"zip":"21153","miles_from_dt":11.01},{"city":"Baltimore","state_name":"Maryland","lat":39.32857,"lng":-76.6389,"zip":"21211","miles_from_dt":11.05},{"city":"Forest Hill","state_name":"Maryland","lat":39.58569,"lng":-76.39228,"zip":"21050","miles_from_dt":11.1},{"city":"Essex","state_name":"Maryland","lat":39.29462,"lng":-76.44034,"zip":"21221","miles_from_dt":11.35},{"city":"Baltimore","state_name":"Maryland","lat":39.29899,"lng":-76.58817,"zip":"21287","miles_from_dt":11.38},{"city":"Abingdon","state_name":"Maryland","lat":39.47032,"lng":-76.29378,"zip":"21009","miles_from_dt":11.43},{"city":"Sparks Glencoe","state_name":"Maryland","lat":39.54905,"lng":-76.68107,"zip":"21152","miles_from_dt":11.54},{"city":"Baltimore","state_name":"Maryland","lat":39.29087,"lng":-76.56774,"zip":"21281","miles_from_dt":11.54},{"city":"Jarrettsville","state_name":"Maryland","lat":39.61659,"lng":-76.46317,"zip":"21084","miles_from_dt":11.64},{"city":"Edgewood","state_name":"Maryland","lat":39.42953,"lng":-76.28947,"zip":"21040","miles_from_dt":11.68},{"city":"Baltimore","state_name":"Maryland","lat":39.28309,"lng":-76.54088,"zip":"21224","miles_from_dt":11.74},{"city":"Gunpowder","state_name":"Maryland","lat":39.38953,"lng":-76.29851,"zip":"21010","miles_from_dt":11.89},{"city":"Baltimore","state_name":"Maryland","lat":39.29778,"lng":-76.60899,"zip":"21298","miles_from_dt":11.93},{"city":"Baltimore","state_name":"Maryland","lat":39.29705,"lng":-76.60747,"zip":"21202","miles_from_dt":11.93},{"city":"Baltimore","state_name":"Maryland","lat":39.29721,"lng":-76.60797,"zip":"21203","miles_from_dt":11.94},{"city":"Baltimore","state_name":"Maryland","lat":39.34578,"lng":-76.68367,"zip":"21215","miles_from_dt":11.97},{"city":"Baltimore","state_name":"Maryland","lat":39.29663,"lng":-76.60821,"zip":"21279","miles_from_dt":11.98},{"city":"Baltimore","state_name":"Maryland","lat":39.29538,"lng":-76.60917,"zip":"21297","miles_from_dt":12.08},{"city":"Baltimore","state_name":"Maryland","lat":39.29244,"lng":-76.60503,"zip":"21233","miles_from_dt":12.16},{"city":"Baltimore","state_name":"Maryland","lat":39.28775,"lng":-76.592,"zip":"21231","miles_from_dt":12.17},{"city":"Baltimore","state_name":"Maryland","lat":39.30701,"lng":-76.63833,"zip":"21217","miles_from_dt":12.21},{"city":"Baltimore","state_name":"Maryland","lat":39.29055,"lng":-76.6096,"zip":"21263","miles_from_dt":12.39},{"city":"Baltimore","state_name":"Maryland","lat":39.35907,"lng":-76.70477,"zip":"21270","miles_from_dt":12.39},{"city":"Baltimore","state_name":"Maryland","lat":39.29055,"lng":-76.6096,"zip":"21264","miles_from_dt":12.39},{"city":"Pikesville","state_name":"Maryland","lat":39.3871,"lng":-76.72283,"zip":"21282","miles_from_dt":12.41},{"city":"Baltimore","state_name":"Maryland","lat":39.29487,"lng":-76.62237,"zip":"21201","miles_from_dt":12.45},{"city":"Baltimore","state_name":"Maryland","lat":39.29282,"lng":-76.62379,"zip":"21290","miles_from_dt":12.61},{"city":"Baltimore","state_name":"Maryland","lat":39.28742,"lng":-76.61127,"zip":"21273","miles_from_dt":12.62},{"city":"Pikesville","state_name":"Maryland","lat":39.38401,"lng":-76.72547,"zip":"21208","miles_from_dt":12.62},{"city":"Baltimore","state_name":"Maryland","lat":39.28703,"lng":-76.61413,"zip":"21275","miles_from_dt":12.71},{"city":"Dundalk","state_name":"Maryland","lat":39.26424,"lng":-76.49537,"zip":"21222","miles_from_dt":12.9},{"city":"Bel Air","state_name":"Maryland","lat":39.54691,"lng":-76.29619,"zip":"21015","miles_from_dt":13.02},{"city":"Baltimore","state_name":"Maryland","lat":39.3108,"lng":-76.67145,"zip":"21216","miles_from_dt":13.12},{"city":"Butler","state_name":"Maryland","lat":39.52368,"lng":-76.73984,"zip":"21023","miles_from_dt":13.46},{"city":"Baltimore","state_name":"Maryland","lat":39.28421,"lng":-76.65323,"zip":"21223","miles_from_dt":13.95},{"city":"Baltimore","state_name":"Maryland","lat":39.26651,"lng":-76.62213,"zip":"21230","miles_from_dt":14.17},{"city":"Gwynn Oak","state_name":"Maryland","lat":39.32417,"lng":-76.72017,"zip":"21207","miles_from_dt":14.42},{"city":"Belcamp","state_name":"Maryland","lat":39.47498,"lng":-76.23667,"zip":"21017","miles_from_dt":14.5},{"city":"Owings Mills","state_name":"Maryland","lat":39.42719,"lng":-76.77795,"zip":"21117","miles_from_dt":14.64},{"city":"White Hall","state_name":"Maryland","lat":39.65983,"lng":-76.56475,"zip":"21161","miles_from_dt":14.74},{"city":"Baltimore","state_name":"Maryland","lat":39.28509,"lng":-76.69083,"zip":"21229","miles_from_dt":15.13},{"city":"Baltimore","state_name":"Maryland","lat":39.31238,"lng":-76.72793,"zip":"21289","miles_from_dt":15.25},{"city":"Baltimore","state_name":"Maryland","lat":39.30956,"lng":-76.7284,"zip":"21235","miles_from_dt":15.4},{"city":"Sparrows Point","state_name":"Maryland","lat":39.23097,"lng":-76.44383,"zip":"21219","miles_from_dt":15.55},{"city":"Baltimore","state_name":"Maryland","lat":39.30335,"lng":-76.73335,"zip":"21241","miles_from_dt":15.87},{"city":"Street","state_name":"Maryland","lat":39.65314,"lng":-76.36087,"zip":"21154","miles_from_dt":15.95},{"city":"Churchville","state_name":"Maryland","lat":39.56832,"lng":-76.24162,"zip":"21028","miles_from_dt":16.28},{"city":"Parkton","state_name":"Maryland","lat":39.64723,"lng":-76.67703,"zip":"21120","miles_from_dt":16.32},{"city":"Glyndon","state_name":"Maryland","lat":39.48516,"lng":-76.8081,"zip":"21071","miles_from_dt":16.32},{"city":"Reisterstown","state_name":"Maryland","lat":39.48851,"lng":-76.80888,"zip":"21136","miles_from_dt":16.4},{"city":"Brooklyn","state_name":"Maryland","lat":39.22597,"lng":-76.61508,"zip":"21225","miles_from_dt":16.59},{"city":"Aberdeen","state_name":"Maryland","lat":39.51077,"lng":-76.20274,"zip":"21001","miles_from_dt":16.73},{"city":"Windsor Mill","state_name":"Maryland","lat":39.3342,"lng":-76.78217,"zip":"21244","miles_from_dt":16.84},{"city":"Perryman","state_name":"Maryland","lat":39.47495,"lng":-76.18921,"zip":"21130","miles_from_dt":17.02},{"city":"Curtis Bay","state_name":"Maryland","lat":39.2078,"lng":-76.5627,"zip":"21226","miles_from_dt":17.06},{"city":"Randallstown","state_name":"Maryland","lat":39.37705,"lng":-76.81174,"zip":"21133","miles_from_dt":17.14},{"city":"Halethorpe","state_name":"Maryland","lat":39.24024,"lng":-76.67913,"zip":"21227","miles_from_dt":17.25},{"city":"Boring","state_name":"Maryland","lat":39.52394,"lng":-76.8169,"zip":"21020","miles_from_dt":17.36},{"city":"Baltimore","state_name":"Maryland","lat":39.25558,"lng":-76.71117,"zip":"21250","miles_from_dt":17.4},{"city":"Pylesville","state_name":"Maryland","lat":39.69601,"lng":-76.42577,"zip":"21132","miles_from_dt":17.43},{"city":"Fort Howard","state_name":"Maryland","lat":39.20238,"lng":-76.44379,"zip":"21052","miles_from_dt":17.48},{"city":"Catonsville","state_name":"Maryland","lat":39.27272,"lng":-76.74687,"zip":"21228","miles_from_dt":17.83},{"city":"Upperco","state_name":"Maryland","lat":39.57183,"lng":-76.80597,"zip":"21155","miles_from_dt":18.06},{"city":"Aberdeen Proving Ground","state_name":"Maryland","lat":39.44101,"lng":-76.16509,"zip":"21005","miles_from_dt":18.25},{"city":"Linthicum Heights","state_name":"Maryland","lat":39.20919,"lng":-76.66796,"zip":"21090","miles_from_dt":18.81},{"city":"Maryland Line","state_name":"Maryland","lat":39.71512,"lng":-76.65225,"zip":"21105","miles_from_dt":19.82},{"city":"Glen Burnie","state_name":"Maryland","lat":39.16893,"lng":-76.58346,"zip":"21060","miles_from_dt":19.9},{"city":"Freeland","state_name":"Maryland","lat":39.69296,"lng":-76.71567,"zip":"21053","miles_from_dt":20.09},{"city":"Woodstock","state_name":"Maryland","lat":39.34024,"lng":-76.85706,"zip":"21163","miles_from_dt":20.28},{"city":"Darlington","state_name":"Maryland","lat":39.64905,"lng":-76.22261,"zip":"21034","miles_from_dt":20.39},{"city":"Glen Burnie","state_name":"Maryland","lat":39.1637,"lng":-76.60358,"zip":"21062","miles_from_dt":20.5},{"city":"Ellicott City","state_name":"Maryland","lat":39.25759,"lng":-76.79773,"zip":"21043","miles_from_dt":20.55},{"city":"Whiteford","state_name":"Maryland","lat":39.70728,"lng":-76.30754,"zip":"21160","miles_from_dt":20.61},{"city":"Havre De Grace","state_name":"Maryland","lat":39.56911,"lng":-76.14776,"zip":"21078","miles_from_dt":20.81},{"city":"Baltimore","state_name":"Maryland","lat":39.17483,"lng":-76.67181,"zip":"21240","miles_from_dt":21.03},{"city":"Glen Burnie","state_name":"Maryland","lat":39.16116,"lng":-76.63226,"zip":"21061","miles_from_dt":21.11},{"city":"Fawn Grove","state_name":"Pennsylvania","lat":39.75406,"lng":-76.44742,"zip":"17321","miles_from_dt":21.13},{"city":"Hampstead","state_name":"Maryland","lat":39.61746,"lng":-76.84351,"zip":"21074","miles_from_dt":21.37},{"city":"New Park","state_name":"Pennsylvania","lat":39.76199,"lng":-76.50008,"zip":"17352","miles_from_dt":21.45},{"city":"Ellicott City","state_name":"Maryland","lat":39.27395,"lng":-76.83606,"zip":"21041","miles_from_dt":21.49},{"city":"Elkridge","state_name":"Maryland","lat":39.20414,"lng":-76.75301,"zip":"21075","miles_from_dt":21.57},{"city":"Finksburg","state_name":"Maryland","lat":39.49568,"lng":-76.91057,"zip":"21048","miles_from_dt":21.85},{"city":"Stewartstown","state_name":"Pennsylvania","lat":39.76736,"lng":-76.58504,"zip":"17363","miles_from_dt":22.22},{"city":"Marriottsville","state_name":"Maryland","lat":39.35044,"lng":-76.90654,"zip":"21104","miles_from_dt":22.53},{"city":"Hanover","state_name":"Maryland","lat":39.16856,"lng":-76.72239,"zip":"21076","miles_from_dt":22.68},{"city":"Harmans","state_name":"Maryland","lat":39.1583,"lng":-76.69953,"zip":"21077","miles_from_dt":22.71},{"city":"Annapolis","state_name":"Maryland","lat":39.12209,"lng":-76.52933,"zip":"21412","miles_from_dt":22.73},{"city":"New Freedom","state_name":"Pennsylvania","lat":39.75536,"lng":-76.68003,"zip":"17349","miles_from_dt":22.95},{"city":"Delta","state_name":"Pennsylvania","lat":39.75469,"lng":-76.32852,"zip":"17314","miles_from_dt":22.99},{"city":"Pasadena","state_name":"Maryland","lat":39.11631,"lng":-76.49941,"zip":"21122","miles_from_dt":23.1},{"city":"Pasadena","state_name":"Maryland","lat":39.11197,"lng":-76.55356,"zip":"21123","miles_from_dt":23.53},{"city":"Shrewsbury","state_name":"Pennsylvania","lat":39.76617,"lng":-76.67702,"zip":"17361","miles_from_dt":23.57},{"city":"Railroad","state_name":"Pennsylvania","lat":39.75978,"lng":-76.696,"zip":"17355","miles_from_dt":23.58},{"city":"Worton","state_name":"Maryland","lat":39.30889,"lng":-76.10336,"zip":"21678","miles_from_dt":23.69},{"city":"Columbia","state_name":"Maryland","lat":39.20622,"lng":-76.82747,"zip":"21045","miles_from_dt":24.12},{"city":"Ellicott City","state_name":"Maryland","lat":39.27105,"lng":-76.8924,"zip":"21042","miles_from_dt":24.13},{"city":"Betterton","state_name":"Maryland","lat":39.3652,"lng":-76.06845,"zip":"21610","miles_from_dt":24.16},{"city":"Conowingo","state_name":"Maryland","lat":39.68327,"lng":-76.16662,"zip":"21918","miles_from_dt":24.19},{"city":"Manchester","state_name":"Maryland","lat":39.68732,"lng":-76.84564,"zip":"21102","miles_from_dt":24.38},{"city":"Severn","state_name":"Maryland","lat":39.12058,"lng":-76.67767,"zip":"21144","miles_from_dt":24.59},{"city":"Perry Point","state_name":"Maryland","lat":39.55229,"lng":-76.06157,"zip":"21902","miles_from_dt":24.76},{"city":"Sykesville","state_name":"Maryland","lat":39.40087,"lng":-76.9726,"zip":"21784","miles_from_dt":25.2},{"city":"Lineboro","state_name":"Maryland","lat":39.71748,"lng":-76.83,"zip":"21088","miles_from_dt":25.23},{"city":"Still Pond","state_name":"Maryland","lat":39.34377,"lng":-76.05188,"zip":"21667","miles_from_dt":25.41},{"city":"Jessup","state_name":"Maryland","lat":39.15107,"lng":-76.78882,"zip":"20794","miles_from_dt":25.65},{"city":"Millersville","state_name":"Maryland","lat":39.08932,"lng":-76.62139,"zip":"21108","miles_from_dt":25.71},{"city":"Airville","state_name":"Pennsylvania","lat":39.81659,"lng":-76.41069,"zip":"17302","miles_from_dt":25.72},{"city":"Port Deposit","state_name":"Maryland","lat":39.62303,"lng":-76.07812,"zip":"21904","miles_from_dt":25.75},{"city":"Severna Park","state_name":"Maryland","lat":39.07737,"lng":-76.55613,"zip":"21146","miles_from_dt":25.92},{"city":"Gibson Island","state_name":"Maryland","lat":39.07805,"lng":-76.4338,"zip":"21056","miles_from_dt":26.03},{"city":"Perryville","state_name":"Maryland","lat":39.57274,"lng":-76.04378,"zip":"21903","miles_from_dt":26.09},{"city":"Columbia","state_name":"Maryland","lat":39.21047,"lng":-76.88353,"zip":"21044","miles_from_dt":26.16},{"city":"Glen Rock","state_name":"Pennsylvania","lat":39.77934,"lng":-76.75373,"zip":"17327","miles_from_dt":26.22},{"city":"Columbia","state_name":"Maryland","lat":39.17357,"lng":-76.84183,"zip":"21046","miles_from_dt":26.27},{"city":"Dhs","state_name":"Maryland","lat":39.20311,"lng":-76.87883,"zip":"20588","miles_from_dt":26.3},{"city":"Westminster","state_name":"Maryland","lat":39.54889,"lng":-76.98162,"zip":"21157","miles_from_dt":26.3},{"city":"Colora","state_name":"Maryland","lat":39.67106,"lng":-76.09823,"zip":"21917","miles_from_dt":26.54},{"city":"Annapolis Junction","state_name":"Maryland","lat":39.12877,"lng":-76.78803,"zip":"20701","miles_from_dt":26.89},{"city":"Rock Hall","state_name":"Maryland","lat":39.12905,"lng":-76.21967,"zip":"21661","miles_from_dt":27.01},{"city":"Simpsonville","state_name":"Maryland","lat":39.1744,"lng":-76.86709,"zip":"21150","miles_from_dt":27.18},{"city":"West Friendship","state_name":"Maryland","lat":39.29705,"lng":-76.97388,"zip":"21794","miles_from_dt":27.21},{"city":"Savage","state_name":"Maryland","lat":39.13786,"lng":-76.82134,"zip":"20763","miles_from_dt":27.43},{"city":"Fort George G Meade","state_name":"Maryland","lat":39.09892,"lng":-76.74479,"zip":"20755","miles_from_dt":27.46},{"city":"Peach Bottom","state_name":"Pennsylvania","lat":39.76404,"lng":-76.18649,"zip":"17563","miles_from_dt":27.51},{"city":"Drumore","state_name":"Pennsylvania","lat":39.80519,"lng":-76.25932,"zip":"17518","miles_from_dt":27.75},{"city":"Felton","state_name":"Pennsylvania","lat":39.85548,"lng":-76.53513,"zip":"17322","miles_from_dt":27.94},{"city":"Arnold","state_name":"Maryland","lat":39.04529,"lng":-76.49716,"zip":"21012","miles_from_dt":28},{"city":"Chestertown","state_name":"Maryland","lat":39.20667,"lng":-76.08739,"zip":"21620","miles_from_dt":28.06},{"city":"Chestertown","state_name":"Maryland","lat":39.21889,"lng":-76.07101,"zip":"21690","miles_from_dt":28.28},{"city":"Cooksville","state_name":"Maryland","lat":39.32825,"lng":-77.01056,"zip":"21723","miles_from_dt":28.3},{"city":"Glenville","state_name":"Pennsylvania","lat":39.76295,"lng":-76.85374,"zip":"17329","miles_from_dt":28.41},{"city":"Laurel","state_name":"Maryland","lat":39.13664,"lng":-76.86647,"zip":"20723","miles_from_dt":29.05},{"city":"Annapolis","state_name":"Maryland","lat":39.02996,"lng":-76.54971,"zip":"21405","miles_from_dt":29.15},{"city":"Charlestown","state_name":"Maryland","lat":39.57256,"lng":-75.98158,"zip":"21914","miles_from_dt":29.25},{"city":"Clarksville","state_name":"Maryland","lat":39.20633,"lng":-76.95206,"zip":"21029","miles_from_dt":29.26},{"city":"Crownsville","state_name":"Maryland","lat":39.03376,"lng":-76.60401,"zip":"21032","miles_from_dt":29.27},{"city":"Brogue","state_name":"Pennsylvania","lat":39.87351,"lng":-76.44894,"zip":"17309","miles_from_dt":29.3},{"city":"Odenton","state_name":"Maryland","lat":39.05448,"lng":-76.71519,"zip":"21113","miles_from_dt":29.57},{"city":"Loganville","state_name":"Pennsylvania","lat":39.85275,"lng":-76.70756,"zip":"17342","miles_from_dt":29.72},{"city":"Laurel","state_name":"Maryland","lat":39.08028,"lng":-76.79054,"zip":"20724","miles_from_dt":29.78},{"city":"Rising Sun","state_name":"Maryland","lat":39.68931,"lng":-76.03886,"zip":"21911","miles_from_dt":29.87},{"city":"Annapolis","state_name":"Maryland","lat":39.01968,"lng":-76.44738,"zip":"21409","miles_from_dt":29.93}],"targetCityZipCode":"21057","targetCityState":"Maryland"},"__N_SSG":true}