{"pageProps":{"stateName":"Maryland","cityName":"havre-de-grace","nearbyCities":[{"city":"Perry Point","state_name":"Maryland","lat":39.55229,"lng":-76.06157,"zip":"21902","miles_from_dt":4.75},{"city":"Aberdeen","state_name":"Maryland","lat":39.51077,"lng":-76.20274,"zip":"21001","miles_from_dt":4.98},{"city":"Churchville","state_name":"Maryland","lat":39.56832,"lng":-76.24162,"zip":"21028","miles_from_dt":5.01},{"city":"Port Deposit","state_name":"Maryland","lat":39.62303,"lng":-76.07812,"zip":"21904","miles_from_dt":5.26},{"city":"Perryville","state_name":"Maryland","lat":39.57274,"lng":-76.04378,"zip":"21903","miles_from_dt":5.56},{"city":"Darlington","state_name":"Maryland","lat":39.64905,"lng":-76.22261,"zip":"21034","miles_from_dt":6.81},{"city":"Perryman","state_name":"Maryland","lat":39.47495,"lng":-76.18921,"zip":"21130","miles_from_dt":6.86},{"city":"Colora","state_name":"Maryland","lat":39.67106,"lng":-76.09823,"zip":"21917","miles_from_dt":7.51},{"city":"Conowingo","state_name":"Maryland","lat":39.68327,"lng":-76.16662,"zip":"21918","miles_from_dt":7.94},{"city":"Belcamp","state_name":"Maryland","lat":39.47498,"lng":-76.23667,"zip":"21017","miles_from_dt":8.05},{"city":"Bel Air","state_name":"Maryland","lat":39.54691,"lng":-76.29619,"zip":"21015","miles_from_dt":8.07},{"city":"Charlestown","state_name":"Maryland","lat":39.57256,"lng":-75.98158,"zip":"21914","miles_from_dt":8.88},{"city":"Aberdeen Proving Ground","state_name":"Maryland","lat":39.44101,"lng":-76.16509,"zip":"21005","miles_from_dt":8.89},{"city":"Rising Sun","state_name":"Maryland","lat":39.68931,"lng":-76.03886,"zip":"21911","miles_from_dt":10.13},{"city":"North East","state_name":"Maryland","lat":39.58593,"lng":-75.95821,"zip":"21901","miles_from_dt":10.19},{"city":"Abingdon","state_name":"Maryland","lat":39.47032,"lng":-76.29378,"zip":"21009","miles_from_dt":10.36},{"city":"Bel Air","state_name":"Maryland","lat":39.53606,"lng":-76.35164,"zip":"21014","miles_from_dt":11.12},{"city":"Edgewood","state_name":"Maryland","lat":39.42953,"lng":-76.28947,"zip":"21040","miles_from_dt":12.25},{"city":"Street","state_name":"Maryland","lat":39.65314,"lng":-76.36087,"zip":"21154","miles_from_dt":12.76},{"city":"Whiteford","state_name":"Maryland","lat":39.70728,"lng":-76.30754,"zip":"21160","miles_from_dt":12.79},{"city":"Forest Hill","state_name":"Maryland","lat":39.58569,"lng":-76.39228,"zip":"21050","miles_from_dt":13.1},{"city":"Nottingham","state_name":"Pennsylvania","lat":39.75175,"lng":-76.06576,"zip":"19362","miles_from_dt":13.34},{"city":"Benson","state_name":"Maryland","lat":39.50417,"lng":-76.38647,"zip":"21018","miles_from_dt":13.52},{"city":"Peach Bottom","state_name":"Pennsylvania","lat":39.76404,"lng":-76.18649,"zip":"17563","miles_from_dt":13.61},{"city":"Joppa","state_name":"Maryland","lat":39.44462,"lng":-76.35601,"zip":"21085","miles_from_dt":14.06},{"city":"Betterton","state_name":"Maryland","lat":39.3652,"lng":-76.06845,"zip":"21610","miles_from_dt":14.69},{"city":"Gunpowder","state_name":"Maryland","lat":39.38953,"lng":-76.29851,"zip":"21010","miles_from_dt":14.78},{"city":"Earleville","state_name":"Maryland","lat":39.42047,"lng":-75.93372,"zip":"21919","miles_from_dt":15.36},{"city":"Fallston","state_name":"Maryland","lat":39.52818,"lng":-76.43781,"zip":"21047","miles_from_dt":15.75},{"city":"Childs","state_name":"Maryland","lat":39.64921,"lng":-75.87095,"zip":"21916","miles_from_dt":15.77},{"city":"Elkton","state_name":"Maryland","lat":39.62568,"lng":-75.85904,"zip":"21921","miles_from_dt":15.9},{"city":"Delta","state_name":"Pennsylvania","lat":39.75469,"lng":-76.32852,"zip":"17314","miles_from_dt":16.03},{"city":"Upper Falls","state_name":"Maryland","lat":39.43752,"lng":-76.397,"zip":"21156","miles_from_dt":16.12},{"city":"Still Pond","state_name":"Maryland","lat":39.34377,"lng":-76.05188,"zip":"21667","miles_from_dt":16.37},{"city":"Kingsville","state_name":"Maryland","lat":39.44728,"lng":-76.41583,"zip":"21087","miles_from_dt":16.61},{"city":"Chesapeake City","state_name":"Maryland","lat":39.50095,"lng":-75.84764,"zip":"21915","miles_from_dt":16.71},{"city":"Elkton","state_name":"Maryland","lat":39.60804,"lng":-75.83567,"zip":"21922","miles_from_dt":16.87},{"city":"Jarrettsville","state_name":"Maryland","lat":39.61659,"lng":-76.46317,"zip":"21084","miles_from_dt":17.15},{"city":"Pylesville","state_name":"Maryland","lat":39.69601,"lng":-76.42577,"zip":"21132","miles_from_dt":17.22},{"city":"Drumore","state_name":"Pennsylvania","lat":39.80519,"lng":-76.25932,"zip":"17518","miles_from_dt":17.34},{"city":"Oxford","state_name":"Pennsylvania","lat":39.7864,"lng":-75.97279,"zip":"19363","miles_from_dt":17.66},{"city":"Fork","state_name":"Maryland","lat":39.4721,"lng":-76.45388,"zip":"21051","miles_from_dt":17.67},{"city":"Elk Mills","state_name":"Maryland","lat":39.65675,"lng":-75.83449,"zip":"21920","miles_from_dt":17.78},{"city":"Lewisville","state_name":"Pennsylvania","lat":39.72265,"lng":-75.8748,"zip":"19351","miles_from_dt":18},{"city":"Hydes","state_name":"Maryland","lat":39.48284,"lng":-76.46735,"zip":"21082","miles_from_dt":18.08},{"city":"Worton","state_name":"Maryland","lat":39.30889,"lng":-76.10336,"zip":"21678","miles_from_dt":18.11},{"city":"White Marsh","state_name":"Maryland","lat":39.39084,"lng":-76.40164,"zip":"21162","miles_from_dt":18.32},{"city":"Cecilton","state_name":"Maryland","lat":39.40973,"lng":-75.87073,"zip":"21913","miles_from_dt":18.44},{"city":"Baldwin","state_name":"Maryland","lat":39.51123,"lng":-76.49124,"zip":"21013","miles_from_dt":18.78},{"city":"Chase","state_name":"Maryland","lat":39.35393,"lng":-76.37251,"zip":"21027","miles_from_dt":19.1},{"city":"Georgetown","state_name":"Maryland","lat":39.37198,"lng":-75.89115,"zip":"21930","miles_from_dt":19.32},{"city":"Kirkwood","state_name":"Pennsylvania","lat":39.84345,"lng":-76.07316,"zip":"17536","miles_from_dt":19.34},{"city":"Perry Hall","state_name":"Maryland","lat":39.40526,"lng":-76.44628,"zip":"21128","miles_from_dt":19.56},{"city":"Kennedyville","state_name":"Maryland","lat":39.31979,"lng":-75.96216,"zip":"21645","miles_from_dt":19.86},{"city":"Lincoln University","state_name":"Pennsylvania","lat":39.78036,"lng":-75.89054,"zip":"19352","miles_from_dt":20.01},{"city":"Warwick","state_name":"Maryland","lat":39.42486,"lng":-75.81607,"zip":"21912","miles_from_dt":20.33},{"city":"New London","state_name":"Pennsylvania","lat":39.78001,"lng":-75.88005,"zip":"19360","miles_from_dt":20.38},{"city":"Middle River","state_name":"Maryland","lat":39.345,"lng":-76.3966,"zip":"21220","miles_from_dt":20.4},{"city":"Fawn Grove","state_name":"Pennsylvania","lat":39.75406,"lng":-76.44742,"zip":"17321","miles_from_dt":20.45},{"city":"Quarryville","state_name":"Pennsylvania","lat":39.86924,"lng":-76.1476,"zip":"17566","miles_from_dt":20.71},{"city":"Glen Arm","state_name":"Maryland","lat":39.45111,"lng":-76.50606,"zip":"21057","miles_from_dt":20.81},{"city":"Kemblesville","state_name":"Pennsylvania","lat":39.74633,"lng":-75.82436,"zip":"19347","miles_from_dt":21.14},{"city":"Holtwood","state_name":"Pennsylvania","lat":39.85731,"lng":-76.2923,"zip":"17532","miles_from_dt":21.32},{"city":"Long Green","state_name":"Maryland","lat":39.4753,"lng":-76.52858,"zip":"21092","miles_from_dt":21.35},{"city":"Nottingham","state_name":"Maryland","lat":39.38789,"lng":-76.48552,"zip":"21236","miles_from_dt":21.96},{"city":"Kelton","state_name":"Pennsylvania","lat":39.80935,"lng":-75.87654,"zip":"19346","miles_from_dt":21.99},{"city":"Airville","state_name":"Pennsylvania","lat":39.81659,"lng":-76.41069,"zip":"17302","miles_from_dt":22.09},{"city":"Newark","state_name":"Delaware","lat":39.68121,"lng":-75.75343,"zip":"19717","miles_from_dt":22.41},{"city":"Newark","state_name":"Delaware","lat":39.66779,"lng":-75.74595,"zip":"19716","miles_from_dt":22.49},{"city":"Newark","state_name":"Delaware","lat":39.62199,"lng":-75.72803,"zip":"19702","miles_from_dt":22.7},{"city":"Galena","state_name":"Maryland","lat":39.34006,"lng":-75.83826,"zip":"21635","miles_from_dt":22.88},{"city":"New Park","state_name":"Pennsylvania","lat":39.76199,"lng":-76.50008,"zip":"17352","miles_from_dt":23.02},{"city":"Landenberg","state_name":"Pennsylvania","lat":39.76244,"lng":-75.79528,"zip":"19350","miles_from_dt":23.05},{"city":"White Hall","state_name":"Maryland","lat":39.65983,"lng":-76.56475,"zip":"21161","miles_from_dt":23.11},{"city":"Monkton","state_name":"Maryland","lat":39.57568,"lng":-76.58089,"zip":"21111","miles_from_dt":23.13},{"city":"Phoenix","state_name":"Maryland","lat":39.50338,"lng":-76.57486,"zip":"21131","miles_from_dt":23.26},{"city":"Newark","state_name":"Delaware","lat":39.68567,"lng":-75.73728,"zip":"19725","miles_from_dt":23.33},{"city":"New Castle","state_name":"Delaware","lat":39.68458,"lng":-75.73524,"zip":"19726","miles_from_dt":23.4},{"city":"Parkville","state_name":"Maryland","lat":39.395,"lng":-76.53252,"zip":"21234","miles_from_dt":23.82},{"city":"Newark","state_name":"Delaware","lat":39.71416,"lng":-75.74145,"zip":"19714","miles_from_dt":23.87},{"city":"Newark","state_name":"Delaware","lat":39.71379,"lng":-75.74033,"zip":"19711","miles_from_dt":23.91},{"city":"Bear","state_name":"Delaware","lat":39.58427,"lng":-75.69914,"zip":"19701","miles_from_dt":23.97},{"city":"New Providence","state_name":"Pennsylvania","lat":39.91117,"lng":-76.22712,"zip":"17560","miles_from_dt":23.97},{"city":"Newark","state_name":"Delaware","lat":39.71404,"lng":-75.73776,"zip":"19715","miles_from_dt":24.05},{"city":"Newark","state_name":"Delaware","lat":39.68293,"lng":-75.71918,"zip":"19712","miles_from_dt":24.18},{"city":"Christiana","state_name":"Pennsylvania","lat":39.90923,"lng":-76.03073,"zip":"17509","miles_from_dt":24.28},{"city":"Pequea","state_name":"Pennsylvania","lat":39.89191,"lng":-76.32994,"zip":"17565","miles_from_dt":24.29},{"city":"Cochranville","state_name":"Pennsylvania","lat":39.87359,"lng":-75.91695,"zip":"19330","miles_from_dt":24.34},{"city":"Newark","state_name":"Delaware","lat":39.67097,"lng":-75.70972,"zip":"19713","miles_from_dt":24.4},{"city":"Rosedale","state_name":"Maryland","lat":39.33938,"lng":-76.49456,"zip":"21237","miles_from_dt":24.4},{"city":"Newark","state_name":"Delaware","lat":39.6665,"lng":-75.70752,"zip":"19718","miles_from_dt":24.43},{"city":"Chestertown","state_name":"Maryland","lat":39.21889,"lng":-76.07101,"zip":"21690","miles_from_dt":24.51},{"city":"Essex","state_name":"Maryland","lat":39.29462,"lng":-76.44034,"zip":"21221","miles_from_dt":24.57},{"city":"West Grove","state_name":"Pennsylvania","lat":39.83683,"lng":-75.83962,"zip":"19390","miles_from_dt":24.71},{"city":"Towson","state_name":"Maryland","lat":39.41374,"lng":-76.57375,"zip":"21286","miles_from_dt":25.17},{"city":"Kirkwood","state_name":"Delaware","lat":39.49842,"lng":-75.68489,"zip":"19708","miles_from_dt":25.2},{"city":"Chestertown","state_name":"Maryland","lat":39.20667,"lng":-76.08739,"zip":"21620","miles_from_dt":25.21},{"city":"Massey","state_name":"Maryland","lat":39.31286,"lng":-75.80795,"zip":"21650","miles_from_dt":25.36},{"city":"Middletown","state_name":"Delaware","lat":39.48923,"lng":-75.68314,"zip":"19709","miles_from_dt":25.43},{"city":"Wilmington","state_name":"Delaware","lat":39.68227,"lng":-75.69312,"zip":"19891","miles_from_dt":25.48},{"city":"Bart","state_name":"Pennsylvania","lat":39.93825,"lng":-76.08325,"zip":"17503","miles_from_dt":25.7},{"city":"Crumpton","state_name":"Maryland","lat":39.23577,"lng":-75.92238,"zip":"21628","miles_from_dt":25.97},{"city":"Baltimore","state_name":"Maryland","lat":39.33932,"lng":-76.53706,"zip":"21206","miles_from_dt":26.17},{"city":"Chatham","state_name":"Pennsylvania","lat":39.85597,"lng":-75.82292,"zip":"19318","miles_from_dt":26.29},{"city":"Brogue","state_name":"Pennsylvania","lat":39.87351,"lng":-76.44894,"zip":"17309","miles_from_dt":26.43},{"city":"Millington","state_name":"Maryland","lat":39.25821,"lng":-75.85802,"zip":"21651","miles_from_dt":26.47},{"city":"Saint Georges","state_name":"Delaware","lat":39.55928,"lng":-75.65143,"zip":"19733","miles_from_dt":26.51},{"city":"Refton","state_name":"Pennsylvania","lat":39.94806,"lng":-76.23416,"zip":"17568","miles_from_dt":26.55},{"city":"Avondale","state_name":"Pennsylvania","lat":39.82163,"lng":-75.76887,"zip":"19311","miles_from_dt":26.67},{"city":"Towson","state_name":"Maryland","lat":39.39969,"lng":-76.5992,"zip":"21284","miles_from_dt":26.81},{"city":"Baltimore","state_name":"Maryland","lat":39.35217,"lng":-76.5644,"zip":"21214","miles_from_dt":26.84},{"city":"Atglen","state_name":"Pennsylvania","lat":39.93478,"lng":-75.97038,"zip":"19310","miles_from_dt":26.94},{"city":"Strasburg","state_name":"Pennsylvania","lat":39.95938,"lng":-76.18032,"zip":"17579","miles_from_dt":26.98},{"city":"Stewartstown","state_name":"Pennsylvania","lat":39.76736,"lng":-76.58504,"zip":"17363","miles_from_dt":27.03},{"city":"Odessa","state_name":"Delaware","lat":39.45443,"lng":-75.66077,"zip":"19730","miles_from_dt":27.2},{"city":"Lutherville Timonium","state_name":"Maryland","lat":39.42132,"lng":-76.6231,"zip":"21094","miles_from_dt":27.38},{"city":"Baltimore","state_name":"Maryland","lat":39.36517,"lng":-76.58709,"zip":"21239","miles_from_dt":27.38},{"city":"Towson","state_name":"Maryland","lat":39.39413,"lng":-76.61144,"zip":"21252","miles_from_dt":27.57},{"city":"Baltimore","state_name":"Maryland","lat":39.34993,"lng":-76.58027,"zip":"21251","miles_from_dt":27.63},{"city":"Willow Street","state_name":"Pennsylvania","lat":39.95981,"lng":-76.26463,"zip":"17584","miles_from_dt":27.66},{"city":"Hunt Valley","state_name":"Maryland","lat":39.4874,"lng":-76.65792,"zip":"21031","miles_from_dt":27.83},{"city":"Toughkenamon","state_name":"Pennsylvania","lat":39.83333,"lng":-75.75267,"zip":"19374","miles_from_dt":27.85},{"city":"Hunt Valley","state_name":"Maryland","lat":39.4939,"lng":-76.66119,"zip":"21065","miles_from_dt":27.91},{"city":"Lutherville Timonium","state_name":"Maryland","lat":39.43773,"lng":-76.64318,"zip":"21093","miles_from_dt":27.99},{"city":"Towson","state_name":"Maryland","lat":39.3875,"lng":-76.61702,"zip":"21285","miles_from_dt":28.04},{"city":"Dundalk","state_name":"Maryland","lat":39.26424,"lng":-76.49537,"zip":"21222","miles_from_dt":28.08},{"city":"Sparrows Point","state_name":"Maryland","lat":39.23097,"lng":-76.44383,"zip":"21219","miles_from_dt":28.2},{"city":"Wilmington","state_name":"Delaware","lat":39.73777,"lng":-75.66596,"zip":"19808","miles_from_dt":28.21},{"city":"Towson","state_name":"Maryland","lat":39.40353,"lng":-76.63024,"zip":"21204","miles_from_dt":28.21},{"city":"Cockeysville","state_name":"Maryland","lat":39.49002,"lng":-76.6659,"zip":"21030","miles_from_dt":28.21},{"city":"Paradise","state_name":"Pennsylvania","lat":39.97636,"lng":-76.09264,"zip":"17562","miles_from_dt":28.25},{"city":"Conestoga","state_name":"Pennsylvania","lat":39.93773,"lng":-76.38703,"zip":"17516","miles_from_dt":28.44},{"city":"Sparks Glencoe","state_name":"Maryland","lat":39.54905,"lng":-76.68107,"zip":"21152","miles_from_dt":28.51},{"city":"Baltimore","state_name":"Maryland","lat":39.3678,"lng":-76.61456,"zip":"21212","miles_from_dt":28.56},{"city":"Felton","state_name":"Pennsylvania","lat":39.85548,"lng":-76.53513,"zip":"17322","miles_from_dt":28.57},{"city":"Maryland Line","state_name":"Maryland","lat":39.71512,"lng":-76.65225,"zip":"21105","miles_from_dt":28.73},{"city":"Parkton","state_name":"Maryland","lat":39.64723,"lng":-76.67703,"zip":"21120","miles_from_dt":28.75},{"city":"Baltimore","state_name":"Maryland","lat":39.28309,"lng":-76.54088,"zip":"21224","miles_from_dt":28.84},{"city":"Baltimore","state_name":"Maryland","lat":39.30227,"lng":-76.56413,"zip":"21205","miles_from_dt":28.9},{"city":"Baltimore","state_name":"Maryland","lat":39.31501,"lng":-76.57723,"zip":"21213","miles_from_dt":28.9},{"city":"Hockessin","state_name":"Delaware","lat":39.78512,"lng":-75.68147,"zip":"19707","miles_from_dt":28.98},{"city":"Riderwood","state_name":"Maryland","lat":39.40732,"lng":-76.64849,"zip":"21139","miles_from_dt":29},{"city":"Lampeter","state_name":"Pennsylvania","lat":39.98673,"lng":-76.23869,"zip":"17537","miles_from_dt":29.22},{"city":"New Castle","state_name":"Delaware","lat":39.645,"lng":-75.60678,"zip":"19720","miles_from_dt":29.34},{"city":"Baltimore","state_name":"Maryland","lat":39.33031,"lng":-76.60235,"zip":"21218","miles_from_dt":29.37},{"city":"Townsend","state_name":"Delaware","lat":39.38377,"lng":-75.65026,"zip":"19734","miles_from_dt":29.51},{"city":"Baltimore","state_name":"Maryland","lat":39.29087,"lng":-76.56774,"zip":"21281","miles_from_dt":29.55},{"city":"Wilmington","state_name":"Delaware","lat":39.6836,"lng":-75.61307,"zip":"19892","miles_from_dt":29.6},{"city":"Port Penn","state_name":"Delaware","lat":39.5102,"lng":-75.59616,"zip":"19731","miles_from_dt":29.74},{"city":"Delaware City","state_name":"Delaware","lat":39.5715,"lng":-75.5905,"zip":"19706","miles_from_dt":29.75},{"city":"Parkesburg","state_name":"Pennsylvania","lat":39.9655,"lng":-75.92766,"zip":"19365","miles_from_dt":29.75},{"city":"Baltimore","state_name":"Maryland","lat":39.35878,"lng":-76.63521,"zip":"21210","miles_from_dt":29.83},{"city":"Fort Howard","state_name":"Maryland","lat":39.20238,"lng":-76.44379,"zip":"21052","miles_from_dt":29.85},{"city":"Wilmington","state_name":"Delaware","lat":39.7166,"lng":-75.62094,"zip":"19804","miles_from_dt":29.88},{"city":"Brooklandville","state_name":"Maryland","lat":39.40753,"lng":-76.66745,"zip":"21022","miles_from_dt":29.93}],"targetCityZipCode":"21078","targetCityState":"Maryland"},"__N_SSG":true}