{"pageProps":{"stateName":"Maryland","cityName":"jessup","nearbyCities":[{"city":"Annapolis Junction","state_name":"Maryland","lat":39.12877,"lng":-76.78803,"zip":"20701","miles_from_dt":1.54},{"city":"Savage","state_name":"Maryland","lat":39.13786,"lng":-76.82134,"zip":"20763","miles_from_dt":1.97},{"city":"Columbia","state_name":"Maryland","lat":39.17357,"lng":-76.84183,"zip":"21046","miles_from_dt":3.24},{"city":"Hanover","state_name":"Maryland","lat":39.16856,"lng":-76.72239,"zip":"21076","miles_from_dt":3.77},{"city":"Elkridge","state_name":"Maryland","lat":39.20414,"lng":-76.75301,"zip":"21075","miles_from_dt":4.14},{"city":"Laurel","state_name":"Maryland","lat":39.13664,"lng":-76.86647,"zip":"20723","miles_from_dt":4.29},{"city":"Fort George G Meade","state_name":"Maryland","lat":39.09892,"lng":-76.74479,"zip":"20755","miles_from_dt":4.31},{"city":"Columbia","state_name":"Maryland","lat":39.20622,"lng":-76.82747,"zip":"21045","miles_from_dt":4.33},{"city":"Laurel","state_name":"Maryland","lat":39.10252,"lng":-76.84438,"zip":"20725","miles_from_dt":4.49},{"city":"Simpsonville","state_name":"Maryland","lat":39.1744,"lng":-76.86709,"zip":"21150","miles_from_dt":4.5},{"city":"Southern Md Facility","state_name":"Maryland","lat":39.09595,"lng":-76.83896,"zip":"20797","miles_from_dt":4.66},{"city":"Harmans","state_name":"Maryland","lat":39.1583,"lng":-76.69953,"zip":"21077","miles_from_dt":4.82},{"city":"Laurel","state_name":"Maryland","lat":39.08028,"lng":-76.79054,"zip":"20724","miles_from_dt":4.88},{"city":"Laurel","state_name":"Maryland","lat":39.08939,"lng":-76.8524,"zip":"20726","miles_from_dt":5.46},{"city":"Dhs","state_name":"Maryland","lat":39.20311,"lng":-76.87883,"zip":"20588","miles_from_dt":6.02},{"city":"Severn","state_name":"Maryland","lat":39.12058,"lng":-76.67767,"zip":"21144","miles_from_dt":6.33},{"city":"Laurel","state_name":"Maryland","lat":39.09563,"lng":-76.8842,"zip":"20707","miles_from_dt":6.39},{"city":"Baltimore","state_name":"Maryland","lat":39.17483,"lng":-76.67181,"zip":"21240","miles_from_dt":6.49},{"city":"Columbia","state_name":"Maryland","lat":39.21047,"lng":-76.88353,"zip":"21044","miles_from_dt":6.53},{"city":"Laurel","state_name":"Maryland","lat":39.06416,"lng":-76.8371,"zip":"20709","miles_from_dt":6.53},{"city":"Ellicott City","state_name":"Maryland","lat":39.25759,"lng":-76.79773,"zip":"21043","miles_from_dt":7.36},{"city":"Fulton","state_name":"Maryland","lat":39.15419,"lng":-76.92877,"zip":"20759","miles_from_dt":7.52},{"city":"Linthicum Heights","state_name":"Maryland","lat":39.20919,"lng":-76.66796,"zip":"21090","miles_from_dt":7.63},{"city":"Laurel","state_name":"Maryland","lat":39.04546,"lng":-76.83462,"zip":"20708","miles_from_dt":7.69},{"city":"Odenton","state_name":"Maryland","lat":39.05448,"lng":-76.71519,"zip":"21113","miles_from_dt":7.75},{"city":"Burtonsville","state_name":"Maryland","lat":39.10969,"lng":-76.93411,"zip":"20866","miles_from_dt":8.31},{"city":"Baltimore","state_name":"Maryland","lat":39.25558,"lng":-76.71117,"zip":"21250","miles_from_dt":8.33},{"city":"Glen Burnie","state_name":"Maryland","lat":39.16116,"lng":-76.63226,"zip":"21061","miles_from_dt":8.44},{"city":"Halethorpe","state_name":"Maryland","lat":39.24024,"lng":-76.67913,"zip":"21227","miles_from_dt":8.52},{"city":"Catonsville","state_name":"Maryland","lat":39.27272,"lng":-76.74687,"zip":"21228","miles_from_dt":8.69},{"city":"Ellicott City","state_name":"Maryland","lat":39.27395,"lng":-76.83606,"zip":"21041","miles_from_dt":8.85},{"city":"Beltsville","state_name":"Maryland","lat":39.04503,"lng":-76.90009,"zip":"20705","miles_from_dt":9.45},{"city":"Clarksville","state_name":"Maryland","lat":39.20633,"lng":-76.95206,"zip":"21029","miles_from_dt":9.56},{"city":"Highland","state_name":"Maryland","lat":39.17487,"lng":-76.96783,"zip":"20777","miles_from_dt":9.75},{"city":"Bowie","state_name":"Maryland","lat":39.00896,"lng":-76.78195,"zip":"20717","miles_from_dt":9.81},{"city":"Spencerville","state_name":"Maryland","lat":39.12534,"lng":-76.96834,"zip":"20868","miles_from_dt":9.81},{"city":"Millersville","state_name":"Maryland","lat":39.08932,"lng":-76.62139,"zip":"21108","miles_from_dt":9.95},{"city":"Ellicott City","state_name":"Maryland","lat":39.27105,"lng":-76.8924,"zip":"21042","miles_from_dt":9.97},{"city":"Beltsville","state_name":"Maryland","lat":39.0394,"lng":-76.90696,"zip":"20704","miles_from_dt":9.98},{"city":"Glen Burnie","state_name":"Maryland","lat":39.1637,"lng":-76.60358,"zip":"21062","miles_from_dt":9.99},{"city":"Southern Md Facility","state_name":"Maryland","lat":39.03292,"lng":-76.90425,"zip":"20697","miles_from_dt":10.24},{"city":"Bowie","state_name":"Maryland","lat":38.9971,"lng":-76.78588,"zip":"20720","miles_from_dt":10.62},{"city":"Baltimore","state_name":"Maryland","lat":39.28509,"lng":-76.69083,"zip":"21229","miles_from_dt":10.64},{"city":"Brooklyn","state_name":"Maryland","lat":39.22597,"lng":-76.61508,"zip":"21225","miles_from_dt":10.66},{"city":"Gambrills","state_name":"Maryland","lat":39.02624,"lng":-76.67083,"zip":"21054","miles_from_dt":10.7},{"city":"Greenbelt","state_name":"Maryland","lat":39.00289,"lng":-76.85534,"zip":"20771","miles_from_dt":10.83},{"city":"Baltimore","state_name":"Maryland","lat":39.30335,"lng":-76.73335,"zip":"21241","miles_from_dt":10.92},{"city":"Glen Burnie","state_name":"Maryland","lat":39.16893,"lng":-76.58346,"zip":"21060","miles_from_dt":11.1},{"city":"Silver Spring","state_name":"Maryland","lat":39.11052,"lng":-76.99036,"zip":"20905","miles_from_dt":11.18},{"city":"Crofton","state_name":"Maryland","lat":39.00967,"lng":-76.6839,"zip":"21114","miles_from_dt":11.27},{"city":"Ashton","state_name":"Maryland","lat":39.14653,"lng":-76.99886,"zip":"20861","miles_from_dt":11.29},{"city":"Glenn Dale","state_name":"Maryland","lat":38.98818,"lng":-76.81635,"zip":"20769","miles_from_dt":11.33},{"city":"Baltimore","state_name":"Maryland","lat":39.30956,"lng":-76.7284,"zip":"21235","miles_from_dt":11.4},{"city":"Greenbelt","state_name":"Maryland","lat":39.00062,"lng":-76.87775,"zip":"20768","miles_from_dt":11.43},{"city":"Bowie","state_name":"Maryland","lat":38.98588,"lng":-76.75415,"zip":"20718","miles_from_dt":11.55},{"city":"Baltimore","state_name":"Maryland","lat":39.31238,"lng":-76.72793,"zip":"21289","miles_from_dt":11.6},{"city":"Greenbelt","state_name":"Maryland","lat":38.99981,"lng":-76.88567,"zip":"20770","miles_from_dt":11.66},{"city":"Bowie","state_name":"Maryland","lat":38.98643,"lng":-76.73967,"zip":"20715","miles_from_dt":11.66},{"city":"Baltimore","state_name":"Maryland","lat":39.28421,"lng":-76.65323,"zip":"21223","miles_from_dt":11.72},{"city":"Silver Spring","state_name":"Maryland","lat":39.06608,"lng":-76.97918,"zip":"20904","miles_from_dt":11.79},{"city":"Baltimore","state_name":"Maryland","lat":39.26651,"lng":-76.62213,"zip":"21230","miles_from_dt":11.98},{"city":"Gwynn Oak","state_name":"Maryland","lat":39.32417,"lng":-76.72017,"zip":"21207","miles_from_dt":12.5},{"city":"Brinklow","state_name":"Maryland","lat":39.18039,"lng":-77.01879,"zip":"20862","miles_from_dt":12.51},{"city":"Windsor Mill","state_name":"Maryland","lat":39.3342,"lng":-76.78217,"zip":"21244","miles_from_dt":12.64},{"city":"Baltimore","state_name":"Maryland","lat":39.3108,"lng":-76.67145,"zip":"21216","miles_from_dt":12.69},{"city":"Silver Spring","state_name":"Maryland","lat":39.07413,"lng":-77.00346,"zip":"20914","miles_from_dt":12.7},{"city":"Curtis Bay","state_name":"Maryland","lat":39.2078,"lng":-76.5627,"zip":"21226","miles_from_dt":12.76},{"city":"Dayton","state_name":"Maryland","lat":39.23416,"lng":-77.00223,"zip":"21036","miles_from_dt":12.81},{"city":"Crownsville","state_name":"Maryland","lat":39.03376,"lng":-76.60401,"zip":"21032","miles_from_dt":12.81},{"city":"College Park","state_name":"Maryland","lat":39.00193,"lng":-76.93096,"zip":"20740","miles_from_dt":12.82},{"city":"Pasadena","state_name":"Maryland","lat":39.11197,"lng":-76.55356,"zip":"21123","miles_from_dt":12.92},{"city":"Sandy Spring","state_name":"Maryland","lat":39.15072,"lng":-77.03069,"zip":"20860","miles_from_dt":12.99},{"city":"Baltimore","state_name":"Maryland","lat":39.29282,"lng":-76.62379,"zip":"21290","miles_from_dt":13.19},{"city":"College Park","state_name":"Maryland","lat":38.9981,"lng":-76.93648,"zip":"20741","miles_from_dt":13.21},{"city":"Lanham","state_name":"Maryland","lat":38.96548,"lng":-76.85091,"zip":"20706","miles_from_dt":13.23},{"city":"Baltimore","state_name":"Maryland","lat":39.28703,"lng":-76.61413,"zip":"21275","miles_from_dt":13.26},{"city":"Lanham","state_name":"Maryland","lat":38.96694,"lng":-76.86222,"zip":"20703","miles_from_dt":13.3},{"city":"Baltimore","state_name":"Maryland","lat":39.29487,"lng":-76.62237,"zip":"21201","miles_from_dt":13.35},{"city":"Baltimore","state_name":"Maryland","lat":39.28742,"lng":-76.61127,"zip":"21273","miles_from_dt":13.39},{"city":"Silver Spring","state_name":"Maryland","lat":39.03614,"lng":-76.99099,"zip":"20993","miles_from_dt":13.45},{"city":"Baltimore","state_name":"Maryland","lat":39.30701,"lng":-76.63833,"zip":"21217","miles_from_dt":13.45},{"city":"Bowie","state_name":"Maryland","lat":38.95985,"lng":-76.73713,"zip":"20719","miles_from_dt":13.48},{"city":"Severna Park","state_name":"Maryland","lat":39.07737,"lng":-76.55613,"zip":"21146","miles_from_dt":13.5},{"city":"Woodstock","state_name":"Maryland","lat":39.34024,"lng":-76.85706,"zip":"21163","miles_from_dt":13.55},{"city":"Baltimore","state_name":"Maryland","lat":39.29055,"lng":-76.6096,"zip":"21263","miles_from_dt":13.6},{"city":"Baltimore","state_name":"Maryland","lat":39.29055,"lng":-76.6096,"zip":"21264","miles_from_dt":13.6},{"city":"College Park","state_name":"Maryland","lat":38.99422,"lng":-76.94347,"zip":"20742","miles_from_dt":13.65},{"city":"Silver Spring","state_name":"Maryland","lat":39.02128,"lng":-76.9821,"zip":"20903","miles_from_dt":13.72},{"city":"Baltimore","state_name":"Maryland","lat":39.29538,"lng":-76.60917,"zip":"21297","miles_from_dt":13.86},{"city":"Baltimore","state_name":"Maryland","lat":39.29244,"lng":-76.60503,"zip":"21233","miles_from_dt":13.87},{"city":"Baltimore","state_name":"Maryland","lat":39.29663,"lng":-76.60821,"zip":"21279","miles_from_dt":13.96},{"city":"Baltimore","state_name":"Maryland","lat":39.29778,"lng":-76.60899,"zip":"21298","miles_from_dt":13.98},{"city":"Baltimore","state_name":"Maryland","lat":39.29721,"lng":-76.60797,"zip":"21203","miles_from_dt":13.99},{"city":"Baltimore","state_name":"Maryland","lat":39.29705,"lng":-76.60747,"zip":"21202","miles_from_dt":14},{"city":"Annapolis","state_name":"Maryland","lat":39.12209,"lng":-76.52933,"zip":"21412","miles_from_dt":14.08},{"city":"West Friendship","state_name":"Maryland","lat":39.29705,"lng":-76.97388,"zip":"21794","miles_from_dt":14.14},{"city":"Hyattsville","state_name":"Maryland","lat":39.00188,"lng":-76.96939,"zip":"20787","miles_from_dt":14.15},{"city":"Baltimore","state_name":"Maryland","lat":39.28775,"lng":-76.592,"zip":"21231","miles_from_dt":14.16},{"city":"Hyattsville","state_name":"Maryland","lat":38.99988,"lng":-76.96886,"zip":"20783","miles_from_dt":14.23},{"city":"Glenelg","state_name":"Maryland","lat":39.2543,"lng":-77.01959,"zip":"21737","miles_from_dt":14.29},{"city":"Baltimore","state_name":"Maryland","lat":39.34578,"lng":-76.68367,"zip":"21215","miles_from_dt":14.57},{"city":"Baltimore","state_name":"Maryland","lat":39.32857,"lng":-76.6389,"zip":"21211","miles_from_dt":14.65},{"city":"Riverdale","state_name":"Maryland","lat":38.96247,"lng":-76.91571,"zip":"20737","miles_from_dt":14.69},{"city":"Baltimore","state_name":"Maryland","lat":39.31636,"lng":-76.61472,"zip":"21278","miles_from_dt":14.74},{"city":"Hyattsville","state_name":"Maryland","lat":38.95145,"lng":-76.89025,"zip":"20784","miles_from_dt":14.81},{"city":"Brookeville","state_name":"Maryland","lat":39.20595,"lng":-77.05552,"zip":"20833","miles_from_dt":14.81},{"city":"Baltimore","state_name":"Maryland","lat":39.29899,"lng":-76.58817,"zip":"21287","miles_from_dt":14.83},{"city":"Silver Spring","state_name":"Maryland","lat":39.02155,"lng":-77.00919,"zip":"20901","miles_from_dt":14.84},{"city":"Suburb Maryland Fac","state_name":"Maryland","lat":39.08787,"lng":-77.05479,"zip":"20897","miles_from_dt":14.94},{"city":"Silver Spring","state_name":"Maryland","lat":39.08858,"lng":-77.05522,"zip":"20906","miles_from_dt":14.95},{"city":"Riverdale","state_name":"Maryland","lat":38.96324,"lng":-76.9292,"zip":"20738","miles_from_dt":15},{"city":"Baltimore","state_name":"Maryland","lat":39.35907,"lng":-76.70477,"zip":"21270","miles_from_dt":15.04},{"city":"Marriottsville","state_name":"Maryland","lat":39.35044,"lng":-76.90654,"zip":"21104","miles_from_dt":15.13},{"city":"Silver Spring","state_name":"Maryland","lat":39.02082,"lng":-77.01637,"zip":"20918","miles_from_dt":15.18},{"city":"Olney","state_name":"Maryland","lat":39.15134,"lng":-77.07331,"zip":"20832","miles_from_dt":15.28},{"city":"Baltimore","state_name":"Maryland","lat":39.29087,"lng":-76.56774,"zip":"21281","miles_from_dt":15.29},{"city":"Annapolis","state_name":"Maryland","lat":39.02996,"lng":-76.54971,"zip":"21405","miles_from_dt":15.33},{"city":"Olney","state_name":"Maryland","lat":39.15927,"lng":-77.07572,"zip":"20830","miles_from_dt":15.42},{"city":"Silver Spring","state_name":"Maryland","lat":39.04381,"lng":-77.0421,"zip":"20902","miles_from_dt":15.5},{"city":"Glenwood","state_name":"Maryland","lat":39.27973,"lng":-77.02554,"zip":"21738","miles_from_dt":15.5},{"city":"Randallstown","state_name":"Maryland","lat":39.37705,"lng":-76.81174,"zip":"21133","miles_from_dt":15.64},{"city":"Silver Spring","state_name":"Maryland","lat":39.04373,"lng":-77.04679,"zip":"20915","miles_from_dt":15.72},{"city":"Pasadena","state_name":"Maryland","lat":39.11631,"lng":-76.49941,"zip":"21122","miles_from_dt":15.73},{"city":"Silver Spring","state_name":"Maryland","lat":39.10473,"lng":-77.07679,"zip":"20908","miles_from_dt":15.8},{"city":"Bowie","state_name":"Maryland","lat":38.92106,"lng":-76.78881,"zip":"20721","miles_from_dt":15.87},{"city":"Baltimore","state_name":"Maryland","lat":39.33031,"lng":-76.60235,"zip":"21218","miles_from_dt":15.9},{"city":"Bowie","state_name":"Maryland","lat":38.92734,"lng":-76.71494,"zip":"20716","miles_from_dt":15.94},{"city":"Baltimore","state_name":"Maryland","lat":39.30227,"lng":-76.56413,"zip":"21205","miles_from_dt":15.94},{"city":"Hyattsville","state_name":"Maryland","lat":38.96469,"lng":-76.9649,"zip":"20782","miles_from_dt":15.97},{"city":"Hyattsville","state_name":"Maryland","lat":38.9649,"lng":-76.9667,"zip":"20788","miles_from_dt":16.01},{"city":"Baltimore","state_name":"Maryland","lat":39.31501,"lng":-76.57723,"zip":"21213","miles_from_dt":16.02},{"city":"Baltimore","state_name":"Maryland","lat":39.28309,"lng":-76.54088,"zip":"21224","miles_from_dt":16.12},{"city":"Bladensburg","state_name":"Maryland","lat":38.94204,"lng":-76.92623,"zip":"20710","miles_from_dt":16.2},{"city":"Silver Spring","state_name":"Maryland","lat":39.08411,"lng":-77.07933,"zip":"20916","miles_from_dt":16.28},{"city":"Takoma Park","state_name":"Maryland","lat":38.98182,"lng":-77.00106,"zip":"20912","miles_from_dt":16.33},{"city":"Pikesville","state_name":"Maryland","lat":39.38401,"lng":-76.72547,"zip":"21208","miles_from_dt":16.42},{"city":"Takoma Park","state_name":"Maryland","lat":38.98188,"lng":-77.00388,"zip":"20913","miles_from_dt":16.43},{"city":"Hyattsville","state_name":"Maryland","lat":38.94229,"lng":-76.93655,"zip":"20781","miles_from_dt":16.45},{"city":"Baltimore","state_name":"Maryland","lat":39.35878,"lng":-76.63521,"zip":"21210","miles_from_dt":16.53},{"city":"Baltimore","state_name":"Maryland","lat":39.37261,"lng":-76.66802,"zip":"21209","miles_from_dt":16.6},{"city":"Pikesville","state_name":"Maryland","lat":39.3871,"lng":-76.72283,"zip":"21282","miles_from_dt":16.66},{"city":"Silver Spring","state_name":"Maryland","lat":38.99447,"lng":-77.02542,"zip":"20997","miles_from_dt":16.69},{"city":"Rockville","state_name":"Maryland","lat":39.10237,"lng":-77.09462,"zip":"20853","miles_from_dt":16.77},{"city":"Silver Spring","state_name":"Maryland","lat":38.99886,"lng":-77.03252,"zip":"20907","miles_from_dt":16.79},{"city":"Hyattsville","state_name":"Maryland","lat":38.91849,"lng":-76.88237,"zip":"20785","miles_from_dt":16.81},{"city":"Silver Spring","state_name":"Maryland","lat":39.00227,"lng":-77.03634,"zip":"20910","miles_from_dt":16.81},{"city":"Davidsonville","state_name":"Maryland","lat":38.93637,"lng":-76.63875,"zip":"21035","miles_from_dt":16.87},{"city":"Silver Spring","state_name":"Maryland","lat":38.99457,"lng":-77.03226,"zip":"20911","miles_from_dt":16.97},{"city":"Annapolis","state_name":"Maryland","lat":38.98967,"lng":-76.5505,"zip":"21401","miles_from_dt":16.98},{"city":"Cooksville","state_name":"Maryland","lat":39.32825,"lng":-77.01056,"zip":"21723","miles_from_dt":17.06},{"city":"Mount Rainier","state_name":"Maryland","lat":38.94306,"lng":-76.96517,"zip":"20712","miles_from_dt":17.2},{"city":"Brentwood","state_name":"Maryland","lat":38.9351,"lng":-76.94944,"zip":"20722","miles_from_dt":17.22},{"city":"Arnold","state_name":"Maryland","lat":39.04529,"lng":-76.49716,"zip":"21012","miles_from_dt":17.29},{"city":"Dundalk","state_name":"Maryland","lat":39.26424,"lng":-76.49537,"zip":"21222","miles_from_dt":17.58},{"city":"Riva","state_name":"Maryland","lat":38.95062,"lng":-76.58569,"zip":"21140","miles_from_dt":17.62},{"city":"Baltimore","state_name":"Maryland","lat":39.3678,"lng":-76.61456,"zip":"21212","miles_from_dt":17.63},{"city":"Washington","state_name":"District of Columbia","lat":38.97863,"lng":-77.03076,"zip":"20012","miles_from_dt":17.63},{"city":"Kensington","state_name":"Maryland","lat":39.02628,"lng":-77.07544,"zip":"20891","miles_from_dt":17.65},{"city":"Baltimore","state_name":"Maryland","lat":39.34993,"lng":-76.58027,"zip":"21251","miles_from_dt":17.7},{"city":"Kensington","state_name":"Maryland","lat":39.02696,"lng":-77.07781,"zip":"20895","miles_from_dt":17.74},{"city":"Washington","state_name":"District of Columbia","lat":38.97417,"lng":-77.03376,"zip":"20306","miles_from_dt":17.96},{"city":"Washington","state_name":"District of Columbia","lat":38.96672,"lng":-77.03159,"zip":"20040","miles_from_dt":18.23},{"city":"Garrett Park","state_name":"Maryland","lat":39.03521,"lng":-77.09494,"zip":"20896","miles_from_dt":18.29},{"city":"Baltimore","state_name":"Maryland","lat":39.36517,"lng":-76.58709,"zip":"21239","miles_from_dt":18.31},{"city":"Washington","state_name":"District of Columbia","lat":38.93813,"lng":-76.99294,"zip":"20017","miles_from_dt":18.34},{"city":"Baltimore","state_name":"Maryland","lat":39.35217,"lng":-76.5644,"zip":"21214","miles_from_dt":18.37},{"city":"Washington","state_name":"District of Columbia","lat":38.92596,"lng":-76.97281,"zip":"20018","miles_from_dt":18.42},{"city":"Washington","state_name":"District of Columbia","lat":38.98,"lng":-77.05219,"zip":"20511","miles_from_dt":18.44},{"city":"Derwood","state_name":"Maryland","lat":39.13702,"lng":-77.13197,"zip":"20855","miles_from_dt":18.46},{"city":"Rockville","state_name":"Maryland","lat":39.07308,"lng":-77.11829,"zip":"20848","miles_from_dt":18.51},{"city":"Rockville","state_name":"Maryland","lat":39.07767,"lng":-77.12089,"zip":"20851","miles_from_dt":18.55},{"city":"Washington","state_name":"District of Columbia","lat":38.91871,"lng":-76.96339,"zip":"20022","miles_from_dt":18.58},{"city":"Washington","state_name":"District of Columbia","lat":38.95295,"lng":-77.02323,"zip":"20011","miles_from_dt":18.59},{"city":"Washington","state_name":"District of Columbia","lat":38.95442,"lng":-77.02636,"zip":"20039","miles_from_dt":18.63},{"city":"Washington","state_name":"District of Columbia","lat":38.93637,"lng":-76.99924,"zip":"20064","miles_from_dt":18.64},{"city":"Towson","state_name":"Maryland","lat":39.3875,"lng":-76.61702,"zip":"21285","miles_from_dt":18.73},{"city":"Baltimore","state_name":"Maryland","lat":39.33932,"lng":-76.53706,"zip":"21206","miles_from_dt":18.74},{"city":"Chevy Chase","state_name":"Maryland","lat":38.9955,"lng":-77.07499,"zip":"20825","miles_from_dt":18.76},{"city":"Stevenson","state_name":"Maryland","lat":39.41649,"lng":-76.707,"zip":"21153","miles_from_dt":18.83},{"city":"Brooklandville","state_name":"Maryland","lat":39.40753,"lng":-76.66745,"zip":"21022","miles_from_dt":18.85},{"city":"Fort Howard","state_name":"Maryland","lat":39.20238,"lng":-76.44379,"zip":"21052","miles_from_dt":18.86},{"city":"Capitol Heights","state_name":"Maryland","lat":38.88141,"lng":-76.85612,"zip":"20799","miles_from_dt":18.95},{"city":"Washington","state_name":"District of Columbia","lat":38.96001,"lng":-77.04356,"zip":"20242","miles_from_dt":19.01},{"city":"Upper Marlboro","state_name":"Maryland","lat":38.87589,"lng":-76.76925,"zip":"20774","miles_from_dt":19.01},{"city":"Owings Mills","state_name":"Maryland","lat":39.42719,"lng":-76.77795,"zip":"21117","miles_from_dt":19.06},{"city":"Washington","state_name":"District of Columbia","lat":38.93645,"lng":-77.0128,"zip":"20317","miles_from_dt":19.09},{"city":"Bethesda","state_name":"Maryland","lat":39.00193,"lng":-77.09038,"zip":"20889","miles_from_dt":19.2},{"city":"Riderwood","state_name":"Maryland","lat":39.40732,"lng":-76.64849,"zip":"21139","miles_from_dt":19.21},{"city":"Towson","state_name":"Maryland","lat":39.39413,"lng":-76.61144,"zip":"21252","miles_from_dt":19.28},{"city":"Washington","state_name":"District of Columbia","lat":38.96661,"lng":-77.05837,"zip":"20015","miles_from_dt":19.29},{"city":"Capitol Heights","state_name":"Maryland","lat":38.88372,"lng":-76.89362,"zip":"20743","miles_from_dt":19.29},{"city":"Sparrows Point","state_name":"Maryland","lat":39.23097,"lng":-76.44383,"zip":"21219","miles_from_dt":19.32},{"city":"Rockville","state_name":"Maryland","lat":39.05134,"lng":-77.12507,"zip":"20852","miles_from_dt":19.34},{"city":"Capitol Heights","state_name":"Maryland","lat":38.88768,"lng":-76.91215,"zip":"20731","miles_from_dt":19.34},{"city":"Washington","state_name":"District of Columbia","lat":38.94136,"lng":-77.02801,"zip":"20542","miles_from_dt":19.36},{"city":"Washington","state_name":"District of Columbia","lat":38.92058,"lng":-76.9945,"zip":"20303","miles_from_dt":19.37},{"city":"Towson","state_name":"Maryland","lat":39.40353,"lng":-76.63024,"zip":"21204","miles_from_dt":19.38},{"city":"Washington","state_name":"District of Columbia","lat":38.91837,"lng":-76.99078,"zip":"20299","miles_from_dt":19.38},{"city":"Chevy Chase","state_name":"Maryland","lat":38.98369,"lng":-77.07845,"zip":"20815","miles_from_dt":19.39},{"city":"Washington","state_name":"District of Columbia","lat":38.91948,"lng":-76.99466,"zip":"20077","miles_from_dt":19.44},{"city":"Bethesda","state_name":"Maryland","lat":38.9841,"lng":-77.08021,"zip":"20813","miles_from_dt":19.45},{"city":"Washington","state_name":"District of Columbia","lat":38.91888,"lng":-76.99385,"zip":"20061","miles_from_dt":19.45},{"city":"Washington","state_name":"District of Columbia","lat":38.919,"lng":-76.99492,"zip":"20262","miles_from_dt":19.47},{"city":"Washington","state_name":"District of Columbia","lat":38.92714,"lng":-77.0103,"zip":"20422","miles_from_dt":19.51},{"city":"Washington","state_name":"District of Columbia","lat":38.91756,"lng":-76.99393,"zip":"20214","miles_from_dt":19.53},{"city":"Washington","state_name":"District of Columbia","lat":38.91821,"lng":-76.99548,"zip":"20066","miles_from_dt":19.54},{"city":"Washington","state_name":"District of Columbia","lat":38.89293,"lng":-76.93997,"zip":"20029","miles_from_dt":19.58},{"city":"Washington","state_name":"District of Columbia","lat":38.91673,"lng":-76.99429,"zip":"20042","miles_from_dt":19.58},{"city":"Washington","state_name":"District of Columbia","lat":38.9164,"lng":-76.99451,"zip":"20078","miles_from_dt":19.61},{"city":"Washington","state_name":"District of Columbia","lat":38.91696,"lng":-76.99581,"zip":"20075","miles_from_dt":19.62},{"city":"Woodbine","state_name":"Maryland","lat":39.33284,"lng":-77.07002,"zip":"21797","miles_from_dt":19.62},{"city":"Lisbon","state_name":"Maryland","lat":39.33483,"lng":-77.06811,"zip":"21765","miles_from_dt":19.63},{"city":"Annapolis","state_name":"Maryland","lat":38.97778,"lng":-76.49829,"zip":"21404","miles_from_dt":19.67},{"city":"Washington","state_name":"District of Columbia","lat":38.89214,"lng":-76.94195,"zip":"20019","miles_from_dt":19.67},{"city":"Bethesda","state_name":"Maryland","lat":39.00506,"lng":-77.10295,"zip":"20814","miles_from_dt":19.67},{"city":"Gibson Island","state_name":"Maryland","lat":39.07805,"lng":-76.4338,"zip":"21056","miles_from_dt":19.73},{"city":"Washington","state_name":"District of Columbia","lat":38.89118,"lng":-76.94252,"zip":"20218","miles_from_dt":19.74},{"city":"Washington","state_name":"District of Columbia","lat":38.91471,"lng":-76.99592,"zip":"20074","miles_from_dt":19.75},{"city":"Washington","state_name":"District of Columbia","lat":38.9149,"lng":-76.99627,"zip":"20244","miles_from_dt":19.75},{"city":"Washington","state_name":"District of Columbia","lat":38.92,"lng":-77.00751,"zip":"20070","miles_from_dt":19.81},{"city":"Washington","state_name":"District of Columbia","lat":38.92,"lng":-77.00751,"zip":"20069","miles_from_dt":19.81},{"city":"Washington","state_name":"District of Columbia","lat":38.92,"lng":-77.00751,"zip":"20058","miles_from_dt":19.81},{"city":"Washington","state_name":"District of Columbia","lat":38.92,"lng":-77.00751,"zip":"20206","miles_from_dt":19.81},{"city":"Sykesville","state_name":"Maryland","lat":39.40087,"lng":-76.9726,"zip":"21784","miles_from_dt":19.85},{"city":"Bethesda","state_name":"Maryland","lat":39.0006,"lng":-77.10373,"zip":"20892","miles_from_dt":19.86},{"city":"Annapolis","state_name":"Maryland","lat":38.97161,"lng":-76.49986,"zip":"21411","miles_from_dt":19.87},{"city":"Gaithersburg","state_name":"Maryland","lat":39.23182,"lng":-77.14514,"zip":"20882","miles_from_dt":19.92},{"city":"Washington","state_name":"District of Columbia","lat":38.90663,"lng":-76.98615,"zip":"20056","miles_from_dt":19.93},{"city":"Washington","state_name":"District of Columbia","lat":38.93255,"lng":-77.03128,"zip":"20010","miles_from_dt":19.93},{"city":"Towson","state_name":"Maryland","lat":39.39969,"lng":-76.5992,"zip":"21284","miles_from_dt":19.94},{"city":"Washington","state_name":"District of Columbia","lat":38.90511,"lng":-76.98431,"zip":"20002","miles_from_dt":19.96},{"city":"Bethesda","state_name":"Maryland","lat":38.99591,"lng":-77.10221,"zip":"20894","miles_from_dt":19.96},{"city":"Washington","state_name":"District of Columbia","lat":38.90618,"lng":-76.98722,"zip":"20050","miles_from_dt":19.98},{"city":"Bethesda","state_name":"Maryland","lat":38.98412,"lng":-77.09272,"zip":"20824","miles_from_dt":19.99},{"city":"Rockville","state_name":"Maryland","lat":39.08448,"lng":-77.15186,"zip":"20847","miles_from_dt":20.04},{"city":"Washington","state_name":"District of Columbia","lat":38.92247,"lng":-77.02003,"zip":"20059","miles_from_dt":20.08},{"city":"Rockville","state_name":"Maryland","lat":39.08242,"lng":-77.15282,"zip":"20849","miles_from_dt":20.13},{"city":"Washington","state_name":"District of Columbia","lat":38.90172,"lng":-76.98357,"zip":"20207","miles_from_dt":20.14},{"city":"Washington","state_name":"District of Columbia","lat":38.9,"lng":-76.98219,"zip":"20027","miles_from_dt":20.2},{"city":"Washington","state_name":"District of Columbia","lat":38.91864,"lng":-77.02038,"zip":"20060","miles_from_dt":20.3},{"city":"Rockville","state_name":"Maryland","lat":39.07935,"lng":-77.1564,"zip":"20857","miles_from_dt":20.36},{"city":"Bethesda","state_name":"Maryland","lat":38.98204,"lng":-77.09981,"zip":"20811","miles_from_dt":20.39},{"city":"Annapolis","state_name":"Maryland","lat":38.98816,"lng":-76.47202,"zip":"21402","miles_from_dt":20.41},{"city":"Rosedale","state_name":"Maryland","lat":39.33938,"lng":-76.49456,"zip":"21237","miles_from_dt":20.44},{"city":"Annapolis","state_name":"Maryland","lat":39.01968,"lng":-76.44738,"zip":"21409","miles_from_dt":20.47},{"city":"Washington","state_name":"District of Columbia","lat":38.92326,"lng":-77.0348,"zip":"20441","miles_from_dt":20.54},{"city":"Washington","state_name":"District of Columbia","lat":38.90685,"lng":-77.008,"zip":"20417","miles_from_dt":20.56},{"city":"Bethesda","state_name":"Maryland","lat":38.98,"lng":-77.10219,"zip":"20810","miles_from_dt":20.57},{"city":"Lutherville Timonium","state_name":"Maryland","lat":39.42132,"lng":-76.6231,"zip":"21094","miles_from_dt":20.65},{"city":"Washington","state_name":"District of Columbia","lat":38.91002,"lng":-77.018,"zip":"20001","miles_from_dt":20.7},{"city":"Washington Grove","state_name":"Maryland","lat":39.14077,"lng":-77.17456,"zip":"20880","miles_from_dt":20.73},{"city":"Gaithersburg","state_name":"Maryland","lat":39.16992,"lng":-77.17416,"zip":"20879","miles_from_dt":20.74},{"city":"Washington","state_name":"District of Columbia","lat":38.9017,"lng":-77.00599,"zip":"20426","miles_from_dt":20.8},{"city":"Washington","state_name":"District of Columbia","lat":38.91925,"lng":-77.03605,"zip":"20232","miles_from_dt":20.8},{"city":"Washington","state_name":"District of Columbia","lat":38.93539,"lng":-77.05935,"zip":"20008","miles_from_dt":20.81},{"city":"Washington","state_name":"District of Columbia","lat":38.90241,"lng":-77.00792,"zip":"20211","miles_from_dt":20.81},{"city":"Washington","state_name":"District of Columbia","lat":38.91986,"lng":-77.03749,"zip":"20009","miles_from_dt":20.82},{"city":"District Heights","state_name":"Maryland","lat":38.85826,"lng":-76.88728,"zip":"20753","miles_from_dt":20.88},{"city":"Washington","state_name":"District of Columbia","lat":38.9335,"lng":-77.06003,"zip":"20392","miles_from_dt":20.93},{"city":"Edgewater","state_name":"Maryland","lat":38.91476,"lng":-76.54361,"zip":"21037","miles_from_dt":20.97},{"city":"Washington","state_name":"District of Columbia","lat":38.89938,"lng":-77.00802,"zip":"20573","miles_from_dt":20.99},{"city":"Washington","state_name":"District of Columbia","lat":38.91703,"lng":-77.04116,"zip":"20554","miles_from_dt":21.09},{"city":"Washington","state_name":"District of Columbia","lat":38.89782,"lng":-77.009,"zip":"20401","miles_from_dt":21.11},{"city":"Washington","state_name":"District of Columbia","lat":38.89771,"lng":-77.00887,"zip":"20404","miles_from_dt":21.11},{"city":"Washington","state_name":"District of Columbia","lat":38.89359,"lng":-77.00129,"zip":"20599","miles_from_dt":21.12},{"city":"Washington","state_name":"District of Columbia","lat":38.90101,"lng":-77.01594,"zip":"20536","miles_from_dt":21.14},{"city":"Washington","state_name":"District of Columbia","lat":38.89825,"lng":-77.01096,"zip":"20402","miles_from_dt":21.14},{"city":"District Heights","state_name":"Maryland","lat":38.85348,"lng":-76.88377,"zip":"20747","miles_from_dt":21.15},{"city":"Washington","state_name":"District of Columbia","lat":38.89692,"lng":-77.0088,"zip":"20444","miles_from_dt":21.15},{"city":"Washington","state_name":"District of Columbia","lat":38.9016,"lng":-77.01749,"zip":"20538","miles_from_dt":21.16},{"city":"Essex","state_name":"Maryland","lat":39.29462,"lng":-76.44034,"zip":"21221","miles_from_dt":21.16},{"city":"Washington","state_name":"District of Columbia","lat":38.89642,"lng":-77.00878,"zip":"20082","miles_from_dt":21.18},{"city":"Washington","state_name":"District of Columbia","lat":38.89773,"lng":-77.01112,"zip":"20208","miles_from_dt":21.18},{"city":"Washington","state_name":"District of Columbia","lat":38.89725,"lng":-77.01055,"zip":"20578","miles_from_dt":21.19},{"city":"Washington","state_name":"District of Columbia","lat":38.89537,"lng":-77.00753,"zip":"20212","miles_from_dt":21.2},{"city":"Washington","state_name":"District of Columbia","lat":38.89587,"lng":-77.00916,"zip":"20314","miles_from_dt":21.22},{"city":"Washington","state_name":"District of Columbia","lat":38.89953,"lng":-77.01593,"zip":"20529","miles_from_dt":21.22},{"city":"Washington","state_name":"District of Columbia","lat":38.90486,"lng":-77.02619,"zip":"20091","miles_from_dt":21.25},{"city":"Lutherville Timonium","state_name":"Maryland","lat":39.43773,"lng":-76.64318,"zip":"21093","miles_from_dt":21.26},{"city":"Washington","state_name":"District of Columbia","lat":38.90071,"lng":-77.01962,"zip":"20548","miles_from_dt":21.27},{"city":"Washington","state_name":"District of Columbia","lat":38.94357,"lng":-77.08243,"zip":"20393","miles_from_dt":21.31},{"city":"Washington","state_name":"District of Columbia","lat":38.90584,"lng":-77.03019,"zip":"20572","miles_from_dt":21.33},{"city":"Washington","state_name":"District of Columbia","lat":38.89278,"lng":-77.00689,"zip":"20510","miles_from_dt":21.33},{"city":"Washington","state_name":"District of Columbia","lat":38.90108,"lng":-77.02217,"zip":"20405","miles_from_dt":21.33},{"city":"Washington","state_name":"District of Columbia","lat":38.90631,"lng":-77.03125,"zip":"20421","miles_from_dt":21.34},{"city":"Washington","state_name":"District of Columbia","lat":38.91456,"lng":-77.04447,"zip":"20440","miles_from_dt":21.34},{"city":"Washington","state_name":"District of Columbia","lat":38.89493,"lng":-77.01118,"zip":"20217","miles_from_dt":21.34},{"city":"Washington","state_name":"District of Columbia","lat":38.88397,"lng":-76.98925,"zip":"20546","miles_from_dt":21.35},{"city":"Washington","state_name":"District of Columbia","lat":38.9014,"lng":-77.02335,"zip":"20055","miles_from_dt":21.35},{"city":"Washington","state_name":"District of Columbia","lat":38.90059,"lng":-77.02208,"zip":"20270","miles_from_dt":21.36},{"city":"Annapolis","state_name":"Maryland","lat":38.94433,"lng":-76.49296,"zip":"21403","miles_from_dt":21.37},{"city":"Washington","state_name":"District of Columbia","lat":38.91344,"lng":-77.04398,"zip":"20428","miles_from_dt":21.38},{"city":"Washington","state_name":"District of Columbia","lat":38.90477,"lng":-77.03023,"zip":"20439","miles_from_dt":21.39},{"city":"Washington","state_name":"District of Columbia","lat":38.90536,"lng":-77.03177,"zip":"20043","miles_from_dt":21.4},{"city":"Washington","state_name":"District of Columbia","lat":38.90191,"lng":-77.02594,"zip":"20527","miles_from_dt":21.41},{"city":"Washington","state_name":"District of Columbia","lat":38.90501,"lng":-77.03143,"zip":"20038","miles_from_dt":21.41},{"city":"Washington","state_name":"District of Columbia","lat":38.89421,"lng":-77.01251,"zip":"20215","miles_from_dt":21.42},{"city":"Washington","state_name":"District of Columbia","lat":38.90443,"lng":-77.0316,"zip":"20005","miles_from_dt":21.45},{"city":"Washington","state_name":"District of Columbia","lat":38.90457,"lng":-77.03191,"zip":"20533","miles_from_dt":21.45},{"city":"Washington","state_name":"District of Columbia","lat":38.90255,"lng":-77.02869,"zip":"20420","miles_from_dt":21.46},{"city":"Rockville","state_name":"Maryland","lat":39.0908,"lng":-77.1809,"zip":"20850","miles_from_dt":21.47},{"city":"Washington","state_name":"District of Columbia","lat":38.89976,"lng":-77.02443,"zip":"20552","miles_from_dt":21.48},{"city":"Towson","state_name":"Maryland","lat":39.41374,"lng":-76.57375,"zip":"21286","miles_from_dt":21.48},{"city":"Gaithersburg","state_name":"Maryland","lat":39.14068,"lng":-77.18865,"zip":"20877","miles_from_dt":21.49},{"city":"Washington","state_name":"District of Columbia","lat":38.89227,"lng":-77.011,"zip":"20534","miles_from_dt":21.49},{"city":"Washington","state_name":"District of Columbia","lat":38.88193,"lng":-76.99033,"zip":"20003","miles_from_dt":21.5},{"city":"Washington","state_name":"District of Columbia","lat":38.9119,"lng":-77.04586,"zip":"20235","miles_from_dt":21.53},{"city":"Washington","state_name":"District of Columbia","lat":38.90003,"lng":-77.02655,"zip":"20080","miles_from_dt":21.53},{"city":"Washington","state_name":"District of Columbia","lat":38.90107,"lng":-77.02882,"zip":"20268","miles_from_dt":21.54},{"city":"Washington","state_name":"District of Columbia","lat":38.89571,"lng":-77.01963,"zip":"20531","miles_from_dt":21.55},{"city":"Washington","state_name":"District of Columbia","lat":38.88793,"lng":-77.00471,"zip":"20540","miles_from_dt":21.55},{"city":"Washington","state_name":"District of Columbia","lat":38.89858,"lng":-77.02454,"zip":"20463","miles_from_dt":21.55},{"city":"Washington","state_name":"District of Columbia","lat":38.89186,"lng":-77.01278,"zip":"20216","miles_from_dt":21.56},{"city":"Washington","state_name":"District of Columbia","lat":38.90247,"lng":-77.03179,"zip":"20524","miles_from_dt":21.56},{"city":"Washington","state_name":"District of Columbia","lat":38.89946,"lng":-77.02664,"zip":"20081","miles_from_dt":21.56},{"city":"Washington","state_name":"District of Columbia","lat":38.89281,"lng":-77.01451,"zip":"20442","miles_from_dt":21.56},{"city":"Washington","state_name":"District of Columbia","lat":38.90622,"lng":-77.03809,"zip":"20544","miles_from_dt":21.57},{"city":"Washington","state_name":"District of Columbia","lat":38.90231,"lng":-77.03176,"zip":"20419","miles_from_dt":21.57},{"city":"Washington","state_name":"District of Columbia","lat":38.90088,"lng":-77.02971,"zip":"20501","miles_from_dt":21.58},{"city":"Washington","state_name":"District of Columbia","lat":38.88864,"lng":-77.00711,"zip":"20541","miles_from_dt":21.58},{"city":"Washington","state_name":"District of Columbia","lat":38.90436,"lng":-77.03541,"zip":"20577","miles_from_dt":21.58},{"city":"Washington","state_name":"District of Columbia","lat":38.88795,"lng":-77.00579,"zip":"20559","miles_from_dt":21.58},{"city":"Washington","state_name":"District of Columbia","lat":38.89757,"lng":-77.0241,"zip":"20436","miles_from_dt":21.59},{"city":"Washington","state_name":"District of Columbia","lat":38.94167,"lng":-77.08741,"zip":"20394","miles_from_dt":21.6},{"city":"Washington","state_name":"District of Columbia","lat":38.88917,"lng":-77.0088,"zip":"20543","miles_from_dt":21.6},{"city":"Washington","state_name":"District of Columbia","lat":38.88037,"lng":-76.99066,"zip":"20557","miles_from_dt":21.6},{"city":"Washington","state_name":"District of Columbia","lat":38.90062,"lng":-77.0302,"zip":"20525","miles_from_dt":21.61},{"city":"Washington","state_name":"District of Columbia","lat":38.89618,"lng":-77.02251,"zip":"20073","miles_from_dt":21.62},{"city":"Washington","state_name":"District of Columbia","lat":38.89709,"lng":-77.02417,"zip":"20425","miles_from_dt":21.62},{"city":"Washington","state_name":"District of Columbia","lat":38.89087,"lng":-77.01347,"zip":"20213","miles_from_dt":21.64},{"city":"Washington","state_name":"District of Columbia","lat":38.90705,"lng":-77.04155,"zip":"20036","miles_from_dt":21.64},{"city":"Washington","state_name":"District of Columbia","lat":38.89443,"lng":-77.02032,"zip":"20049","miles_from_dt":21.65},{"city":"Washington","state_name":"District of Columbia","lat":38.89723,"lng":-77.02536,"zip":"20537","miles_from_dt":21.65},{"city":"Washington","state_name":"District of Columbia","lat":38.8991,"lng":-77.029,"zip":"20047","miles_from_dt":21.66},{"city":"Washington","state_name":"District of Columbia","lat":38.8991,"lng":-77.029,"zip":"20233","miles_from_dt":21.66},{"city":"Washington","state_name":"District of Columbia","lat":38.88994,"lng":-77.01235,"zip":"20210","miles_from_dt":21.66},{"city":"Washington","state_name":"District of Columbia","lat":38.8991,"lng":-77.029,"zip":"20076","miles_from_dt":21.66},{"city":"Washington","state_name":"District of Columbia","lat":38.8991,"lng":-77.029,"zip":"20453","miles_from_dt":21.66},{"city":"Washington","state_name":"District of Columbia","lat":38.90324,"lng":-77.03606,"zip":"20071","miles_from_dt":21.66},{"city":"Washington","state_name":"District of Columbia","lat":38.89498,"lng":-77.02178,"zip":"20413","miles_from_dt":21.66},{"city":"Washington","state_name":"District of Columbia","lat":38.8991,"lng":-77.029,"zip":"20389","miles_from_dt":21.66},{"city":"Washington","state_name":"District of Columbia","lat":38.8991,"lng":-77.029,"zip":"20350","miles_from_dt":21.66},{"city":"Washington","state_name":"District of Columbia","lat":38.8991,"lng":-77.029,"zip":"20330","miles_from_dt":21.66},{"city":"Washington","state_name":"District of Columbia","lat":38.8991,"lng":-77.029,"zip":"20310","miles_from_dt":21.66},{"city":"Washington","state_name":"District of Columbia","lat":38.90539,"lng":-77.03945,"zip":"20035","miles_from_dt":21.66},{"city":"Washington","state_name":"District of Columbia","lat":38.89839,"lng":-77.02859,"zip":"20539","miles_from_dt":21.69},{"city":"Gaithersburg","state_name":"Maryland","lat":39.17,"lng":-77.19219,"zip":"20883","miles_from_dt":21.7},{"city":"Washington","state_name":"District of Columbia","lat":38.90045,"lng":-77.03281,"zip":"20571","miles_from_dt":21.71},{"city":"Washington","state_name":"District of Columbia","lat":38.94137,"lng":-77.08984,"zip":"20375","miles_from_dt":21.71},{"city":"Washington","state_name":"District of Columbia","lat":38.896,"lng":-77.02581,"zip":"20044","miles_from_dt":21.73},{"city":"Washington","state_name":"District of Columbia","lat":38.90212,"lng":-77.03616,"zip":"20503","miles_from_dt":21.73},{"city":"Parkville","state_name":"Maryland","lat":39.395,"lng":-76.53252,"zip":"21234","miles_from_dt":21.73},{"city":"Washington","state_name":"District of Columbia","lat":38.90516,"lng":-77.04143,"zip":"20033","miles_from_dt":21.74},{"city":"Washington","state_name":"District of Columbia","lat":38.88681,"lng":-77.00901,"zip":"20515","miles_from_dt":21.74},{"city":"Washington","state_name":"District of Columbia","lat":38.90191,"lng":-77.03628,"zip":"20062","miles_from_dt":21.74},{"city":"Washington","state_name":"District of Columbia","lat":38.89514,"lng":-77.02493,"zip":"20535","miles_from_dt":21.75},{"city":"Washington","state_name":"District of Columbia","lat":38.89669,"lng":-77.02806,"zip":"20202","miles_from_dt":21.76},{"city":"Washington","state_name":"District of Columbia","lat":38.87902,"lng":-76.99375,"zip":"20390","miles_from_dt":21.77},{"city":"Washington","state_name":"District of Columbia","lat":38.89182,"lng":-77.01958,"zip":"20549","miles_from_dt":21.77},{"city":"Washington","state_name":"District of Columbia","lat":38.89228,"lng":-77.02052,"zip":"20412","miles_from_dt":21.77},{"city":"Washington","state_name":"District of Columbia","lat":38.89412,"lng":-77.02413,"zip":"20580","miles_from_dt":21.78},{"city":"Harwood","state_name":"Maryland","lat":38.86913,"lng":-76.6067,"zip":"20776","miles_from_dt":21.78},{"city":"Washington","state_name":"District of Columbia","lat":38.89681,"lng":-77.02915,"zip":"20528","miles_from_dt":21.79},{"city":"Washington","state_name":"District of Columbia","lat":38.90646,"lng":-77.04493,"zip":"20433","miles_from_dt":21.79},{"city":"Washington","state_name":"District of Columbia","lat":38.87876,"lng":-76.9942,"zip":"20370","miles_from_dt":21.79},{"city":"Washington","state_name":"District of Columbia","lat":38.89504,"lng":-77.02661,"zip":"20004","miles_from_dt":21.81},{"city":"Washington","state_name":"District of Columbia","lat":38.89838,"lng":-77.03246,"zip":"20576","miles_from_dt":21.81},{"city":"Washington","state_name":"District of Columbia","lat":38.89834,"lng":-77.0323,"zip":"20222","miles_from_dt":21.81},{"city":"Washington","state_name":"District of Columbia","lat":38.89284,"lng":-77.02301,"zip":"20408","miles_from_dt":21.82},{"city":"Washington","state_name":"District of Columbia","lat":38.89779,"lng":-77.03198,"zip":"20226","miles_from_dt":21.83},{"city":"Gaithersburg","state_name":"Maryland","lat":39.14269,"lng":-77.19508,"zip":"20884","miles_from_dt":21.83},{"city":"Capitol Heights","state_name":"Maryland","lat":38.85464,"lng":-76.93153,"zip":"20790","miles_from_dt":21.84},{"city":"Washington","state_name":"District of Columbia","lat":38.90371,"lng":-77.04214,"zip":"20507","miles_from_dt":21.84},{"city":"Washington","state_name":"District of Columbia","lat":38.89819,"lng":-77.03312,"zip":"20500","miles_from_dt":21.84},{"city":"Washington","state_name":"District of Columbia","lat":38.89673,"lng":-77.0308,"zip":"20045","miles_from_dt":21.85},{"city":"Washington","state_name":"District of Columbia","lat":38.88839,"lng":-77.01599,"zip":"20403","miles_from_dt":21.86},{"city":"Washington","state_name":"District of Columbia","lat":38.89109,"lng":-77.02094,"zip":"20301","miles_from_dt":21.86},{"city":"Washington","state_name":"District of Columbia","lat":38.89007,"lng":-77.01955,"zip":"20565","miles_from_dt":21.87},{"city":"Washington","state_name":"District of Columbia","lat":38.89313,"lng":-77.02503,"zip":"20530","miles_from_dt":21.87},{"city":"Washington","state_name":"District of Columbia","lat":38.90454,"lng":-77.04504,"zip":"20203","miles_from_dt":21.89},{"city":"Washington","state_name":"District of Columbia","lat":38.87692,"lng":-76.99408,"zip":"20380","miles_from_dt":21.9},{"city":"Washington","state_name":"District of Columbia","lat":38.93822,"lng":-77.09139,"zip":"20016","miles_from_dt":21.92},{"city":"Washington","state_name":"District of Columbia","lat":38.90415,"lng":-77.04535,"zip":"20238","miles_from_dt":21.92},{"city":"Washington","state_name":"District of Columbia","lat":38.90504,"lng":-77.04704,"zip":"20586","miles_from_dt":21.93},{"city":"Washington","state_name":"District of Columbia","lat":38.8941,"lng":-77.02888,"zip":"20221","miles_from_dt":21.93},{"city":"Washington","state_name":"District of Columbia","lat":38.91415,"lng":-77.06096,"zip":"20406","miles_from_dt":21.94},{"city":"Washington","state_name":"District of Columbia","lat":38.89713,"lng":-77.03436,"zip":"20220","miles_from_dt":21.94},{"city":"Washington","state_name":"District of Columbia","lat":38.89539,"lng":-77.03119,"zip":"20424","miles_from_dt":21.94},{"city":"Washington","state_name":"District of Columbia","lat":38.90321,"lng":-77.04439,"zip":"20063","miles_from_dt":21.94},{"city":"Washington","state_name":"District of Columbia","lat":38.89321,"lng":-77.02776,"zip":"20423","miles_from_dt":21.95},{"city":"Washington","state_name":"District of Columbia","lat":38.88752,"lng":-77.01741,"zip":"20252","miles_from_dt":21.95},{"city":"Washington","state_name":"District of Columbia","lat":38.88752,"lng":-77.01741,"zip":"20237","miles_from_dt":21.95},{"city":"Washington","state_name":"District of Columbia","lat":38.89696,"lng":-77.03462,"zip":"20502","miles_from_dt":21.96},{"city":"Washington","state_name":"District of Columbia","lat":38.88735,"lng":-77.01736,"zip":"20201","miles_from_dt":21.96},{"city":"Washington","state_name":"District of Columbia","lat":38.88473,"lng":-77.01222,"zip":"20053","miles_from_dt":21.96},{"city":"Washington","state_name":"District of Columbia","lat":38.89662,"lng":-77.034,"zip":"20597","miles_from_dt":21.96},{"city":"Washington","state_name":"District of Columbia","lat":38.89967,"lng":-77.03934,"zip":"20506","miles_from_dt":21.96},{"city":"Washington","state_name":"District of Columbia","lat":38.88556,"lng":-77.01443,"zip":"20204","miles_from_dt":21.97},{"city":"Washington","state_name":"District of Columbia","lat":38.88525,"lng":-77.0146,"zip":"20547","miles_from_dt":22},{"city":"Montgomery Village","state_name":"Maryland","lat":39.17952,"lng":-77.197,"zip":"20886","miles_from_dt":22.01},{"city":"Washington","state_name":"District of Columbia","lat":38.89929,"lng":-77.04034,"zip":"20508","miles_from_dt":22.02},{"city":"Bethesda","state_name":"Maryland","lat":39.01371,"lng":-77.15874,"zip":"20827","miles_from_dt":22.03},{"city":"Washington","state_name":"District of Columbia","lat":38.9,"lng":-77.04219,"zip":"20355","miles_from_dt":22.04},{"city":"Washington","state_name":"District of Columbia","lat":38.89944,"lng":-77.04118,"zip":"20575","miles_from_dt":22.04},{"city":"Washington","state_name":"District of Columbia","lat":38.9,"lng":-77.04219,"zip":"20509","miles_from_dt":22.04},{"city":"Washington","state_name":"District of Columbia","lat":38.90143,"lng":-77.0449,"zip":"20579","miles_from_dt":22.05},{"city":"Bethesda","state_name":"Maryland","lat":38.99809,"lng":-77.14919,"zip":"20817","miles_from_dt":22.06},{"city":"Washington","state_name":"District of Columbia","lat":38.89457,"lng":-77.03366,"zip":"20227","miles_from_dt":22.06},{"city":"Suitland","state_name":"Maryland","lat":38.84934,"lng":-76.92508,"zip":"20752","miles_from_dt":22.07},{"city":"Washington","state_name":"District of Columbia","lat":38.89094,"lng":-77.02783,"zip":"20224","miles_from_dt":22.08},{"city":"Washington","state_name":"District of Columbia","lat":38.89847,"lng":-77.04119,"zip":"20006","miles_from_dt":22.09},{"city":"Washington","state_name":"District of Columbia","lat":38.88593,"lng":-77.01944,"zip":"20472","miles_from_dt":22.1},{"city":"Washington","state_name":"District of Columbia","lat":38.8902,"lng":-77.02745,"zip":"20560","miles_from_dt":22.11},{"city":"Washington","state_name":"District of Columbia","lat":38.88569,"lng":-77.0191,"zip":"20261","miles_from_dt":22.11},{"city":"Washington","state_name":"District of Columbia","lat":38.90207,"lng":-77.04755,"zip":"20427","miles_from_dt":22.11},{"city":"Washington","state_name":"District of Columbia","lat":38.90067,"lng":-77.04558,"zip":"20526","miles_from_dt":22.12},{"city":"Washington","state_name":"District of Columbia","lat":38.89798,"lng":-77.04153,"zip":"20570","miles_from_dt":22.13},{"city":"Washington","state_name":"District of Columbia","lat":38.88683,"lng":-77.02214,"zip":"20594","miles_from_dt":22.13},{"city":"Washington","state_name":"District of Columbia","lat":38.89277,"lng":-77.03299,"zip":"20229","miles_from_dt":22.14},{"city":"Washington","state_name":"District of Columbia","lat":38.90105,"lng":-77.04674,"zip":"20068","miles_from_dt":22.14},{"city":"Washington","state_name":"District of Columbia","lat":38.8877,"lng":-77.02404,"zip":"20553","miles_from_dt":22.14},{"city":"Washington","state_name":"District of Columbia","lat":38.89458,"lng":-77.03635,"zip":"20468","miles_from_dt":22.15},{"city":"Washington","state_name":"District of Columbia","lat":38.88695,"lng":-77.02297,"zip":"20591","miles_from_dt":22.15},{"city":"Washington","state_name":"District of Columbia","lat":38.88615,"lng":-77.02186,"zip":"20251","miles_from_dt":22.16},{"city":"Washington","state_name":"District of Columbia","lat":38.89846,"lng":-77.04329,"zip":"20067","miles_from_dt":22.16},{"city":"Washington","state_name":"District of Columbia","lat":38.89373,"lng":-77.03567,"zip":"20230","miles_from_dt":22.17},{"city":"Washington","state_name":"District of Columbia","lat":38.90187,"lng":-77.04895,"zip":"20437","miles_from_dt":22.17},{"city":"Washington","state_name":"District of Columbia","lat":38.89895,"lng":-77.04419,"zip":"20431","miles_from_dt":22.17},{"city":"Washington","state_name":"District of Columbia","lat":38.88555,"lng":-77.02138,"zip":"20410","miles_from_dt":22.18},{"city":"Washington","state_name":"District of Columbia","lat":38.89434,"lng":-77.03699,"zip":"20223","miles_from_dt":22.18},{"city":"Washington","state_name":"District of Columbia","lat":38.89773,"lng":-77.04287,"zip":"20504","miles_from_dt":22.19},{"city":"Washington","state_name":"District of Columbia","lat":38.88497,"lng":-77.02085,"zip":"20254","miles_from_dt":22.2},{"city":"Washington","state_name":"District of Columbia","lat":38.89645,"lng":-77.04107,"zip":"20555","miles_from_dt":22.2},{"city":"Washington","state_name":"District of Columbia","lat":38.89845,"lng":-77.04444,"zip":"20456","miles_from_dt":22.2},{"city":"Washington","state_name":"District of Columbia","lat":38.88241,"lng":-77.01621,"zip":"20219","miles_from_dt":22.21},{"city":"Washington","state_name":"District of Columbia","lat":38.88254,"lng":-77.017,"zip":"20277","miles_from_dt":22.22},{"city":"Washington","state_name":"District of Columbia","lat":38.89639,"lng":-77.04156,"zip":"20505","miles_from_dt":22.22},{"city":"Washington","state_name":"District of Columbia","lat":38.88433,"lng":-77.0202,"zip":"20265","miles_from_dt":22.22},{"city":"Washington","state_name":"District of Columbia","lat":38.88262,"lng":-77.01739,"zip":"20416","miles_from_dt":22.23},{"city":"Gaithersburg","state_name":"Maryland","lat":39.14289,"lng":-77.20282,"zip":"20898","miles_from_dt":22.25},{"city":"Washington","state_name":"District of Columbia","lat":38.88306,"lng":-77.01885,"zip":"20289","miles_from_dt":22.25},{"city":"Washington","state_name":"District of Columbia","lat":38.89278,"lng":-77.03685,"zip":"20470","miles_from_dt":22.26},{"city":"Washington","state_name":"District of Columbia","lat":38.86289,"lng":-76.97473,"zip":"20030","miles_from_dt":22.26},{"city":"Bethesda","state_name":"Maryland","lat":38.95612,"lng":-77.11873,"zip":"20816","miles_from_dt":22.26},{"city":"Washington","state_name":"District of Columbia","lat":38.8852,"lng":-77.02363,"zip":"20411","miles_from_dt":22.27},{"city":"Washington","state_name":"District of Columbia","lat":38.90074,"lng":-77.05016,"zip":"20372","miles_from_dt":22.27},{"city":"Washington","state_name":"District of Columbia","lat":38.88617,"lng":-77.02567,"zip":"20585","miles_from_dt":22.28},{"city":"Washington","state_name":"District of Columbia","lat":38.86234,"lng":-76.97446,"zip":"20020","miles_from_dt":22.28},{"city":"Washington","state_name":"District of Columbia","lat":38.89884,"lng":-77.04779,"zip":"20052","miles_from_dt":22.29},{"city":"Washington","state_name":"District of Columbia","lat":38.89521,"lng":-77.04199,"zip":"20469","miles_from_dt":22.3},{"city":"Washington","state_name":"District of Columbia","lat":38.8843,"lng":-77.02313,"zip":"20407","miles_from_dt":22.31},{"city":"Washington","state_name":"District of Columbia","lat":38.89294,"lng":-77.03893,"zip":"20434","miles_from_dt":22.32},{"city":"Washington","state_name":"District of Columbia","lat":38.88244,"lng":-77.02071,"zip":"20266","miles_from_dt":22.34},{"city":"Washington","state_name":"District of Columbia","lat":38.89446,"lng":-77.04261,"zip":"20240","miles_from_dt":22.36},{"city":"Washington","state_name":"District of Columbia","lat":38.89959,"lng":-77.05111,"zip":"20521","miles_from_dt":22.36},{"city":"Washington","state_name":"District of Columbia","lat":38.88771,"lng":-77.03142,"zip":"20228","miles_from_dt":22.37},{"city":"Washington","state_name":"District of Columbia","lat":38.89494,"lng":-77.0442,"zip":"20415","miles_from_dt":22.38},{"city":"Washington","state_name":"District of Columbia","lat":38.89671,"lng":-77.04701,"zip":"20523","miles_from_dt":22.38},{"city":"Washington","state_name":"District of Columbia","lat":38.88506,"lng":-77.02733,"zip":"20447","miles_from_dt":22.39},{"city":"Washington","state_name":"District of Columbia","lat":38.89499,"lng":-77.04491,"zip":"20013","miles_from_dt":22.4},{"city":"Washington","state_name":"District of Columbia","lat":38.8789,"lng":-77.01598,"zip":"20090","miles_from_dt":22.4},{"city":"Washington","state_name":"District of Columbia","lat":38.88355,"lng":-77.02504,"zip":"20260","miles_from_dt":22.41},{"city":"Washington","state_name":"District of Columbia","lat":38.88033,"lng":-77.01933,"zip":"20026","miles_from_dt":22.42},{"city":"Washington","state_name":"District of Columbia","lat":38.9164,"lng":-77.07787,"zip":"20435","miles_from_dt":22.45},{"city":"Washington","state_name":"District of Columbia","lat":38.89145,"lng":-77.04079,"zip":"20429","miles_from_dt":22.46},{"city":"Washington","state_name":"District of Columbia","lat":38.89358,"lng":-77.04503,"zip":"20245","miles_from_dt":22.48},{"city":"Washington","state_name":"District of Columbia","lat":38.89443,"lng":-77.04668,"zip":"20451","miles_from_dt":22.49},{"city":"Washington","state_name":"District of Columbia","lat":38.85901,"lng":-76.97556,"zip":"20395","miles_from_dt":22.51},{"city":"Washington","state_name":"District of Columbia","lat":38.88161,"lng":-77.02498,"zip":"20414","miles_from_dt":22.52},{"city":"Washington","state_name":"District of Columbia","lat":38.88271,"lng":-77.02719,"zip":"20065","miles_from_dt":22.52},{"city":"Washington","state_name":"District of Columbia","lat":38.88556,"lng":-77.03276,"zip":"20250","miles_from_dt":22.53},{"city":"Washington","state_name":"District of Columbia","lat":38.8947,"lng":-77.04848,"zip":"20520","miles_from_dt":22.54},{"city":"Washington","state_name":"District of Columbia","lat":38.8928,"lng":-77.0458,"zip":"20551","miles_from_dt":22.55},{"city":"Washington","state_name":"District of Columbia","lat":38.87823,"lng":-77.02001,"zip":"20460","miles_from_dt":22.56},{"city":"Washington","state_name":"District of Columbia","lat":38.89121,"lng":-77.04491,"zip":"20581","miles_from_dt":22.61},{"city":"Washington","state_name":"District of Columbia","lat":38.8928,"lng":-77.04776,"zip":"20418","miles_from_dt":22.62},{"city":"Washington","state_name":"District of Columbia","lat":38.91259,"lng":-77.07756,"zip":"20007","miles_from_dt":22.63},{"city":"Washington","state_name":"District of Columbia","lat":38.87885,"lng":-77.02362,"zip":"20590","miles_from_dt":22.63},{"city":"Washington","state_name":"District of Columbia","lat":38.89376,"lng":-77.05064,"zip":"20522","miles_from_dt":22.66},{"city":"Washington","state_name":"District of Columbia","lat":38.89667,"lng":-77.05536,"zip":"20566","miles_from_dt":22.66},{"city":"Washington","state_name":"District of Columbia","lat":38.89473,"lng":-77.05271,"zip":"20241","miles_from_dt":22.68},{"city":"Washington","state_name":"District of Columbia","lat":38.90892,"lng":-77.07511,"zip":"20057","miles_from_dt":22.72},{"city":"Suitland","state_name":"Maryland","lat":38.83664,"lng":-76.91936,"zip":"20746","miles_from_dt":22.8},{"city":"Washington","state_name":"District of Columbia","lat":38.89213,"lng":-77.0535,"zip":"20037","miles_from_dt":22.85},{"city":"Washington","state_name":"District of Columbia","lat":38.87959,"lng":-77.03246,"zip":"20239","miles_from_dt":22.86},{"city":"Upper Marlboro","state_name":"Maryland","lat":38.82,"lng":-76.75219,"zip":"20792","miles_from_dt":22.92},{"city":"Glen Echo","state_name":"Maryland","lat":38.96677,"lng":-77.14357,"zip":"20812","miles_from_dt":22.93},{"city":"Gaithersburg","state_name":"Maryland","lat":39.14442,"lng":-77.21621,"zip":"20899","miles_from_dt":22.96},{"city":"Washington","state_name":"District of Columbia","lat":38.86738,"lng":-77.01225,"zip":"20593","miles_from_dt":22.97},{"city":"Washington","state_name":"District of Columbia","lat":38.87517,"lng":-77.0295,"zip":"20024","miles_from_dt":23.02},{"city":"Nottingham","state_name":"Maryland","lat":39.38789,"lng":-76.48552,"zip":"21236","miles_from_dt":23.05},{"city":"Glyndon","state_name":"Maryland","lat":39.48516,"lng":-76.8081,"zip":"21071","miles_from_dt":23.07},{"city":"Washington","state_name":"District of Columbia","lat":38.86497,"lng":-77.01222,"zip":"20318","miles_from_dt":23.11},{"city":"Washington","state_name":"District of Columbia","lat":38.86706,"lng":-77.01695,"zip":"20319","miles_from_dt":23.12},{"city":"Upper Marlboro","state_name":"Maryland","lat":38.81455,"lng":-76.75425,"zip":"20773","miles_from_dt":23.29},{"city":"Reisterstown","state_name":"Maryland","lat":39.48851,"lng":-76.80888,"zip":"21136","miles_from_dt":23.3},{"city":"Arlington","state_name":"Virginia","lat":38.89413,"lng":-77.07309,"zip":"22209","miles_from_dt":23.41},{"city":"Cabin John","state_name":"Maryland","lat":38.97347,"lng":-77.16188,"zip":"20818","miles_from_dt":23.51},{"city":"Arlington","state_name":"Virginia","lat":38.89123,"lng":-77.07307,"zip":"22219","miles_from_dt":23.56},{"city":"Gaithersburg","state_name":"Maryland","lat":39.13349,"lng":-77.22906,"zip":"20885","miles_from_dt":23.68},{"city":"Potomac","state_name":"Maryland","lat":39.02296,"lng":-77.19925,"zip":"20859","miles_from_dt":23.77},{"city":"Arlington","state_name":"Virginia","lat":38.89162,"lng":-77.08532,"zip":"22216","miles_from_dt":23.98},{"city":"Mayo","state_name":"Maryland","lat":38.8799,"lng":-76.50746,"zip":"21106","miles_from_dt":24.07},{"city":"Washington","state_name":"District of Columbia","lat":38.84962,"lng":-77.01664,"zip":"20340","miles_from_dt":24.14},{"city":"Andrews Air Force Base","state_name":"Maryland","lat":38.80748,"lng":-76.87457,"zip":"20762","miles_from_dt":24.15},{"city":"Germantown","state_name":"Maryland","lat":39.20706,"lng":-77.23284,"zip":"20876","miles_from_dt":24.15},{"city":"Arlington","state_name":"Virginia","lat":38.87499,"lng":-77.06501,"zip":"22214","miles_from_dt":24.16},{"city":"Fort Myer","state_name":"Virginia","lat":38.88011,"lng":-77.07482,"zip":"22211","miles_from_dt":24.21},{"city":"Hunt Valley","state_name":"Maryland","lat":39.4874,"lng":-76.65792,"zip":"21031","miles_from_dt":24.24},{"city":"Cockeysville","state_name":"Maryland","lat":39.49002,"lng":-76.6659,"zip":"21030","miles_from_dt":24.29},{"city":"Temple Hills","state_name":"Maryland","lat":38.81692,"lng":-76.94124,"zip":"20748","miles_from_dt":24.47},{"city":"Capitol Heights","state_name":"Maryland","lat":38.81765,"lng":-76.94377,"zip":"20791","miles_from_dt":24.47},{"city":"Alexandria","state_name":"Virginia","lat":38.864,"lng":-77.05664,"zip":"22350","miles_from_dt":24.49},{"city":"Arlington","state_name":"Virginia","lat":38.88728,"lng":-77.09394,"zip":"22210","miles_from_dt":24.51},{"city":"Arlington","state_name":"Virginia","lat":38.86103,"lng":-77.05257,"zip":"22243","miles_from_dt":24.53},{"city":"Arlington","state_name":"Virginia","lat":38.88684,"lng":-77.09501,"zip":"22201","miles_from_dt":24.57},{"city":"Arlington","state_name":"Virginia","lat":38.85846,"lng":-77.04896,"zip":"22215","miles_from_dt":24.57},{"city":"Potomac","state_name":"Maryland","lat":39.03413,"lng":-77.22149,"zip":"20854","miles_from_dt":24.62},{"city":"Hunt Valley","state_name":"Maryland","lat":39.4939,"lng":-76.66119,"zip":"21065","miles_from_dt":24.62},{"city":"Finksburg","state_name":"Maryland","lat":39.49568,"lng":-76.91057,"zip":"21048","miles_from_dt":24.65},{"city":"Arlington","state_name":"Virginia","lat":38.90665,"lng":-77.12384,"zip":"22207","miles_from_dt":24.68},{"city":"Arlington","state_name":"Virginia","lat":38.88388,"lng":-77.09428,"zip":"22226","miles_from_dt":24.7},{"city":"West River","state_name":"Maryland","lat":38.83733,"lng":-76.56647,"zip":"20778","miles_from_dt":24.73},{"city":"Arlington","state_name":"Virginia","lat":38.85762,"lng":-77.05308,"zip":"22246","miles_from_dt":24.74},{"city":"Arlington","state_name":"Virginia","lat":38.8569,"lng":-77.05175,"zip":"22202","miles_from_dt":24.74},{"city":"Arlington","state_name":"Virginia","lat":38.85629,"lng":-77.05089,"zip":"22242","miles_from_dt":24.75},{"city":"Arlington","state_name":"Virginia","lat":38.8587,"lng":-77.05635,"zip":"22241","miles_from_dt":24.78},{"city":"Gaithersburg","state_name":"Maryland","lat":39.11376,"lng":-77.24781,"zip":"20878","miles_from_dt":24.79},{"city":"Galesville","state_name":"Maryland","lat":38.84533,"lng":-76.54654,"zip":"20765","miles_from_dt":24.8},{"city":"Arlington","state_name":"Virginia","lat":38.85512,"lng":-77.05026,"zip":"22244","miles_from_dt":24.8},{"city":"Damascus","state_name":"Maryland","lat":39.29142,"lng":-77.21619,"zip":"20872","miles_from_dt":24.89},{"city":"Greenway","state_name":"Virginia","lat":38.94062,"lng":-77.16512,"zip":"22067","miles_from_dt":24.91},{"city":"Middle River","state_name":"Maryland","lat":39.345,"lng":-76.3966,"zip":"21220","miles_from_dt":24.93},{"city":"McLean","state_name":"Virginia","lat":38.9386,"lng":-77.16513,"zip":"22101","miles_from_dt":24.99},{"city":"Lothian","state_name":"Maryland","lat":38.80485,"lng":-76.65245,"zip":"20711","miles_from_dt":24.99},{"city":"Arlington","state_name":"Virginia","lat":38.85661,"lng":-77.05938,"zip":"22225","miles_from_dt":24.99},{"city":"Arlington","state_name":"Virginia","lat":38.85408,"lng":-77.0549,"zip":"22227","miles_from_dt":25},{"city":"Arlington","state_name":"Virginia","lat":38.85207,"lng":-77.05149,"zip":"22245","miles_from_dt":25.01},{"city":"Arlington","state_name":"Virginia","lat":38.85302,"lng":-77.05415,"zip":"22240","miles_from_dt":25.03},{"city":"Washington","state_name":"District of Columbia","lat":38.83142,"lng":-77.01514,"zip":"20032","miles_from_dt":25.19},{"city":"Temple Hills","state_name":"Maryland","lat":38.8068,"lng":-76.94718,"zip":"20757","miles_from_dt":25.23},{"city":"McLean","state_name":"Virginia","lat":38.94084,"lng":-77.17614,"zip":"22106","miles_from_dt":25.39},{"city":"Perry Hall","state_name":"Maryland","lat":39.40526,"lng":-76.44628,"zip":"21128","miles_from_dt":25.39},{"city":"Upper Marlboro","state_name":"Maryland","lat":38.78269,"lng":-76.76782,"zip":"20775","miles_from_dt":25.44},{"city":"Germantown","state_name":"Maryland","lat":39.17643,"lng":-77.26251,"zip":"20875","miles_from_dt":25.5},{"city":"Glen Arm","state_name":"Maryland","lat":39.45111,"lng":-76.50606,"zip":"21057","miles_from_dt":25.65},{"city":"Upper Marlboro","state_name":"Maryland","lat":38.7785,"lng":-76.76911,"zip":"20772","miles_from_dt":25.72},{"city":"Boring","state_name":"Maryland","lat":39.52394,"lng":-76.8169,"zip":"21020","miles_from_dt":25.77},{"city":"Butler","state_name":"Maryland","lat":39.52368,"lng":-76.73984,"zip":"21023","miles_from_dt":25.84},{"city":"Arlington","state_name":"Virginia","lat":38.85843,"lng":-77.08967,"zip":"22212","miles_from_dt":25.88},{"city":"Arlington","state_name":"Virginia","lat":38.87377,"lng":-77.1164,"zip":"22203","miles_from_dt":26.01},{"city":"McLean","state_name":"Virginia","lat":38.93368,"lng":-77.18439,"zip":"22109","miles_from_dt":26.03},{"city":"Mount Airy","state_name":"Maryland","lat":39.3955,"lng":-77.15869,"zip":"21771","miles_from_dt":26.03},{"city":"Arlington","state_name":"Virginia","lat":38.86076,"lng":-77.09894,"zip":"22204","miles_from_dt":26.07},{"city":"McLean","state_name":"Virginia","lat":38.93,"lng":-77.18219,"zip":"22107","miles_from_dt":26.08},{"city":"McLean","state_name":"Virginia","lat":38.93,"lng":-77.18219,"zip":"22108","miles_from_dt":26.08},{"city":"Arlington","state_name":"Virginia","lat":38.85566,"lng":-77.093,"zip":"22217","miles_from_dt":26.14},{"city":"Arlington","state_name":"Virginia","lat":38.87006,"lng":-77.11668,"zip":"22230","miles_from_dt":26.21},{"city":"Alexandria","state_name":"Virginia","lat":38.83655,"lng":-77.06234,"zip":"22305","miles_from_dt":26.22},{"city":"Oxon Hill","state_name":"Maryland","lat":38.80552,"lng":-76.99495,"zip":"20745","miles_from_dt":26.29},{"city":"Chase","state_name":"Maryland","lat":39.35393,"lng":-76.37251,"zip":"21027","miles_from_dt":26.35},{"city":"Long Green","state_name":"Maryland","lat":39.4753,"lng":-76.52858,"zip":"21092","miles_from_dt":26.36},{"city":"Arlington","state_name":"Virginia","lat":38.88337,"lng":-77.13948,"zip":"22205","miles_from_dt":26.4},{"city":"Oxon Hill","state_name":"Maryland","lat":38.80142,"lng":-76.99111,"zip":"20750","miles_from_dt":26.46},{"city":"Shady Side","state_name":"Maryland","lat":38.83374,"lng":-76.51146,"zip":"20764","miles_from_dt":26.5},{"city":"White Marsh","state_name":"Maryland","lat":39.39084,"lng":-76.40164,"zip":"21162","miles_from_dt":26.54},{"city":"Arlington","state_name":"Virginia","lat":38.8442,"lng":-77.0886,"zip":"22206","miles_from_dt":26.62},{"city":"Arlington","state_name":"Virginia","lat":38.89459,"lng":-77.16239,"zip":"22213","miles_from_dt":26.78},{"city":"Phoenix","state_name":"Maryland","lat":39.50338,"lng":-76.57486,"zip":"21131","miles_from_dt":26.87},{"city":"Alexandria","state_name":"Virginia","lat":38.81995,"lng":-77.05934,"zip":"22301","miles_from_dt":27.09},{"city":"Germantown","state_name":"Maryland","lat":39.1291,"lng":-77.29721,"zip":"20874","miles_from_dt":27.35},{"city":"McLean","state_name":"Virginia","lat":38.95199,"lng":-77.22901,"zip":"22102","miles_from_dt":27.37},{"city":"Alexandria","state_name":"Virginia","lat":38.82799,"lng":-77.08432,"zip":"22302","miles_from_dt":27.38},{"city":"Deale","state_name":"Maryland","lat":38.79552,"lng":-76.56221,"zip":"20751","miles_from_dt":27.39},{"city":"West Mclean","state_name":"Virginia","lat":38.94777,"lng":-77.22795,"zip":"22103","miles_from_dt":27.47},{"city":"Clarksburg","state_name":"Maryland","lat":39.2592,"lng":-77.28187,"zip":"20871","miles_from_dt":27.49},{"city":"Churchton","state_name":"Maryland","lat":38.80628,"lng":-76.53139,"zip":"20733","miles_from_dt":27.53},{"city":"Falls Church","state_name":"Virginia","lat":38.88569,"lng":-77.17123,"zip":"22040","miles_from_dt":27.54},{"city":"Alexandria","state_name":"Virginia","lat":38.80732,"lng":-77.0563,"zip":"22314","miles_from_dt":27.74},{"city":"Alexandria","state_name":"Virginia","lat":38.80663,"lng":-77.05806,"zip":"22331","miles_from_dt":27.83},{"city":"Falls Church","state_name":"Virginia","lat":38.88696,"lng":-77.18025,"zip":"22046","miles_from_dt":27.85},{"city":"Alexandria","state_name":"Virginia","lat":38.80536,"lng":-77.05642,"zip":"22320","miles_from_dt":27.86},{"city":"Falls Church","state_name":"Virginia","lat":38.90076,"lng":-77.19746,"zip":"22043","miles_from_dt":27.96},{"city":"Alexandria","state_name":"Virginia","lat":38.80459,"lng":-77.05927,"zip":"22332","miles_from_dt":27.99},{"city":"Alexandria","state_name":"Virginia","lat":38.80318,"lng":-77.05868,"zip":"22334","miles_from_dt":28.05},{"city":"Sparks Glencoe","state_name":"Maryland","lat":39.54905,"lng":-76.68107,"zip":"21152","miles_from_dt":28.06},{"city":"Falls Church","state_name":"Virginia","lat":38.85957,"lng":-77.15627,"zip":"22044","miles_from_dt":28.2},{"city":"Falls Church","state_name":"Virginia","lat":38.8485,"lng":-77.14212,"zip":"22041","miles_from_dt":28.24},{"city":"Alexandria","state_name":"Virginia","lat":38.83442,"lng":-77.12313,"zip":"22311","miles_from_dt":28.3},{"city":"Cheltenham","state_name":"Maryland","lat":38.7423,"lng":-76.83747,"zip":"20623","miles_from_dt":28.32},{"city":"Clinton","state_name":"Maryland","lat":38.75034,"lng":-76.90566,"zip":"20735","miles_from_dt":28.35},{"city":"Fork","state_name":"Maryland","lat":39.4721,"lng":-76.45388,"zip":"21051","miles_from_dt":28.51},{"city":"Stevensville","state_name":"Maryland","lat":38.93956,"lng":-76.33272,"zip":"21666","miles_from_dt":28.55},{"city":"Dhs","state_name":"Virginia","lat":38.80111,"lng":-77.07257,"zip":"20598","miles_from_dt":28.57},{"city":"Kingsville","state_name":"Maryland","lat":39.44728,"lng":-76.41583,"zip":"21087","miles_from_dt":28.59},{"city":"Hydes","state_name":"Maryland","lat":39.48284,"lng":-76.46735,"zip":"21082","miles_from_dt":28.65},{"city":"Monrovia","state_name":"Maryland","lat":39.35245,"lng":-77.25791,"zip":"21770","miles_from_dt":28.74},{"city":"Upper Falls","state_name":"Maryland","lat":39.43752,"lng":-76.397,"zip":"21156","miles_from_dt":28.84},{"city":"Boyds","state_name":"Maryland","lat":39.1858,"lng":-77.32581,"zip":"20841","miles_from_dt":28.94},{"city":"Alexandria","state_name":"Virginia","lat":38.81507,"lng":-77.11364,"zip":"22333","miles_from_dt":29.04},{"city":"Upperco","state_name":"Maryland","lat":39.57183,"lng":-76.80597,"zip":"21155","miles_from_dt":29.04},{"city":"Tracys Landing","state_name":"Maryland","lat":38.76388,"lng":-76.57665,"zip":"20779","miles_from_dt":29.05},{"city":"Alexandria","state_name":"Virginia","lat":38.81361,"lng":-77.11498,"zip":"22304","miles_from_dt":29.16},{"city":"Alexandria","state_name":"Virginia","lat":38.794,"lng":-77.08175,"zip":"22303","miles_from_dt":29.25},{"city":"Dunn Loring","state_name":"Virginia","lat":38.89411,"lng":-77.22159,"zip":"22027","miles_from_dt":29.27},{"city":"Great Falls","state_name":"Virginia","lat":39.01032,"lng":-77.30258,"zip":"22066","miles_from_dt":29.28},{"city":"Westminster","state_name":"Maryland","lat":39.54889,"lng":-76.98162,"zip":"21157","miles_from_dt":29.32},{"city":"Fort Washington","state_name":"Maryland","lat":38.75362,"lng":-76.98393,"zip":"20744","miles_from_dt":29.36},{"city":"Falls Church","state_name":"Virginia","lat":38.86463,"lng":-77.19406,"zip":"22042","miles_from_dt":29.43},{"city":"Baldwin","state_name":"Maryland","lat":39.51123,"lng":-76.49124,"zip":"21013","miles_from_dt":29.52},{"city":"Dunkirk","state_name":"Maryland","lat":38.736,"lng":-76.65493,"zip":"20754","miles_from_dt":29.53},{"city":"Alexandria","state_name":"Virginia","lat":38.7708,"lng":-77.05694,"zip":"22307","miles_from_dt":29.94},{"city":"Vienna","state_name":"Virginia","lat":38.93611,"lng":-77.2736,"zip":"22182","miles_from_dt":30}],"targetCityZipCode":"20794","targetCityState":"Maryland"},"__N_SSG":true}