{"pageProps":{"stateName":"Maryland","cityName":"snow-hill","nearbyCities":[{"city":"Girdletree","state_name":"Maryland","lat":38.09892,"lng":-75.38324,"zip":"21829","miles_from_dt":6.49},{"city":"Newark","state_name":"Maryland","lat":38.24385,"lng":-75.29588,"zip":"21841","miles_from_dt":6.86},{"city":"Stockton","state_name":"Maryland","lat":38.04355,"lng":-75.40532,"zip":"21864","miles_from_dt":10.22},{"city":"Powellville","state_name":"Maryland","lat":38.3495,"lng":-75.40549,"zip":"21852","miles_from_dt":10.89},{"city":"Pocomoke City","state_name":"Maryland","lat":38.07825,"lng":-75.54375,"zip":"21851","miles_from_dt":10.94},{"city":"Salisbury","state_name":"Maryland","lat":38.31726,"lng":-75.53673,"zip":"21804","miles_from_dt":11.3},{"city":"Pittsville","state_name":"Maryland","lat":38.36171,"lng":-75.39867,"zip":"21850","miles_from_dt":11.73},{"city":"Salisbury","state_name":"Maryland","lat":38.34096,"lng":-75.53603,"zip":"21802","miles_from_dt":12.58},{"city":"Parsonsburg","state_name":"Maryland","lat":38.37006,"lng":-75.46064,"zip":"21849","miles_from_dt":12.69},{"city":"Berlin","state_name":"Maryland","lat":38.31977,"lng":-75.22024,"zip":"21811","miles_from_dt":13.31},{"city":"Greenbackville","state_name":"Virginia","lat":37.9905,"lng":-75.39228,"zip":"23356","miles_from_dt":13.89},{"city":"Willards","state_name":"Maryland","lat":38.39266,"lng":-75.35417,"zip":"21874","miles_from_dt":14.12},{"city":"Fruitland","state_name":"Maryland","lat":38.32077,"lng":-75.62353,"zip":"21826","miles_from_dt":14.93},{"city":"Eden","state_name":"Maryland","lat":38.28129,"lng":-75.65566,"zip":"21822","miles_from_dt":15.06},{"city":"Horntown","state_name":"Virginia","lat":37.97051,"lng":-75.45159,"zip":"23395","miles_from_dt":15.48},{"city":"Westover","state_name":"Maryland","lat":38.15673,"lng":-75.6998,"zip":"21890","miles_from_dt":16.32},{"city":"Whaleyville","state_name":"Maryland","lat":38.4163,"lng":-75.29399,"zip":"21872","miles_from_dt":16.59},{"city":"New Church","state_name":"Virginia","lat":37.97459,"lng":-75.53443,"zip":"23415","miles_from_dt":16.59},{"city":"Princess Anne","state_name":"Maryland","lat":38.20453,"lng":-75.7102,"zip":"21853","miles_from_dt":16.73},{"city":"Chincoteague Island","state_name":"Virginia","lat":37.95461,"lng":-75.33759,"zip":"23336","miles_from_dt":16.74},{"city":"Allen","state_name":"Maryland","lat":38.29005,"lng":-75.68887,"zip":"21810","miles_from_dt":16.95},{"city":"Wattsville","state_name":"Virginia","lat":37.96152,"lng":-75.51341,"zip":"23483","miles_from_dt":16.97},{"city":"Showell","state_name":"Maryland","lat":38.39716,"lng":-75.21514,"zip":"21862","miles_from_dt":17.48},{"city":"Rehobeth","state_name":"Maryland","lat":38.04647,"lng":-75.66726,"zip":"21857","miles_from_dt":17.53},{"city":"Wallops Island","state_name":"Virginia","lat":37.93332,"lng":-75.46691,"zip":"23337","miles_from_dt":18.15},{"city":"Salisbury","state_name":"Maryland","lat":38.36305,"lng":-75.65682,"zip":"21803","miles_from_dt":18.16},{"city":"Salisbury","state_name":"Maryland","lat":38.38106,"lng":-75.64073,"zip":"21801","miles_from_dt":18.37},{"city":"Delmar","state_name":"Maryland","lat":38.44038,"lng":-75.54559,"zip":"21875","miles_from_dt":18.82},{"city":"Westover","state_name":"Maryland","lat":38.10489,"lng":-75.73127,"zip":"21871","miles_from_dt":18.84},{"city":"Oak Hall","state_name":"Virginia","lat":37.93371,"lng":-75.557,"zip":"23416","miles_from_dt":19.67},{"city":"Withams","state_name":"Virginia","lat":37.95237,"lng":-75.60831,"zip":"23488","miles_from_dt":19.93},{"city":"Ocean City","state_name":"Maryland","lat":38.33803,"lng":-75.08397,"zip":"21843","miles_from_dt":20.08},{"city":"Oak Hall","state_name":"Virginia","lat":37.92528,"lng":-75.55889,"zip":"23396","miles_from_dt":20.24},{"city":"Bishopville","state_name":"Maryland","lat":38.42658,"lng":-75.17293,"zip":"21813","miles_from_dt":20.48},{"city":"Atlantic","state_name":"Virginia","lat":37.90346,"lng":-75.50562,"zip":"23303","miles_from_dt":20.65},{"city":"Ocean City","state_name":"Maryland","lat":38.3778,"lng":-75.09084,"zip":"21842","miles_from_dt":21.29},{"city":"Marion Station","state_name":"Maryland","lat":38.01452,"lng":-75.73098,"zip":"21838","miles_from_dt":21.64},{"city":"Delmar","state_name":"Delaware","lat":38.47723,"lng":-75.56828,"zip":"19940","miles_from_dt":21.64},{"city":"Temperanceville","state_name":"Virginia","lat":37.90127,"lng":-75.56874,"zip":"23442","miles_from_dt":21.97},{"city":"Upper Fairmount","state_name":"Maryland","lat":38.11025,"lng":-75.79399,"zip":"21867","miles_from_dt":22.01},{"city":"Selbyville","state_name":"Delaware","lat":38.46862,"lng":-75.17462,"zip":"19975","miles_from_dt":22.79},{"city":"Hebron","state_name":"Maryland","lat":38.40202,"lng":-75.72841,"zip":"21830","miles_from_dt":22.87},{"city":"Quantico","state_name":"Maryland","lat":38.33807,"lng":-75.79224,"zip":"21856","miles_from_dt":23.44},{"city":"Frankford","state_name":"Delaware","lat":38.50336,"lng":-75.22855,"zip":"19945","miles_from_dt":23.5},{"city":"Sanford","state_name":"Virginia","lat":37.92706,"lng":-75.67506,"zip":"23426","miles_from_dt":23.51},{"city":"Hallwood","state_name":"Virginia","lat":37.88643,"lng":-75.60422,"zip":"23359","miles_from_dt":23.74},{"city":"Assawoman","state_name":"Virginia","lat":37.85858,"lng":-75.52197,"zip":"23302","miles_from_dt":23.87},{"city":"Manokin","state_name":"Maryland","lat":38.33073,"lng":-75.80639,"zip":"21836","miles_from_dt":23.93},{"city":"Tyaskin","state_name":"Maryland","lat":38.28605,"lng":-75.83296,"zip":"21865","miles_from_dt":24.26},{"city":"Mears","state_name":"Virginia","lat":37.88017,"lng":-75.64709,"zip":"23409","miles_from_dt":25.27},{"city":"Mappsville","state_name":"Virginia","lat":37.8432,"lng":-75.55362,"zip":"23407","miles_from_dt":25.4},{"city":"Laurel","state_name":"Delaware","lat":38.5465,"lng":-75.53961,"zip":"19956","miles_from_dt":25.57},{"city":"Saxis","state_name":"Virginia","lat":37.9124,"lng":-75.71344,"zip":"23427","miles_from_dt":25.63},{"city":"Modest Town","state_name":"Virginia","lat":37.83336,"lng":-75.56899,"zip":"23412","miles_from_dt":26.32},{"city":"Nanticoke","state_name":"Maryland","lat":38.25814,"lng":-75.89276,"zip":"21840","miles_from_dt":27.02},{"city":"Mardela Springs","state_name":"Maryland","lat":38.4594,"lng":-75.76731,"zip":"21837","miles_from_dt":27.06},{"city":"Bivalve","state_name":"Maryland","lat":38.29176,"lng":-75.88669,"zip":"21814","miles_from_dt":27.19},{"city":"Fenwick Island","state_name":"Delaware","lat":38.47542,"lng":-75.05559,"zip":"19944","miles_from_dt":27.2},{"city":"Deal Island","state_name":"Maryland","lat":38.16664,"lng":-75.90611,"zip":"21821","miles_from_dt":27.43},{"city":"Millsboro","state_name":"Delaware","lat":38.58118,"lng":-75.28274,"zip":"19966","miles_from_dt":27.65},{"city":"Crisfield","state_name":"Maryland","lat":37.98081,"lng":-75.83537,"zip":"21817","miles_from_dt":27.68},{"city":"Bloxom","state_name":"Virginia","lat":37.82431,"lng":-75.61773,"zip":"23308","miles_from_dt":27.91},{"city":"Nelsonia","state_name":"Virginia","lat":37.81375,"lng":-75.58688,"zip":"23414","miles_from_dt":27.92},{"city":"Dagsboro","state_name":"Delaware","lat":38.56575,"lng":-75.2022,"zip":"19939","miles_from_dt":28.02},{"city":"Bethel","state_name":"Delaware","lat":38.56928,"lng":-75.61029,"zip":"19931","miles_from_dt":28.37},{"city":"Millville","state_name":"Delaware","lat":38.53978,"lng":-75.1209,"zip":"19967","miles_from_dt":28.49},{"city":"Sharptown","state_name":"Maryland","lat":38.53525,"lng":-75.72834,"zip":"21861","miles_from_dt":29.55}],"targetCityZipCode":"21863","targetCityState":"Maryland"},"__N_SSG":true}