{"pageProps":{"stateName":"Maryland","cityName":"woodbine","nearbyCities":[{"city":"Lisbon","state_name":"Maryland","lat":39.33483,"lng":-77.06811,"zip":"21765","miles_from_dt":0.17},{"city":"Cooksville","state_name":"Maryland","lat":39.32825,"lng":-77.01056,"zip":"21723","miles_from_dt":3.2},{"city":"Glenwood","state_name":"Maryland","lat":39.27973,"lng":-77.02554,"zip":"21738","miles_from_dt":4.37},{"city":"West Friendship","state_name":"Maryland","lat":39.29705,"lng":-76.97388,"zip":"21794","miles_from_dt":5.71},{"city":"Glenelg","state_name":"Maryland","lat":39.2543,"lng":-77.01959,"zip":"21737","miles_from_dt":6.06},{"city":"Mount Airy","state_name":"Maryland","lat":39.3955,"lng":-77.15869,"zip":"21771","miles_from_dt":6.42},{"city":"Sykesville","state_name":"Maryland","lat":39.40087,"lng":-76.9726,"zip":"21784","miles_from_dt":7.02},{"city":"Dayton","state_name":"Maryland","lat":39.23416,"lng":-77.00223,"zip":"21036","miles_from_dt":7.72},{"city":"Gaithersburg","state_name":"Maryland","lat":39.23182,"lng":-77.14514,"zip":"20882","miles_from_dt":8.05},{"city":"Damascus","state_name":"Maryland","lat":39.29142,"lng":-77.21619,"zip":"20872","miles_from_dt":8.34},{"city":"Brookeville","state_name":"Maryland","lat":39.20595,"lng":-77.05552,"zip":"20833","miles_from_dt":8.79},{"city":"Marriottsville","state_name":"Maryland","lat":39.35044,"lng":-76.90654,"zip":"21104","miles_from_dt":8.84},{"city":"Monrovia","state_name":"Maryland","lat":39.35245,"lng":-77.25791,"zip":"21770","miles_from_dt":10.16},{"city":"Ellicott City","state_name":"Maryland","lat":39.27105,"lng":-76.8924,"zip":"21042","miles_from_dt":10.43},{"city":"Clarksville","state_name":"Maryland","lat":39.20633,"lng":-76.95206,"zip":"21029","miles_from_dt":10.78},{"city":"Brinklow","state_name":"Maryland","lat":39.18039,"lng":-77.01879,"zip":"20862","miles_from_dt":10.87},{"city":"Woodstock","state_name":"Maryland","lat":39.34024,"lng":-76.85706,"zip":"21163","miles_from_dt":11.42},{"city":"Unionville","state_name":"Maryland","lat":39.47481,"lng":-77.18722,"zip":"21792","miles_from_dt":11.63},{"city":"Olney","state_name":"Maryland","lat":39.15927,"lng":-77.07572,"zip":"20830","miles_from_dt":11.98},{"city":"Highland","state_name":"Maryland","lat":39.17487,"lng":-76.96783,"zip":"20777","miles_from_dt":12.2},{"city":"Germantown","state_name":"Maryland","lat":39.20706,"lng":-77.23284,"zip":"20876","miles_from_dt":12.31},{"city":"New Market","state_name":"Maryland","lat":39.4088,"lng":-77.27844,"zip":"21774","miles_from_dt":12.33},{"city":"Clarksburg","state_name":"Maryland","lat":39.2592,"lng":-77.28187,"zip":"20871","miles_from_dt":12.44},{"city":"Olney","state_name":"Maryland","lat":39.15134,"lng":-77.07331,"zip":"20832","miles_from_dt":12.52},{"city":"Gaithersburg","state_name":"Maryland","lat":39.16992,"lng":-77.17416,"zip":"20879","miles_from_dt":12.55},{"city":"Montgomery Village","state_name":"Maryland","lat":39.17952,"lng":-77.197,"zip":"20886","miles_from_dt":12.58},{"city":"Sandy Spring","state_name":"Maryland","lat":39.15072,"lng":-77.03069,"zip":"20860","miles_from_dt":12.74},{"city":"Ijamsville","state_name":"Maryland","lat":39.33684,"lng":-77.31131,"zip":"21754","miles_from_dt":12.93},{"city":"New Windsor","state_name":"Maryland","lat":39.51861,"lng":-77.10376,"zip":"21776","miles_from_dt":12.94},{"city":"Gaithersburg","state_name":"Maryland","lat":39.17,"lng":-77.19219,"zip":"20883","miles_from_dt":13},{"city":"Columbia","state_name":"Maryland","lat":39.21047,"lng":-76.88353,"zip":"21044","miles_from_dt":13.09},{"city":"Ellicott City","state_name":"Maryland","lat":39.27395,"lng":-76.83606,"zip":"21041","miles_from_dt":13.18},{"city":"Ashton","state_name":"Maryland","lat":39.14653,"lng":-76.99886,"zip":"20861","miles_from_dt":13.41},{"city":"Dhs","state_name":"Maryland","lat":39.20311,"lng":-76.87883,"zip":"20588","miles_from_dt":13.61},{"city":"Derwood","state_name":"Maryland","lat":39.13702,"lng":-77.13197,"zip":"20855","miles_from_dt":13.91},{"city":"Libertytown","state_name":"Maryland","lat":39.48058,"lng":-77.24842,"zip":"21762","miles_from_dt":13.97},{"city":"Finksburg","state_name":"Maryland","lat":39.49568,"lng":-76.91057,"zip":"21048","miles_from_dt":14.11},{"city":"Randallstown","state_name":"Maryland","lat":39.37705,"lng":-76.81174,"zip":"21133","miles_from_dt":14.16},{"city":"Washington Grove","state_name":"Maryland","lat":39.14077,"lng":-77.17456,"zip":"20880","miles_from_dt":14.39},{"city":"Fulton","state_name":"Maryland","lat":39.15419,"lng":-76.92877,"zip":"20759","miles_from_dt":14.47},{"city":"Gaithersburg","state_name":"Maryland","lat":39.14068,"lng":-77.18865,"zip":"20877","miles_from_dt":14.7},{"city":"Gaithersburg","state_name":"Maryland","lat":39.14269,"lng":-77.19508,"zip":"20884","miles_from_dt":14.73},{"city":"Gaithersburg","state_name":"Maryland","lat":39.14289,"lng":-77.20282,"zip":"20898","miles_from_dt":14.92},{"city":"Germantown","state_name":"Maryland","lat":39.17643,"lng":-77.26251,"zip":"20875","miles_from_dt":14.93},{"city":"Gaithersburg","state_name":"Maryland","lat":39.14442,"lng":-77.21621,"zip":"20899","miles_from_dt":15.18},{"city":"Spencerville","state_name":"Maryland","lat":39.12534,"lng":-76.96834,"zip":"20868","miles_from_dt":15.32},{"city":"Simpsonville","state_name":"Maryland","lat":39.1744,"lng":-76.86709,"zip":"21150","miles_from_dt":15.42},{"city":"Windsor Mill","state_name":"Maryland","lat":39.3342,"lng":-76.78217,"zip":"21244","miles_from_dt":15.42},{"city":"Ellicott City","state_name":"Maryland","lat":39.25759,"lng":-76.79773,"zip":"21043","miles_from_dt":15.49},{"city":"Westminster","state_name":"Maryland","lat":39.54889,"lng":-76.98162,"zip":"21157","miles_from_dt":15.64},{"city":"Columbia","state_name":"Maryland","lat":39.20622,"lng":-76.82747,"zip":"21045","miles_from_dt":15.67},{"city":"Silver Spring","state_name":"Maryland","lat":39.10473,"lng":-77.07679,"zip":"20908","miles_from_dt":15.74},{"city":"Union Bridge","state_name":"Maryland","lat":39.54267,"lng":-77.18713,"zip":"21791","miles_from_dt":15.77},{"city":"Silver Spring","state_name":"Maryland","lat":39.11052,"lng":-76.99036,"zip":"20905","miles_from_dt":15.92},{"city":"Rockville","state_name":"Maryland","lat":39.10237,"lng":-77.09462,"zip":"20853","miles_from_dt":15.95},{"city":"Gaithersburg","state_name":"Maryland","lat":39.13349,"lng":-77.22906,"zip":"20885","miles_from_dt":16.18},{"city":"Frederick","state_name":"Maryland","lat":39.44729,"lng":-77.33512,"zip":"21701","miles_from_dt":16.24},{"city":"Frederick","state_name":"Maryland","lat":39.3506,"lng":-77.3735,"zip":"21704","miles_from_dt":16.3},{"city":"Columbia","state_name":"Maryland","lat":39.17357,"lng":-76.84183,"zip":"21046","miles_from_dt":16.45},{"city":"Silver Spring","state_name":"Maryland","lat":39.08858,"lng":-77.05522,"zip":"20906","miles_from_dt":16.87},{"city":"Suburb Maryland Fac","state_name":"Maryland","lat":39.08787,"lng":-77.05479,"zip":"20897","miles_from_dt":16.92},{"city":"Owings Mills","state_name":"Maryland","lat":39.42719,"lng":-76.77795,"zip":"21117","miles_from_dt":16.94},{"city":"Burtonsville","state_name":"Maryland","lat":39.10969,"lng":-76.93411,"zip":"20866","miles_from_dt":17.03},{"city":"Boyds","state_name":"Maryland","lat":39.1858,"lng":-77.32581,"zip":"20841","miles_from_dt":17.06},{"city":"Silver Spring","state_name":"Maryland","lat":39.08411,"lng":-77.07933,"zip":"20916","miles_from_dt":17.17},{"city":"Laurel","state_name":"Maryland","lat":39.13664,"lng":-76.86647,"zip":"20723","miles_from_dt":17.39},{"city":"Glyndon","state_name":"Maryland","lat":39.48516,"lng":-76.8081,"zip":"21071","miles_from_dt":17.52},{"city":"Reisterstown","state_name":"Maryland","lat":39.48851,"lng":-76.80888,"zip":"21136","miles_from_dt":17.62},{"city":"Rockville","state_name":"Maryland","lat":39.08448,"lng":-77.15186,"zip":"20847","miles_from_dt":17.69},{"city":"Rockville","state_name":"Maryland","lat":39.0908,"lng":-77.1809,"zip":"20850","miles_from_dt":17.73},{"city":"Catonsville","state_name":"Maryland","lat":39.27272,"lng":-76.74687,"zip":"21228","miles_from_dt":17.81},{"city":"Rockville","state_name":"Maryland","lat":39.07767,"lng":-77.12089,"zip":"20851","miles_from_dt":17.81},{"city":"Rockville","state_name":"Maryland","lat":39.08242,"lng":-77.15282,"zip":"20849","miles_from_dt":17.84},{"city":"Gaithersburg","state_name":"Maryland","lat":39.11376,"lng":-77.24781,"zip":"20878","miles_from_dt":17.87},{"city":"Barnesville","state_name":"Maryland","lat":39.22341,"lng":-77.37223,"zip":"20838","miles_from_dt":17.88},{"city":"Rockville","state_name":"Maryland","lat":39.07935,"lng":-77.1564,"zip":"20857","miles_from_dt":18.09},{"city":"Rockville","state_name":"Maryland","lat":39.07308,"lng":-77.11829,"zip":"20848","miles_from_dt":18.11},{"city":"Baltimore","state_name":"Maryland","lat":39.30335,"lng":-76.73335,"zip":"21241","miles_from_dt":18.15},{"city":"Silver Spring","state_name":"Maryland","lat":39.07413,"lng":-77.00346,"zip":"20914","miles_from_dt":18.2},{"city":"Walkersville","state_name":"Maryland","lat":39.48963,"lng":-77.34357,"zip":"21793","miles_from_dt":18.2},{"city":"Baltimore","state_name":"Maryland","lat":39.30956,"lng":-76.7284,"zip":"21235","miles_from_dt":18.38},{"city":"Baltimore","state_name":"Maryland","lat":39.31238,"lng":-76.72793,"zip":"21289","miles_from_dt":18.38},{"city":"Germantown","state_name":"Maryland","lat":39.1291,"lng":-77.29721,"zip":"20874","miles_from_dt":18.6},{"city":"Gwynn Oak","state_name":"Maryland","lat":39.32417,"lng":-76.72017,"zip":"21207","miles_from_dt":18.75},{"city":"Woodsboro","state_name":"Maryland","lat":39.53858,"lng":-77.29985,"zip":"21798","miles_from_dt":18.78},{"city":"Pikesville","state_name":"Maryland","lat":39.38401,"lng":-76.72547,"zip":"21208","miles_from_dt":18.79},{"city":"Boring","state_name":"Maryland","lat":39.52394,"lng":-76.8169,"zip":"21020","miles_from_dt":18.9},{"city":"Savage","state_name":"Maryland","lat":39.13786,"lng":-76.82134,"zip":"20763","miles_from_dt":18.94},{"city":"Frederick","state_name":"Maryland","lat":39.40887,"lng":-77.41002,"zip":"21705","miles_from_dt":18.95},{"city":"Pikesville","state_name":"Maryland","lat":39.3871,"lng":-76.72283,"zip":"21282","miles_from_dt":18.97},{"city":"Silver Spring","state_name":"Maryland","lat":39.06608,"lng":-76.97918,"zip":"20904","miles_from_dt":19.04},{"city":"Laurel","state_name":"Maryland","lat":39.09563,"lng":-76.8842,"zip":"20707","miles_from_dt":19.16},{"city":"Elkridge","state_name":"Maryland","lat":39.20414,"lng":-76.75301,"zip":"21075","miles_from_dt":19.18},{"city":"Buckeystown","state_name":"Maryland","lat":39.33865,"lng":-77.43147,"zip":"21717","miles_from_dt":19.37},{"city":"Frederick","state_name":"Maryland","lat":39.42776,"lng":-77.41549,"zip":"21709","miles_from_dt":19.62},{"city":"Jessup","state_name":"Maryland","lat":39.15107,"lng":-76.78882,"zip":"20794","miles_from_dt":19.62},{"city":"Rockville","state_name":"Maryland","lat":39.05134,"lng":-77.12507,"zip":"20852","miles_from_dt":19.64},{"city":"Baltimore","state_name":"Maryland","lat":39.35907,"lng":-76.70477,"zip":"21270","miles_from_dt":19.65},{"city":"Ladiesburg","state_name":"Maryland","lat":39.57501,"lng":-77.26392,"zip":"21759","miles_from_dt":19.66},{"city":"New Midway","state_name":"Maryland","lat":39.55622,"lng":-77.30221,"zip":"21775","miles_from_dt":19.79},{"city":"Baltimore","state_name":"Maryland","lat":39.25558,"lng":-76.71117,"zip":"21250","miles_from_dt":19.96},{"city":"Laurel","state_name":"Maryland","lat":39.10252,"lng":-76.84438,"zip":"20725","miles_from_dt":19.98},{"city":"Silver Spring","state_name":"Maryland","lat":39.04373,"lng":-77.04679,"zip":"20915","miles_from_dt":19.98},{"city":"Silver Spring","state_name":"Maryland","lat":39.04381,"lng":-77.0421,"zip":"20902","miles_from_dt":19.99},{"city":"Stevenson","state_name":"Maryland","lat":39.41649,"lng":-76.707,"zip":"21153","miles_from_dt":20.28},{"city":"Laurel","state_name":"Maryland","lat":39.08939,"lng":-76.8524,"zip":"20726","miles_from_dt":20.46},{"city":"Adamstown","state_name":"Maryland","lat":39.29652,"lng":-77.44941,"zip":"21710","miles_from_dt":20.48},{"city":"Southern Md Facility","state_name":"Maryland","lat":39.09595,"lng":-76.83896,"zip":"20797","miles_from_dt":20.51},{"city":"Garrett Park","state_name":"Maryland","lat":39.03521,"lng":-77.09494,"zip":"20896","miles_from_dt":20.58},{"city":"Baltimore","state_name":"Maryland","lat":39.28509,"lng":-76.69083,"zip":"21229","miles_from_dt":20.59},{"city":"Annapolis Junction","state_name":"Maryland","lat":39.12877,"lng":-76.78803,"zip":"20701","miles_from_dt":20.67},{"city":"Baltimore","state_name":"Maryland","lat":39.34578,"lng":-76.68367,"zip":"21215","miles_from_dt":20.72},{"city":"Dickerson","state_name":"Maryland","lat":39.20831,"lng":-77.42473,"zip":"20842","miles_from_dt":20.87},{"city":"Silver Spring","state_name":"Maryland","lat":39.03614,"lng":-76.99099,"zip":"20993","miles_from_dt":20.9},{"city":"Keymar","state_name":"Maryland","lat":39.59902,"lng":-77.25906,"zip":"21757","miles_from_dt":20.96},{"city":"Kensington","state_name":"Maryland","lat":39.02696,"lng":-77.07781,"zip":"20895","miles_from_dt":21.1},{"city":"Kensington","state_name":"Maryland","lat":39.02628,"lng":-77.07544,"zip":"20891","miles_from_dt":21.15},{"city":"Beallsville","state_name":"Maryland","lat":39.17909,"lng":-77.41438,"zip":"20839","miles_from_dt":21.3},{"city":"Baltimore","state_name":"Maryland","lat":39.3108,"lng":-76.67145,"zip":"21216","miles_from_dt":21.41},{"city":"Frederick","state_name":"Maryland","lat":39.36961,"lng":-77.47088,"zip":"21703","miles_from_dt":21.62},{"city":"Baltimore","state_name":"Maryland","lat":39.37261,"lng":-76.66802,"zip":"21209","miles_from_dt":21.7},{"city":"Upperco","state_name":"Maryland","lat":39.57183,"lng":-76.80597,"zip":"21155","miles_from_dt":21.71},{"city":"Silver Spring","state_name":"Maryland","lat":39.02155,"lng":-77.00919,"zip":"20901","miles_from_dt":21.72},{"city":"Silver Spring","state_name":"Maryland","lat":39.02082,"lng":-77.01637,"zip":"20918","miles_from_dt":21.72},{"city":"Westminster","state_name":"Maryland","lat":39.6466,"lng":-77.03217,"zip":"21158","miles_from_dt":21.74},{"city":"Hanover","state_name":"Maryland","lat":39.16856,"lng":-76.72239,"zip":"21076","miles_from_dt":21.82},{"city":"Beltsville","state_name":"Maryland","lat":39.04503,"lng":-76.90009,"zip":"20705","miles_from_dt":21.85},{"city":"Halethorpe","state_name":"Maryland","lat":39.24024,"lng":-76.67913,"zip":"21227","miles_from_dt":21.91},{"city":"Silver Spring","state_name":"Maryland","lat":39.02128,"lng":-76.9821,"zip":"20903","miles_from_dt":22},{"city":"Butler","state_name":"Maryland","lat":39.52368,"lng":-76.73984,"zip":"21023","miles_from_dt":22.03},{"city":"Beltsville","state_name":"Maryland","lat":39.0394,"lng":-76.90696,"zip":"20704","miles_from_dt":22.05},{"city":"Potomac","state_name":"Maryland","lat":39.03413,"lng":-77.22149,"zip":"20854","miles_from_dt":22.15},{"city":"Brooklandville","state_name":"Maryland","lat":39.40753,"lng":-76.66745,"zip":"21022","miles_from_dt":22.16},{"city":"Laurel","state_name":"Maryland","lat":39.06416,"lng":-76.8371,"zip":"20709","miles_from_dt":22.36},{"city":"Potomac","state_name":"Maryland","lat":39.02296,"lng":-77.19925,"zip":"20859","miles_from_dt":22.47},{"city":"Southern Md Facility","state_name":"Maryland","lat":39.03292,"lng":-76.90425,"zip":"20697","miles_from_dt":22.52},{"city":"Bethesda","state_name":"Maryland","lat":39.01371,"lng":-77.15874,"zip":"20827","miles_from_dt":22.52},{"city":"Baltimore","state_name":"Maryland","lat":39.28421,"lng":-76.65323,"zip":"21223","miles_from_dt":22.59},{"city":"Bethesda","state_name":"Maryland","lat":39.00506,"lng":-77.10295,"zip":"20814","miles_from_dt":22.68},{"city":"Bethesda","state_name":"Maryland","lat":39.00193,"lng":-77.09038,"zip":"20889","miles_from_dt":22.85},{"city":"Silver Spring","state_name":"Maryland","lat":39.00227,"lng":-77.03634,"zip":"20910","miles_from_dt":22.88},{"city":"Bethesda","state_name":"Maryland","lat":39.0006,"lng":-77.10373,"zip":"20892","miles_from_dt":22.99},{"city":"Laurel","state_name":"Maryland","lat":39.08028,"lng":-76.79054,"zip":"20724","miles_from_dt":22.99},{"city":"Hampstead","state_name":"Maryland","lat":39.61746,"lng":-76.84351,"zip":"21074","miles_from_dt":23.07},{"city":"Baltimore","state_name":"Maryland","lat":39.32857,"lng":-76.6389,"zip":"21211","miles_from_dt":23.1},{"city":"Frederick","state_name":"Maryland","lat":39.48019,"lng":-77.4578,"zip":"21702","miles_from_dt":23.11},{"city":"Silver Spring","state_name":"Maryland","lat":38.99886,"lng":-77.03252,"zip":"20907","miles_from_dt":23.13},{"city":"Riderwood","state_name":"Maryland","lat":39.40732,"lng":-76.64849,"zip":"21139","miles_from_dt":23.15},{"city":"Linthicum Heights","state_name":"Maryland","lat":39.20919,"lng":-76.66796,"zip":"21090","miles_from_dt":23.19},{"city":"Baltimore","state_name":"Maryland","lat":39.30701,"lng":-76.63833,"zip":"21217","miles_from_dt":23.2},{"city":"Harmans","state_name":"Maryland","lat":39.1583,"lng":-76.69953,"zip":"21077","miles_from_dt":23.24},{"city":"Chevy Chase","state_name":"Maryland","lat":38.9955,"lng":-77.07499,"zip":"20825","miles_from_dt":23.27},{"city":"Bethesda","state_name":"Maryland","lat":38.99591,"lng":-77.10221,"zip":"20894","miles_from_dt":23.31},{"city":"Baltimore","state_name":"Maryland","lat":39.35878,"lng":-76.63521,"zip":"21210","miles_from_dt":23.36},{"city":"Tuscarora","state_name":"Maryland","lat":39.25908,"lng":-77.49559,"zip":"21790","miles_from_dt":23.37},{"city":"Silver Spring","state_name":"Maryland","lat":38.99457,"lng":-77.03226,"zip":"20911","miles_from_dt":23.42},{"city":"Hyattsville","state_name":"Maryland","lat":39.00188,"lng":-76.96939,"zip":"20787","miles_from_dt":23.46},{"city":"Silver Spring","state_name":"Maryland","lat":38.99447,"lng":-77.02542,"zip":"20997","miles_from_dt":23.46},{"city":"Bethesda","state_name":"Maryland","lat":38.99809,"lng":-77.14919,"zip":"20817","miles_from_dt":23.48},{"city":"Laurel","state_name":"Maryland","lat":39.04546,"lng":-76.83462,"zip":"20708","miles_from_dt":23.51},{"city":"Hyattsville","state_name":"Maryland","lat":38.99988,"lng":-76.96886,"zip":"20783","miles_from_dt":23.6},{"city":"Poolesville","state_name":"Maryland","lat":39.11208,"lng":-77.40823,"zip":"20837","miles_from_dt":23.69},{"city":"Fort George G Meade","state_name":"Maryland","lat":39.09892,"lng":-76.74479,"zip":"20755","miles_from_dt":23.77},{"city":"Lutherville Timonium","state_name":"Maryland","lat":39.43773,"lng":-76.64318,"zip":"21093","miles_from_dt":23.97},{"city":"Baltimore","state_name":"Maryland","lat":39.17483,"lng":-76.67181,"zip":"21240","miles_from_dt":23.98},{"city":"College Park","state_name":"Maryland","lat":39.00193,"lng":-76.93096,"zip":"20740","miles_from_dt":24.02},{"city":"Taneytown","state_name":"Maryland","lat":39.67169,"lng":-77.17317,"zip":"21787","miles_from_dt":24.02},{"city":"Towson","state_name":"Maryland","lat":39.40353,"lng":-76.63024,"zip":"21204","miles_from_dt":24.05},{"city":"Bethesda","state_name":"Maryland","lat":38.9841,"lng":-77.08021,"zip":"20813","miles_from_dt":24.06},{"city":"Baltimore","state_name":"Maryland","lat":39.29282,"lng":-76.62379,"zip":"21290","miles_from_dt":24.07},{"city":"Chevy Chase","state_name":"Maryland","lat":38.98369,"lng":-77.07845,"zip":"20815","miles_from_dt":24.09},{"city":"Bethesda","state_name":"Maryland","lat":38.98412,"lng":-77.09272,"zip":"20824","miles_from_dt":24.09},{"city":"Baltimore","state_name":"Maryland","lat":39.29487,"lng":-76.62237,"zip":"21201","miles_from_dt":24.13},{"city":"Braddock Heights","state_name":"Maryland","lat":39.41059,"lng":-77.51003,"zip":"21714","miles_from_dt":24.16},{"city":"College Park","state_name":"Maryland","lat":38.9981,"lng":-76.93648,"zip":"20741","miles_from_dt":24.18},{"city":"Cockeysville","state_name":"Maryland","lat":39.49002,"lng":-76.6659,"zip":"21030","miles_from_dt":24.19},{"city":"Rocky Ridge","state_name":"Maryland","lat":39.61576,"lng":-77.33754,"zip":"21778","miles_from_dt":24.2},{"city":"Bethesda","state_name":"Maryland","lat":38.98204,"lng":-77.09981,"zip":"20811","miles_from_dt":24.25},{"city":"College Park","state_name":"Maryland","lat":38.99422,"lng":-76.94347,"zip":"20742","miles_from_dt":24.33},{"city":"Washington","state_name":"District of Columbia","lat":38.98,"lng":-77.05219,"zip":"20511","miles_from_dt":24.36},{"city":"Bethesda","state_name":"Maryland","lat":38.98,"lng":-77.10219,"zip":"20810","miles_from_dt":24.4},{"city":"Baltimore","state_name":"Maryland","lat":39.31636,"lng":-76.61472,"zip":"21278","miles_from_dt":24.42},{"city":"Baltimore","state_name":"Maryland","lat":39.26651,"lng":-76.62213,"zip":"21230","miles_from_dt":24.44},{"city":"Takoma Park","state_name":"Maryland","lat":38.98188,"lng":-77.00388,"zip":"20913","miles_from_dt":24.47},{"city":"Hunt Valley","state_name":"Maryland","lat":39.4874,"lng":-76.65792,"zip":"21031","miles_from_dt":24.5},{"city":"Takoma Park","state_name":"Maryland","lat":38.98182,"lng":-77.00106,"zip":"20912","miles_from_dt":24.5},{"city":"Baltimore","state_name":"Maryland","lat":39.3678,"lng":-76.61456,"zip":"21212","miles_from_dt":24.51},{"city":"Washington","state_name":"District of Columbia","lat":38.97863,"lng":-77.03076,"zip":"20012","miles_from_dt":24.53},{"city":"Hunt Valley","state_name":"Maryland","lat":39.4939,"lng":-76.66119,"zip":"21065","miles_from_dt":24.54},{"city":"Towson","state_name":"Maryland","lat":39.3875,"lng":-76.61702,"zip":"21285","miles_from_dt":24.55},{"city":"Baltimore","state_name":"Maryland","lat":39.28703,"lng":-76.61413,"zip":"21275","miles_from_dt":24.64},{"city":"Lutherville Timonium","state_name":"Maryland","lat":39.42132,"lng":-76.6231,"zip":"21094","miles_from_dt":24.69},{"city":"Baltimore","state_name":"Maryland","lat":39.28742,"lng":-76.61127,"zip":"21273","miles_from_dt":24.78},{"city":"Washington","state_name":"District of Columbia","lat":38.97417,"lng":-77.03376,"zip":"20306","miles_from_dt":24.82},{"city":"Baltimore","state_name":"Maryland","lat":39.29778,"lng":-76.60899,"zip":"21298","miles_from_dt":24.82},{"city":"Baltimore","state_name":"Maryland","lat":39.29538,"lng":-76.60917,"zip":"21297","miles_from_dt":24.83},{"city":"Baltimore","state_name":"Maryland","lat":39.29055,"lng":-76.6096,"zip":"21264","miles_from_dt":24.85},{"city":"Baltimore","state_name":"Maryland","lat":39.29055,"lng":-76.6096,"zip":"21263","miles_from_dt":24.85},{"city":"Point Of Rocks","state_name":"Maryland","lat":39.27918,"lng":-77.5287,"zip":"21777","miles_from_dt":24.86},{"city":"Baltimore","state_name":"Maryland","lat":39.29663,"lng":-76.60821,"zip":"21279","miles_from_dt":24.87},{"city":"Baltimore","state_name":"Maryland","lat":39.29721,"lng":-76.60797,"zip":"21203","miles_from_dt":24.88},{"city":"Baltimore","state_name":"Maryland","lat":39.29705,"lng":-76.60747,"zip":"21202","miles_from_dt":24.91},{"city":"Towson","state_name":"Maryland","lat":39.39413,"lng":-76.61144,"zip":"21252","miles_from_dt":24.92},{"city":"Greenbelt","state_name":"Maryland","lat":38.99981,"lng":-76.88567,"zip":"20770","miles_from_dt":25.02},{"city":"Baltimore","state_name":"Maryland","lat":39.33031,"lng":-76.60235,"zip":"21218","miles_from_dt":25.06},{"city":"Baltimore","state_name":"Maryland","lat":39.29244,"lng":-76.60503,"zip":"21233","miles_from_dt":25.07},{"city":"Greenbelt","state_name":"Maryland","lat":39.00062,"lng":-76.87775,"zip":"20768","miles_from_dt":25.14},{"city":"Washington","state_name":"District of Columbia","lat":38.96661,"lng":-77.05837,"zip":"20015","miles_from_dt":25.27},{"city":"Cabin John","state_name":"Maryland","lat":38.97347,"lng":-77.16188,"zip":"20818","miles_from_dt":25.28},{"city":"Washington","state_name":"District of Columbia","lat":38.96672,"lng":-77.03159,"zip":"20040","miles_from_dt":25.34},{"city":"Brooklyn","state_name":"Maryland","lat":39.22597,"lng":-76.61508,"zip":"21225","miles_from_dt":25.48},{"city":"Greenbelt","state_name":"Maryland","lat":39.00289,"lng":-76.85534,"zip":"20771","miles_from_dt":25.51},{"city":"Great Falls","state_name":"Virginia","lat":39.01032,"lng":-77.30258,"zip":"22066","miles_from_dt":25.51},{"city":"Glen Echo","state_name":"Maryland","lat":38.96677,"lng":-77.14357,"zip":"20812","miles_from_dt":25.56},{"city":"Sparks Glencoe","state_name":"Maryland","lat":39.54905,"lng":-76.68107,"zip":"21152","miles_from_dt":25.6},{"city":"Towson","state_name":"Maryland","lat":39.39969,"lng":-76.5992,"zip":"21284","miles_from_dt":25.63},{"city":"Severn","state_name":"Maryland","lat":39.12058,"lng":-76.67767,"zip":"21144","miles_from_dt":25.64},{"city":"Washington","state_name":"District of Columbia","lat":38.96001,"lng":-77.04356,"zip":"20242","miles_from_dt":25.76},{"city":"Baltimore","state_name":"Maryland","lat":39.28775,"lng":-76.592,"zip":"21231","miles_from_dt":25.81},{"city":"Sterling","state_name":"Virginia","lat":39.05058,"lng":-77.38854,"zip":"20165","miles_from_dt":25.91},{"city":"Baltimore","state_name":"Maryland","lat":39.29899,"lng":-76.58817,"zip":"21287","miles_from_dt":25.93},{"city":"Baltimore","state_name":"Maryland","lat":39.36517,"lng":-76.58709,"zip":"21239","miles_from_dt":25.96},{"city":"Hyattsville","state_name":"Maryland","lat":38.9649,"lng":-76.9667,"zip":"20788","miles_from_dt":25.98},{"city":"Thurmont","state_name":"Maryland","lat":39.59429,"lng":-77.41958,"zip":"21788","miles_from_dt":25.98},{"city":"Hyattsville","state_name":"Maryland","lat":38.96469,"lng":-76.9649,"zip":"20782","miles_from_dt":26.02},{"city":"Bethesda","state_name":"Maryland","lat":38.95612,"lng":-77.11873,"zip":"20816","miles_from_dt":26.12},{"city":"Washington","state_name":"District of Columbia","lat":38.95442,"lng":-77.02636,"zip":"20039","miles_from_dt":26.21},{"city":"Baltimore","state_name":"Maryland","lat":39.34993,"lng":-76.58027,"zip":"21251","miles_from_dt":26.26},{"city":"Glen Burnie","state_name":"Maryland","lat":39.16116,"lng":-76.63226,"zip":"21061","miles_from_dt":26.3},{"city":"Washington","state_name":"District of Columbia","lat":38.95295,"lng":-77.02323,"zip":"20011","miles_from_dt":26.33},{"city":"Baltimore","state_name":"Maryland","lat":39.31501,"lng":-76.57723,"zip":"21213","miles_from_dt":26.43},{"city":"Riverdale","state_name":"Maryland","lat":38.96324,"lng":-76.9292,"zip":"20738","miles_from_dt":26.59},{"city":"Jefferson","state_name":"Maryland","lat":39.36101,"lng":-77.56887,"zip":"21755","miles_from_dt":26.79},{"city":"Washington","state_name":"District of Columbia","lat":38.94357,"lng":-77.08243,"zip":"20393","miles_from_dt":26.86},{"city":"Riverdale","state_name":"Maryland","lat":38.96247,"lng":-76.91571,"zip":"20737","miles_from_dt":26.86},{"city":"Washington","state_name":"District of Columbia","lat":38.94167,"lng":-77.08741,"zip":"20394","miles_from_dt":27},{"city":"Leesburg","state_name":"Virginia","lat":39.18147,"lng":-77.5345,"zip":"20176","miles_from_dt":27.01},{"city":"Washington","state_name":"District of Columbia","lat":38.94137,"lng":-77.08984,"zip":"20375","miles_from_dt":27.03},{"city":"Odenton","state_name":"Maryland","lat":39.05448,"lng":-76.71519,"zip":"21113","miles_from_dt":27.05},{"city":"Baltimore","state_name":"Maryland","lat":39.29087,"lng":-76.56774,"zip":"21281","miles_from_dt":27.07},{"city":"Washington","state_name":"District of Columbia","lat":38.94136,"lng":-77.02801,"zip":"20542","miles_from_dt":27.1},{"city":"Baltimore","state_name":"Maryland","lat":39.35217,"lng":-76.5644,"zip":"21214","miles_from_dt":27.12},{"city":"Towson","state_name":"Maryland","lat":39.41374,"lng":-76.57375,"zip":"21286","miles_from_dt":27.15},{"city":"Bowie","state_name":"Maryland","lat":39.00896,"lng":-76.78195,"zip":"20717","miles_from_dt":27.17},{"city":"Baltimore","state_name":"Maryland","lat":39.30227,"lng":-76.56413,"zip":"21205","miles_from_dt":27.19},{"city":"Manchester","state_name":"Maryland","lat":39.68732,"lng":-76.84564,"zip":"21102","miles_from_dt":27.24},{"city":"Washington","state_name":"District of Columbia","lat":38.93822,"lng":-77.09139,"zip":"20016","miles_from_dt":27.25},{"city":"Glenn Dale","state_name":"Maryland","lat":38.98818,"lng":-76.81635,"zip":"20769","miles_from_dt":27.4},{"city":"Washington","state_name":"District of Columbia","lat":38.93539,"lng":-77.05935,"zip":"20008","miles_from_dt":27.42},{"city":"Mount Rainier","state_name":"Maryland","lat":38.94306,"lng":-76.96517,"zip":"20712","miles_from_dt":27.47},{"city":"Washington","state_name":"District of Columbia","lat":38.93645,"lng":-77.0128,"zip":"20317","miles_from_dt":27.52},{"city":"Greenway","state_name":"Virginia","lat":38.94062,"lng":-77.16512,"zip":"22067","miles_from_dt":27.53},{"city":"Washington","state_name":"District of Columbia","lat":38.93813,"lng":-76.99294,"zip":"20017","miles_from_dt":27.54},{"city":"Washington","state_name":"District of Columbia","lat":38.9335,"lng":-77.06003,"zip":"20392","miles_from_dt":27.55},{"city":"Lanham","state_name":"Maryland","lat":38.96694,"lng":-76.86222,"zip":"20703","miles_from_dt":27.6},{"city":"Middletown","state_name":"Maryland","lat":39.44582,"lng":-77.56489,"zip":"21769","miles_from_dt":27.61},{"city":"Glen Burnie","state_name":"Maryland","lat":39.1637,"lng":-76.60358,"zip":"21062","miles_from_dt":27.61},{"city":"Washington","state_name":"District of Columbia","lat":38.93637,"lng":-76.99924,"zip":"20064","miles_from_dt":27.61},{"city":"McLean","state_name":"Virginia","lat":38.95199,"lng":-77.22901,"zip":"22102","miles_from_dt":27.63},{"city":"McLean","state_name":"Virginia","lat":38.94084,"lng":-77.17614,"zip":"22106","miles_from_dt":27.64},{"city":"McLean","state_name":"Virginia","lat":38.9386,"lng":-77.16513,"zip":"22101","miles_from_dt":27.67},{"city":"Washington","state_name":"District of Columbia","lat":38.93255,"lng":-77.03128,"zip":"20010","miles_from_dt":27.69},{"city":"Bowie","state_name":"Maryland","lat":38.9971,"lng":-76.78588,"zip":"20720","miles_from_dt":27.74},{"city":"Hyattsville","state_name":"Maryland","lat":38.94229,"lng":-76.93655,"zip":"20781","miles_from_dt":27.88},{"city":"Sterling","state_name":"Virginia","lat":39.01703,"lng":-77.39409,"zip":"20167","miles_from_dt":27.88},{"city":"West Mclean","state_name":"Virginia","lat":38.94777,"lng":-77.22795,"zip":"22103","miles_from_dt":27.89},{"city":"Lanham","state_name":"Maryland","lat":38.96548,"lng":-76.85091,"zip":"20706","miles_from_dt":27.94},{"city":"Hyattsville","state_name":"Maryland","lat":38.95145,"lng":-76.89025,"zip":"20784","miles_from_dt":28.03},{"city":"Bladensburg","state_name":"Maryland","lat":38.94204,"lng":-76.92623,"zip":"20710","miles_from_dt":28.04},{"city":"Washington","state_name":"District of Columbia","lat":38.92714,"lng":-77.0103,"zip":"20422","miles_from_dt":28.17},{"city":"Sterling","state_name":"Virginia","lat":39.01244,"lng":-77.39586,"zip":"20164","miles_from_dt":28.19},{"city":"Brentwood","state_name":"Maryland","lat":38.9351,"lng":-76.94944,"zip":"20722","miles_from_dt":28.19},{"city":"McLean","state_name":"Virginia","lat":38.93368,"lng":-77.18439,"zip":"22109","miles_from_dt":28.21},{"city":"Emmitsburg","state_name":"Maryland","lat":39.68865,"lng":-77.33096,"zip":"21727","miles_from_dt":28.23},{"city":"Washington","state_name":"District of Columbia","lat":38.92326,"lng":-77.0348,"zip":"20441","miles_from_dt":28.32},{"city":"Reston","state_name":"Virginia","lat":38.97998,"lng":-77.34354,"zip":"20194","miles_from_dt":28.43},{"city":"Washington","state_name":"District of Columbia","lat":38.92247,"lng":-77.02003,"zip":"20059","miles_from_dt":28.44},{"city":"Glen Burnie","state_name":"Maryland","lat":39.16893,"lng":-76.58346,"zip":"21060","miles_from_dt":28.44},{"city":"McLean","state_name":"Virginia","lat":38.93,"lng":-77.18219,"zip":"22108","miles_from_dt":28.44},{"city":"McLean","state_name":"Virginia","lat":38.93,"lng":-77.18219,"zip":"22107","miles_from_dt":28.44},{"city":"Washington","state_name":"District of Columbia","lat":38.91986,"lng":-77.03749,"zip":"20009","miles_from_dt":28.54},{"city":"Curtis Bay","state_name":"Maryland","lat":39.2078,"lng":-76.5627,"zip":"21226","miles_from_dt":28.54},{"city":"Washington","state_name":"District of Columbia","lat":38.92596,"lng":-76.97281,"zip":"20018","miles_from_dt":28.55},{"city":"Baltimore","state_name":"Maryland","lat":39.33932,"lng":-76.53706,"zip":"21206","miles_from_dt":28.55},{"city":"Baltimore","state_name":"Maryland","lat":39.28309,"lng":-76.54088,"zip":"21224","miles_from_dt":28.57},{"city":"Washington","state_name":"District of Columbia","lat":38.91925,"lng":-77.03605,"zip":"20232","miles_from_dt":28.59},{"city":"Washington","state_name":"District of Columbia","lat":38.92,"lng":-77.00751,"zip":"20206","miles_from_dt":28.68},{"city":"Washington","state_name":"District of Columbia","lat":38.92,"lng":-77.00751,"zip":"20058","miles_from_dt":28.68},{"city":"Washington","state_name":"District of Columbia","lat":38.92,"lng":-77.00751,"zip":"20070","miles_from_dt":28.68},{"city":"Washington","state_name":"District of Columbia","lat":38.92,"lng":-77.00751,"zip":"20069","miles_from_dt":28.68},{"city":"Washington","state_name":"District of Columbia","lat":38.91864,"lng":-77.02038,"zip":"20060","miles_from_dt":28.7},{"city":"Washington","state_name":"District of Columbia","lat":38.92058,"lng":-76.9945,"zip":"20303","miles_from_dt":28.73},{"city":"Washington","state_name":"District of Columbia","lat":38.9164,"lng":-77.07787,"zip":"20435","miles_from_dt":28.73},{"city":"Washington","state_name":"District of Columbia","lat":38.91703,"lng":-77.04116,"zip":"20554","miles_from_dt":28.73},{"city":"Washington","state_name":"District of Columbia","lat":38.91948,"lng":-76.99466,"zip":"20077","miles_from_dt":28.8},{"city":"Washington","state_name":"District of Columbia","lat":38.919,"lng":-76.99492,"zip":"20262","miles_from_dt":28.83},{"city":"Washington","state_name":"District of Columbia","lat":38.91888,"lng":-76.99385,"zip":"20061","miles_from_dt":28.85},{"city":"Washington","state_name":"District of Columbia","lat":38.91821,"lng":-76.99548,"zip":"20066","miles_from_dt":28.88},{"city":"Washington","state_name":"District of Columbia","lat":38.91415,"lng":-77.06096,"zip":"20406","miles_from_dt":28.89},{"city":"Washington","state_name":"District of Columbia","lat":38.91456,"lng":-77.04447,"zip":"20440","miles_from_dt":28.89},{"city":"Washington","state_name":"District of Columbia","lat":38.91837,"lng":-76.99078,"zip":"20299","miles_from_dt":28.91},{"city":"Washington","state_name":"District of Columbia","lat":38.91756,"lng":-76.99393,"zip":"20214","miles_from_dt":28.94},{"city":"Washington","state_name":"District of Columbia","lat":38.91696,"lng":-76.99581,"zip":"20075","miles_from_dt":28.96},{"city":"Washington","state_name":"District of Columbia","lat":38.91344,"lng":-77.04398,"zip":"20428","miles_from_dt":28.97},{"city":"Washington","state_name":"District of Columbia","lat":38.91673,"lng":-76.99429,"zip":"20042","miles_from_dt":28.99},{"city":"Phoenix","state_name":"Maryland","lat":39.50338,"lng":-76.57486,"zip":"21131","miles_from_dt":28.99},{"city":"Washington","state_name":"District of Columbia","lat":38.91259,"lng":-77.07756,"zip":"20007","miles_from_dt":28.99},{"city":"Washington","state_name":"District of Columbia","lat":38.9164,"lng":-76.99451,"zip":"20078","miles_from_dt":29.01},{"city":"Washington","state_name":"District of Columbia","lat":38.9119,"lng":-77.04586,"zip":"20235","miles_from_dt":29.07},{"city":"Washington","state_name":"District of Columbia","lat":38.9149,"lng":-76.99627,"zip":"20244","miles_from_dt":29.1},{"city":"Parkville","state_name":"Maryland","lat":39.395,"lng":-76.53252,"zip":"21234","miles_from_dt":29.1},{"city":"Washington","state_name":"District of Columbia","lat":38.91471,"lng":-76.99592,"zip":"20074","miles_from_dt":29.12},{"city":"Washington","state_name":"District of Columbia","lat":38.91871,"lng":-76.96339,"zip":"20022","miles_from_dt":29.14},{"city":"Washington","state_name":"District of Columbia","lat":38.90892,"lng":-77.07511,"zip":"20057","miles_from_dt":29.24},{"city":"Littlestown","state_name":"Pennsylvania","lat":39.75566,"lng":-77.11183,"zip":"17340","miles_from_dt":29.25},{"city":"Washington","state_name":"District of Columbia","lat":38.91002,"lng":-77.018,"zip":"20001","miles_from_dt":29.3},{"city":"Bowie","state_name":"Maryland","lat":38.98588,"lng":-76.75415,"zip":"20718","miles_from_dt":29.34},{"city":"Millersville","state_name":"Maryland","lat":39.08932,"lng":-76.62139,"zip":"21108","miles_from_dt":29.36},{"city":"Washington","state_name":"District of Columbia","lat":38.90705,"lng":-77.04155,"zip":"20036","miles_from_dt":29.41},{"city":"Washington","state_name":"District of Columbia","lat":38.90646,"lng":-77.04493,"zip":"20433","miles_from_dt":29.44},{"city":"Myersville","state_name":"Maryland","lat":39.53725,"lng":-77.55301,"zip":"21773","miles_from_dt":29.44},{"city":"Herndon","state_name":"Virginia","lat":38.98075,"lng":-77.38042,"zip":"20170","miles_from_dt":29.46},{"city":"Lineboro","state_name":"Maryland","lat":39.71748,"lng":-76.83,"zip":"21088","miles_from_dt":29.47},{"city":"Vienna","state_name":"Virginia","lat":38.93611,"lng":-77.2736,"zip":"22182","miles_from_dt":29.47},{"city":"Washington","state_name":"District of Columbia","lat":38.90622,"lng":-77.03809,"zip":"20544","miles_from_dt":29.48},{"city":"Reston","state_name":"Virginia","lat":38.95968,"lng":-77.33806,"zip":"20190","miles_from_dt":29.49},{"city":"Washington","state_name":"District of Columbia","lat":38.90631,"lng":-77.03125,"zip":"20421","miles_from_dt":29.5},{"city":"Washington","state_name":"District of Columbia","lat":38.90539,"lng":-77.03945,"zip":"20035","miles_from_dt":29.53},{"city":"Washington","state_name":"District of Columbia","lat":38.90584,"lng":-77.03019,"zip":"20572","miles_from_dt":29.53},{"city":"Washington","state_name":"District of Columbia","lat":38.90504,"lng":-77.04704,"zip":"20586","miles_from_dt":29.54},{"city":"Washington","state_name":"District of Columbia","lat":38.90516,"lng":-77.04143,"zip":"20033","miles_from_dt":29.54},{"city":"Arlington","state_name":"Virginia","lat":38.90665,"lng":-77.12384,"zip":"22207","miles_from_dt":29.54},{"city":"Washington","state_name":"District of Columbia","lat":38.90536,"lng":-77.03177,"zip":"20043","miles_from_dt":29.56},{"city":"Washington","state_name":"District of Columbia","lat":38.90685,"lng":-77.008,"zip":"20417","miles_from_dt":29.57},{"city":"Washington","state_name":"District of Columbia","lat":38.90454,"lng":-77.04504,"zip":"20203","miles_from_dt":29.58},{"city":"Washington","state_name":"District of Columbia","lat":38.90501,"lng":-77.03143,"zip":"20038","miles_from_dt":29.59},{"city":"Washington","state_name":"District of Columbia","lat":38.90415,"lng":-77.04535,"zip":"20238","miles_from_dt":29.6},{"city":"Washington","state_name":"District of Columbia","lat":38.90457,"lng":-77.03191,"zip":"20533","miles_from_dt":29.61},{"city":"Washington","state_name":"District of Columbia","lat":38.90477,"lng":-77.03023,"zip":"20439","miles_from_dt":29.61},{"city":"Washington","state_name":"District of Columbia","lat":38.90486,"lng":-77.02619,"zip":"20091","miles_from_dt":29.62},{"city":"Washington","state_name":"District of Columbia","lat":38.90436,"lng":-77.03541,"zip":"20577","miles_from_dt":29.62},{"city":"Washington","state_name":"District of Columbia","lat":38.90443,"lng":-77.0316,"zip":"20005","miles_from_dt":29.63},{"city":"Washington","state_name":"District of Columbia","lat":38.90371,"lng":-77.04214,"zip":"20507","miles_from_dt":29.64},{"city":"Washington","state_name":"District of Columbia","lat":38.90321,"lng":-77.04439,"zip":"20063","miles_from_dt":29.67},{"city":"Washington","state_name":"District of Columbia","lat":38.90324,"lng":-77.03606,"zip":"20071","miles_from_dt":29.69},{"city":"Washington","state_name":"District of Columbia","lat":38.90663,"lng":-76.98615,"zip":"20056","miles_from_dt":29.74},{"city":"Washington","state_name":"District of Columbia","lat":38.90207,"lng":-77.04755,"zip":"20427","miles_from_dt":29.74},{"city":"Washington","state_name":"District of Columbia","lat":38.90187,"lng":-77.04895,"zip":"20437","miles_from_dt":29.75},{"city":"Washington","state_name":"District of Columbia","lat":38.90247,"lng":-77.03179,"zip":"20524","miles_from_dt":29.76},{"city":"Bowie","state_name":"Maryland","lat":38.98643,"lng":-76.73967,"zip":"20715","miles_from_dt":29.76},{"city":"Washington","state_name":"District of Columbia","lat":38.90618,"lng":-76.98722,"zip":"20050","miles_from_dt":29.77},{"city":"Washington","state_name":"District of Columbia","lat":38.90231,"lng":-77.03176,"zip":"20419","miles_from_dt":29.77},{"city":"Washington","state_name":"District of Columbia","lat":38.90255,"lng":-77.02869,"zip":"20420","miles_from_dt":29.77},{"city":"Ashburn","state_name":"Virginia","lat":39.04362,"lng":-77.48161,"zip":"20149","miles_from_dt":29.77},{"city":"Washington","state_name":"District of Columbia","lat":38.90212,"lng":-77.03616,"zip":"20503","miles_from_dt":29.77},{"city":"Washington","state_name":"District of Columbia","lat":38.90191,"lng":-77.03628,"zip":"20062","miles_from_dt":29.78},{"city":"Ashburn","state_name":"Virginia","lat":39.04151,"lng":-77.47958,"zip":"20147","miles_from_dt":29.79},{"city":"Washington","state_name":"District of Columbia","lat":38.90143,"lng":-77.0449,"zip":"20579","miles_from_dt":29.79},{"city":"Washington","state_name":"District of Columbia","lat":38.90105,"lng":-77.04674,"zip":"20068","miles_from_dt":29.81},{"city":"Brunswick","state_name":"Maryland","lat":39.31798,"lng":-77.6262,"zip":"21716","miles_from_dt":29.82},{"city":"Washington","state_name":"District of Columbia","lat":38.90191,"lng":-77.02594,"zip":"20527","miles_from_dt":29.82},{"city":"Washington","state_name":"District of Columbia","lat":38.90074,"lng":-77.05016,"zip":"20372","miles_from_dt":29.83},{"city":"Washington","state_name":"District of Columbia","lat":38.90067,"lng":-77.04558,"zip":"20526","miles_from_dt":29.84},{"city":"Reston","state_name":"Virginia","lat":38.94889,"lng":-77.32678,"zip":"20195","miles_from_dt":29.86},{"city":"Washington","state_name":"District of Columbia","lat":38.90511,"lng":-76.98431,"zip":"20002","miles_from_dt":29.86},{"city":"Washington","state_name":"District of Columbia","lat":38.90107,"lng":-77.02882,"zip":"20268","miles_from_dt":29.87},{"city":"Washington","state_name":"District of Columbia","lat":38.9014,"lng":-77.02335,"zip":"20055","miles_from_dt":29.87},{"city":"Washington","state_name":"District of Columbia","lat":38.90241,"lng":-77.00792,"zip":"20211","miles_from_dt":29.88},{"city":"Washington","state_name":"District of Columbia","lat":38.9016,"lng":-77.01749,"zip":"20538","miles_from_dt":29.88},{"city":"Washington","state_name":"District of Columbia","lat":38.90088,"lng":-77.02971,"zip":"20501","miles_from_dt":29.88},{"city":"Washington","state_name":"District of Columbia","lat":38.90062,"lng":-77.0302,"zip":"20525","miles_from_dt":29.89},{"city":"Washington","state_name":"District of Columbia","lat":38.90045,"lng":-77.03281,"zip":"20571","miles_from_dt":29.89},{"city":"Washington","state_name":"District of Columbia","lat":38.90108,"lng":-77.02217,"zip":"20405","miles_from_dt":29.89},{"city":"Washington","state_name":"District of Columbia","lat":38.9,"lng":-77.04219,"zip":"20355","miles_from_dt":29.9},{"city":"Washington","state_name":"District of Columbia","lat":38.89959,"lng":-77.05111,"zip":"20521","miles_from_dt":29.9},{"city":"Washington","state_name":"District of Columbia","lat":38.9,"lng":-77.04219,"zip":"20509","miles_from_dt":29.9},{"city":"Washington","state_name":"District of Columbia","lat":38.89967,"lng":-77.03934,"zip":"20506","miles_from_dt":29.93},{"city":"Washington","state_name":"District of Columbia","lat":38.90101,"lng":-77.01594,"zip":"20536","miles_from_dt":29.93},{"city":"Washington","state_name":"District of Columbia","lat":38.90059,"lng":-77.02208,"zip":"20270","miles_from_dt":29.93},{"city":"Washington","state_name":"District of Columbia","lat":38.90071,"lng":-77.01962,"zip":"20548","miles_from_dt":29.93},{"city":"Washington","state_name":"District of Columbia","lat":38.89944,"lng":-77.04118,"zip":"20575","miles_from_dt":29.94},{"city":"Washington","state_name":"District of Columbia","lat":38.9017,"lng":-77.00599,"zip":"20426","miles_from_dt":29.94},{"city":"Washington","state_name":"District of Columbia","lat":38.90003,"lng":-77.02655,"zip":"20080","miles_from_dt":29.95},{"city":"Washington","state_name":"District of Columbia","lat":38.89929,"lng":-77.04034,"zip":"20508","miles_from_dt":29.95},{"city":"Washington","state_name":"District of Columbia","lat":38.89884,"lng":-77.04779,"zip":"20052","miles_from_dt":29.96},{"city":"Washington","state_name":"District of Columbia","lat":38.89895,"lng":-77.04419,"zip":"20431","miles_from_dt":29.96},{"city":"Washington","state_name":"District of Columbia","lat":38.89976,"lng":-77.02443,"zip":"20552","miles_from_dt":29.98},{"city":"Washington","state_name":"District of Columbia","lat":38.89946,"lng":-77.02664,"zip":"20081","miles_from_dt":29.99},{"city":"Washington","state_name":"District of Columbia","lat":38.89845,"lng":-77.04444,"zip":"20456","miles_from_dt":30},{"city":"Washington","state_name":"District of Columbia","lat":38.89846,"lng":-77.04329,"zip":"20067","miles_from_dt":30}],"targetCityZipCode":"21797","targetCityState":"Maryland"},"__N_SSG":true}