{"pageProps":{"stateName":"Colorado","cityName":"carr","nearbyCities":[{"city":"Nunn","state_name":"Colorado","lat":40.76559,"lng":-104.72816,"zip":"80648","miles_from_dt":10.47},{"city":"Cheyenne","state_name":"Wyoming","lat":41.06231,"lng":-104.75591,"zip":"82007","miles_from_dt":11.78},{"city":"Wellington","state_name":"Colorado","lat":40.84341,"lng":-105.05499,"zip":"80549","miles_from_dt":12.75},{"city":"Cheyenne","state_name":"Wyoming","lat":41.10391,"lng":-104.78312,"zip":"82010","miles_from_dt":14.28},{"city":"Cheyenne","state_name":"Wyoming","lat":41.095,"lng":-104.93265,"zip":"82001","miles_from_dt":14.68},{"city":"Cheyenne","state_name":"Wyoming","lat":41.14224,"lng":-104.82284,"zip":"82002","miles_from_dt":16.77},{"city":"Fe Warren Afb","state_name":"Wyoming","lat":41.14631,"lng":-104.86787,"zip":"82005","miles_from_dt":17.21},{"city":"Pierce","state_name":"Colorado","lat":40.6484,"lng":-104.77666,"zip":"80650","miles_from_dt":17.48},{"city":"Cheyenne","state_name":"Wyoming","lat":41.16632,"lng":-104.78824,"zip":"82003","miles_from_dt":18.52},{"city":"Ault","state_name":"Colorado","lat":40.66996,"lng":-104.58269,"zip":"80610","miles_from_dt":20.22},{"city":"Fort Collins","state_name":"Colorado","lat":40.64814,"lng":-105.02155,"zip":"80524","miles_from_dt":20.22},{"city":"Granite Canon","state_name":"Wyoming","lat":41.05681,"lng":-105.17714,"zip":"82059","miles_from_dt":21.48},{"city":"Laporte","state_name":"Colorado","lat":40.73718,"lng":-105.19292,"zip":"80535","miles_from_dt":22.39},{"city":"Fort Collins","state_name":"Colorado","lat":40.56532,"lng":-105.04545,"zip":"80553","miles_from_dt":25.83},{"city":"Severance","state_name":"Colorado","lat":40.52415,"lng":-104.84986,"zip":"80546","miles_from_dt":25.92},{"city":"Eaton","state_name":"Colorado","lat":40.5444,"lng":-104.64236,"zip":"80615","miles_from_dt":26.25},{"city":"Fort Collins","state_name":"Colorado","lat":40.59454,"lng":-105.1274,"zip":"80522","miles_from_dt":26.41},{"city":"Fort Collins","state_name":"Colorado","lat":40.59372,"lng":-105.1268,"zip":"80521","miles_from_dt":26.44},{"city":"Fort Collins","state_name":"Colorado","lat":40.57224,"lng":-105.08609,"zip":"80523","miles_from_dt":26.46},{"city":"Timnath","state_name":"Colorado","lat":40.52948,"lng":-104.96347,"zip":"80547","miles_from_dt":26.56},{"city":"Carpenter","state_name":"Wyoming","lat":41.0647,"lng":-104.35899,"zip":"82054","miles_from_dt":26.81},{"city":"Hillsdale","state_name":"Wyoming","lat":41.22526,"lng":-104.51505,"zip":"82060","miles_from_dt":27.65},{"city":"Hereford","state_name":"Colorado","lat":40.9884,"lng":-104.30525,"zip":"80732","miles_from_dt":27.77},{"city":"Fort Collins","state_name":"Colorado","lat":40.52795,"lng":-105.04249,"zip":"80525","miles_from_dt":28.1},{"city":"Fort Collins","state_name":"Colorado","lat":40.53323,"lng":-105.07119,"zip":"80527","miles_from_dt":28.42},{"city":"Windsor","state_name":"Colorado","lat":40.48213,"lng":-104.90223,"zip":"80550","miles_from_dt":29.08},{"city":"Windsor","state_name":"Colorado","lat":40.4775,"lng":-104.90083,"zip":"80551","miles_from_dt":29.39},{"city":"Fort Collins","state_name":"Colorado","lat":40.49343,"lng":-105.00075,"zip":"80528","miles_from_dt":29.52},{"city":"Livermore","state_name":"Colorado","lat":40.87458,"lng":-105.38842,"zip":"80536","miles_from_dt":29.67},{"city":"Lucerne","state_name":"Colorado","lat":40.47537,"lng":-104.69761,"zip":"80646","miles_from_dt":29.98}],"targetCityZipCode":"80612","targetCityState":"Colorado"},"__N_SSG":true}