{"pageProps":{"stateName":"Colorado","cityName":"coal-creek","nearbyCities":[{"city":"Rockvale","state_name":"Colorado","lat":38.36393,"lng":-105.16495,"zip":"81244","miles_from_dt":1.23},{"city":"Florence","state_name":"Colorado","lat":38.3881,"lng":-105.11865,"zip":"81290","miles_from_dt":2.19},{"city":"Florence","state_name":"Colorado","lat":38.32213,"lng":-105.10193,"zip":"81226","miles_from_dt":3.54},{"city":"Canon City","state_name":"Colorado","lat":38.44769,"lng":-105.22289,"zip":"81215","miles_from_dt":7.33},{"city":"Penrose","state_name":"Colorado","lat":38.4995,"lng":-105.03076,"zip":"81240","miles_from_dt":11.23},{"city":"Wetmore","state_name":"Colorado","lat":38.18763,"lng":-105.07497,"zip":"81253","miles_from_dt":12.6},{"city":"Pueblo","state_name":"Colorado","lat":38.21054,"lng":-104.84608,"zip":"81005","miles_from_dt":19.22},{"city":"Pueblo","state_name":"Colorado","lat":38.35858,"lng":-104.78472,"zip":"81007","miles_from_dt":19.43},{"city":"Canon City","state_name":"Colorado","lat":38.54409,"lng":-105.42498,"zip":"81212","miles_from_dt":19.8},{"city":"Colorado Springs","state_name":"Colorado","lat":38.64318,"lng":-104.92439,"zip":"80926","miles_from_dt":22.68},{"city":"Victor","state_name":"Colorado","lat":38.69307,"lng":-105.09876,"zip":"80860","miles_from_dt":22.93},{"city":"Westcliffe","state_name":"Colorado","lat":38.10891,"lng":-105.42143,"zip":"81252","miles_from_dt":23.16},{"city":"Beulah","state_name":"Colorado","lat":38.06352,"lng":-104.92966,"zip":"81023","miles_from_dt":23.64},{"city":"Cotopaxi","state_name":"Colorado","lat":38.39372,"lng":-105.6031,"zip":"81223","miles_from_dt":25.11},{"city":"Hillside","state_name":"Colorado","lat":38.27535,"lng":-105.60895,"zip":"81232","miles_from_dt":26.05},{"city":"Pueblo","state_name":"Colorado","lat":38.27782,"lng":-104.65668,"zip":"81003","miles_from_dt":27.03},{"city":"Cripple Creek","state_name":"Colorado","lat":38.76307,"lng":-105.09278,"zip":"80813","miles_from_dt":27.77},{"city":"Colorado Springs","state_name":"Colorado","lat":38.68683,"lng":-104.8127,"zip":"80902","miles_from_dt":28.63},{"city":"Pueblo","state_name":"Colorado","lat":38.27603,"lng":-104.61018,"zip":"81011","miles_from_dt":29.53},{"city":"Fountain","state_name":"Colorado","lat":38.58347,"lng":-104.67412,"zip":"80817","miles_from_dt":29.62},{"city":"Pueblo","state_name":"Colorado","lat":38.27296,"lng":-104.60911,"zip":"81012","miles_from_dt":29.63},{"city":"Pueblo","state_name":"Colorado","lat":38.27577,"lng":-104.60789,"zip":"81010","miles_from_dt":29.65},{"city":"Pueblo","state_name":"Colorado","lat":38.40765,"lng":-104.59354,"zip":"81008","miles_from_dt":29.96}],"targetCityZipCode":"81221","targetCityState":"Colorado"},"__N_SSG":true}