{"pageProps":{"stateName":"Colorado","cityName":"georgetown","nearbyCities":[{"city":"Silver Plume","state_name":"Colorado","lat":39.68522,"lng":-105.80972,"zip":"80476","miles_from_dt":5.61},{"city":"Idaho Springs","state_name":"Colorado","lat":39.70969,"lng":-105.59515,"zip":"80452","miles_from_dt":9.03},{"city":"Empire","state_name":"Colorado","lat":39.7602,"lng":-105.78356,"zip":"80438","miles_from_dt":9.32},{"city":"Dillon","state_name":"Colorado","lat":39.60161,"lng":-105.92452,"zip":"80435","miles_from_dt":10.54},{"city":"Dumont","state_name":"Colorado","lat":39.78203,"lng":-105.64349,"zip":"80436","miles_from_dt":11.39},{"city":"Grant","state_name":"Colorado","lat":39.41769,"lng":-105.63747,"zip":"80448","miles_from_dt":15.56},{"city":"Central City","state_name":"Colorado","lat":39.79366,"lng":-105.52413,"zip":"80427","miles_from_dt":15.7},{"city":"Shawnee","state_name":"Colorado","lat":39.43012,"lng":-105.59234,"zip":"80475","miles_from_dt":15.73},{"city":"Bailey","state_name":"Colorado","lat":39.48166,"lng":-105.50462,"zip":"80421","miles_from_dt":15.89},{"city":"Evergreen","state_name":"Colorado","lat":39.6343,"lng":-105.42994,"zip":"80439","miles_from_dt":16.05},{"city":"Silverthorne","state_name":"Colorado","lat":39.64055,"lng":-106.06212,"zip":"80497","miles_from_dt":17.69},{"city":"Breckenridge","state_name":"Colorado","lat":39.47089,"lng":-106.01685,"zip":"80424","miles_from_dt":18.87},{"city":"Black Hawk","state_name":"Colorado","lat":39.8635,"lng":-105.53846,"zip":"80422","miles_from_dt":19.01},{"city":"Winter Park","state_name":"Colorado","lat":39.90429,"lng":-105.78404,"zip":"80482","miles_from_dt":19.04},{"city":"Evergreen","state_name":"Colorado","lat":39.63559,"lng":-105.34079,"zip":"80437","miles_from_dt":20.81},{"city":"Fraser","state_name":"Colorado","lat":39.91633,"lng":-105.89813,"zip":"80442","miles_from_dt":21.58},{"city":"Rollinsville","state_name":"Colorado","lat":39.92353,"lng":-105.56404,"zip":"80474","miles_from_dt":22.02},{"city":"Jefferson","state_name":"Colorado","lat":39.30643,"lng":-105.69211,"zip":"80456","miles_from_dt":22.51},{"city":"Kittredge","state_name":"Colorado","lat":39.65091,"lng":-105.29972,"zip":"80457","miles_from_dt":23.03},{"city":"Frisco","state_name":"Colorado","lat":39.50165,"lng":-106.16673,"zip":"80443","miles_from_dt":24.94},{"city":"Conifer","state_name":"Colorado","lat":39.49636,"lng":-105.29586,"zip":"80433","miles_from_dt":25.02},{"city":"Boulder","state_name":"Colorado","lat":39.95954,"lng":-105.50975,"zip":"80308","miles_from_dt":25.51},{"city":"Indian Hills","state_name":"Colorado","lat":39.63109,"lng":-105.25204,"zip":"80454","miles_from_dt":25.54},{"city":"Golden","state_name":"Colorado","lat":39.83229,"lng":-105.32013,"zip":"80403","miles_from_dt":25.9},{"city":"Pine","state_name":"Colorado","lat":39.40104,"lng":-105.34527,"zip":"80470","miles_from_dt":26.02},{"city":"Idledale","state_name":"Colorado","lat":39.66477,"lng":-105.24285,"zip":"80453","miles_from_dt":26.12},{"city":"Nederland","state_name":"Colorado","lat":39.99008,"lng":-105.546,"zip":"80466","miles_from_dt":26.63},{"city":"Pinecliffe","state_name":"Colorado","lat":39.93507,"lng":-105.42048,"zip":"80471","miles_from_dt":26.68},{"city":"Golden","state_name":"Colorado","lat":39.71672,"lng":-105.23286,"zip":"80401","miles_from_dt":27.19},{"city":"Morrison","state_name":"Colorado","lat":39.60437,"lng":-105.21521,"zip":"80465","miles_from_dt":27.57},{"city":"Tabernash","state_name":"Colorado","lat":40.02218,"lng":-105.85693,"zip":"80478","miles_from_dt":27.78},{"city":"Parshall","state_name":"Colorado","lat":39.91447,"lng":-106.10979,"zip":"80468","miles_from_dt":28.08},{"city":"Silverthorne","state_name":"Colorado","lat":39.7794,"lng":-106.22338,"zip":"80498","miles_from_dt":28.17},{"city":"Como","state_name":"Colorado","lat":39.22256,"lng":-105.82969,"zip":"80432","miles_from_dt":28.7},{"city":"Golden","state_name":"Colorado","lat":39.75645,"lng":-105.21693,"zip":"80402","miles_from_dt":28.71},{"city":"Golden","state_name":"Colorado","lat":39.7284,"lng":-105.20239,"zip":"80419","miles_from_dt":28.95},{"city":"Alma","state_name":"Colorado","lat":39.31451,"lng":-106.10553,"zip":"80420","miles_from_dt":29.65}],"targetCityZipCode":"80444","targetCityState":"Colorado"},"__N_SSG":true}