{"pageProps":{"stateName":"Colorado","cityName":"lone-tree","nearbyCities":[{"city":"Littleton","state_name":"Colorado","lat":39.52918,"lng":-104.92448,"zip":"80130","miles_from_dt":1.76},{"city":"Englewood","state_name":"Colorado","lat":39.57288,"lng":-104.85854,"zip":"80112","miles_from_dt":3.33},{"city":"Littleton","state_name":"Colorado","lat":39.54127,"lng":-104.96251,"zip":"80126","miles_from_dt":3.83},{"city":"Englewood","state_name":"Colorado","lat":39.59134,"lng":-104.87695,"zip":"80155","miles_from_dt":4.17},{"city":"Littleton","state_name":"Colorado","lat":39.54588,"lng":-104.97441,"zip":"80163","miles_from_dt":4.52},{"city":"Littleton","state_name":"Colorado","lat":39.5806,"lng":-104.95573,"zip":"80122","miles_from_dt":4.79},{"city":"Englewood","state_name":"Colorado","lat":39.6124,"lng":-104.88025,"zip":"80111","miles_from_dt":5.58},{"city":"Littleton","state_name":"Colorado","lat":39.59694,"lng":-104.96163,"zip":"80161","miles_from_dt":5.83},{"city":"Littleton","state_name":"Colorado","lat":39.61045,"lng":-104.95421,"zip":"80121","miles_from_dt":6.36},{"city":"Castle Rock","state_name":"Colorado","lat":39.44441,"lng":-104.85321,"zip":"80108","miles_from_dt":6.38},{"city":"Littleton","state_name":"Colorado","lat":39.54521,"lng":-105.01203,"zip":"80129","miles_from_dt":6.49},{"city":"Parker","state_name":"Colorado","lat":39.48282,"lng":-104.77957,"zip":"80134","miles_from_dt":6.89},{"city":"Louviers","state_name":"Colorado","lat":39.47627,"lng":-105.00899,"zip":"80131","miles_from_dt":7.35},{"city":"Denver","state_name":"Colorado","lat":39.63996,"lng":-104.90178,"zip":"80237","miles_from_dt":7.47},{"city":"Littleton","state_name":"Colorado","lat":39.5929,"lng":-105.00949,"zip":"80120","miles_from_dt":7.56},{"city":"Littleton","state_name":"Colorado","lat":39.59403,"lng":-105.0098,"zip":"80166","miles_from_dt":7.62},{"city":"Littleton","state_name":"Colorado","lat":39.59588,"lng":-105.00826,"zip":"80165","miles_from_dt":7.63},{"city":"Aurora","state_name":"Colorado","lat":39.62803,"lng":-104.7987,"zip":"80046","miles_from_dt":8.28},{"city":"Aurora","state_name":"Colorado","lat":39.62737,"lng":-104.79497,"zip":"80015","miles_from_dt":8.37},{"city":"Englewood","state_name":"Colorado","lat":39.64224,"lng":-104.96189,"zip":"80113","miles_from_dt":8.48},{"city":"Littleton","state_name":"Colorado","lat":39.61297,"lng":-105.01652,"zip":"80160","miles_from_dt":8.7},{"city":"Englewood","state_name":"Colorado","lat":39.64321,"lng":-104.98544,"zip":"80150","miles_from_dt":9.16},{"city":"Englewood","state_name":"Colorado","lat":39.64394,"lng":-104.9843,"zip":"80151","miles_from_dt":9.17},{"city":"Littleton","state_name":"Colorado","lat":39.48546,"lng":-105.05737,"zip":"80125","miles_from_dt":9.42},{"city":"Aurora","state_name":"Colorado","lat":39.66353,"lng":-104.83781,"zip":"80014","miles_from_dt":9.52},{"city":"Denver","state_name":"Colorado","lat":39.67123,"lng":-104.88787,"zip":"80231","miles_from_dt":9.61},{"city":"Denver","state_name":"Colorado","lat":39.6713,"lng":-104.92828,"zip":"80222","miles_from_dt":9.81},{"city":"Aurora","state_name":"Colorado","lat":39.59391,"lng":-104.72311,"zip":"80016","miles_from_dt":9.97},{"city":"Englewood","state_name":"Colorado","lat":39.64612,"lng":-105.00928,"zip":"80110","miles_from_dt":10.07},{"city":"Littleton","state_name":"Colorado","lat":39.56167,"lng":-105.07914,"zip":"80128","miles_from_dt":10.22},{"city":"Denver","state_name":"Colorado","lat":39.6791,"lng":-104.94469,"zip":"80250","miles_from_dt":10.54},{"city":"Denver","state_name":"Colorado","lat":39.6781,"lng":-104.96275,"zip":"80210","miles_from_dt":10.77},{"city":"Denver","state_name":"Colorado","lat":39.68803,"lng":-104.91161,"zip":"80224","miles_from_dt":10.82},{"city":"Denver","state_name":"Colorado","lat":39.68048,"lng":-104.963,"zip":"80208","miles_from_dt":10.93},{"city":"Littleton","state_name":"Colorado","lat":39.61578,"lng":-105.0692,"zip":"80123","miles_from_dt":11.1},{"city":"Aurora","state_name":"Colorado","lat":39.66145,"lng":-104.76577,"zip":"80013","miles_from_dt":11.18},{"city":"Denver","state_name":"Colorado","lat":39.68635,"lng":-104.96195,"zip":"80243","miles_from_dt":11.29},{"city":"Denver","state_name":"Colorado","lat":39.69684,"lng":-104.88127,"zip":"80247","miles_from_dt":11.39},{"city":"Denver","state_name":"Colorado","lat":39.65169,"lng":-105.03966,"zip":"80236","miles_from_dt":11.43},{"city":"Castle Rock","state_name":"Colorado","lat":39.36473,"lng":-104.90056,"zip":"80109","miles_from_dt":11.55},{"city":"Parker","state_name":"Colorado","lat":39.51649,"lng":-104.67114,"zip":"80138","miles_from_dt":11.83},{"city":"Aurora","state_name":"Colorado","lat":39.69976,"lng":-104.83784,"zip":"80012","miles_from_dt":11.93},{"city":"Aurora","state_name":"Colorado","lat":39.70088,"lng":-104.83657,"zip":"80041","miles_from_dt":12.02},{"city":"Denver","state_name":"Colorado","lat":39.69121,"lng":-104.98462,"zip":"80261","miles_from_dt":12.05},{"city":"Denver","state_name":"Colorado","lat":39.70461,"lng":-104.9314,"zip":"80246","miles_from_dt":12.1},{"city":"Littleton","state_name":"Colorado","lat":39.59935,"lng":-105.10662,"zip":"80162","miles_from_dt":12.38},{"city":"Denver","state_name":"Colorado","lat":39.70608,"lng":-104.9656,"zip":"80209","miles_from_dt":12.64},{"city":"Denver","state_name":"Colorado","lat":39.69646,"lng":-105.00216,"zip":"80223","miles_from_dt":12.79},{"city":"Denver","state_name":"Colorado","lat":39.72032,"lng":-104.88933,"zip":"80230","miles_from_dt":12.99},{"city":"Denver","state_name":"Colorado","lat":39.64615,"lng":-105.08909,"zip":"80235","miles_from_dt":13.15},{"city":"Aurora","state_name":"Colorado","lat":39.69914,"lng":-104.7735,"zip":"80017","miles_from_dt":13.15},{"city":"Aurora","state_name":"Colorado","lat":39.69891,"lng":-104.7651,"zip":"80047","miles_from_dt":13.35},{"city":"Denver","state_name":"Colorado","lat":39.69496,"lng":-105.03432,"zip":"80219","miles_from_dt":13.58},{"city":"Denver","state_name":"Colorado","lat":39.73375,"lng":-104.91648,"zip":"80220","miles_from_dt":13.98},{"city":"Denver","state_name":"Colorado","lat":39.73041,"lng":-104.95258,"zip":"80206","miles_from_dt":14.07},{"city":"Littleton","state_name":"Colorado","lat":39.52249,"lng":-105.15773,"zip":"80127","miles_from_dt":14.23},{"city":"Denver","state_name":"Colorado","lat":39.73119,"lng":-104.97073,"zip":"80218","miles_from_dt":14.38},{"city":"Aurora","state_name":"Colorado","lat":39.73979,"lng":-104.86193,"zip":"80010","miles_from_dt":14.43},{"city":"Denver","state_name":"Colorado","lat":39.72758,"lng":-104.98829,"zip":"80273","miles_from_dt":14.44},{"city":"Denver","state_name":"Colorado","lat":39.66331,"lng":-105.10536,"zip":"80227","miles_from_dt":14.56},{"city":"Denver","state_name":"Colorado","lat":39.73142,"lng":-104.98274,"zip":"80203","miles_from_dt":14.59},{"city":"Aurora","state_name":"Colorado","lat":39.7237,"lng":-104.76732,"zip":"80040","miles_from_dt":14.8},{"city":"Aurora","state_name":"Colorado","lat":39.73908,"lng":-104.80936,"zip":"80042","miles_from_dt":14.95},{"city":"Aurora","state_name":"Colorado","lat":39.74702,"lng":-104.83843,"zip":"80045","miles_from_dt":15.11},{"city":"Denver","state_name":"Colorado","lat":39.68892,"lng":-105.08983,"zip":"80232","miles_from_dt":15.13},{"city":"Denver","state_name":"Colorado","lat":39.6955,"lng":-105.08411,"zip":"80201","miles_from_dt":15.25},{"city":"Denver","state_name":"Colorado","lat":39.74032,"lng":-104.98758,"zip":"80259","miles_from_dt":15.26},{"city":"Denver","state_name":"Colorado","lat":39.74248,"lng":-104.98548,"zip":"80264","miles_from_dt":15.36},{"city":"Denver","state_name":"Colorado","lat":39.74321,"lng":-104.98588,"zip":"80291","miles_from_dt":15.41},{"city":"Denver","state_name":"Colorado","lat":39.74232,"lng":-104.98951,"zip":"80274","miles_from_dt":15.42},{"city":"Aurora","state_name":"Colorado","lat":39.74989,"lng":-104.82707,"zip":"80044","miles_from_dt":15.42},{"city":"Denver","state_name":"Colorado","lat":39.74411,"lng":-104.98675,"zip":"80290","miles_from_dt":15.49},{"city":"Denver","state_name":"Colorado","lat":39.74422,"lng":-104.98891,"zip":"80281","miles_from_dt":15.53},{"city":"Denver","state_name":"Colorado","lat":39.74456,"lng":-104.99007,"zip":"80271","miles_from_dt":15.58},{"city":"Denver","state_name":"Colorado","lat":39.73476,"lng":-105.0207,"zip":"80204","miles_from_dt":15.59},{"city":"Aurora","state_name":"Colorado","lat":39.74393,"lng":-104.78994,"zip":"80011","miles_from_dt":15.6},{"city":"Denver","state_name":"Colorado","lat":39.74608,"lng":-104.98972,"zip":"80293","miles_from_dt":15.67},{"city":"Aurora","state_name":"Colorado","lat":39.69071,"lng":-104.68096,"zip":"80018","miles_from_dt":15.7},{"city":"Denver","state_name":"Colorado","lat":39.74687,"lng":-104.99312,"zip":"80299","miles_from_dt":15.78},{"city":"Denver","state_name":"Colorado","lat":39.76137,"lng":-104.91674,"zip":"80207","miles_from_dt":15.88},{"city":"Denver","state_name":"Colorado","lat":39.74979,"lng":-104.98971,"zip":"80294","miles_from_dt":15.91},{"city":"Denver","state_name":"Colorado","lat":39.74974,"lng":-104.991,"zip":"80244","miles_from_dt":15.93},{"city":"Denver","state_name":"Colorado","lat":39.74846,"lng":-104.99973,"zip":"80248","miles_from_dt":16.01},{"city":"Denver","state_name":"Colorado","lat":39.75073,"lng":-104.99544,"zip":"80265","miles_from_dt":16.07},{"city":"Denver","state_name":"Colorado","lat":39.75891,"lng":-104.96353,"zip":"80205","miles_from_dt":16.12},{"city":"Denver","state_name":"Colorado","lat":39.75114,"lng":-104.99699,"zip":"80217","miles_from_dt":16.13},{"city":"Denver","state_name":"Colorado","lat":39.75109,"lng":-104.9995,"zip":"80257","miles_from_dt":16.17},{"city":"Denver","state_name":"Colorado","lat":39.75156,"lng":-104.99768,"zip":"80202","miles_from_dt":16.17},{"city":"Denver","state_name":"Colorado","lat":39.71081,"lng":-105.09155,"zip":"80226","miles_from_dt":16.31},{"city":"Denver","state_name":"Colorado","lat":39.768,"lng":-104.873,"zip":"80256","miles_from_dt":16.31},{"city":"Castle Rock","state_name":"Colorado","lat":39.30213,"lng":-104.81967,"zip":"80104","miles_from_dt":16.32},{"city":"Denver","state_name":"Colorado","lat":39.77722,"lng":-104.8808,"zip":"80238","miles_from_dt":16.93},{"city":"Denver","state_name":"Colorado","lat":39.74205,"lng":-105.07123,"zip":"80214","miles_from_dt":17.37},{"city":"Denver","state_name":"Colorado","lat":39.76715,"lng":-105.02006,"zip":"80211","miles_from_dt":17.61},{"city":"Denver","state_name":"Colorado","lat":39.72428,"lng":-105.11017,"zip":"80225","miles_from_dt":17.66},{"city":"Denver","state_name":"Colorado","lat":39.79002,"lng":-104.90021,"zip":"80266","miles_from_dt":17.81},{"city":"Denver","state_name":"Colorado","lat":39.78801,"lng":-104.8333,"zip":"80239","miles_from_dt":17.94},{"city":"Denver","state_name":"Colorado","lat":39.78659,"lng":-104.96187,"zip":"80216","miles_from_dt":17.96},{"city":"Denver","state_name":"Colorado","lat":39.69186,"lng":-105.15726,"zip":"80228","miles_from_dt":17.96},{"city":"Morrison","state_name":"Colorado","lat":39.60437,"lng":-105.21521,"zip":"80465","miles_from_dt":17.98},{"city":"Franktown","state_name":"Colorado","lat":39.30711,"lng":-104.71947,"zip":"80116","miles_from_dt":18.04},{"city":"Denver","state_name":"Colorado","lat":39.77174,"lng":-105.04819,"zip":"80212","miles_from_dt":18.53},{"city":"Denver","state_name":"Colorado","lat":39.74412,"lng":-105.1158,"zip":"80215","miles_from_dt":18.9},{"city":"Elizabeth","state_name":"Colorado","lat":39.41195,"lng":-104.57226,"zip":"80107","miles_from_dt":18.98},{"city":"Wheat Ridge","state_name":"Colorado","lat":39.77737,"lng":-105.08169,"zip":"80034","miles_from_dt":19.73},{"city":"Commerce City","state_name":"Colorado","lat":39.8193,"lng":-104.91678,"zip":"80037","miles_from_dt":19.87},{"city":"Wheat Ridge","state_name":"Colorado","lat":39.77315,"lng":-105.10222,"zip":"80033","miles_from_dt":20.07},{"city":"Watkins","state_name":"Colorado","lat":39.70901,"lng":-104.59235,"zip":"80137","miles_from_dt":20.11},{"city":"Aurora","state_name":"Colorado","lat":39.78653,"lng":-104.6972,"zip":"80019","miles_from_dt":20.4},{"city":"Indian Hills","state_name":"Colorado","lat":39.63109,"lng":-105.25204,"zip":"80454","miles_from_dt":20.41},{"city":"Denver","state_name":"Colorado","lat":39.81555,"lng":-105.0103,"zip":"80221","miles_from_dt":20.56},{"city":"Idledale","state_name":"Colorado","lat":39.66477,"lng":-105.24285,"zip":"80453","miles_from_dt":20.86},{"city":"Arvada","state_name":"Colorado","lat":39.80198,"lng":-105.08715,"zip":"80001","miles_from_dt":21.34},{"city":"Golden","state_name":"Colorado","lat":39.7284,"lng":-105.20239,"zip":"80419","miles_from_dt":21.41},{"city":"Arvada","state_name":"Colorado","lat":39.79405,"lng":-105.10845,"zip":"80002","miles_from_dt":21.46},{"city":"Dupont","state_name":"Colorado","lat":39.84403,"lng":-104.91842,"zip":"80024","miles_from_dt":21.58},{"city":"Denver","state_name":"Colorado","lat":39.83248,"lng":-105.00748,"zip":"80263","miles_from_dt":21.63},{"city":"Conifer","state_name":"Colorado","lat":39.49636,"lng":-105.29586,"zip":"80433","miles_from_dt":21.73},{"city":"Sedalia","state_name":"Colorado","lat":39.27763,"lng":-105.13494,"zip":"80135","miles_from_dt":21.85},{"city":"Westminster","state_name":"Colorado","lat":39.83006,"lng":-105.03695,"zip":"80030","miles_from_dt":21.97},{"city":"Buffalo Creek","state_name":"Colorado","lat":39.34714,"lng":-105.23162,"zip":"80425","miles_from_dt":22.21},{"city":"Golden","state_name":"Colorado","lat":39.71672,"lng":-105.23286,"zip":"80401","miles_from_dt":22.22},{"city":"Arvada","state_name":"Colorado","lat":39.827,"lng":-105.06412,"zip":"80003","miles_from_dt":22.33},{"city":"Denver","state_name":"Colorado","lat":39.85472,"lng":-104.95867,"zip":"80229","miles_from_dt":22.55},{"city":"Arvada","state_name":"Colorado","lat":39.81443,"lng":-105.12293,"zip":"80004","miles_from_dt":23.06},{"city":"Golden","state_name":"Colorado","lat":39.75645,"lng":-105.21693,"zip":"80402","miles_from_dt":23.25},{"city":"Kittredge","state_name":"Colorado","lat":39.65091,"lng":-105.29972,"zip":"80457","miles_from_dt":23.27},{"city":"Larkspur","state_name":"Colorado","lat":39.19132,"lng":-104.8848,"zip":"80118","miles_from_dt":23.5},{"city":"Commerce City","state_name":"Colorado","lat":39.86448,"lng":-104.78868,"zip":"80022","miles_from_dt":23.59},{"city":"Arvada","state_name":"Colorado","lat":39.8444,"lng":-105.07851,"zip":"80006","miles_from_dt":23.74},{"city":"Denver","state_name":"Colorado","lat":39.86705,"lng":-105.00569,"zip":"80260","miles_from_dt":23.9},{"city":"Westminster","state_name":"Colorado","lat":39.85985,"lng":-105.03731,"zip":"80036","miles_from_dt":23.91},{"city":"Westminster","state_name":"Colorado","lat":39.86205,"lng":-105.03979,"zip":"80035","miles_from_dt":24.1},{"city":"Denver","state_name":"Colorado","lat":39.84964,"lng":-104.69496,"zip":"80249","miles_from_dt":24.3},{"city":"Henderson","state_name":"Colorado","lat":39.88536,"lng":-104.88202,"zip":"80640","miles_from_dt":24.39},{"city":"Westminster","state_name":"Colorado","lat":39.87522,"lng":-105.04039,"zip":"80031","miles_from_dt":24.97},{"city":"Evergreen","state_name":"Colorado","lat":39.63559,"lng":-105.34079,"zip":"80437","miles_from_dt":25.01},{"city":"Arvada","state_name":"Colorado","lat":39.85053,"lng":-105.13031,"zip":"80005","miles_from_dt":25.39},{"city":"Denver","state_name":"Colorado","lat":39.89937,"lng":-104.94697,"zip":"80233","miles_from_dt":25.52},{"city":"Pine","state_name":"Colorado","lat":39.40104,"lng":-105.34527,"zip":"80470","miles_from_dt":25.88},{"city":"Denver","state_name":"Colorado","lat":39.91208,"lng":-105.00526,"zip":"80234","miles_from_dt":26.91},{"city":"Broomfield","state_name":"Colorado","lat":39.89105,"lng":-105.11448,"zip":"80021","miles_from_dt":27.47},{"city":"Thornton","state_name":"Colorado","lat":39.92876,"lng":-104.95492,"zip":"80241","miles_from_dt":27.58},{"city":"Bennett","state_name":"Colorado","lat":39.73237,"lng":-104.43874,"zip":"80102","miles_from_dt":27.84},{"city":"Eastlake","state_name":"Colorado","lat":39.93363,"lng":-104.9582,"zip":"80614","miles_from_dt":27.94},{"city":"Arvada","state_name":"Colorado","lat":39.8665,"lng":-105.19875,"zip":"80007","miles_from_dt":28.29},{"city":"Kiowa","state_name":"Colorado","lat":39.37203,"lng":-104.39978,"zip":"80117","miles_from_dt":28.53},{"city":"Broomfield","state_name":"Colorado","lat":39.91955,"lng":-105.08557,"zip":"80038","miles_from_dt":28.66},{"city":"Palmer Lake","state_name":"Colorado","lat":39.1155,"lng":-104.90443,"zip":"80133","miles_from_dt":28.74},{"city":"Broomfield","state_name":"Colorado","lat":39.93121,"lng":-105.07407,"zip":"80020","miles_from_dt":29.21},{"city":"Evergreen","state_name":"Colorado","lat":39.6343,"lng":-105.42994,"zip":"80439","miles_from_dt":29.59},{"city":"Brighton","state_name":"Colorado","lat":39.96369,"lng":-104.90661,"zip":"80602","miles_from_dt":29.8}],"targetCityZipCode":"80124","targetCityState":"Colorado"},"__N_SSG":true}