{"pageProps":{"stateName":"Colorado","cityName":"nathrop","nearbyCities":[{"city":"Monarch","state_name":"Colorado","lat":38.54934,"lng":-106.29009,"zip":"81227","miles_from_dt":10.27},{"city":"Pitkin","state_name":"Colorado","lat":38.62675,"lng":-106.48848,"zip":"81241","miles_from_dt":13.53},{"city":"Salida","state_name":"Colorado","lat":38.55129,"lng":-106.08157,"zip":"81201","miles_from_dt":13.65},{"city":"Buena Vista","state_name":"Colorado","lat":38.89548,"lng":-106.24128,"zip":"81211","miles_from_dt":13.81},{"city":"Poncha Springs","state_name":"Colorado","lat":38.47181,"lng":-106.07288,"zip":"81242","miles_from_dt":18.29},{"city":"Ohio City","state_name":"Colorado","lat":38.62842,"lng":-106.59108,"zip":"81237","miles_from_dt":18.8},{"city":"Almont","state_name":"Colorado","lat":38.81898,"lng":-106.62219,"zip":"81210","miles_from_dt":21.62},{"city":"Parlin","state_name":"Colorado","lat":38.53667,"lng":-106.60825,"zip":"81239","miles_from_dt":22.07},{"city":"Granite","state_name":"Colorado","lat":39.03402,"lng":-106.27723,"zip":"81228","miles_from_dt":23.38},{"city":"Sargents","state_name":"Colorado","lat":38.3991,"lng":-106.47763,"zip":"81248","miles_from_dt":23.76},{"city":"Howard","state_name":"Colorado","lat":38.49244,"lng":-105.81369,"zip":"81233","miles_from_dt":27.66},{"city":"Hartsel","state_name":"Colorado","lat":38.93059,"lng":-105.79169,"zip":"80449","miles_from_dt":29.77}],"targetCityZipCode":"81236","targetCityState":"Colorado"},"__N_SSG":true}