{"pageProps":{"stateName":"Colorado","cityName":"snowmass-village","nearbyCities":[{"city":"Snowmass","state_name":"Colorado","lat":39.21462,"lng":-107.02597,"zip":"81654","miles_from_dt":4.52},{"city":"Woody Creek","state_name":"Colorado","lat":39.27948,"lng":-106.78711,"zip":"81656","miles_from_dt":9.43},{"city":"Aspen","state_name":"Colorado","lat":39.14561,"lng":-106.74885,"zip":"81611","miles_from_dt":11.39},{"city":"Basalt","state_name":"Colorado","lat":39.37803,"lng":-106.8772,"zip":"81621","miles_from_dt":11.81},{"city":"Aspen","state_name":"Colorado","lat":39.05048,"lng":-106.82335,"zip":"81612","miles_from_dt":12.97},{"city":"Carbondale","state_name":"Colorado","lat":39.2451,"lng":-107.20921,"zip":"81623","miles_from_dt":14.51},{"city":"Crested Butte","state_name":"Colorado","lat":38.94115,"lng":-107.00664,"zip":"81225","miles_from_dt":19.17},{"city":"Meredith","state_name":"Colorado","lat":39.31202,"lng":-106.58448,"zip":"81642","miles_from_dt":20.31},{"city":"Crested Butte","state_name":"Colorado","lat":38.87985,"lng":-106.90957,"zip":"81224","miles_from_dt":23.14},{"city":"Twin Lakes","state_name":"Colorado","lat":39.13482,"lng":-106.43723,"zip":"81251","miles_from_dt":27.64},{"city":"Glenwood Springs","state_name":"Colorado","lat":39.49418,"lng":-107.32825,"zip":"81602","miles_from_dt":28.3},{"city":"Somerset","state_name":"Colorado","lat":38.95384,"lng":-107.35954,"zip":"81434","miles_from_dt":28.77}],"targetCityZipCode":"81615","targetCityState":"Colorado"},"__N_SSG":true}