{"pageProps":{"stateName":"Ohio","cityName":"arcanum","nearbyCities":[{"city":"Pitsburg","state_name":"Ohio","lat":39.98724,"lng":-84.48796,"zip":"45358","miles_from_dt":2.31},{"city":"Laura","state_name":"Ohio","lat":39.98019,"lng":-84.42095,"zip":"45337","miles_from_dt":5.89},{"city":"Verona","state_name":"Ohio","lat":39.90291,"lng":-84.48781,"zip":"45378","miles_from_dt":6.28},{"city":"Potsdam","state_name":"Ohio","lat":39.96374,"lng":-84.41484,"zip":"45361","miles_from_dt":6.4},{"city":"West Manchester","state_name":"Ohio","lat":39.89621,"lng":-84.61626,"zip":"45382","miles_from_dt":7.75},{"city":"Phillipsburg","state_name":"Ohio","lat":39.91033,"lng":-84.39983,"zip":"45354","miles_from_dt":8.79},{"city":"Gettysburg","state_name":"Ohio","lat":40.11621,"lng":-84.49676,"zip":"45328","miles_from_dt":9.06},{"city":"Lewisburg","state_name":"Ohio","lat":39.85147,"lng":-84.54417,"zip":"45338","miles_from_dt":9.41},{"city":"New Madison","state_name":"Ohio","lat":39.97934,"lng":-84.70911,"zip":"45346","miles_from_dt":9.45},{"city":"Greenville","state_name":"Ohio","lat":40.09729,"lng":-84.64616,"zip":"45331","miles_from_dt":9.71},{"city":"Ludlow Falls","state_name":"Ohio","lat":40.00826,"lng":-84.34315,"zip":"45339","miles_from_dt":10.09},{"city":"Bradford","state_name":"Ohio","lat":40.12535,"lng":-84.45699,"zip":"45308","miles_from_dt":10.29},{"city":"Pleasant Hill","state_name":"Ohio","lat":40.05067,"lng":-84.3511,"zip":"45359","miles_from_dt":10.51},{"city":"West Milton","state_name":"Ohio","lat":39.9572,"lng":-84.3337,"zip":"45383","miles_from_dt":10.7},{"city":"Eldorado","state_name":"Ohio","lat":39.87134,"lng":-84.67775,"zip":"45321","miles_from_dt":11.17},{"city":"Brookville","state_name":"Ohio","lat":39.84475,"lng":-84.42204,"zip":"45309","miles_from_dt":11.44},{"city":"Palestine","state_name":"Ohio","lat":40.05006,"lng":-84.74432,"zip":"45352","miles_from_dt":12.09},{"city":"Englewood","state_name":"Ohio","lat":39.89967,"lng":-84.33206,"zip":"45322","miles_from_dt":12.2},{"city":"Covington","state_name":"Ohio","lat":40.12745,"lng":-84.35391,"zip":"45318","miles_from_dt":13.48},{"city":"Clayton","state_name":"Ohio","lat":39.85772,"lng":-84.33875,"zip":"45315","miles_from_dt":13.6},{"city":"Hollansburg","state_name":"Ohio","lat":39.99967,"lng":-84.78776,"zip":"45332","miles_from_dt":13.63},{"city":"New Paris","state_name":"Ohio","lat":39.88378,"lng":-84.76208,"zip":"45347","miles_from_dt":14.19},{"city":"Ansonia","state_name":"Ohio","lat":40.2146,"lng":-84.65627,"zip":"45303","miles_from_dt":17},{"city":"Troy","state_name":"Ohio","lat":40.04409,"lng":-84.21768,"zip":"45374","miles_from_dt":17.1},{"city":"Dayton","state_name":"Ohio","lat":39.80094,"lng":-84.31461,"zip":"45426","miles_from_dt":17.28},{"city":"Vandalia","state_name":"Ohio","lat":39.89636,"lng":-84.22774,"zip":"45377","miles_from_dt":17.31},{"city":"West Alexandria","state_name":"Ohio","lat":39.73223,"lng":-84.52433,"zip":"45381","miles_from_dt":17.62},{"city":"Versailles","state_name":"Ohio","lat":40.24511,"lng":-84.51314,"zip":"45380","miles_from_dt":17.8},{"city":"Dayton","state_name":"Ohio","lat":39.89335,"lng":-84.21904,"zip":"45490","miles_from_dt":17.82},{"city":"Dayton","state_name":"Ohio","lat":39.83473,"lng":-84.2568,"zip":"45415","miles_from_dt":18},{"city":"Troy","state_name":"Ohio","lat":40.03353,"lng":-84.19588,"zip":"45373","miles_from_dt":18.08},{"city":"New Lebanon","state_name":"Ohio","lat":39.7392,"lng":-84.39926,"zip":"45345","miles_from_dt":18.52},{"city":"Eaton","state_name":"Ohio","lat":39.74673,"lng":-84.68932,"zip":"45320","miles_from_dt":18.61},{"city":"Russia","state_name":"Ohio","lat":40.23925,"lng":-84.39841,"zip":"45363","miles_from_dt":18.74},{"city":"Dayton","state_name":"Ohio","lat":39.80754,"lng":-84.25774,"zip":"45416","miles_from_dt":19.13},{"city":"Fountain City","state_name":"Indiana","lat":39.9741,"lng":-84.89361,"zip":"47341","miles_from_dt":19.24},{"city":"Tipp City","state_name":"Ohio","lat":39.93885,"lng":-84.16357,"zip":"45371","miles_from_dt":19.82},{"city":"Dayton","state_name":"Ohio","lat":39.84008,"lng":-84.21115,"zip":"45414","miles_from_dt":19.83},{"city":"Piqua","state_name":"Ohio","lat":40.16252,"lng":-84.23097,"zip":"45356","miles_from_dt":19.98},{"city":"Union City","state_name":"Ohio","lat":40.21894,"lng":-84.76778,"zip":"45390","miles_from_dt":20.29},{"city":"Dayton","state_name":"Ohio","lat":39.78442,"lng":-84.24178,"zip":"45406","miles_from_dt":20.82},{"city":"Houston","state_name":"Ohio","lat":40.2481,"lng":-84.33209,"zip":"45333","miles_from_dt":20.85},{"city":"Farmersville","state_name":"Ohio","lat":39.69297,"lng":-84.4269,"zip":"45325","miles_from_dt":21.07},{"city":"Lynn","state_name":"Indiana","lat":40.04376,"lng":-84.9258,"zip":"47355","miles_from_dt":21.28},{"city":"Rossburg","state_name":"Ohio","lat":40.28684,"lng":-84.63368,"zip":"45362","miles_from_dt":21.35},{"city":"Dayton","state_name":"Ohio","lat":39.82401,"lng":-84.1898,"zip":"45413","miles_from_dt":21.37},{"city":"Dayton","state_name":"Ohio","lat":39.79241,"lng":-84.21592,"zip":"45405","miles_from_dt":21.51},{"city":"Richmond","state_name":"Indiana","lat":39.83376,"lng":-84.88997,"zip":"47374","miles_from_dt":21.8},{"city":"Dayton","state_name":"Ohio","lat":39.73427,"lng":-84.2844,"zip":"45417","miles_from_dt":21.86},{"city":"Richmond","state_name":"Indiana","lat":39.8307,"lng":-84.89418,"zip":"47375","miles_from_dt":22.1},{"city":"Dayton","state_name":"Ohio","lat":39.74211,"lng":-84.25954,"zip":"45428","miles_from_dt":22.27},{"city":"Union City","state_name":"Indiana","lat":40.20625,"lng":-84.84671,"zip":"47390","miles_from_dt":22.51},{"city":"Webster","state_name":"Indiana","lat":39.91005,"lng":-84.94394,"zip":"47392","miles_from_dt":22.55},{"city":"Dayton","state_name":"Ohio","lat":39.77463,"lng":-84.1984,"zip":"45401","miles_from_dt":23},{"city":"Dayton","state_name":"Ohio","lat":39.75983,"lng":-84.20751,"zip":"45402","miles_from_dt":23.31},{"city":"North Star","state_name":"Ohio","lat":40.32472,"lng":-84.57359,"zip":"45350","miles_from_dt":23.37},{"city":"Gratis","state_name":"Ohio","lat":39.64821,"lng":-84.5282,"zip":"45330","miles_from_dt":23.41},{"city":"Yorkshire","state_name":"Ohio","lat":40.32799,"lng":-84.47901,"zip":"45388","miles_from_dt":23.65},{"city":"Dayton","state_name":"Ohio","lat":39.76081,"lng":-84.1934,"zip":"45412","miles_from_dt":23.83},{"city":"Dayton","state_name":"Ohio","lat":39.7604,"lng":-84.19112,"zip":"45423","miles_from_dt":23.94},{"city":"Boston","state_name":"Indiana","lat":39.74119,"lng":-84.85172,"zip":"47324","miles_from_dt":24.06},{"city":"Dayton","state_name":"Ohio","lat":39.7606,"lng":-84.18663,"zip":"45422","miles_from_dt":24.11},{"city":"Dayton","state_name":"Ohio","lat":39.79011,"lng":-84.15324,"zip":"45404","miles_from_dt":24.28},{"city":"New Weston","state_name":"Ohio","lat":40.32663,"lng":-84.65404,"zip":"45348","miles_from_dt":24.28},{"city":"Osgood","state_name":"Ohio","lat":40.33954,"lng":-84.49574,"zip":"45351","miles_from_dt":24.36},{"city":"Dayton","state_name":"Ohio","lat":39.84695,"lng":-84.11032,"zip":"45424","miles_from_dt":24.39},{"city":"Casstown","state_name":"Ohio","lat":40.06028,"lng":-84.07976,"zip":"45312","miles_from_dt":24.48},{"city":"Dayton","state_name":"Ohio","lat":39.75761,"lng":-84.1788,"zip":"45481","miles_from_dt":24.56},{"city":"Fort Loramie","state_name":"Ohio","lat":40.32995,"lng":-84.37806,"zip":"45845","miles_from_dt":24.98},{"city":"Williamsburg","state_name":"Indiana","lat":39.96559,"lng":-85.00325,"zip":"47393","miles_from_dt":25.09},{"city":"Dayton","state_name":"Ohio","lat":39.74033,"lng":-84.17911,"zip":"45469","miles_from_dt":25.33},{"city":"Germantown","state_name":"Ohio","lat":39.63286,"lng":-84.39841,"zip":"45327","miles_from_dt":25.47},{"city":"Dayton","state_name":"Ohio","lat":39.76303,"lng":-84.14978,"zip":"45403","miles_from_dt":25.53},{"city":"Dayton","state_name":"Ohio","lat":39.69867,"lng":-84.22944,"zip":"45439","miles_from_dt":25.6},{"city":"Dayton","state_name":"Ohio","lat":39.72396,"lng":-84.1924,"zip":"45479","miles_from_dt":25.61},{"city":"Fletcher","state_name":"Ohio","lat":40.14201,"lng":-84.09039,"zip":"45326","miles_from_dt":25.69},{"city":"Dayton","state_name":"Ohio","lat":39.72334,"lng":-84.19039,"zip":"45409","miles_from_dt":25.71},{"city":"Camden","state_name":"Ohio","lat":39.62791,"lng":-84.66411,"zip":"45311","miles_from_dt":25.8},{"city":"Dayton","state_name":"Ohio","lat":39.74757,"lng":-84.15907,"zip":"45410","miles_from_dt":25.81},{"city":"Burkettsville","state_name":"Ohio","lat":40.35299,"lng":-84.64264,"zip":"45310","miles_from_dt":25.89},{"city":"Dayton","state_name":"Ohio","lat":39.76708,"lng":-84.12512,"zip":"45437","miles_from_dt":26.42},{"city":"Saratoga","state_name":"Indiana","lat":40.23692,"lng":-84.91845,"zip":"47382","miles_from_dt":26.76},{"city":"Dayton","state_name":"Ohio","lat":39.71436,"lng":-84.1676,"zip":"45419","miles_from_dt":27.01},{"city":"Dayton","state_name":"Ohio","lat":39.66472,"lng":-84.24067,"zip":"45449","miles_from_dt":27.12},{"city":"Winchester","state_name":"Indiana","lat":40.1679,"lng":-84.98667,"zip":"47394","miles_from_dt":27.15},{"city":"Christiansburg","state_name":"Ohio","lat":40.05639,"lng":-84.02532,"zip":"45389","miles_from_dt":27.26},{"city":"West Elkton","state_name":"Ohio","lat":39.58968,"lng":-84.55804,"zip":"45070","miles_from_dt":27.49},{"city":"New Carlisle","state_name":"Ohio","lat":39.95567,"lng":-84.00734,"zip":"45344","miles_from_dt":27.91},{"city":"Miamisburg","state_name":"Ohio","lat":39.63639,"lng":-84.26725,"zip":"45343","miles_from_dt":28.01},{"city":"Maria Stein","state_name":"Ohio","lat":40.39365,"lng":-84.51566,"zip":"45860","miles_from_dt":28.03},{"city":"Dayton","state_name":"Ohio","lat":39.81359,"lng":-84.05273,"zip":"45433","miles_from_dt":28.13},{"city":"Greens Fork","state_name":"Indiana","lat":39.892,"lng":-85.04765,"zip":"47345","miles_from_dt":28.2},{"city":"Miamisburg","state_name":"Ohio","lat":39.62943,"lng":-84.27545,"zip":"45342","miles_from_dt":28.21},{"city":"Medway","state_name":"Ohio","lat":39.87589,"lng":-84.02045,"zip":"45341","miles_from_dt":28.21},{"city":"Dayton","state_name":"Ohio","lat":39.719,"lng":-84.13045,"zip":"45420","miles_from_dt":28.25},{"city":"Dayton","state_name":"Ohio","lat":39.62974,"lng":-84.2725,"zip":"45470","miles_from_dt":28.27},{"city":"Sidney","state_name":"Ohio","lat":40.2828,"lng":-84.15582,"zip":"45365","miles_from_dt":28.47},{"city":"Dayton","state_name":"Ohio","lat":39.76488,"lng":-84.08012,"zip":"45431","miles_from_dt":28.49},{"city":"Sidney","state_name":"Ohio","lat":40.28915,"lng":-84.16326,"zip":"45367","miles_from_dt":28.52},{"city":"Dayton","state_name":"Ohio","lat":39.78114,"lng":-84.06312,"zip":"45435","miles_from_dt":28.68},{"city":"Dayton","state_name":"Ohio","lat":39.68411,"lng":-84.16248,"zip":"45429","miles_from_dt":28.7},{"city":"Somerville","state_name":"Ohio","lat":39.56806,"lng":-84.59785,"zip":"45064","miles_from_dt":29.16},{"city":"Dayton","state_name":"Ohio","lat":39.73934,"lng":-84.08627,"zip":"45432","miles_from_dt":29.21},{"city":"Minster","state_name":"Ohio","lat":40.39379,"lng":-84.37219,"zip":"45865","miles_from_dt":29.27},{"city":"Saint Henry","state_name":"Ohio","lat":40.40574,"lng":-84.62791,"zip":"45883","miles_from_dt":29.3},{"city":"Dayton","state_name":"Ohio","lat":39.72153,"lng":-84.10107,"zip":"45482","miles_from_dt":29.34},{"city":"Centerville","state_name":"Indiana","lat":39.78792,"lng":-85.02226,"zip":"47330","miles_from_dt":29.5},{"city":"Economy","state_name":"Indiana","lat":39.96337,"lng":-85.09471,"zip":"47339","miles_from_dt":29.94},{"city":"Conover","state_name":"Ohio","lat":40.17328,"lng":-84.01971,"zip":"45317","miles_from_dt":30}],"targetCityZipCode":"45304","targetCityState":"Ohio"},"__N_SSG":true}