{"pageProps":{"stateName":"Ohio","cityName":"austinburg","nearbyCities":[{"city":"Geneva","state_name":"Ohio","lat":41.77579,"lng":-80.95223,"zip":"44041","miles_from_dt":5.3},{"city":"Jefferson","state_name":"Ohio","lat":41.71887,"lng":-80.73921,"zip":"44047","miles_from_dt":6.49},{"city":"Rock Creek","state_name":"Ohio","lat":41.67242,"lng":-80.89605,"zip":"44084","miles_from_dt":6.52},{"city":"Ashtabula","state_name":"Ohio","lat":41.85255,"lng":-80.78738,"zip":"44004","miles_from_dt":7.14},{"city":"Unionville","state_name":"Ohio","lat":41.77935,"lng":-81.00765,"zip":"44088","miles_from_dt":8.17},{"city":"Ashtabula","state_name":"Ohio","lat":41.876,"lng":-80.80005,"zip":"44005","miles_from_dt":8.38},{"city":"Madison","state_name":"Ohio","lat":41.76675,"lng":-81.05965,"zip":"44057","miles_from_dt":10.76},{"city":"Rome","state_name":"Ohio","lat":41.60463,"lng":-80.87128,"zip":"44085","miles_from_dt":10.83},{"city":"Dorset","state_name":"Ohio","lat":41.6658,"lng":-80.66954,"zip":"44032","miles_from_dt":11.47},{"city":"Thompson","state_name":"Ohio","lat":41.67443,"lng":-81.05599,"zip":"44086","miles_from_dt":12.14},{"city":"Kingsville","state_name":"Ohio","lat":41.84697,"lng":-80.64343,"zip":"44048","miles_from_dt":12.28},{"city":"North Kingsville","state_name":"Ohio","lat":41.90619,"lng":-80.67886,"zip":"44068","miles_from_dt":13.42},{"city":"Montville","state_name":"Ohio","lat":41.60567,"lng":-81.0477,"zip":"44064","miles_from_dt":14.76},{"city":"Pierpont","state_name":"Ohio","lat":41.76012,"lng":-80.56558,"zip":"44082","miles_from_dt":14.78},{"city":"Perry","state_name":"Ohio","lat":41.76589,"lng":-81.14551,"zip":"44081","miles_from_dt":15.19},{"city":"Windsor","state_name":"Ohio","lat":41.55125,"lng":-80.97446,"zip":"44099","miles_from_dt":15.8},{"city":"Orwell","state_name":"Ohio","lat":41.52728,"lng":-80.81867,"zip":"44076","miles_from_dt":16.21},{"city":"Conneaut","state_name":"Ohio","lat":41.8973,"lng":-80.58061,"zip":"44030","miles_from_dt":16.86},{"city":"Andover","state_name":"Ohio","lat":41.6202,"lng":-80.58361,"zip":"44003","miles_from_dt":16.92},{"city":"Huntsburg","state_name":"Ohio","lat":41.54157,"lng":-81.07227,"zip":"44046","miles_from_dt":18.96},{"city":"Painesville","state_name":"Ohio","lat":41.69933,"lng":-81.21142,"zip":"44077","miles_from_dt":19.08},{"city":"East Claridon","state_name":"Ohio","lat":41.54698,"lng":-81.10173,"zip":"44033","miles_from_dt":19.64},{"city":"Williamsfield","state_name":"Ohio","lat":41.53478,"lng":-80.61637,"zip":"44093","miles_from_dt":19.79},{"city":"North Bloomfield","state_name":"Ohio","lat":41.45397,"lng":-80.82576,"zip":"44450","miles_from_dt":21.22},{"city":"Chardon","state_name":"Ohio","lat":41.57668,"lng":-81.19112,"zip":"44024","miles_from_dt":21.69},{"city":"Mesopotamia","state_name":"Ohio","lat":41.45436,"lng":-80.95552,"zip":"44439","miles_from_dt":21.83},{"city":"Linesville","state_name":"Pennsylvania","lat":41.65887,"lng":-80.44175,"zip":"16424","miles_from_dt":22.33},{"city":"Grand River","state_name":"Ohio","lat":41.7461,"lng":-81.28512,"zip":"44045","miles_from_dt":22.43},{"city":"Middlefield","state_name":"Ohio","lat":41.45899,"lng":-81.02698,"zip":"44062","miles_from_dt":22.73},{"city":"West Springfield","state_name":"Pennsylvania","lat":41.93745,"lng":-80.47831,"zip":"16443","miles_from_dt":22.79},{"city":"Springboro","state_name":"Pennsylvania","lat":41.81937,"lng":-80.38356,"zip":"16435","miles_from_dt":24.5},{"city":"Albion","state_name":"Pennsylvania","lat":41.88044,"lng":-80.40395,"zip":"16401","miles_from_dt":24.54},{"city":"Farmdale","state_name":"Ohio","lat":41.43336,"lng":-80.66329,"zip":"44417","miles_from_dt":24.62},{"city":"Conneautville","state_name":"Pennsylvania","lat":41.75047,"lng":-80.36273,"zip":"16406","miles_from_dt":25.27},{"city":"Mentor","state_name":"Ohio","lat":41.67742,"lng":-81.32806,"zip":"44060","miles_from_dt":25.3},{"city":"Mentor","state_name":"Ohio","lat":41.68824,"lng":-81.33282,"zip":"44061","miles_from_dt":25.38},{"city":"East Springfield","state_name":"Pennsylvania","lat":41.97781,"lng":-80.45037,"zip":"16411","miles_from_dt":25.54},{"city":"Bristolville","state_name":"Ohio","lat":41.38893,"lng":-80.85513,"zip":"44402","miles_from_dt":25.67},{"city":"Albion","state_name":"Pennsylvania","lat":41.87645,"lng":-80.36107,"zip":"16475","miles_from_dt":26.55},{"city":"Kinsman","state_name":"Ohio","lat":41.43458,"lng":-80.5779,"zip":"44428","miles_from_dt":26.61},{"city":"Jamestown","state_name":"Pennsylvania","lat":41.50315,"lng":-80.46571,"zip":"16134","miles_from_dt":26.75},{"city":"Burton","state_name":"Ohio","lat":41.44141,"lng":-81.14579,"zip":"44021","miles_from_dt":26.8},{"city":"West Farmington","state_name":"Ohio","lat":41.37368,"lng":-80.96478,"zip":"44491","miles_from_dt":27.36},{"city":"North Springfield","state_name":"Pennsylvania","lat":42.00413,"lng":-80.41823,"zip":"16430","miles_from_dt":27.95},{"city":"Harmonsburg","state_name":"Pennsylvania","lat":41.66555,"lng":-80.31447,"zip":"16422","miles_from_dt":28.54},{"city":"Hartstown","state_name":"Pennsylvania","lat":41.54908,"lng":-80.37617,"zip":"16131","miles_from_dt":28.62},{"city":"Newbury","state_name":"Ohio","lat":41.46308,"lng":-81.24408,"zip":"44065","miles_from_dt":28.91},{"city":"Parkman","state_name":"Ohio","lat":41.36886,"lng":-81.05966,"zip":"44080","miles_from_dt":29.13},{"city":"Cortland","state_name":"Ohio","lat":41.34817,"lng":-80.72629,"zip":"44410","miles_from_dt":29.21},{"city":"Willoughby","state_name":"Ohio","lat":41.60985,"lng":-81.3791,"zip":"44094","miles_from_dt":29.22},{"city":"Chesterland","state_name":"Ohio","lat":41.53182,"lng":-81.3305,"zip":"44026","miles_from_dt":29.4},{"city":"Willoughby","state_name":"Ohio","lat":41.64662,"lng":-81.40873,"zip":"44096","miles_from_dt":29.88}],"targetCityZipCode":"44010","targetCityState":"Ohio"},"__N_SSG":true}