{"pageProps":{"stateName":"Ohio","cityName":"cadiz","nearbyCities":[{"city":"New Athens","state_name":"Ohio","lat":40.18401,"lng":-80.99466,"zip":"43981","miles_from_dt":5.22},{"city":"Jewett","state_name":"Ohio","lat":40.3784,"lng":-80.99036,"zip":"43986","miles_from_dt":8.53},{"city":"Adena","state_name":"Ohio","lat":40.21691,"lng":-80.86637,"zip":"43901","miles_from_dt":8.61},{"city":"Harrisville","state_name":"Ohio","lat":40.18205,"lng":-80.88728,"zip":"43974","miles_from_dt":8.74},{"city":"Holloway","state_name":"Ohio","lat":40.16168,"lng":-81.13155,"zip":"43985","miles_from_dt":8.82},{"city":"Flushing","state_name":"Ohio","lat":40.14519,"lng":-81.10451,"zip":"43977","miles_from_dt":8.9},{"city":"Deersville","state_name":"Ohio","lat":40.2978,"lng":-81.18821,"zip":"44693","miles_from_dt":9.3},{"city":"Lafferty","state_name":"Ohio","lat":40.11475,"lng":-81.01405,"zip":"43951","miles_from_dt":9.82},{"city":"Hopedale","state_name":"Ohio","lat":40.36981,"lng":-80.90655,"zip":"43976","miles_from_dt":9.84},{"city":"New Rumley","state_name":"Ohio","lat":40.39926,"lng":-81.03393,"zip":"43984","miles_from_dt":9.84},{"city":"Fairpoint","state_name":"Ohio","lat":40.12334,"lng":-80.9335,"zip":"43927","miles_from_dt":10.31},{"city":"Piney Fork","state_name":"Ohio","lat":40.25258,"lng":-80.81345,"zip":"43941","miles_from_dt":10.95},{"city":"Bannock","state_name":"Ohio","lat":40.10164,"lng":-80.9749,"zip":"43972","miles_from_dt":10.99},{"city":"Scio","state_name":"Ohio","lat":40.40486,"lng":-81.09925,"zip":"43988","miles_from_dt":11.02},{"city":"Maynard","state_name":"Ohio","lat":40.1309,"lng":-80.87904,"zip":"43937","miles_from_dt":11.48},{"city":"Dillonvale","state_name":"Ohio","lat":40.22396,"lng":-80.80546,"zip":"43917","miles_from_dt":11.6},{"city":"Saint Clairsville","state_name":"Ohio","lat":40.09164,"lng":-80.92193,"zip":"43950","miles_from_dt":12.54},{"city":"Piedmont","state_name":"Ohio","lat":40.13886,"lng":-81.20296,"zip":"43983","miles_from_dt":12.63},{"city":"Smithfield","state_name":"Ohio","lat":40.26847,"lng":-80.78002,"zip":"43948","miles_from_dt":12.74},{"city":"Bloomingdale","state_name":"Ohio","lat":40.37039,"lng":-80.8214,"zip":"43910","miles_from_dt":13.11},{"city":"Mount Pleasant","state_name":"Ohio","lat":40.16723,"lng":-80.79993,"zip":"43939","miles_from_dt":13.21},{"city":"Morristown","state_name":"Ohio","lat":40.06393,"lng":-81.06942,"zip":"43759","miles_from_dt":13.57},{"city":"Barton","state_name":"Ohio","lat":40.11159,"lng":-80.8408,"zip":"43905","miles_from_dt":13.82},{"city":"Tippecanoe","state_name":"Ohio","lat":40.27789,"lng":-81.28752,"zip":"44699","miles_from_dt":14.19},{"city":"Freeport","state_name":"Ohio","lat":40.19111,"lng":-81.27688,"zip":"43973","miles_from_dt":14.3},{"city":"Bowerston","state_name":"Ohio","lat":40.43868,"lng":-81.1754,"zip":"44695","miles_from_dt":14.97},{"city":"Amsterdam","state_name":"Ohio","lat":40.47042,"lng":-80.95131,"zip":"43903","miles_from_dt":15.17},{"city":"Rayland","state_name":"Ohio","lat":40.2242,"lng":-80.73269,"zip":"43943","miles_from_dt":15.38},{"city":"East Springfield","state_name":"Ohio","lat":40.44583,"lng":-80.86242,"zip":"43925","miles_from_dt":15.47},{"city":"Stillwater","state_name":"Ohio","lat":40.32091,"lng":-81.3095,"zip":"44679","miles_from_dt":15.89},{"city":"Wolf Run","state_name":"Ohio","lat":40.46564,"lng":-80.88599,"zip":"43970","miles_from_dt":16.05},{"city":"Warnock","state_name":"Ohio","lat":40.02309,"lng":-80.94371,"zip":"43967","miles_from_dt":16.64},{"city":"Leesville","state_name":"Ohio","lat":40.45166,"lng":-81.20963,"zip":"44639","miles_from_dt":16.74},{"city":"Bridgeport","state_name":"Ohio","lat":40.08708,"lng":-80.79255,"zip":"43912","miles_from_dt":16.82},{"city":"Martins Ferry","state_name":"Ohio","lat":40.1247,"lng":-80.75225,"zip":"43935","miles_from_dt":16.87},{"city":"Blaine","state_name":"Ohio","lat":40.06774,"lng":-80.81552,"zip":"43909","miles_from_dt":16.98},{"city":"Belmont","state_name":"Ohio","lat":40.00926,"lng":-81.00596,"zip":"43718","miles_from_dt":17.11},{"city":"Uhrichsville","state_name":"Ohio","lat":40.35505,"lng":-81.3218,"zip":"44683","miles_from_dt":17.29},{"city":"Lansing","state_name":"Ohio","lat":40.0752,"lng":-80.79123,"zip":"43934","miles_from_dt":17.45},{"city":"Yorkville","state_name":"Ohio","lat":40.15811,"lng":-80.71301,"zip":"43971","miles_from_dt":17.64},{"city":"Fairview","state_name":"Ohio","lat":40.05755,"lng":-81.23689,"zip":"43736","miles_from_dt":17.9},{"city":"Steubenville","state_name":"Ohio","lat":40.35815,"lng":-80.70548,"zip":"43953","miles_from_dt":18.05},{"city":"Tiltonsville","state_name":"Ohio","lat":40.17155,"lng":-80.69698,"zip":"43963","miles_from_dt":18.1},{"city":"Richmond","state_name":"Ohio","lat":40.43623,"lng":-80.76853,"zip":"43944","miles_from_dt":18.16},{"city":"Dennison","state_name":"Ohio","lat":40.42878,"lng":-81.28955,"zip":"44621","miles_from_dt":18.5},{"city":"Glencoe","state_name":"Ohio","lat":40.01088,"lng":-80.88172,"zip":"43928","miles_from_dt":18.5},{"city":"Mingo Junction","state_name":"Ohio","lat":40.30138,"lng":-80.67199,"zip":"43938","miles_from_dt":18.67},{"city":"Bethesda","state_name":"Ohio","lat":39.98907,"lng":-81.07938,"zip":"43719","miles_from_dt":18.75},{"city":"Neffs","state_name":"Ohio","lat":40.02863,"lng":-80.82541,"zip":"43940","miles_from_dt":18.84},{"city":"Bergholz","state_name":"Ohio","lat":40.50867,"lng":-80.87349,"zip":"43908","miles_from_dt":19.02},{"city":"Beech Bottom","state_name":"West Virginia","lat":40.21662,"lng":-80.65965,"zip":"26030","miles_from_dt":19.28},{"city":"Short Creek","state_name":"West Virginia","lat":40.18622,"lng":-80.66453,"zip":"26058","miles_from_dt":19.45},{"city":"Colerain","state_name":"Ohio","lat":40.07001,"lng":-80.74028,"zip":"43916","miles_from_dt":19.66},{"city":"Barnesville","state_name":"Ohio","lat":39.98979,"lng":-81.17368,"zip":"43713","miles_from_dt":20.14},{"city":"Windsor Heights","state_name":"West Virginia","lat":40.19748,"lng":-80.64567,"zip":"26075","miles_from_dt":20.24},{"city":"Bellaire","state_name":"Ohio","lat":40.0132,"lng":-80.80118,"zip":"43906","miles_from_dt":20.44},{"city":"Brilliant","state_name":"Ohio","lat":40.27048,"lng":-80.63154,"zip":"43913","miles_from_dt":20.58},{"city":"Sherrodsville","state_name":"Ohio","lat":40.50245,"lng":-81.24975,"zip":"44675","miles_from_dt":20.81},{"city":"Steubenville","state_name":"Ohio","lat":40.39763,"lng":-80.66278,"zip":"43952","miles_from_dt":21.24},{"city":"Carrollton","state_name":"Ohio","lat":40.5669,"lng":-81.0739,"zip":"44615","miles_from_dt":21.57},{"city":"Midvale","state_name":"Ohio","lat":40.43711,"lng":-81.37105,"zip":"44653","miles_from_dt":22.29},{"city":"Tuscarawas","state_name":"Ohio","lat":40.39765,"lng":-81.40323,"zip":"44682","miles_from_dt":22.42},{"city":"Jacobsburg","state_name":"Ohio","lat":39.93917,"lng":-80.89588,"zip":"43933","miles_from_dt":22.9},{"city":"West Liberty","state_name":"West Virginia","lat":40.16889,"lng":-80.59813,"zip":"26074","miles_from_dt":23.15},{"city":"Wellsburg","state_name":"West Virginia","lat":40.25008,"lng":-80.58037,"zip":"26070","miles_from_dt":23.27},{"city":"Gnadenhutten","state_name":"Ohio","lat":40.35107,"lng":-81.44553,"zip":"44629","miles_from_dt":23.37},{"city":"Wheeling","state_name":"West Virginia","lat":40.0693,"lng":-80.6508,"zip":"26003","miles_from_dt":23.47},{"city":"Follansbee","state_name":"West Virginia","lat":40.3344,"lng":-80.58494,"zip":"26037","miles_from_dt":23.62},{"city":"Quaker City","state_name":"Ohio","lat":39.98758,"lng":-81.29636,"zip":"43773","miles_from_dt":23.64},{"city":"Benwood","state_name":"West Virginia","lat":40.00236,"lng":-80.71985,"zip":"26031","miles_from_dt":23.71},{"city":"Irondale","state_name":"Ohio","lat":40.53145,"lng":-80.74699,"zip":"43932","miles_from_dt":23.81},{"city":"Shadyside","state_name":"Ohio","lat":39.95448,"lng":-80.78755,"zip":"43947","miles_from_dt":24.25},{"city":"Mcmechen","state_name":"West Virginia","lat":39.98389,"lng":-80.73104,"zip":"26040","miles_from_dt":24.29},{"city":"Port Washington","state_name":"Ohio","lat":40.29773,"lng":-81.47846,"zip":"43837","miles_from_dt":24.36},{"city":"Toronto","state_name":"Ohio","lat":40.48695,"lng":-80.66928,"zip":"43964","miles_from_dt":24.4},{"city":"Dellroy","state_name":"Ohio","lat":40.5811,"lng":-81.21592,"zip":"44620","miles_from_dt":24.62},{"city":"Salesville","state_name":"Ohio","lat":40.01111,"lng":-81.37001,"zip":"43778","miles_from_dt":25.11},{"city":"Hammondsville","state_name":"Ohio","lat":40.56978,"lng":-80.77372,"zip":"43930","miles_from_dt":25.2},{"city":"Bethany","state_name":"West Virginia","lat":40.18646,"lng":-80.55024,"zip":"26032","miles_from_dt":25.34},{"city":"Colliers","state_name":"West Virginia","lat":40.3482,"lng":-80.55522,"zip":"26035","miles_from_dt":25.37},{"city":"Mechanicstown","state_name":"Ohio","lat":40.6231,"lng":-80.9556,"zip":"44651","miles_from_dt":25.49},{"city":"Glen Dale","state_name":"West Virginia","lat":39.96329,"lng":-80.72595,"zip":"26038","miles_from_dt":25.57},{"city":"Alledonia","state_name":"Ohio","lat":39.88731,"lng":-80.95596,"zip":"43902","miles_from_dt":25.73},{"city":"Triadelphia","state_name":"West Virginia","lat":40.07156,"lng":-80.59379,"zip":"26059","miles_from_dt":25.96},{"city":"Lore City","state_name":"Ohio","lat":40.0537,"lng":-81.43318,"zip":"43755","miles_from_dt":25.96},{"city":"New Philadelphia","state_name":"Ohio","lat":40.46066,"lng":-81.44961,"zip":"44663","miles_from_dt":26.66},{"city":"Weirton","state_name":"West Virginia","lat":40.42189,"lng":-80.56123,"zip":"26062","miles_from_dt":26.79},{"city":"Old Washington","state_name":"Ohio","lat":40.03776,"lng":-81.44477,"zip":"43768","miles_from_dt":27.08},{"city":"Mineral City","state_name":"Ohio","lat":40.57027,"lng":-81.33104,"zip":"44656","miles_from_dt":27.12},{"city":"Valley Grove","state_name":"West Virginia","lat":40.10465,"lng":-80.54649,"zip":"26060","miles_from_dt":27.2},{"city":"Empire","state_name":"Ohio","lat":40.51068,"lng":-80.62252,"zip":"43926","miles_from_dt":27.34},{"city":"Salineville","state_name":"Ohio","lat":40.63156,"lng":-80.84797,"zip":"43945","miles_from_dt":27.4},{"city":"Stratton","state_name":"Ohio","lat":40.52343,"lng":-80.63025,"zip":"43961","miles_from_dt":27.6},{"city":"Somerdale","state_name":"Ohio","lat":40.56478,"lng":-81.36408,"zip":"44678","miles_from_dt":27.92},{"city":"Jerusalem","state_name":"Ohio","lat":39.85784,"lng":-81.12128,"zip":"43747","miles_from_dt":28.05},{"city":"Malaga","state_name":"Ohio","lat":39.85623,"lng":-81.14677,"zip":"43757","miles_from_dt":28.45},{"city":"Powhatan Point","state_name":"Ohio","lat":39.86367,"lng":-80.84875,"zip":"43942","miles_from_dt":28.62},{"city":"Beallsville","state_name":"Ohio","lat":39.83683,"lng":-81.00752,"zip":"43716","miles_from_dt":29},{"city":"Summitville","state_name":"Ohio","lat":40.67315,"lng":-80.88919,"zip":"43962","miles_from_dt":29.54},{"city":"Kimbolton","state_name":"Ohio","lat":40.15932,"lng":-81.56411,"zip":"43749","miles_from_dt":29.54},{"city":"Newcomerstown","state_name":"Ohio","lat":40.27333,"lng":-81.57931,"zip":"43832","miles_from_dt":29.56},{"city":"Moundsville","state_name":"West Virginia","lat":39.89764,"lng":-80.7107,"zip":"26041","miles_from_dt":29.74},{"city":"New Cumberland","state_name":"West Virginia","lat":40.53223,"lng":-80.5837,"zip":"26047","miles_from_dt":29.86},{"city":"New Manchester","state_name":"West Virginia","lat":40.5211,"lng":-80.57022,"zip":"26056","miles_from_dt":29.94}],"targetCityZipCode":"43907","targetCityState":"Ohio"},"__N_SSG":true}