{"pageProps":{"stateName":"Ohio","cityName":"carrollton","nearbyCities":[{"city":"Mechanicstown","state_name":"Ohio","lat":40.6231,"lng":-80.9556,"zip":"44651","miles_from_dt":7.33},{"city":"Dellroy","state_name":"Ohio","lat":40.5811,"lng":-81.21592,"zip":"44620","miles_from_dt":7.54},{"city":"Augusta","state_name":"Ohio","lat":40.69589,"lng":-81.02685,"zip":"44607","miles_from_dt":9.24},{"city":"Amsterdam","state_name":"Ohio","lat":40.47042,"lng":-80.95131,"zip":"43903","miles_from_dt":9.27},{"city":"Malvern","state_name":"Ohio","lat":40.68691,"lng":-81.17639,"zip":"44644","miles_from_dt":9.88},{"city":"Sherrodsville","state_name":"Ohio","lat":40.50245,"lng":-81.24975,"zip":"44675","miles_from_dt":10.27},{"city":"Bowerston","state_name":"Ohio","lat":40.43868,"lng":-81.1754,"zip":"44695","miles_from_dt":10.34},{"city":"Leesville","state_name":"Ohio","lat":40.45166,"lng":-81.20963,"zip":"44639","miles_from_dt":10.69},{"city":"Scio","state_name":"Ohio","lat":40.40486,"lng":-81.09925,"zip":"43988","miles_from_dt":11.26},{"city":"Bergholz","state_name":"Ohio","lat":40.50867,"lng":-80.87349,"zip":"43908","miles_from_dt":11.29},{"city":"New Rumley","state_name":"Ohio","lat":40.39926,"lng":-81.03393,"zip":"43984","miles_from_dt":11.76},{"city":"Kensington","state_name":"Ohio","lat":40.71672,"lng":-80.95686,"zip":"44427","miles_from_dt":12.03},{"city":"Wolf Run","state_name":"Ohio","lat":40.46564,"lng":-80.88599,"zip":"43970","miles_from_dt":12.11},{"city":"Summitville","state_name":"Ohio","lat":40.67315,"lng":-80.88919,"zip":"43962","miles_from_dt":12.17},{"city":"Minerva","state_name":"Ohio","lat":40.74313,"lng":-81.09343,"zip":"44657","miles_from_dt":12.2},{"city":"Waynesburg","state_name":"Ohio","lat":40.68458,"lng":-81.25757,"zip":"44688","miles_from_dt":12.62},{"city":"Salineville","state_name":"Ohio","lat":40.63156,"lng":-80.84797,"zip":"43945","miles_from_dt":12.69},{"city":"Magnolia","state_name":"Ohio","lat":40.64304,"lng":-81.2998,"zip":"44643","miles_from_dt":12.99},{"city":"Mineral City","state_name":"Ohio","lat":40.57027,"lng":-81.33104,"zip":"44656","miles_from_dt":13.53},{"city":"Jewett","state_name":"Ohio","lat":40.3784,"lng":-80.99036,"zip":"43986","miles_from_dt":13.73},{"city":"East Springfield","state_name":"Ohio","lat":40.44583,"lng":-80.86242,"zip":"43925","miles_from_dt":13.92},{"city":"East Rochester","state_name":"Ohio","lat":40.7623,"lng":-80.99919,"zip":"44625","miles_from_dt":14.04},{"city":"Robertsville","state_name":"Ohio","lat":40.76305,"lng":-81.18788,"zip":"44670","miles_from_dt":14.8},{"city":"Dennison","state_name":"Ohio","lat":40.42878,"lng":-81.28955,"zip":"44621","miles_from_dt":14.83},{"city":"Somerdale","state_name":"Ohio","lat":40.56478,"lng":-81.36408,"zip":"44678","miles_from_dt":15.27},{"city":"Hanoverton","state_name":"Ohio","lat":40.7524,"lng":-80.89963,"zip":"44423","miles_from_dt":15.74},{"city":"Hammondsville","state_name":"Ohio","lat":40.56978,"lng":-80.77372,"zip":"43930","miles_from_dt":15.8},{"city":"Hopedale","state_name":"Ohio","lat":40.36981,"lng":-80.90655,"zip":"43976","miles_from_dt":16.21},{"city":"Sandyville","state_name":"Ohio","lat":40.64511,"lng":-81.36565,"zip":"44671","miles_from_dt":16.26},{"city":"Paris","state_name":"Ohio","lat":40.79613,"lng":-81.15619,"zip":"44669","miles_from_dt":16.4},{"city":"East Canton","state_name":"Ohio","lat":40.76706,"lng":-81.25814,"zip":"44730","miles_from_dt":16.87},{"city":"Irondale","state_name":"Ohio","lat":40.53145,"lng":-80.74699,"zip":"43932","miles_from_dt":17.38},{"city":"Zoar","state_name":"Ohio","lat":40.60807,"lng":-81.41175,"zip":"44697","miles_from_dt":18},{"city":"Midvale","state_name":"Ohio","lat":40.43711,"lng":-81.37105,"zip":"44653","miles_from_dt":18.03},{"city":"East Sparta","state_name":"Ohio","lat":40.68994,"lng":-81.38404,"zip":"44626","miles_from_dt":18.38},{"city":"Richmond","state_name":"Ohio","lat":40.43623,"lng":-80.76853,"zip":"43944","miles_from_dt":18.44},{"city":"Homeworth","state_name":"Ohio","lat":40.83385,"lng":-81.04685,"zip":"44634","miles_from_dt":18.47},{"city":"Bloomingdale","state_name":"Ohio","lat":40.37039,"lng":-80.8214,"zip":"43910","miles_from_dt":19},{"city":"North Georgetown","state_name":"Ohio","lat":40.83555,"lng":-80.98706,"zip":"44665","miles_from_dt":19.09},{"city":"Deersville","state_name":"Ohio","lat":40.2978,"lng":-81.18821,"zip":"44693","miles_from_dt":19.52},{"city":"Canton","state_name":"Ohio","lat":40.76031,"lng":-81.34715,"zip":"44707","miles_from_dt":19.6},{"city":"Uhrichsville","state_name":"Ohio","lat":40.35505,"lng":-81.3218,"zip":"44683","miles_from_dt":19.61},{"city":"Winona","state_name":"Ohio","lat":40.82192,"lng":-80.88864,"zip":"44493","miles_from_dt":20.11},{"city":"Wellsville","state_name":"Ohio","lat":40.63365,"lng":-80.68729,"zip":"43968","miles_from_dt":20.85},{"city":"Bolivar","state_name":"Ohio","lat":40.63488,"lng":-81.46098,"zip":"44612","miles_from_dt":20.89},{"city":"Tuscarawas","state_name":"Ohio","lat":40.39765,"lng":-81.40323,"zip":"44682","miles_from_dt":20.92},{"city":"Stillwater","state_name":"Ohio","lat":40.32091,"lng":-81.3095,"zip":"44679","miles_from_dt":21.03},{"city":"New Philadelphia","state_name":"Ohio","lat":40.46066,"lng":-81.44961,"zip":"44663","miles_from_dt":21.1},{"city":"Lisbon","state_name":"Ohio","lat":40.74974,"lng":-80.75149,"zip":"44432","miles_from_dt":21.12},{"city":"Canton","state_name":"Ohio","lat":40.80001,"lng":-81.34329,"zip":"44704","miles_from_dt":21.42},{"city":"Cadiz","state_name":"Ohio","lat":40.25697,"lng":-81.0205,"zip":"43907","miles_from_dt":21.57},{"city":"Dover","state_name":"Ohio","lat":40.54883,"lng":-81.48375,"zip":"44622","miles_from_dt":21.61},{"city":"West Point","state_name":"Ohio","lat":40.70796,"lng":-80.70221,"zip":"44492","miles_from_dt":21.83},{"city":"Maximo","state_name":"Ohio","lat":40.87603,"lng":-81.17413,"zip":"44650","miles_from_dt":21.97},{"city":"Toronto","state_name":"Ohio","lat":40.48695,"lng":-80.66928,"zip":"43964","miles_from_dt":22.01},{"city":"Canton","state_name":"Ohio","lat":40.75382,"lng":-81.4198,"zip":"44706","miles_from_dt":22.29},{"city":"Louisville","state_name":"Ohio","lat":40.86528,"lng":-81.23977,"zip":"44641","miles_from_dt":22.35},{"city":"Canton","state_name":"Ohio","lat":40.79992,"lng":-81.37665,"zip":"44702","miles_from_dt":22.61},{"city":"Canton","state_name":"Ohio","lat":40.7297,"lng":-81.45083,"zip":"44701","miles_from_dt":22.77},{"city":"Canton","state_name":"Ohio","lat":40.83347,"lng":-81.3327,"zip":"44705","miles_from_dt":22.87},{"city":"Tippecanoe","state_name":"Ohio","lat":40.27789,"lng":-81.28752,"zip":"44699","miles_from_dt":22.9},{"city":"Canton","state_name":"Ohio","lat":40.81186,"lng":-81.37337,"zip":"44799","miles_from_dt":23.09},{"city":"Canton","state_name":"Ohio","lat":40.81093,"lng":-81.38134,"zip":"44703","miles_from_dt":23.33},{"city":"Stratton","state_name":"Ohio","lat":40.52343,"lng":-80.63025,"zip":"43961","miles_from_dt":23.54},{"city":"Newell","state_name":"West Virginia","lat":40.60108,"lng":-80.62646,"zip":"26050","miles_from_dt":23.66},{"city":"Canton","state_name":"Ohio","lat":40.83606,"lng":-81.35905,"zip":"44714","miles_from_dt":23.86},{"city":"Elkton","state_name":"Ohio","lat":40.77068,"lng":-80.70455,"zip":"44415","miles_from_dt":23.96},{"city":"Canton","state_name":"Ohio","lat":40.791,"lng":-81.42362,"zip":"44750","miles_from_dt":24.01},{"city":"Canton","state_name":"Ohio","lat":40.78962,"lng":-81.42659,"zip":"44710","miles_from_dt":24.07},{"city":"Empire","state_name":"Ohio","lat":40.51068,"lng":-80.62252,"zip":"43926","miles_from_dt":24.08},{"city":"Steubenville","state_name":"Ohio","lat":40.35815,"lng":-80.70548,"zip":"43953","miles_from_dt":24.18},{"city":"Damascus","state_name":"Ohio","lat":40.90536,"lng":-80.95381,"zip":"44619","miles_from_dt":24.19},{"city":"Beloit","state_name":"Ohio","lat":40.9121,"lng":-80.9879,"zip":"44609","miles_from_dt":24.24},{"city":"Canton","state_name":"Ohio","lat":40.83022,"lng":-81.38645,"zip":"44711","miles_from_dt":24.49},{"city":"Alliance","state_name":"Ohio","lat":40.91978,"lng":-81.1278,"zip":"44601","miles_from_dt":24.51},{"city":"Sebring","state_name":"Ohio","lat":40.92045,"lng":-81.02375,"zip":"44672","miles_from_dt":24.54},{"city":"Gnadenhutten","state_name":"Ohio","lat":40.35107,"lng":-81.44553,"zip":"44629","miles_from_dt":24.6},{"city":"Steubenville","state_name":"Ohio","lat":40.39763,"lng":-80.66278,"zip":"43952","miles_from_dt":24.61},{"city":"Strasburg","state_name":"Ohio","lat":40.60174,"lng":-81.54512,"zip":"44680","miles_from_dt":24.91},{"city":"Canton","state_name":"Ohio","lat":40.84218,"lng":-81.38634,"zip":"44709","miles_from_dt":25.1},{"city":"Salem","state_name":"Ohio","lat":40.90221,"lng":-80.87026,"zip":"44460","miles_from_dt":25.49},{"city":"Canton","state_name":"Ohio","lat":40.81708,"lng":-81.43486,"zip":"44708","miles_from_dt":25.64},{"city":"Leetonia","state_name":"Ohio","lat":40.84748,"lng":-80.75365,"zip":"44431","miles_from_dt":25.64},{"city":"Piney Fork","state_name":"Ohio","lat":40.25258,"lng":-80.81345,"zip":"43941","miles_from_dt":25.67},{"city":"Smithfield","state_name":"Ohio","lat":40.26847,"lng":-80.78002,"zip":"43948","miles_from_dt":25.77},{"city":"New Cumberland","state_name":"West Virginia","lat":40.53223,"lng":-80.5837,"zip":"26047","miles_from_dt":25.91},{"city":"Canton","state_name":"Ohio","lat":40.89443,"lng":-81.32694,"zip":"44721","miles_from_dt":26.21},{"city":"Massillon","state_name":"Ohio","lat":40.75416,"lng":-81.514,"zip":"44648","miles_from_dt":26.49},{"city":"Adena","state_name":"Ohio","lat":40.21691,"lng":-80.86637,"zip":"43901","miles_from_dt":26.51},{"city":"Middlebranch","state_name":"Ohio","lat":40.90088,"lng":-81.33015,"zip":"44652","miles_from_dt":26.68},{"city":"New Manchester","state_name":"West Virginia","lat":40.5211,"lng":-80.57022,"zip":"26056","miles_from_dt":26.7},{"city":"New Athens","state_name":"Ohio","lat":40.18401,"lng":-80.99466,"zip":"43981","miles_from_dt":26.75},{"city":"East Liverpool","state_name":"Ohio","lat":40.67608,"lng":-80.57965,"zip":"43920","miles_from_dt":27.06},{"city":"Navarre","state_name":"Ohio","lat":40.71036,"lng":-81.55468,"zip":"44662","miles_from_dt":27.14},{"city":"Canton","state_name":"Ohio","lat":40.84795,"lng":-81.44136,"zip":"44735","miles_from_dt":27.36},{"city":"Chester","state_name":"West Virginia","lat":40.59404,"lng":-80.55258,"zip":"26034","miles_from_dt":27.49},{"city":"Dillonvale","state_name":"Ohio","lat":40.22396,"lng":-80.80546,"zip":"43917","miles_from_dt":27.58},{"city":"Canton","state_name":"Ohio","lat":40.85122,"lng":-81.44806,"zip":"44718","miles_from_dt":27.76},{"city":"Massillon","state_name":"Ohio","lat":40.81055,"lng":-81.49835,"zip":"44646","miles_from_dt":27.92},{"city":"Mingo Junction","state_name":"Ohio","lat":40.30138,"lng":-80.67199,"zip":"43938","miles_from_dt":28.01},{"city":"Freeport","state_name":"Ohio","lat":40.19111,"lng":-81.27688,"zip":"43973","miles_from_dt":28.05},{"city":"Washingtonville","state_name":"Ohio","lat":40.90041,"lng":-80.76801,"zip":"44490","miles_from_dt":28.06},{"city":"Holloway","state_name":"Ohio","lat":40.16168,"lng":-81.13155,"zip":"43985","miles_from_dt":28.12},{"city":"Beach City","state_name":"Ohio","lat":40.65241,"lng":-81.59714,"zip":"44608","miles_from_dt":28.14},{"city":"Port Washington","state_name":"Ohio","lat":40.29773,"lng":-81.47846,"zip":"43837","miles_from_dt":28.28},{"city":"Harrisville","state_name":"Ohio","lat":40.18205,"lng":-80.88728,"zip":"43974","miles_from_dt":28.32},{"city":"Rogers","state_name":"Ohio","lat":40.77581,"lng":-80.60485,"zip":"44455","miles_from_dt":28.55},{"city":"North Benton","state_name":"Ohio","lat":40.97957,"lng":-81.02446,"zip":"44449","miles_from_dt":28.59},{"city":"Weirton","state_name":"West Virginia","lat":40.42189,"lng":-80.56123,"zip":"26062","miles_from_dt":28.8},{"city":"Canton","state_name":"Ohio","lat":40.89443,"lng":-81.42211,"zip":"44767","miles_from_dt":29.07},{"city":"Limaville","state_name":"Ohio","lat":40.98455,"lng":-81.14858,"zip":"44640","miles_from_dt":29.08},{"city":"Flushing","state_name":"Ohio","lat":40.14519,"lng":-81.10451,"zip":"43977","miles_from_dt":29.14},{"city":"Brewster","state_name":"Ohio","lat":40.71338,"lng":-81.60026,"zip":"44613","miles_from_dt":29.46},{"city":"Rayland","state_name":"Ohio","lat":40.2242,"lng":-80.73269,"zip":"43943","miles_from_dt":29.72},{"city":"North Canton","state_name":"Ohio","lat":40.90112,"lng":-81.43259,"zip":"44720","miles_from_dt":29.77},{"city":"Stone Creek","state_name":"Ohio","lat":40.40511,"lng":-81.60025,"zip":"43840","miles_from_dt":29.89},{"city":"Columbiana","state_name":"Ohio","lat":40.88487,"lng":-80.68569,"zip":"44408","miles_from_dt":29.94},{"city":"Hartville","state_name":"Ohio","lat":40.96401,"lng":-81.3048,"zip":"44632","miles_from_dt":29.96},{"city":"Greenford","state_name":"Ohio","lat":40.94502,"lng":-80.79206,"zip":"44422","miles_from_dt":29.99}],"targetCityZipCode":"44615","targetCityState":"Ohio"},"__N_SSG":true}