{"pageProps":{"stateName":"Ohio","cityName":"chippewa-lake","nearbyCities":[{"city":"Seville","state_name":"Ohio","lat":41.0291,"lng":-81.87739,"zip":"44273","miles_from_dt":3.17},{"city":"Westfield Center","state_name":"Ohio","lat":41.02814,"lng":-81.92764,"zip":"44251","miles_from_dt":3.36},{"city":"Medina","state_name":"Ohio","lat":41.14092,"lng":-81.85954,"zip":"44256","miles_from_dt":5.19},{"city":"Lodi","state_name":"Ohio","lat":41.04522,"lng":-82.01282,"zip":"44254","miles_from_dt":6.2},{"city":"Creston","state_name":"Ohio","lat":40.95561,"lng":-81.9133,"zip":"44217","miles_from_dt":8.06},{"city":"Wadsworth","state_name":"Ohio","lat":41.05851,"lng":-81.73854,"zip":"44281","miles_from_dt":8.45},{"city":"Sharon Center","state_name":"Ohio","lat":41.09944,"lng":-81.7285,"zip":"44274","miles_from_dt":9.12},{"city":"Wadsworth","state_name":"Ohio","lat":41.0276,"lng":-81.72765,"zip":"44282","miles_from_dt":9.48},{"city":"Litchfield","state_name":"Ohio","lat":41.16571,"lng":-82.03767,"zip":"44253","miles_from_dt":9.69},{"city":"Rittman","state_name":"Ohio","lat":40.96317,"lng":-81.77696,"zip":"44270","miles_from_dt":9.86},{"city":"Burbank","state_name":"Ohio","lat":40.95081,"lng":-81.99935,"zip":"44214","miles_from_dt":9.86},{"city":"Sterling","state_name":"Ohio","lat":40.93667,"lng":-81.83502,"zip":"44276","miles_from_dt":9.92},{"city":"Spencer","state_name":"Ohio","lat":41.09976,"lng":-82.09927,"zip":"44275","miles_from_dt":10.61},{"city":"Valley City","state_name":"Ohio","lat":41.23812,"lng":-81.92339,"zip":"44280","miles_from_dt":11.54},{"city":"Medina","state_name":"Ohio","lat":41.1016,"lng":-82.12428,"zip":"44258","miles_from_dt":11.92},{"city":"Homerville","state_name":"Ohio","lat":41.0316,"lng":-82.12246,"zip":"44235","miles_from_dt":11.98},{"city":"Brunswick","state_name":"Ohio","lat":41.24386,"lng":-81.82863,"zip":"44212","miles_from_dt":12.42},{"city":"Akron","state_name":"Ohio","lat":41.09994,"lng":-81.65182,"zip":"44321","miles_from_dt":13.07},{"city":"Doylestown","state_name":"Ohio","lat":40.96237,"lng":-81.69064,"zip":"44230","miles_from_dt":13.28},{"city":"West Salem","state_name":"Ohio","lat":40.94,"lng":-82.1005,"zip":"44287","miles_from_dt":13.91},{"city":"Smithville","state_name":"Ohio","lat":40.87254,"lng":-81.85983,"zip":"44677","miles_from_dt":13.92},{"city":"Hinckley","state_name":"Ohio","lat":41.23943,"lng":-81.73513,"zip":"44233","miles_from_dt":14.39},{"city":"Barberton","state_name":"Ohio","lat":41.02013,"lng":-81.62896,"zip":"44203","miles_from_dt":14.57},{"city":"Marshallville","state_name":"Ohio","lat":40.90796,"lng":-81.71845,"zip":"44645","miles_from_dt":14.75},{"city":"Akron","state_name":"Ohio","lat":41.16195,"lng":-81.63419,"zip":"44333","miles_from_dt":15.17},{"city":"Grafton","state_name":"Ohio","lat":41.26779,"lng":-82.04188,"zip":"44044","miles_from_dt":15.42},{"city":"Akron","state_name":"Ohio","lat":41.15087,"lng":-81.60889,"zip":"44372","miles_from_dt":16.11},{"city":"Bath","state_name":"Ohio","lat":41.18892,"lng":-81.62975,"zip":"44210","miles_from_dt":16.22},{"city":"Akron","state_name":"Ohio","lat":41.07818,"lng":-81.58379,"zip":"44320","miles_from_dt":16.49},{"city":"Columbia Station","state_name":"Ohio","lat":41.30986,"lng":-81.93959,"zip":"44028","miles_from_dt":16.55},{"city":"Strongsville","state_name":"Ohio","lat":41.31223,"lng":-81.8563,"zip":"44149","miles_from_dt":16.73},{"city":"Sullivan","state_name":"Ohio","lat":41.03352,"lng":-82.21993,"zip":"44880","miles_from_dt":16.95},{"city":"Lagrange","state_name":"Ohio","lat":41.24853,"lng":-82.13119,"zip":"44050","miles_from_dt":17.16},{"city":"Strongsville","state_name":"Ohio","lat":41.31265,"lng":-81.81064,"zip":"44136","miles_from_dt":17.24},{"city":"Richfield","state_name":"Ohio","lat":41.23668,"lng":-81.64017,"zip":"44286","miles_from_dt":17.66},{"city":"Orrville","state_name":"Ohio","lat":40.83386,"lng":-81.76495,"zip":"44667","miles_from_dt":17.87},{"city":"Akron","state_name":"Ohio","lat":41.13239,"lng":-81.56512,"zip":"44313","miles_from_dt":17.94},{"city":"Akron","state_name":"Ohio","lat":41.04048,"lng":-81.55838,"zip":"44314","miles_from_dt":17.94},{"city":"Wellington","state_name":"Ohio","lat":41.16757,"lng":-82.22836,"zip":"44090","miles_from_dt":18.39},{"city":"Akron","state_name":"Ohio","lat":41.07049,"lng":-81.546,"zip":"44307","miles_from_dt":18.46},{"city":"North Royalton","state_name":"Ohio","lat":41.31388,"lng":-81.74497,"zip":"44133","miles_from_dt":18.53},{"city":"Polk","state_name":"Ohio","lat":40.92082,"lng":-82.19483,"zip":"44866","miles_from_dt":18.64},{"city":"Wooster","state_name":"Ohio","lat":40.80714,"lng":-81.97971,"zip":"44691","miles_from_dt":18.75},{"city":"Akron","state_name":"Ohio","lat":41.08951,"lng":-81.53857,"zip":"44302","miles_from_dt":18.88},{"city":"Clinton","state_name":"Ohio","lat":40.93848,"lng":-81.58397,"zip":"44216","miles_from_dt":18.89},{"city":"Akron","state_name":"Ohio","lat":41.10448,"lng":-81.53732,"zip":"44303","miles_from_dt":19.04},{"city":"Akron","state_name":"Ohio","lat":41.04507,"lng":-81.5262,"zip":"44317","miles_from_dt":19.58},{"city":"Akron","state_name":"Ohio","lat":41.04398,"lng":-81.52449,"zip":"44301","miles_from_dt":19.68},{"city":"Akron","state_name":"Ohio","lat":41.06564,"lng":-81.52082,"zip":"44396","miles_from_dt":19.78},{"city":"Akron","state_name":"Ohio","lat":41.06427,"lng":-81.52047,"zip":"44311","miles_from_dt":19.8},{"city":"Akron","state_name":"Ohio","lat":41.0818,"lng":-81.51751,"zip":"44308","miles_from_dt":19.95},{"city":"Akron","state_name":"Ohio","lat":41.0831,"lng":-81.51749,"zip":"44326","miles_from_dt":19.96},{"city":"Fairlawn","state_name":"Ohio","lat":41.07934,"lng":-81.51662,"zip":"44334","miles_from_dt":20},{"city":"Akron","state_name":"Ohio","lat":40.98402,"lng":-81.53169,"zip":"44319","miles_from_dt":20.15},{"city":"Akron","state_name":"Ohio","lat":41.09954,"lng":-81.51447,"zip":"44309","miles_from_dt":20.19},{"city":"Akron","state_name":"Ohio","lat":41.07605,"lng":-81.51221,"zip":"44325","miles_from_dt":20.22},{"city":"Akron","state_name":"Ohio","lat":41.08585,"lng":-81.50908,"zip":"44304","miles_from_dt":20.4},{"city":"Cuyahoga Falls","state_name":"Ohio","lat":41.16968,"lng":-81.53051,"zip":"44223","miles_from_dt":20.4},{"city":"Akron","state_name":"Ohio","lat":41.08168,"lng":-81.50728,"zip":"44398","miles_from_dt":20.49},{"city":"Akron","state_name":"Ohio","lat":41.08716,"lng":-81.50691,"zip":"44328","miles_from_dt":20.52},{"city":"Berea","state_name":"Ohio","lat":41.36867,"lng":-81.86303,"zip":"44017","miles_from_dt":20.56},{"city":"Broadview Heights","state_name":"Ohio","lat":41.31956,"lng":-81.67797,"zip":"44147","miles_from_dt":20.62},{"city":"Canal Fulton","state_name":"Ohio","lat":40.88689,"lng":-81.58747,"zip":"44614","miles_from_dt":20.72},{"city":"Olmsted Falls","state_name":"Ohio","lat":41.37363,"lng":-81.92302,"zip":"44138","miles_from_dt":20.85},{"city":"Akron","state_name":"Ohio","lat":41.10771,"lng":-81.49948,"zip":"44310","miles_from_dt":21.02},{"city":"North Lawrence","state_name":"Ohio","lat":40.84232,"lng":-81.63202,"zip":"44666","miles_from_dt":21.14},{"city":"Peninsula","state_name":"Ohio","lat":41.22966,"lng":-81.54311,"zip":"44264","miles_from_dt":21.54},{"city":"Brecksville","state_name":"Ohio","lat":41.30139,"lng":-81.61439,"zip":"44141","miles_from_dt":21.71},{"city":"Akron","state_name":"Ohio","lat":41.03927,"lng":-81.48316,"zip":"44306","miles_from_dt":21.86},{"city":"Akron","state_name":"Ohio","lat":41.03773,"lng":-81.48309,"zip":"44315","miles_from_dt":21.87},{"city":"Cleveland","state_name":"Ohio","lat":41.378,"lng":-81.7868,"zip":"44130","miles_from_dt":21.92},{"city":"Cuyahoga Falls","state_name":"Ohio","lat":41.13534,"lng":-81.48311,"zip":"44222","miles_from_dt":22.17},{"city":"Akron","state_name":"Ohio","lat":41.07933,"lng":-81.47277,"zip":"44316","miles_from_dt":22.28},{"city":"North Ridgeville","state_name":"Ohio","lat":41.38404,"lng":-82.02014,"zip":"44039","miles_from_dt":22.44},{"city":"Nankin","state_name":"Ohio","lat":40.92082,"lng":-82.28186,"zip":"44848","miles_from_dt":22.55},{"city":"Cuyahoga Falls","state_name":"Ohio","lat":41.13898,"lng":-81.47624,"zip":"44221","miles_from_dt":22.57},{"city":"Nova","state_name":"Ohio","lat":41.02103,"lng":-82.32636,"zip":"44859","miles_from_dt":22.58},{"city":"Akron","state_name":"Ohio","lat":41.07643,"lng":-81.46226,"zip":"44305","miles_from_dt":22.83},{"city":"Elyria","state_name":"Ohio","lat":41.36776,"lng":-82.09851,"zip":"44036","miles_from_dt":22.9},{"city":"Cleveland","state_name":"Ohio","lat":41.4005,"lng":-81.82678,"zip":"44188","miles_from_dt":22.99},{"city":"Oberlin","state_name":"Ohio","lat":41.28858,"lng":-82.23643,"zip":"44074","miles_from_dt":23.07},{"city":"Brookpark","state_name":"Ohio","lat":41.40205,"lng":-81.82406,"zip":"44142","miles_from_dt":23.12},{"city":"Dalton","state_name":"Ohio","lat":40.7722,"lng":-81.68925,"zip":"44618","miles_from_dt":23.43},{"city":"Elyria","state_name":"Ohio","lat":41.36539,"lng":-82.13025,"zip":"44035","miles_from_dt":23.55},{"city":"Cleveland","state_name":"Ohio","lat":41.39035,"lng":-81.73536,"zip":"44129","miles_from_dt":23.58},{"city":"North Olmsted","state_name":"Ohio","lat":41.41493,"lng":-81.91905,"zip":"44070","miles_from_dt":23.69},{"city":"Cleveland","state_name":"Ohio","lat":41.38496,"lng":-81.70459,"zip":"44134","miles_from_dt":23.87},{"city":"Apple Creek","state_name":"Ohio","lat":40.73313,"lng":-81.79625,"zip":"44606","miles_from_dt":24},{"city":"Kidron","state_name":"Ohio","lat":40.74234,"lng":-81.74703,"zip":"44636","miles_from_dt":24.1},{"city":"Jeromesville","state_name":"Ohio","lat":40.79231,"lng":-82.17973,"zip":"44840","miles_from_dt":24.24},{"city":"Akron","state_name":"Ohio","lat":41.01462,"lng":-81.4412,"zip":"44312","miles_from_dt":24.26},{"city":"Lakemore","state_name":"Ohio","lat":41.02159,"lng":-81.43331,"zip":"44250","miles_from_dt":24.6},{"city":"Munroe Falls","state_name":"Ohio","lat":41.13901,"lng":-81.43492,"zip":"44262","miles_from_dt":24.68},{"city":"Cleveland","state_name":"Ohio","lat":41.42472,"lng":-81.82135,"zip":"44135","miles_from_dt":24.68},{"city":"Green","state_name":"Ohio","lat":40.93254,"lng":-81.46354,"zip":"44232","miles_from_dt":24.73},{"city":"Northfield","state_name":"Ohio","lat":41.31386,"lng":-81.5476,"zip":"44067","miles_from_dt":24.8},{"city":"Independence","state_name":"Ohio","lat":41.3835,"lng":-81.65349,"zip":"44131","miles_from_dt":25.03},{"city":"Stow","state_name":"Ohio","lat":41.17697,"lng":-81.44016,"zip":"44224","miles_from_dt":25.04},{"city":"Tallmadge","state_name":"Ohio","lat":41.10052,"lng":-81.42137,"zip":"44278","miles_from_dt":25.04},{"city":"Kipton","state_name":"Ohio","lat":41.26626,"lng":-82.30553,"zip":"44049","miles_from_dt":25.07},{"city":"Hudson","state_name":"Ohio","lat":41.25496,"lng":-81.48139,"zip":"44237","miles_from_dt":25.19},{"city":"Savannah","state_name":"Ohio","lat":40.96859,"lng":-82.36631,"zip":"44874","miles_from_dt":25.42},{"city":"Cleveland","state_name":"Ohio","lat":41.44263,"lng":-81.85278,"zip":"44126","miles_from_dt":25.7},{"city":"Massillon","state_name":"Ohio","lat":40.79537,"lng":-81.56575,"zip":"44647","miles_from_dt":25.87},{"city":"Ashland","state_name":"Ohio","lat":40.87335,"lng":-82.32096,"zip":"44805","miles_from_dt":25.96},{"city":"Uniontown","state_name":"Ohio","lat":40.9596,"lng":-81.42361,"zip":"44685","miles_from_dt":26.05},{"city":"Westlake","state_name":"Ohio","lat":41.45245,"lng":-81.92944,"zip":"44145","miles_from_dt":26.3},{"city":"New London","state_name":"Ohio","lat":41.10577,"lng":-82.40166,"zip":"44851","miles_from_dt":26.33},{"city":"Hudson","state_name":"Ohio","lat":41.24669,"lng":-81.44775,"zip":"44236","miles_from_dt":26.46},{"city":"Cleveland","state_name":"Ohio","lat":41.43738,"lng":-81.74272,"zip":"44144","miles_from_dt":26.51},{"city":"Avon","state_name":"Ohio","lat":41.44855,"lng":-82.0187,"zip":"44011","miles_from_dt":26.72},{"city":"Macedonia","state_name":"Ohio","lat":41.31465,"lng":-81.49868,"zip":"44056","miles_from_dt":26.77},{"city":"North Canton","state_name":"Ohio","lat":40.90112,"lng":-81.43259,"zip":"44720","miles_from_dt":27.11},{"city":"Cleveland","state_name":"Ohio","lat":41.45775,"lng":-81.78986,"zip":"44111","miles_from_dt":27.23},{"city":"Shreve","state_name":"Ohio","lat":40.6891,"lng":-82.03266,"zip":"44676","miles_from_dt":27.32},{"city":"Cleveland","state_name":"Ohio","lat":41.40658,"lng":-81.61548,"zip":"44125","miles_from_dt":27.42},{"city":"Cleveland","state_name":"Ohio","lat":41.46138,"lng":-81.78691,"zip":"44181","miles_from_dt":27.5},{"city":"Rocky River","state_name":"Ohio","lat":41.47011,"lng":-81.85194,"zip":"44116","miles_from_dt":27.59},{"city":"Massillon","state_name":"Ohio","lat":40.81055,"lng":-81.49835,"zip":"44646","miles_from_dt":27.67},{"city":"Lorain","state_name":"Ohio","lat":41.43309,"lng":-82.13354,"zip":"44055","miles_from_dt":27.74},{"city":"Amherst","state_name":"Ohio","lat":41.36825,"lng":-82.25958,"zip":"44001","miles_from_dt":27.75},{"city":"Greentown","state_name":"Ohio","lat":40.92695,"lng":-81.40408,"zip":"44630","miles_from_dt":27.76},{"city":"Cleveland","state_name":"Ohio","lat":41.44457,"lng":-81.69681,"zip":"44109","miles_from_dt":27.79},{"city":"Canton","state_name":"Ohio","lat":40.89443,"lng":-81.42211,"zip":"44767","miles_from_dt":27.8},{"city":"Wakeman","state_name":"Ohio","lat":41.24661,"lng":-82.38195,"zip":"44889","miles_from_dt":27.9},{"city":"Mount Eaton","state_name":"Ohio","lat":40.6948,"lng":-81.70191,"zip":"44659","miles_from_dt":28},{"city":"Hayesville","state_name":"Ohio","lat":40.77186,"lng":-82.25947,"zip":"44838","miles_from_dt":28},{"city":"Canton","state_name":"Ohio","lat":40.85122,"lng":-81.44806,"zip":"44718","miles_from_dt":28.1},{"city":"Fredericksburg","state_name":"Ohio","lat":40.66665,"lng":-81.83393,"zip":"44627","miles_from_dt":28.18},{"city":"Kent","state_name":"Ohio","lat":41.14674,"lng":-81.36268,"zip":"44242","miles_from_dt":28.48},{"city":"Canton","state_name":"Ohio","lat":40.84795,"lng":-81.44136,"zip":"44735","miles_from_dt":28.51},{"city":"Bay Village","state_name":"Ohio","lat":41.48508,"lng":-81.93171,"zip":"44140","miles_from_dt":28.56},{"city":"Bedford","state_name":"Ohio","lat":41.38161,"lng":-81.53018,"zip":"44146","miles_from_dt":28.75},{"city":"Lakewood","state_name":"Ohio","lat":41.48263,"lng":-81.80025,"zip":"44107","miles_from_dt":28.81},{"city":"Sheffield Lake","state_name":"Ohio","lat":41.46419,"lng":-82.0931,"zip":"44054","miles_from_dt":28.89},{"city":"Cleveland","state_name":"Ohio","lat":41.4749,"lng":-81.73751,"zip":"44102","miles_from_dt":29.06},{"city":"Maple Heights","state_name":"Ohio","lat":41.40903,"lng":-81.56274,"zip":"44137","miles_from_dt":29.13},{"city":"Twinsburg","state_name":"Ohio","lat":41.31706,"lng":-81.44106,"zip":"44087","miles_from_dt":29.27},{"city":"Brewster","state_name":"Ohio","lat":40.71338,"lng":-81.60026,"zip":"44613","miles_from_dt":29.28},{"city":"Mogadore","state_name":"Ohio","lat":41.03684,"lng":-81.34079,"zip":"44260","miles_from_dt":29.28},{"city":"Kent","state_name":"Ohio","lat":41.13329,"lng":-81.34241,"zip":"44240","miles_from_dt":29.38},{"city":"Kent","state_name":"Ohio","lat":41.14793,"lng":-81.34046,"zip":"44243","miles_from_dt":29.64},{"city":"Cleveland","state_name":"Ohio","lat":41.45069,"lng":-81.63032,"zip":"44105","miles_from_dt":29.66},{"city":"Lorain","state_name":"Ohio","lat":41.42694,"lng":-82.22138,"zip":"44053","miles_from_dt":29.69},{"city":"Lorain","state_name":"Ohio","lat":41.45519,"lng":-82.16133,"zip":"44052","miles_from_dt":29.76},{"city":"Avon Lake","state_name":"Ohio","lat":41.49443,"lng":-82.01594,"zip":"44012","miles_from_dt":29.78},{"city":"Massillon","state_name":"Ohio","lat":40.75416,"lng":-81.514,"zip":"44648","miles_from_dt":29.8},{"city":"Birmingham","state_name":"Ohio","lat":41.32996,"lng":-82.36113,"zip":"44816","miles_from_dt":29.94}],"targetCityZipCode":"44215","targetCityState":"Ohio"},"__N_SSG":true}