{"pageProps":{"stateName":"Ohio","cityName":"edgerton","nearbyCities":[{"city":"Blakeslee","state_name":"Ohio","lat":41.52429,"lng":-84.73101,"zip":"43505","miles_from_dt":5.82},{"city":"Farmer","state_name":"Ohio","lat":41.38008,"lng":-84.63565,"zip":"43520","miles_from_dt":6.35},{"city":"Butler","state_name":"Indiana","lat":41.4237,"lng":-84.87425,"zip":"46721","miles_from_dt":7.66},{"city":"Hicksville","state_name":"Ohio","lat":41.31339,"lng":-84.73024,"zip":"43526","miles_from_dt":8.74},{"city":"Bryan","state_name":"Ohio","lat":41.46739,"lng":-84.55704,"zip":"43506","miles_from_dt":9.09},{"city":"Mark Center","state_name":"Ohio","lat":41.31345,"lng":-84.634,"zip":"43536","miles_from_dt":10.02},{"city":"Edon","state_name":"Ohio","lat":41.58977,"lng":-84.75385,"zip":"43518","miles_from_dt":10.42},{"city":"Hamilton","state_name":"Indiana","lat":41.54919,"lng":-84.87892,"zip":"46742","miles_from_dt":10.85},{"city":"Saint Joe","state_name":"Indiana","lat":41.31974,"lng":-84.88506,"zip":"46785","miles_from_dt":11.63},{"city":"Ney","state_name":"Ohio","lat":41.37519,"lng":-84.51818,"zip":"43549","miles_from_dt":11.8},{"city":"Sherwood","state_name":"Ohio","lat":41.30575,"lng":-84.56984,"zip":"43556","miles_from_dt":12.4},{"city":"Montpelier","state_name":"Ohio","lat":41.60575,"lng":-84.6338,"zip":"43543","miles_from_dt":12.44},{"city":"Spencerville","state_name":"Indiana","lat":41.27005,"lng":-84.90876,"zip":"46788","miles_from_dt":15.02},{"city":"Waterloo","state_name":"Indiana","lat":41.46106,"lng":-85.01928,"zip":"46793","miles_from_dt":15.18},{"city":"Evansport","state_name":"Ohio","lat":41.42092,"lng":-84.40854,"zip":"43519","miles_from_dt":16.66},{"city":"Harlan","state_name":"Indiana","lat":41.21511,"lng":-84.85321,"zip":"46743","miles_from_dt":16.83},{"city":"Cecil","state_name":"Ohio","lat":41.22643,"lng":-84.56208,"zip":"45821","miles_from_dt":17.09},{"city":"Antwerp","state_name":"Ohio","lat":41.18914,"lng":-84.73031,"zip":"45813","miles_from_dt":17.31},{"city":"Pioneer","state_name":"Ohio","lat":41.66024,"lng":-84.56239,"zip":"43554","miles_from_dt":17.46},{"city":"Stryker","state_name":"Ohio","lat":41.48354,"lng":-84.39693,"zip":"43557","miles_from_dt":17.46},{"city":"Auburn","state_name":"Indiana","lat":41.34242,"lng":-85.03922,"zip":"46706","miles_from_dt":17.5},{"city":"West Unity","state_name":"Ohio","lat":41.58616,"lng":-84.44116,"zip":"43570","miles_from_dt":17.99},{"city":"Ashley","state_name":"Indiana","lat":41.51816,"lng":-85.06029,"zip":"46705","miles_from_dt":18.05},{"city":"Kunkle","state_name":"Ohio","lat":41.63511,"lng":-84.4957,"zip":"43531","miles_from_dt":18.08},{"city":"Pleasant Lake","state_name":"Indiana","lat":41.5725,"lng":-85.03094,"zip":"46779","miles_from_dt":18.17},{"city":"Grabill","state_name":"Indiana","lat":41.21161,"lng":-84.95176,"zip":"46741","miles_from_dt":19.58},{"city":"Angola","state_name":"Indiana","lat":41.65305,"lng":-85.00976,"zip":"46703","miles_from_dt":20.71},{"city":"Camden","state_name":"Michigan","lat":41.74049,"lng":-84.66858,"zip":"49232","miles_from_dt":20.97},{"city":"Alvordton","state_name":"Ohio","lat":41.66966,"lng":-84.46095,"zip":"43501","miles_from_dt":21.05},{"city":"Defiance","state_name":"Ohio","lat":41.30309,"lng":-84.35874,"zip":"43512","miles_from_dt":21.41},{"city":"Leo","state_name":"Indiana","lat":41.23361,"lng":-85.04047,"zip":"46765","miles_from_dt":21.6},{"city":"Fremont","state_name":"Indiana","lat":41.72209,"lng":-84.92233,"zip":"46737","miles_from_dt":21.91},{"city":"Corunna","state_name":"Indiana","lat":41.454,"lng":-85.15504,"zip":"46730","miles_from_dt":22.18},{"city":"Woodburn","state_name":"Indiana","lat":41.12749,"lng":-84.86046,"zip":"46797","miles_from_dt":22.64},{"city":"Garrett","state_name":"Indiana","lat":41.32189,"lng":-85.13731,"zip":"46738","miles_from_dt":22.77},{"city":"Archbold","state_name":"Ohio","lat":41.53181,"lng":-84.30201,"zip":"43502","miles_from_dt":23.01},{"city":"Paulding","state_name":"Ohio","lat":41.12918,"lng":-84.56471,"zip":"45879","miles_from_dt":23.08},{"city":"Hudson","state_name":"Indiana","lat":41.56042,"lng":-85.15349,"zip":"46747","miles_from_dt":23.57},{"city":"Montgomery","state_name":"Michigan","lat":41.77152,"lng":-84.85499,"zip":"49255","miles_from_dt":23.8},{"city":"Jewell","state_name":"Ohio","lat":41.32794,"lng":-84.28933,"zip":"43530","miles_from_dt":24.09},{"city":"Ridgeville Corners","state_name":"Ohio","lat":41.43772,"lng":-84.25596,"zip":"43555","miles_from_dt":24.53},{"city":"Frontier","state_name":"Michigan","lat":41.79389,"lng":-84.62312,"zip":"49239","miles_from_dt":25.02},{"city":"Latty","state_name":"Ohio","lat":41.08819,"lng":-84.5835,"zip":"45855","miles_from_dt":25.42},{"city":"Waldron","state_name":"Michigan","lat":41.73534,"lng":-84.43211,"zip":"49288","miles_from_dt":25.51},{"city":"Fort Wayne","state_name":"Indiana","lat":41.2051,"lng":-85.10789,"zip":"46845","miles_from_dt":25.55},{"city":"Payne","state_name":"Ohio","lat":41.0662,"lng":-84.73782,"zip":"45880","miles_from_dt":25.8},{"city":"Fort Wayne","state_name":"Indiana","lat":41.15086,"lng":-85.04536,"zip":"46835","miles_from_dt":25.89},{"city":"Stroh","state_name":"Indiana","lat":41.58274,"lng":-85.19742,"zip":"46789","miles_from_dt":26.25},{"city":"Fort Wayne","state_name":"Indiana","lat":41.13586,"lng":-85.03368,"zip":"46885","miles_from_dt":26.33},{"city":"Huntertown","state_name":"Indiana","lat":41.24829,"lng":-85.16727,"zip":"46748","miles_from_dt":26.39},{"city":"Pettisville","state_name":"Ohio","lat":41.53096,"lng":-84.22382,"zip":"43553","miles_from_dt":26.92},{"city":"Fort Wayne","state_name":"Indiana","lat":41.149,"lng":-85.07375,"zip":"46854","miles_from_dt":26.95},{"city":"New Haven","state_name":"Indiana","lat":41.09103,"lng":-84.96955,"zip":"46774","miles_from_dt":27.16},{"city":"Fayette","state_name":"Ohio","lat":41.66377,"lng":-84.29717,"zip":"43521","miles_from_dt":27.17},{"city":"Reading","state_name":"Michigan","lat":41.83689,"lng":-84.76419,"zip":"49274","miles_from_dt":27.45},{"city":"Avilla","state_name":"Indiana","lat":41.35167,"lng":-85.25168,"zip":"46710","miles_from_dt":27.87},{"city":"Oakwood","state_name":"Ohio","lat":41.11935,"lng":-84.39628,"zip":"45873","miles_from_dt":28.08},{"city":"Kendallville","state_name":"Indiana","lat":41.45119,"lng":-85.27209,"zip":"46755","miles_from_dt":28.25},{"city":"Laotto","state_name":"Indiana","lat":41.29418,"lng":-85.2415,"zip":"46763","miles_from_dt":28.51},{"city":"Fort Wayne","state_name":"Indiana","lat":41.15397,"lng":-85.12425,"zip":"46825","miles_from_dt":28.54},{"city":"Haviland","state_name":"Ohio","lat":41.03267,"lng":-84.60289,"zip":"45851","miles_from_dt":28.86},{"city":"Fort Wayne","state_name":"Indiana","lat":41.1034,"lng":-85.05913,"zip":"46815","miles_from_dt":28.92},{"city":"South Milford","state_name":"Indiana","lat":41.53156,"lng":-85.27269,"zip":"46786","miles_from_dt":28.95},{"city":"Melrose","state_name":"Ohio","lat":41.08587,"lng":-84.42569,"zip":"45861","miles_from_dt":29.08},{"city":"Osseo","state_name":"Michigan","lat":41.84247,"lng":-84.54641,"zip":"49266","miles_from_dt":29.33}],"targetCityZipCode":"43517","targetCityState":"Ohio"},"__N_SSG":true}