{"pageProps":{"stateName":"Ohio","cityName":"grove-city","nearbyCities":[{"city":"Harrisburg","state_name":"Ohio","lat":39.81077,"lng":-83.16857,"zip":"43126","miles_from_dt":4.69},{"city":"Columbus","state_name":"Ohio","lat":39.92636,"lng":-83.03395,"zip":"43223","miles_from_dt":6.13},{"city":"Galloway","state_name":"Ohio","lat":39.93487,"lng":-83.20059,"zip":"43119","miles_from_dt":6.26},{"city":"Columbus","state_name":"Ohio","lat":39.96367,"lng":-83.12478,"zip":"43228","miles_from_dt":6.6},{"city":"Orient","state_name":"Ohio","lat":39.77293,"lng":-83.14333,"zip":"43146","miles_from_dt":6.67},{"city":"Columbus","state_name":"Ohio","lat":39.96135,"lng":-83.08052,"zip":"43204","miles_from_dt":6.79},{"city":"Commercial Point","state_name":"Ohio","lat":39.77284,"lng":-83.06275,"zip":"43116","miles_from_dt":7.26},{"city":"Columbus","state_name":"Ohio","lat":39.961,"lng":-83.03581,"zip":"43222","miles_from_dt":7.85},{"city":"Columbus","state_name":"Ohio","lat":39.97857,"lng":-83.16337,"zip":"43226","miles_from_dt":7.95},{"city":"Derby","state_name":"Ohio","lat":39.76874,"lng":-83.20622,"zip":"43117","miles_from_dt":8.22},{"city":"Columbus","state_name":"Ohio","lat":39.95972,"lng":-83.0208,"zip":"43251","miles_from_dt":8.26},{"city":"Lockbourne","state_name":"Ohio","lat":39.80486,"lng":-82.98694,"zip":"43137","miles_from_dt":8.35},{"city":"Columbus","state_name":"Ohio","lat":39.9661,"lng":-83.02545,"zip":"43279","miles_from_dt":8.46},{"city":"Columbus","state_name":"Ohio","lat":39.89599,"lng":-82.96392,"zip":"43207","miles_from_dt":8.56},{"city":"Columbus","state_name":"Ohio","lat":39.97093,"lng":-83.02627,"zip":"43271","miles_from_dt":8.7},{"city":"Lockbourne","state_name":"Ohio","lat":39.80927,"lng":-82.97473,"zip":"43194","miles_from_dt":8.77},{"city":"Columbus","state_name":"Ohio","lat":39.96035,"lng":-83.00566,"zip":"43272","miles_from_dt":8.84},{"city":"Columbus","state_name":"Ohio","lat":39.96633,"lng":-83.01262,"zip":"43215","miles_from_dt":8.89},{"city":"Columbus","state_name":"Ohio","lat":39.96142,"lng":-82.99939,"zip":"43287","miles_from_dt":9.12},{"city":"Columbus","state_name":"Ohio","lat":39.96287,"lng":-82.99842,"zip":"43260","miles_from_dt":9.23},{"city":"Columbus","state_name":"Ohio","lat":39.98763,"lng":-83.04215,"zip":"43212","miles_from_dt":9.25},{"city":"Columbus","state_name":"Ohio","lat":39.96497,"lng":-83.00032,"zip":"43270","miles_from_dt":9.26},{"city":"Columbus","state_name":"Ohio","lat":39.94205,"lng":-82.97346,"zip":"43206","miles_from_dt":9.35},{"city":"Columbus","state_name":"Ohio","lat":39.9644,"lng":-82.99432,"zip":"43268","miles_from_dt":9.46},{"city":"Columbus","state_name":"Ohio","lat":39.9575,"lng":-82.96244,"zip":"43205","miles_from_dt":10.44},{"city":"Columbus","state_name":"Ohio","lat":39.81667,"lng":-82.93279,"zip":"43217","miles_from_dt":10.61},{"city":"Columbus","state_name":"Ohio","lat":39.99114,"lng":-83.00056,"zip":"43201","miles_from_dt":10.63},{"city":"Columbus","state_name":"Ohio","lat":40.00487,"lng":-83.02182,"zip":"43210","miles_from_dt":10.81},{"city":"Columbus","state_name":"Ohio","lat":39.9729,"lng":-82.96922,"zip":"43203","miles_from_dt":10.83},{"city":"Columbus","state_name":"Ohio","lat":40.02334,"lng":-83.07744,"zip":"43221","miles_from_dt":10.96},{"city":"West Jefferson","state_name":"Ohio","lat":39.94369,"lng":-83.30633,"zip":"43162","miles_from_dt":11.15},{"city":"Hilliard","state_name":"Ohio","lat":40.02197,"lng":-83.18472,"zip":"43026","miles_from_dt":11.15},{"city":"Columbus","state_name":"Ohio","lat":39.95462,"lng":-82.92992,"zip":"43209","miles_from_dt":11.77},{"city":"Columbus","state_name":"Ohio","lat":40.02126,"lng":-83.01394,"zip":"43202","miles_from_dt":12},{"city":"Groveport","state_name":"Ohio","lat":39.85969,"lng":-82.89441,"zip":"43199","miles_from_dt":12.05},{"city":"Groveport","state_name":"Ohio","lat":39.86,"lng":-82.89219,"zip":"43195","miles_from_dt":12.17},{"city":"Columbus","state_name":"Ohio","lat":40.01163,"lng":-82.97244,"zip":"43211","miles_from_dt":12.66},{"city":"Groveport","state_name":"Ohio","lat":39.83747,"lng":-82.88588,"zip":"43125","miles_from_dt":12.67},{"city":"Columbus","state_name":"Ohio","lat":40.04847,"lng":-83.07161,"zip":"43220","miles_from_dt":12.72},{"city":"Columbus","state_name":"Ohio","lat":39.94511,"lng":-82.88858,"zip":"43227","miles_from_dt":13.44},{"city":"Amlin","state_name":"Ohio","lat":40.05982,"lng":-83.17305,"zip":"43002","miles_from_dt":13.52},{"city":"Columbus","state_name":"Ohio","lat":40.0523,"lng":-83.01996,"zip":"43214","miles_from_dt":13.8},{"city":"Columbus","state_name":"Ohio","lat":39.92189,"lng":-82.87053,"zip":"43232","miles_from_dt":13.81},{"city":"Columbus","state_name":"Ohio","lat":39.97419,"lng":-82.89823,"zip":"43216","miles_from_dt":13.91},{"city":"Mount Sterling","state_name":"Ohio","lat":39.71801,"lng":-83.29672,"zip":"43143","miles_from_dt":13.95},{"city":"Ashville","state_name":"Ohio","lat":39.72484,"lng":-82.93428,"zip":"43103","miles_from_dt":14.01},{"city":"Columbus","state_name":"Ohio","lat":40.00774,"lng":-82.92233,"zip":"43219","miles_from_dt":14.29},{"city":"Columbus","state_name":"Ohio","lat":40.04256,"lng":-82.9664,"zip":"43224","miles_from_dt":14.57},{"city":"Columbus","state_name":"Ohio","lat":40.01765,"lng":-82.92367,"zip":"43218","miles_from_dt":14.71},{"city":"Columbus","state_name":"Ohio","lat":39.97117,"lng":-82.86746,"zip":"43213","miles_from_dt":15.23},{"city":"Columbus","state_name":"Ohio","lat":40.05642,"lng":-82.9682,"zip":"43266","miles_from_dt":15.32},{"city":"Columbus","state_name":"Ohio","lat":40.00006,"lng":-82.88796,"zip":"43236","miles_from_dt":15.36},{"city":"Brice","state_name":"Ohio","lat":39.9127,"lng":-82.83385,"zip":"43109","miles_from_dt":15.56},{"city":"Columbus","state_name":"Ohio","lat":39.9766,"lng":-82.85683,"zip":"43291","miles_from_dt":15.9},{"city":"Dublin","state_name":"Ohio","lat":40.09732,"lng":-83.15535,"zip":"43016","miles_from_dt":15.93},{"city":"London","state_name":"Ohio","lat":39.88406,"lng":-83.42946,"zip":"43140","miles_from_dt":16.44},{"city":"Columbus","state_name":"Ohio","lat":40.10193,"lng":-83.05442,"zip":"43235","miles_from_dt":16.52},{"city":"Columbus","state_name":"Ohio","lat":40.10298,"lng":-83.05599,"zip":"43234","miles_from_dt":16.57},{"city":"Columbus","state_name":"Ohio","lat":40.08569,"lng":-82.97636,"zip":"43229","miles_from_dt":16.86},{"city":"Lithopolis","state_name":"Ohio","lat":39.80157,"lng":-82.81543,"zip":"43136","miles_from_dt":16.88},{"city":"Columbus","state_name":"Ohio","lat":40.09959,"lng":-83.01639,"zip":"43085","miles_from_dt":16.91},{"city":"Canal Winchester","state_name":"Ohio","lat":39.82825,"lng":-82.80143,"zip":"43110","miles_from_dt":17.21},{"city":"Dublin","state_name":"Ohio","lat":40.1189,"lng":-83.13314,"zip":"43017","miles_from_dt":17.32},{"city":"Reynoldsburg","state_name":"Ohio","lat":39.95,"lng":-82.81219,"zip":"43069","miles_from_dt":17.35},{"city":"Columbus","state_name":"Ohio","lat":40.07843,"lng":-82.93914,"zip":"43231","miles_from_dt":17.43},{"city":"Columbus","state_name":"Ohio","lat":40.03648,"lng":-82.87057,"zip":"43230","miles_from_dt":17.66},{"city":"Plain City","state_name":"Ohio","lat":40.09819,"lng":-83.28863,"zip":"43064","miles_from_dt":18.21},{"city":"Reynoldsburg","state_name":"Ohio","lat":39.95667,"lng":-82.78468,"zip":"43068","miles_from_dt":18.88},{"city":"Williamsport","state_name":"Ohio","lat":39.58349,"lng":-83.12009,"zip":"43164","miles_from_dt":19.63},{"city":"Blacklick","state_name":"Ohio","lat":40.01664,"lng":-82.80025,"zip":"43004","miles_from_dt":19.88},{"city":"Pickerington","state_name":"Ohio","lat":39.8982,"lng":-82.74227,"zip":"43147","miles_from_dt":20.23},{"city":"Westerville","state_name":"Ohio","lat":40.11745,"lng":-82.91666,"zip":"43086","miles_from_dt":20.34},{"city":"Columbus","state_name":"Ohio","lat":40.14501,"lng":-82.98209,"zip":"43240","miles_from_dt":20.48},{"city":"Westerville","state_name":"Ohio","lat":40.11064,"lng":-82.89083,"zip":"43081","miles_from_dt":20.72},{"city":"Circleville","state_name":"Ohio","lat":39.59114,"lng":-82.96192,"zip":"43113","miles_from_dt":20.89},{"city":"Sedalia","state_name":"Ohio","lat":39.73317,"lng":-83.47661,"zip":"43151","miles_from_dt":21.09},{"city":"Powell","state_name":"Ohio","lat":40.17655,"lng":-83.09445,"zip":"43065","miles_from_dt":21.33},{"city":"Summit Station","state_name":"Ohio","lat":40.00197,"lng":-82.75103,"zip":"43073","miles_from_dt":21.71},{"city":"Unionville Center","state_name":"Ohio","lat":40.13675,"lng":-83.34165,"zip":"43077","miles_from_dt":21.93},{"city":"Bloomingburg","state_name":"Ohio","lat":39.6448,"lng":-83.41853,"zip":"43106","miles_from_dt":22.1},{"city":"New Holland","state_name":"Ohio","lat":39.56281,"lng":-83.2594,"zip":"43145","miles_from_dt":22.31},{"city":"Carroll","state_name":"Ohio","lat":39.79719,"lng":-82.70472,"zip":"43112","miles_from_dt":22.67},{"city":"New Albany","state_name":"Ohio","lat":40.07998,"lng":-82.79253,"zip":"43054","miles_from_dt":22.75},{"city":"Lewis Center","state_name":"Ohio","lat":40.18622,"lng":-82.9969,"zip":"43035","miles_from_dt":22.92},{"city":"Westerville","state_name":"Ohio","lat":40.15537,"lng":-82.88437,"zip":"43082","miles_from_dt":23.46},{"city":"Irwin","state_name":"Ohio","lat":40.09598,"lng":-83.45408,"zip":"43029","miles_from_dt":23.67},{"city":"Stoutsville","state_name":"Ohio","lat":39.60327,"lng":-82.82622,"zip":"43154","miles_from_dt":24.08},{"city":"Etna","state_name":"Ohio","lat":39.95377,"lng":-82.67613,"zip":"43018","miles_from_dt":24.36},{"city":"Amanda","state_name":"Ohio","lat":39.64076,"lng":-82.76118,"zip":"43102","miles_from_dt":24.75},{"city":"Pataskala","state_name":"Ohio","lat":40.00556,"lng":-82.67964,"zip":"43062","miles_from_dt":25.28},{"city":"South Solon","state_name":"Ohio","lat":39.74071,"lng":-83.56781,"zip":"43153","miles_from_dt":25.35},{"city":"Clarksburg","state_name":"Ohio","lat":39.48989,"lng":-83.16579,"zip":"43115","miles_from_dt":26.2},{"city":"South Vienna","state_name":"Ohio","lat":39.95304,"lng":-83.60304,"zip":"45369","miles_from_dt":26.28},{"city":"Galena","state_name":"Ohio","lat":40.20301,"lng":-82.88476,"zip":"43021","miles_from_dt":26.29},{"city":"Baltimore","state_name":"Ohio","lat":39.86513,"lng":-82.61826,"zip":"43105","miles_from_dt":26.72},{"city":"Mechanicsburg","state_name":"Ohio","lat":40.05145,"lng":-83.56423,"zip":"43044","miles_from_dt":26.73},{"city":"Milford Center","state_name":"Ohio","lat":40.16932,"lng":-83.44975,"zip":"43045","miles_from_dt":27.14},{"city":"Catawba","state_name":"Ohio","lat":39.99964,"lng":-83.6219,"zip":"43010","miles_from_dt":28.12},{"city":"Jeffersonville","state_name":"Ohio","lat":39.66359,"lng":-83.57893,"zip":"43128","miles_from_dt":28.17},{"city":"South Charleston","state_name":"Ohio","lat":39.84376,"lng":-83.65413,"zip":"45368","miles_from_dt":28.4},{"city":"Kirkersville","state_name":"Ohio","lat":39.96098,"lng":-82.59984,"zip":"43033","miles_from_dt":28.41},{"city":"Tarlton","state_name":"Ohio","lat":39.55389,"lng":-82.77621,"zip":"43156","miles_from_dt":28.41},{"city":"Marysville","state_name":"Ohio","lat":40.23827,"lng":-83.36802,"zip":"43041","miles_from_dt":28.71},{"city":"Washington Court House","state_name":"Ohio","lat":39.52871,"lng":-83.43917,"zip":"43160","miles_from_dt":28.91},{"city":"Ostrander","state_name":"Ohio","lat":40.28775,"lng":-83.20256,"zip":"43061","miles_from_dt":29.28},{"city":"Lancaster","state_name":"Ohio","lat":39.70013,"lng":-82.60992,"zip":"43130","miles_from_dt":29.56},{"city":"Delaware","state_name":"Ohio","lat":40.29812,"lng":-83.06049,"zip":"43015","miles_from_dt":29.85},{"city":"Marysville","state_name":"Ohio","lat":40.26115,"lng":-83.35812,"zip":"43040","miles_from_dt":29.9},{"city":"Woodstock","state_name":"Ohio","lat":40.15764,"lng":-83.54223,"zip":"43084","miles_from_dt":29.98}],"targetCityZipCode":"43123","targetCityState":"Ohio"},"__N_SSG":true}