{"pageProps":{"stateName":"Ohio","cityName":"kelleys-island","nearbyCities":[{"city":"Lakeside Marblehead","state_name":"Ohio","lat":41.52662,"lng":-82.78145,"zip":"43440","miles_from_dt":6.69},{"city":"Put In Bay","state_name":"Ohio","lat":41.64934,"lng":-82.82497,"zip":"43456","miles_from_dt":7.08},{"city":"Middle Bass","state_name":"Ohio","lat":41.68483,"lng":-82.80863,"zip":"43446","miles_from_dt":7.85},{"city":"Isle Saint George","state_name":"Ohio","lat":41.71522,"lng":-82.82098,"zip":"43436","miles_from_dt":9.85},{"city":"Sandusky","state_name":"Ohio","lat":41.44977,"lng":-82.70587,"zip":"44871","miles_from_dt":10.61},{"city":"Gypsum","state_name":"Ohio","lat":41.50463,"lng":-82.88033,"zip":"43433","miles_from_dt":11.46},{"city":"Sandusky","state_name":"Ohio","lat":41.40623,"lng":-82.7171,"zip":"44870","miles_from_dt":13.63},{"city":"Port Clinton","state_name":"Ohio","lat":41.51568,"lng":-82.96522,"zip":"43452","miles_from_dt":14.9},{"city":"Castalia","state_name":"Ohio","lat":41.37952,"lng":-82.80422,"zip":"44824","miles_from_dt":16.33},{"city":"Huron","state_name":"Ohio","lat":41.3725,"lng":-82.55656,"zip":"44839","miles_from_dt":17.65},{"city":"Vickery","state_name":"Ohio","lat":41.40318,"lng":-82.93116,"zip":"43464","miles_from_dt":18.21},{"city":"Lacarne","state_name":"Ohio","lat":41.51758,"lng":-83.04275,"zip":"43439","miles_from_dt":18.6},{"city":"Milan","state_name":"Ohio","lat":41.31589,"lng":-82.60832,"zip":"44846","miles_from_dt":20.44},{"city":"Berlin Heights","state_name":"Ohio","lat":41.32162,"lng":-82.4714,"zip":"44814","miles_from_dt":22.86},{"city":"Vermilion","state_name":"Ohio","lat":41.38894,"lng":-82.36552,"zip":"44089","miles_from_dt":22.92},{"city":"Oak Harbor","state_name":"Ohio","lat":41.5357,"lng":-83.14151,"zip":"43449","miles_from_dt":23.22},{"city":"Clyde","state_name":"Ohio","lat":41.30792,"lng":-82.95807,"zip":"43410","miles_from_dt":24.32},{"city":"Monroeville","state_name":"Ohio","lat":41.23025,"lng":-82.70821,"zip":"44847","miles_from_dt":25.76},{"city":"Bellevue","state_name":"Ohio","lat":41.24445,"lng":-82.84474,"zip":"44811","miles_from_dt":25.85},{"city":"Birmingham","state_name":"Ohio","lat":41.32996,"lng":-82.36113,"zip":"44816","miles_from_dt":25.89},{"city":"Flat Rock","state_name":"Ohio","lat":41.23367,"lng":-82.85957,"zip":"44828","miles_from_dt":26.79},{"city":"Rocky Ridge","state_name":"Ohio","lat":41.53105,"lng":-83.21258,"zip":"43458","miles_from_dt":26.9},{"city":"Fremont","state_name":"Ohio","lat":41.35749,"lng":-83.11265,"zip":"43420","miles_from_dt":27.22},{"city":"Norwalk","state_name":"Ohio","lat":41.21785,"lng":-82.58212,"zip":"44857","miles_from_dt":27.34},{"city":"Collins","state_name":"Ohio","lat":41.23993,"lng":-82.47931,"zip":"44826","miles_from_dt":27.64},{"city":"Lorain","state_name":"Ohio","lat":41.42694,"lng":-82.22138,"zip":"44053","miles_from_dt":27.78},{"city":"Amherst","state_name":"Ohio","lat":41.36825,"lng":-82.25958,"zip":"44001","miles_from_dt":28.14},{"city":"Graytown","state_name":"Ohio","lat":41.56115,"lng":-83.24934,"zip":"43432","miles_from_dt":28.48},{"city":"Lindsey","state_name":"Ohio","lat":41.42911,"lng":-83.21496,"zip":"43442","miles_from_dt":29.17},{"city":"Wakeman","state_name":"Ohio","lat":41.24661,"lng":-82.38195,"zip":"44889","miles_from_dt":29.73},{"city":"Lorain","state_name":"Ohio","lat":41.45519,"lng":-82.16133,"zip":"44052","miles_from_dt":29.88}],"targetCityZipCode":"43438","targetCityState":"Ohio"},"__N_SSG":true}