{"pageProps":{"stateName":"Ohio","cityName":"lakeview","nearbyCities":[{"city":"New Hampshire","state_name":"Ohio","lat":40.55621,"lng":-83.95142,"zip":"45870","miles_from_dt":3.14},{"city":"Russells Point","state_name":"Ohio","lat":40.46754,"lng":-83.88857,"zip":"43348","miles_from_dt":3.83},{"city":"Lewistown","state_name":"Ohio","lat":40.43927,"lng":-83.93221,"zip":"43333","miles_from_dt":5.47},{"city":"Roundhead","state_name":"Ohio","lat":40.5768,"lng":-83.84518,"zip":"43346","miles_from_dt":5.62},{"city":"Waynesfield","state_name":"Ohio","lat":40.60667,"lng":-83.93775,"zip":"45896","miles_from_dt":6.2},{"city":"Belle Center","state_name":"Ohio","lat":40.5346,"lng":-83.78029,"zip":"43310","miles_from_dt":7.4},{"city":"Huntsville","state_name":"Ohio","lat":40.44632,"lng":-83.81207,"zip":"43324","miles_from_dt":7.5},{"city":"Jackson Center","state_name":"Ohio","lat":40.44662,"lng":-84.04517,"zip":"45334","miles_from_dt":8.27},{"city":"Saint Johns","state_name":"Ohio","lat":40.54865,"lng":-84.08333,"zip":"45884","miles_from_dt":8.9},{"city":"Uniopolis","state_name":"Ohio","lat":40.60244,"lng":-84.08583,"zip":"45888","miles_from_dt":10.53},{"city":"Maplewood","state_name":"Ohio","lat":40.37184,"lng":-84.04935,"zip":"45340","miles_from_dt":12.2},{"city":"Alger","state_name":"Ohio","lat":40.68341,"lng":-83.8135,"zip":"45812","miles_from_dt":12.7},{"city":"Wapakoneta","state_name":"Ohio","lat":40.56991,"lng":-84.15197,"zip":"45895","miles_from_dt":12.77},{"city":"Harrod","state_name":"Ohio","lat":40.70382,"lng":-83.91817,"zip":"45850","miles_from_dt":12.83},{"city":"Bellefontaine","state_name":"Ohio","lat":40.36427,"lng":-83.75812,"zip":"43311","miles_from_dt":13.58},{"city":"McGuffey","state_name":"Ohio","lat":40.69305,"lng":-83.78574,"zip":"45859","miles_from_dt":13.97},{"city":"Rushsylvania","state_name":"Ohio","lat":40.47771,"lng":-83.65804,"zip":"43347","miles_from_dt":14.03},{"city":"De Graff","state_name":"Ohio","lat":40.30948,"lng":-83.91378,"zip":"43318","miles_from_dt":14.39},{"city":"Botkins","state_name":"Ohio","lat":40.45856,"lng":-84.18575,"zip":"45306","miles_from_dt":14.63},{"city":"Quincy","state_name":"Ohio","lat":40.3073,"lng":-83.97647,"zip":"43343","miles_from_dt":14.85},{"city":"Lima","state_name":"Ohio","lat":40.67615,"lng":-84.12651,"zip":"45806","miles_from_dt":15.43},{"city":"Lima","state_name":"Ohio","lat":40.71569,"lng":-84.06911,"zip":"45804","miles_from_dt":15.76},{"city":"Port Jefferson","state_name":"Ohio","lat":40.33028,"lng":-84.09206,"zip":"45360","miles_from_dt":15.84},{"city":"Lafayette","state_name":"Ohio","lat":40.7582,"lng":-83.95231,"zip":"45854","miles_from_dt":16.67},{"city":"Pemberton","state_name":"Ohio","lat":40.29252,"lng":-84.04274,"zip":"45353","miles_from_dt":16.87},{"city":"Anna","state_name":"Ohio","lat":40.40068,"lng":-84.20756,"zip":"45302","miles_from_dt":17.22},{"city":"Ridgeway","state_name":"Ohio","lat":40.51341,"lng":-83.58167,"zip":"43345","miles_from_dt":17.77},{"city":"Kenton","state_name":"Ohio","lat":40.64149,"lng":-83.61443,"zip":"43326","miles_from_dt":18.15},{"city":"Kettlersville","state_name":"Ohio","lat":40.44256,"lng":-84.25988,"zip":"45336","miles_from_dt":18.69},{"city":"Ada","state_name":"Ohio","lat":40.77721,"lng":-83.81097,"zip":"45810","miles_from_dt":18.77},{"city":"Lima","state_name":"Ohio","lat":40.77476,"lng":-84.03703,"zip":"45801","miles_from_dt":18.77},{"city":"Buckland","state_name":"Ohio","lat":40.62407,"lng":-84.26033,"zip":"45819","miles_from_dt":19.39},{"city":"Lima","state_name":"Ohio","lat":40.72979,"lng":-84.16242,"zip":"45805","miles_from_dt":19.43},{"city":"Zanesfield","state_name":"Ohio","lat":40.33272,"lng":-83.63114,"zip":"43360","miles_from_dt":19.85},{"city":"New Knoxville","state_name":"Ohio","lat":40.4932,"lng":-84.30089,"zip":"45871","miles_from_dt":20.18},{"city":"Dola","state_name":"Ohio","lat":40.75898,"lng":-83.70076,"zip":"45835","miles_from_dt":20.21},{"city":"Sidney","state_name":"Ohio","lat":40.28915,"lng":-84.16326,"zip":"45367","miles_from_dt":20.37},{"city":"West Liberty","state_name":"Ohio","lat":40.25316,"lng":-83.74711,"zip":"43357","miles_from_dt":20.4},{"city":"Lima","state_name":"Ohio","lat":40.74105,"lng":-84.17446,"zip":"45802","miles_from_dt":20.43},{"city":"Sidney","state_name":"Ohio","lat":40.2828,"lng":-84.15582,"zip":"45365","miles_from_dt":20.47},{"city":"Rosewood","state_name":"Ohio","lat":40.22056,"lng":-83.95651,"zip":"43070","miles_from_dt":20.61},{"city":"West Mansfield","state_name":"Ohio","lat":40.41898,"lng":-83.53129,"zip":"43358","miles_from_dt":21.55},{"city":"Beaverdam","state_name":"Ohio","lat":40.83178,"lng":-83.9729,"zip":"45808","miles_from_dt":21.84},{"city":"Mount Victory","state_name":"Ohio","lat":40.53748,"lng":-83.48,"zip":"43340","miles_from_dt":23.16},{"city":"East Liberty","state_name":"Ohio","lat":40.30525,"lng":-83.57738,"zip":"43319","miles_from_dt":23.24},{"city":"Cairo","state_name":"Ohio","lat":40.83074,"lng":-84.08473,"zip":"45820","miles_from_dt":23.27},{"city":"Lima","state_name":"Ohio","lat":40.8072,"lng":-84.16699,"zip":"45807","miles_from_dt":23.83},{"city":"Dunkirk","state_name":"Ohio","lat":40.79304,"lng":-83.64311,"zip":"45836","miles_from_dt":23.89},{"city":"Middleburg","state_name":"Ohio","lat":40.28337,"lng":-83.57651,"zip":"43336","miles_from_dt":24.26},{"city":"Conover","state_name":"Ohio","lat":40.17328,"lng":-84.01971,"zip":"45317","miles_from_dt":24.37},{"city":"Bluffton","state_name":"Ohio","lat":40.87691,"lng":-83.88279,"zip":"45817","miles_from_dt":24.84},{"city":"Saint Marys","state_name":"Ohio","lat":40.57182,"lng":-84.3871,"zip":"45885","miles_from_dt":24.91},{"city":"Minster","state_name":"Ohio","lat":40.39379,"lng":-84.37219,"zip":"45865","miles_from_dt":25.37},{"city":"New Bremen","state_name":"Ohio","lat":40.4573,"lng":-84.39432,"zip":"45869","miles_from_dt":25.38},{"city":"Williamstown","state_name":"Ohio","lat":40.83434,"lng":-83.65676,"zip":"45897","miles_from_dt":25.82},{"city":"Raymond","state_name":"Ohio","lat":40.34368,"lng":-83.48388,"zip":"43067","miles_from_dt":25.91},{"city":"Mingo","state_name":"Ohio","lat":40.20795,"lng":-83.63797,"zip":"43047","miles_from_dt":26.03},{"city":"Gomer","state_name":"Ohio","lat":40.8431,"lng":-84.18522,"zip":"45809","miles_from_dt":26.44},{"city":"Jenera","state_name":"Ohio","lat":40.87955,"lng":-83.735,"zip":"45841","miles_from_dt":26.76},{"city":"Spencerville","state_name":"Ohio","lat":40.71107,"lng":-84.36359,"zip":"45887","miles_from_dt":26.9},{"city":"Forest","state_name":"Ohio","lat":40.78202,"lng":-83.53513,"zip":"45843","miles_from_dt":27.19},{"city":"Fort Loramie","state_name":"Ohio","lat":40.32995,"lng":-84.37806,"zip":"45845","miles_from_dt":27.46},{"city":"Fletcher","state_name":"Ohio","lat":40.14201,"lng":-84.09039,"zip":"45326","miles_from_dt":27.47},{"city":"North Lewisburg","state_name":"Ohio","lat":40.21978,"lng":-83.57295,"zip":"43060","miles_from_dt":27.51},{"city":"Saint Paris","state_name":"Ohio","lat":40.1172,"lng":-83.95514,"zip":"43072","miles_from_dt":27.72},{"city":"Vaughnsville","state_name":"Ohio","lat":40.88146,"lng":-84.14536,"zip":"45893","miles_from_dt":27.76},{"city":"Cable","state_name":"Ohio","lat":40.17188,"lng":-83.64234,"zip":"43009","miles_from_dt":27.99},{"city":"Columbus Grove","state_name":"Ohio","lat":40.90616,"lng":-84.09213,"zip":"45830","miles_from_dt":28.29},{"city":"Westville","state_name":"Ohio","lat":40.10838,"lng":-83.83623,"zip":"43083","miles_from_dt":28.6},{"city":"Houston","state_name":"Ohio","lat":40.2481,"lng":-84.33209,"zip":"45333","miles_from_dt":28.66},{"city":"La Rue","state_name":"Ohio","lat":40.58369,"lng":-83.37769,"zip":"43332","miles_from_dt":28.85},{"city":"Urbana","state_name":"Ohio","lat":40.11302,"lng":-83.77538,"zip":"43078","miles_from_dt":28.95},{"city":"Piqua","state_name":"Ohio","lat":40.16252,"lng":-84.23097,"zip":"45356","miles_from_dt":29.54},{"city":"Broadway","state_name":"Ohio","lat":40.33154,"lng":-83.40595,"zip":"43007","miles_from_dt":29.96}],"targetCityZipCode":"43331","targetCityState":"Ohio"},"__N_SSG":true}