{"pageProps":{"stateName":"Ohio","cityName":"loudonville","nearbyCities":[{"city":"Lakeville","state_name":"Ohio","lat":40.6502,"lng":-82.13521,"zip":"44638","miles_from_dt":4.72},{"city":"Perrysville","state_name":"Ohio","lat":40.66748,"lng":-82.31871,"zip":"44864","miles_from_dt":5.09},{"city":"Nashville","state_name":"Ohio","lat":40.5874,"lng":-82.11662,"zip":"44661","miles_from_dt":7.11},{"city":"Big Prairie","state_name":"Ohio","lat":40.60785,"lng":-82.08141,"zip":"44611","miles_from_dt":8.06},{"city":"Glenmont","state_name":"Ohio","lat":40.538,"lng":-82.1551,"zip":"44628","miles_from_dt":8.5},{"city":"Hayesville","state_name":"Ohio","lat":40.77186,"lng":-82.25947,"zip":"44838","miles_from_dt":8.67},{"city":"Lucas","state_name":"Ohio","lat":40.6886,"lng":-82.40959,"zip":"44843","miles_from_dt":10.08},{"city":"Jeromesville","state_name":"Ohio","lat":40.79231,"lng":-82.17973,"zip":"44840","miles_from_dt":10.17},{"city":"Shreve","state_name":"Ohio","lat":40.6891,"lng":-82.03266,"zip":"44676","miles_from_dt":10.48},{"city":"Butler","state_name":"Ohio","lat":40.55705,"lng":-82.39929,"zip":"44822","miles_from_dt":11.15},{"city":"Danville","state_name":"Ohio","lat":40.46646,"lng":-82.25242,"zip":"43014","miles_from_dt":12.68},{"city":"Brinkhaven","state_name":"Ohio","lat":40.4591,"lng":-82.14554,"zip":"43006","miles_from_dt":13.76},{"city":"Holmesville","state_name":"Ohio","lat":40.63182,"lng":-81.93601,"zip":"44633","miles_from_dt":15.24},{"city":"Killbuck","state_name":"Ohio","lat":40.47996,"lng":-82.03347,"zip":"44637","miles_from_dt":15.42},{"city":"Mansfield","state_name":"Ohio","lat":40.77753,"lng":-82.46915,"zip":"44905","miles_from_dt":15.59},{"city":"Bellville","state_name":"Ohio","lat":40.60135,"lng":-82.52814,"zip":"44813","miles_from_dt":16.27},{"city":"Ashland","state_name":"Ohio","lat":40.87335,"lng":-82.32096,"zip":"44805","miles_from_dt":16.28},{"city":"Mansfield","state_name":"Ohio","lat":40.72761,"lng":-82.52129,"zip":"44907","miles_from_dt":16.48},{"city":"Mansfield","state_name":"Ohio","lat":40.7589,"lng":-82.51095,"zip":"44902","miles_from_dt":16.82},{"city":"Wooster","state_name":"Ohio","lat":40.80714,"lng":-81.97971,"zip":"44691","miles_from_dt":16.88},{"city":"Mansfield","state_name":"Ohio","lat":40.76391,"lng":-82.51247,"zip":"44901","miles_from_dt":17.05},{"city":"Howard","state_name":"Ohio","lat":40.40335,"lng":-82.29783,"zip":"43028","miles_from_dt":17.38},{"city":"Mansfield","state_name":"Ohio","lat":40.77624,"lng":-82.52655,"zip":"44903","miles_from_dt":18.1},{"city":"Polk","state_name":"Ohio","lat":40.92082,"lng":-82.19483,"zip":"44866","miles_from_dt":18.82},{"city":"Nankin","state_name":"Ohio","lat":40.92082,"lng":-82.28186,"zip":"44848","miles_from_dt":18.99},{"city":"Millersburg","state_name":"Ohio","lat":40.53861,"lng":-81.87162,"zip":"44654","miles_from_dt":20.09},{"city":"Mansfield","state_name":"Ohio","lat":40.76413,"lng":-82.57778,"zip":"44906","miles_from_dt":20.16},{"city":"Mansfield","state_name":"Ohio","lat":40.66578,"lng":-82.61505,"zip":"44904","miles_from_dt":20.53},{"city":"Fredericksburg","state_name":"Ohio","lat":40.66665,"lng":-81.83393,"zip":"44627","miles_from_dt":20.59},{"city":"West Salem","state_name":"Ohio","lat":40.94,"lng":-82.1005,"zip":"44287","miles_from_dt":21.11},{"city":"Fredericktown","state_name":"Ohio","lat":40.49527,"lng":-82.57831,"zip":"43019","miles_from_dt":21.41},{"city":"Walhonding","state_name":"Ohio","lat":40.33485,"lng":-82.17711,"zip":"43843","miles_from_dt":21.82},{"city":"Blissfield","state_name":"Ohio","lat":40.39177,"lng":-81.97223,"zip":"43805","miles_from_dt":22.19},{"city":"Gambier","state_name":"Ohio","lat":40.33765,"lng":-82.34135,"zip":"43022","miles_from_dt":22.34},{"city":"Berlin","state_name":"Ohio","lat":40.56078,"lng":-81.80139,"zip":"44610","miles_from_dt":23.09},{"city":"Apple Creek","state_name":"Ohio","lat":40.73313,"lng":-81.79625,"zip":"44606","miles_from_dt":23.25},{"city":"Savannah","state_name":"Ohio","lat":40.96859,"lng":-82.36631,"zip":"44874","miles_from_dt":23.26},{"city":"Shauck","state_name":"Ohio","lat":40.61868,"lng":-82.66598,"zip":"43349","miles_from_dt":23.28},{"city":"Ontario","state_name":"Ohio","lat":40.75786,"lng":-82.64614,"zip":"44862","miles_from_dt":23.36},{"city":"Warsaw","state_name":"Ohio","lat":40.33349,"lng":-82.05163,"zip":"43844","miles_from_dt":23.61},{"city":"Mount Hope","state_name":"Ohio","lat":40.62382,"lng":-81.77487,"zip":"44660","miles_from_dt":23.72},{"city":"Mount Vernon","state_name":"Ohio","lat":40.37188,"lng":-82.49536,"zip":"43050","miles_from_dt":23.84},{"city":"Burbank","state_name":"Ohio","lat":40.95081,"lng":-81.99935,"zip":"44214","miles_from_dt":23.95},{"city":"Smithville","state_name":"Ohio","lat":40.87254,"lng":-81.85983,"zip":"44677","miles_from_dt":24.59},{"city":"Charm","state_name":"Ohio","lat":40.50603,"lng":-81.78447,"zip":"44617","miles_from_dt":25.19},{"city":"Bladensburg","state_name":"Ohio","lat":40.28241,"lng":-82.26728,"zip":"43005","miles_from_dt":25.39},{"city":"Martinsburg","state_name":"Ohio","lat":40.28062,"lng":-82.31654,"zip":"43037","miles_from_dt":25.87},{"city":"Kidron","state_name":"Ohio","lat":40.74234,"lng":-81.74703,"zip":"44636","miles_from_dt":25.91},{"city":"Shiloh","state_name":"Ohio","lat":40.95111,"lng":-82.51963,"zip":"44878","miles_from_dt":25.95},{"city":"Nova","state_name":"Ohio","lat":41.02103,"lng":-82.32636,"zip":"44859","miles_from_dt":26.21},{"city":"Sullivan","state_name":"Ohio","lat":41.03352,"lng":-82.21993,"zip":"44880","miles_from_dt":26.53},{"city":"Creston","state_name":"Ohio","lat":40.95561,"lng":-81.9133,"zip":"44217","miles_from_dt":26.73},{"city":"Chesterville","state_name":"Ohio","lat":40.47748,"lng":-82.68202,"zip":"43317","miles_from_dt":26.81},{"city":"Homerville","state_name":"Ohio","lat":41.0316,"lng":-82.12246,"zip":"44235","miles_from_dt":26.94},{"city":"Orrville","state_name":"Ohio","lat":40.83386,"lng":-81.76495,"zip":"44667","miles_from_dt":27.31},{"city":"Shelby","state_name":"Ohio","lat":40.88645,"lng":-82.6489,"zip":"44875","miles_from_dt":27.62},{"city":"Mount Eaton","state_name":"Ohio","lat":40.6948,"lng":-81.70191,"zip":"44659","miles_from_dt":27.66},{"city":"Walnut Creek","state_name":"Ohio","lat":40.53941,"lng":-81.71189,"zip":"44687","miles_from_dt":28.03},{"city":"Winesburg","state_name":"Ohio","lat":40.61353,"lng":-81.69391,"zip":"44690","miles_from_dt":28.03},{"city":"Keene","state_name":"Ohio","lat":40.34169,"lng":-81.8657,"zip":"43828","miles_from_dt":28.42},{"city":"Sterling","state_name":"Ohio","lat":40.93667,"lng":-81.83502,"zip":"44276","miles_from_dt":28.5},{"city":"Mount Gilead","state_name":"Ohio","lat":40.56207,"lng":-82.75958,"zip":"43338","miles_from_dt":28.75},{"city":"Greenwich","state_name":"Ohio","lat":41.01745,"lng":-82.48241,"zip":"44837","miles_from_dt":28.78},{"city":"Baltic","state_name":"Ohio","lat":40.4545,"lng":-81.73704,"zip":"43804","miles_from_dt":28.98},{"city":"Dalton","state_name":"Ohio","lat":40.7722,"lng":-81.68925,"zip":"44618","miles_from_dt":29.39},{"city":"Lodi","state_name":"Ohio","lat":41.04522,"lng":-82.01282,"zip":"44254","miles_from_dt":29.51},{"city":"Wilmot","state_name":"Ohio","lat":40.65071,"lng":-81.66209,"zip":"44689","miles_from_dt":29.58},{"city":"Mount Liberty","state_name":"Ohio","lat":40.35018,"lng":-82.63004,"zip":"43048","miles_from_dt":29.67},{"city":"Dundee","state_name":"Ohio","lat":40.61249,"lng":-81.66157,"zip":"44624","miles_from_dt":29.73}],"targetCityZipCode":"44842","targetCityState":"Ohio"},"__N_SSG":true}