{"pageProps":{"stateName":"Ohio","cityName":"lucas","nearbyCities":[{"city":"Perrysville","state_name":"Ohio","lat":40.66748,"lng":-82.31871,"zip":"44864","miles_from_dt":4.99},{"city":"Mansfield","state_name":"Ohio","lat":40.72761,"lng":-82.52129,"zip":"44907","miles_from_dt":6.45},{"city":"Mansfield","state_name":"Ohio","lat":40.77753,"lng":-82.46915,"zip":"44905","miles_from_dt":6.89},{"city":"Mansfield","state_name":"Ohio","lat":40.7589,"lng":-82.51095,"zip":"44902","miles_from_dt":7.2},{"city":"Mansfield","state_name":"Ohio","lat":40.76391,"lng":-82.51247,"zip":"44901","miles_from_dt":7.49},{"city":"Mansfield","state_name":"Ohio","lat":40.77624,"lng":-82.52655,"zip":"44903","miles_from_dt":8.62},{"city":"Bellville","state_name":"Ohio","lat":40.60135,"lng":-82.52814,"zip":"44813","miles_from_dt":8.66},{"city":"Butler","state_name":"Ohio","lat":40.55705,"lng":-82.39929,"zip":"44822","miles_from_dt":9.09},{"city":"Hayesville","state_name":"Ohio","lat":40.77186,"lng":-82.25947,"zip":"44838","miles_from_dt":9.75},{"city":"Loudonville","state_name":"Ohio","lat":40.64903,"lng":-82.22498,"zip":"44842","miles_from_dt":10.08},{"city":"Mansfield","state_name":"Ohio","lat":40.76413,"lng":-82.57778,"zip":"44906","miles_from_dt":10.25},{"city":"Mansfield","state_name":"Ohio","lat":40.66578,"lng":-82.61505,"zip":"44904","miles_from_dt":10.91},{"city":"Ontario","state_name":"Ohio","lat":40.75786,"lng":-82.64614,"zip":"44862","miles_from_dt":13.31},{"city":"Ashland","state_name":"Ohio","lat":40.87335,"lng":-82.32096,"zip":"44805","miles_from_dt":13.57},{"city":"Jeromesville","state_name":"Ohio","lat":40.79231,"lng":-82.17973,"zip":"44840","miles_from_dt":14.03},{"city":"Shauck","state_name":"Ohio","lat":40.61868,"lng":-82.66598,"zip":"43349","miles_from_dt":14.31},{"city":"Lakeville","state_name":"Ohio","lat":40.6502,"lng":-82.13521,"zip":"44638","miles_from_dt":14.66},{"city":"Fredericktown","state_name":"Ohio","lat":40.49527,"lng":-82.57831,"zip":"43019","miles_from_dt":16.02},{"city":"Nashville","state_name":"Ohio","lat":40.5874,"lng":-82.11662,"zip":"44661","miles_from_dt":16.91},{"city":"Glenmont","state_name":"Ohio","lat":40.538,"lng":-82.1551,"zip":"44628","miles_from_dt":16.94},{"city":"Nankin","state_name":"Ohio","lat":40.92082,"lng":-82.28186,"zip":"44848","miles_from_dt":17.37},{"city":"Danville","state_name":"Ohio","lat":40.46646,"lng":-82.25242,"zip":"43014","miles_from_dt":17.42},{"city":"Big Prairie","state_name":"Ohio","lat":40.60785,"lng":-82.08141,"zip":"44611","miles_from_dt":18.13},{"city":"Shelby","state_name":"Ohio","lat":40.88645,"lng":-82.6489,"zip":"44875","miles_from_dt":18.54},{"city":"Shiloh","state_name":"Ohio","lat":40.95111,"lng":-82.51963,"zip":"44878","miles_from_dt":19.01},{"city":"Savannah","state_name":"Ohio","lat":40.96859,"lng":-82.36631,"zip":"44874","miles_from_dt":19.45},{"city":"Polk","state_name":"Ohio","lat":40.92082,"lng":-82.19483,"zip":"44866","miles_from_dt":19.58},{"city":"Shreve","state_name":"Ohio","lat":40.6891,"lng":-82.03266,"zip":"44676","miles_from_dt":19.8},{"city":"Galion","state_name":"Ohio","lat":40.71059,"lng":-82.79484,"zip":"44833","miles_from_dt":20.29},{"city":"Mount Gilead","state_name":"Ohio","lat":40.56207,"lng":-82.75958,"zip":"43338","miles_from_dt":20.37},{"city":"Chesterville","state_name":"Ohio","lat":40.47748,"lng":-82.68202,"zip":"43317","miles_from_dt":20.44},{"city":"Crestline","state_name":"Ohio","lat":40.81921,"lng":-82.75923,"zip":"44827","miles_from_dt":20.44},{"city":"Howard","state_name":"Ohio","lat":40.40335,"lng":-82.29783,"zip":"43028","miles_from_dt":20.54},{"city":"Brinkhaven","state_name":"Ohio","lat":40.4591,"lng":-82.14554,"zip":"43006","miles_from_dt":21.07},{"city":"Iberia","state_name":"Ohio","lat":40.66939,"lng":-82.83102,"zip":"43325","miles_from_dt":22.18},{"city":"Mount Vernon","state_name":"Ohio","lat":40.37188,"lng":-82.49536,"zip":"43050","miles_from_dt":22.32},{"city":"Greenwich","state_name":"Ohio","lat":41.01745,"lng":-82.48241,"zip":"44837","miles_from_dt":23.01},{"city":"Nova","state_name":"Ohio","lat":41.02103,"lng":-82.32636,"zip":"44859","miles_from_dt":23.35},{"city":"West Salem","state_name":"Ohio","lat":40.94,"lng":-82.1005,"zip":"44287","miles_from_dt":23.74},{"city":"Wooster","state_name":"Ohio","lat":40.80714,"lng":-81.97971,"zip":"44691","miles_from_dt":24},{"city":"Killbuck","state_name":"Ohio","lat":40.47996,"lng":-82.03347,"zip":"44637","miles_from_dt":24.47},{"city":"Gambier","state_name":"Ohio","lat":40.33765,"lng":-82.34135,"zip":"43022","miles_from_dt":24.48},{"city":"North Robinson","state_name":"Ohio","lat":40.79398,"lng":-82.85627,"zip":"44856","miles_from_dt":24.54},{"city":"Holmesville","state_name":"Ohio","lat":40.63182,"lng":-81.93601,"zip":"44633","miles_from_dt":25.19},{"city":"Plymouth","state_name":"Ohio","lat":40.99165,"lng":-82.68168,"zip":"44865","miles_from_dt":25.31},{"city":"Sparta","state_name":"Ohio","lat":40.39557,"lng":-82.69977,"zip":"43350","miles_from_dt":25.34},{"city":"Tiro","state_name":"Ohio","lat":40.9205,"lng":-82.788,"zip":"44887","miles_from_dt":25.49},{"city":"Sullivan","state_name":"Ohio","lat":41.03352,"lng":-82.21993,"zip":"44880","miles_from_dt":25.79},{"city":"Mount Liberty","state_name":"Ohio","lat":40.35018,"lng":-82.63004,"zip":"43048","miles_from_dt":26.08},{"city":"Martel","state_name":"Ohio","lat":40.66365,"lng":-82.91045,"zip":"43335","miles_from_dt":26.37},{"city":"Edison","state_name":"Ohio","lat":40.5886,"lng":-82.89994,"zip":"43320","miles_from_dt":26.68},{"city":"Fulton","state_name":"Ohio","lat":40.463,"lng":-82.82889,"zip":"43321","miles_from_dt":27},{"city":"Walhonding","state_name":"Ohio","lat":40.33485,"lng":-82.17711,"zip":"43843","miles_from_dt":27.31},{"city":"Sulphur Springs","state_name":"Ohio","lat":40.8703,"lng":-82.87687,"zip":"44881","miles_from_dt":27.53},{"city":"New Haven","state_name":"Ohio","lat":41.03539,"lng":-82.68403,"zip":"44850","miles_from_dt":27.92},{"city":"Homerville","state_name":"Ohio","lat":41.0316,"lng":-82.12246,"zip":"44235","miles_from_dt":28.04},{"city":"Burbank","state_name":"Ohio","lat":40.95081,"lng":-81.99935,"zip":"44214","miles_from_dt":28.1},{"city":"Cardington","state_name":"Ohio","lat":40.4841,"lng":-82.87872,"zip":"43315","miles_from_dt":28.43},{"city":"Martinsburg","state_name":"Ohio","lat":40.28062,"lng":-82.31654,"zip":"43037","miles_from_dt":28.57},{"city":"Marengo","state_name":"Ohio","lat":40.39912,"lng":-82.79863,"zip":"43334","miles_from_dt":28.61},{"city":"New London","state_name":"Ohio","lat":41.10577,"lng":-82.40166,"zip":"44851","miles_from_dt":28.79},{"city":"Bladensburg","state_name":"Ohio","lat":40.28241,"lng":-82.26728,"zip":"43005","miles_from_dt":29.01},{"city":"Caledonia","state_name":"Ohio","lat":40.6474,"lng":-82.96122,"zip":"43314","miles_from_dt":29.12},{"city":"New Washington","state_name":"Ohio","lat":40.94723,"lng":-82.85748,"zip":"44854","miles_from_dt":29.49},{"city":"Centerburg","state_name":"Ohio","lat":40.30946,"lng":-82.68456,"zip":"43011","miles_from_dt":29.9}],"targetCityZipCode":"44843","targetCityState":"Ohio"},"__N_SSG":true}