{"pageProps":{"stateName":"Ohio","cityName":"manchester","nearbyCities":[{"city":"Bentonville","state_name":"Ohio","lat":38.75015,"lng":-83.61235,"zip":"45105","miles_from_dt":3.09},{"city":"Aberdeen","state_name":"Ohio","lat":38.69164,"lng":-83.74024,"zip":"45101","miles_from_dt":6.88},{"city":"West Union","state_name":"Ohio","lat":38.80921,"lng":-83.53406,"zip":"45693","miles_from_dt":8.37},{"city":"Decatur","state_name":"Ohio","lat":38.80818,"lng":-83.70728,"zip":"45115","miles_from_dt":8.69},{"city":"Lynx","state_name":"Ohio","lat":38.74415,"lng":-83.42099,"zip":"45650","miles_from_dt":10.78},{"city":"Ripley","state_name":"Ohio","lat":38.77234,"lng":-83.79943,"zip":"45167","miles_from_dt":11.02},{"city":"Maysville","state_name":"Kentucky","lat":38.59913,"lng":-83.77576,"zip":"41056","miles_from_dt":11.4},{"city":"Tollesboro","state_name":"Kentucky","lat":38.54493,"lng":-83.56175,"zip":"41189","miles_from_dt":11.42},{"city":"Washington","state_name":"Kentucky","lat":38.61585,"lng":-83.80616,"zip":"41096","miles_from_dt":12.08},{"city":"Cherry Fork","state_name":"Ohio","lat":38.88502,"lng":-83.61623,"zip":"45618","miles_from_dt":12.39},{"city":"Russellville","state_name":"Ohio","lat":38.85266,"lng":-83.76783,"zip":"45168","miles_from_dt":13.12},{"city":"Dover","state_name":"Kentucky","lat":38.70104,"lng":-83.90426,"zip":"41034","miles_from_dt":15.68},{"city":"Winchester","state_name":"Ohio","lat":38.9352,"lng":-83.66525,"zip":"45697","miles_from_dt":16.09},{"city":"Minerva","state_name":"Kentucky","lat":38.70378,"lng":-83.91717,"zip":"41062","miles_from_dt":16.38},{"city":"Blue Creek","state_name":"Ohio","lat":38.76018,"lng":-83.30864,"zip":"45616","miles_from_dt":16.94},{"city":"Vanceburg","state_name":"Kentucky","lat":38.52483,"lng":-83.38988,"zip":"41179","miles_from_dt":17.39},{"city":"Stout","state_name":"Ohio","lat":38.67546,"lng":-83.27789,"zip":"45684","miles_from_dt":18.3},{"city":"Seaman","state_name":"Ohio","lat":38.97634,"lng":-83.56788,"zip":"45679","miles_from_dt":18.86},{"city":"Mayslick","state_name":"Kentucky","lat":38.51787,"lng":-83.86995,"zip":"41055","miles_from_dt":18.94},{"city":"Georgetown","state_name":"Ohio","lat":38.86769,"lng":-83.90911,"zip":"45121","miles_from_dt":19.47},{"city":"Higginsport","state_name":"Ohio","lat":38.78997,"lng":-83.96729,"zip":"45131","miles_from_dt":19.95},{"city":"Augusta","state_name":"Kentucky","lat":38.73002,"lng":-83.98282,"zip":"41002","miles_from_dt":19.99},{"city":"Germantown","state_name":"Kentucky","lat":38.60513,"lng":-83.97265,"zip":"41044","miles_from_dt":20.58},{"city":"Flemingsburg","state_name":"Kentucky","lat":38.40548,"lng":-83.72338,"zip":"41041","miles_from_dt":21.51},{"city":"Wallingford","state_name":"Kentucky","lat":38.39441,"lng":-83.56269,"zip":"41093","miles_from_dt":21.63},{"city":"Elizaville","state_name":"Kentucky","lat":38.41997,"lng":-83.82414,"zip":"41037","miles_from_dt":22.73},{"city":"Sardinia","state_name":"Ohio","lat":39.01414,"lng":-83.7962,"zip":"45171","miles_from_dt":23.45},{"city":"Peebles","state_name":"Ohio","lat":38.98626,"lng":-83.358,"zip":"45660","miles_from_dt":23.8},{"city":"Feesburg","state_name":"Ohio","lat":38.8781,"lng":-83.99927,"zip":"45119","miles_from_dt":23.96},{"city":"Otway","state_name":"Ohio","lat":38.85166,"lng":-83.21011,"zip":"45657","miles_from_dt":24.04},{"city":"Mowrystown","state_name":"Ohio","lat":39.04057,"lng":-83.75181,"zip":"45155","miles_from_dt":24.29},{"city":"Ewing","state_name":"Kentucky","lat":38.41381,"lng":-83.88074,"zip":"41039","miles_from_dt":24.75},{"city":"Hamersville","state_name":"Ohio","lat":38.90886,"lng":-83.99897,"zip":"45130","miles_from_dt":25.07},{"city":"Brooksville","state_name":"Kentucky","lat":38.65549,"lng":-84.10134,"zip":"41004","miles_from_dt":26.56},{"city":"Felicity","state_name":"Ohio","lat":38.82597,"lng":-84.09301,"zip":"45120","miles_from_dt":27.16},{"city":"West Portsmouth","state_name":"Ohio","lat":38.74507,"lng":-83.11198,"zip":"45663","miles_from_dt":27.28},{"city":"Rarden","state_name":"Ohio","lat":38.97339,"lng":-83.23775,"zip":"45671","miles_from_dt":27.47},{"city":"Plummers Landing","state_name":"Kentucky","lat":38.30496,"lng":-83.56992,"zip":"41081","miles_from_dt":27.72},{"city":"Mount Olivet","state_name":"Kentucky","lat":38.51462,"lng":-84.07106,"zip":"41064","miles_from_dt":28.01},{"city":"Friendship","state_name":"Ohio","lat":38.69758,"lng":-83.09275,"zip":"45630","miles_from_dt":28.19},{"city":"Sinking Spring","state_name":"Ohio","lat":39.07447,"lng":-83.38688,"zip":"45172","miles_from_dt":28.26},{"city":"Garrison","state_name":"Kentucky","lat":38.54381,"lng":-83.13357,"zip":"41141","miles_from_dt":28.29},{"city":"Quincy","state_name":"Kentucky","lat":38.63464,"lng":-83.09328,"zip":"41166","miles_from_dt":28.59},{"city":"Chilo","state_name":"Ohio","lat":38.79377,"lng":-84.14144,"zip":"45112","miles_from_dt":29.13},{"city":"Mount Orab","state_name":"Ohio","lat":39.06137,"lng":-83.91997,"zip":"45154","miles_from_dt":29.58},{"city":"Bethel","state_name":"Ohio","lat":38.94633,"lng":-84.06831,"zip":"45106","miles_from_dt":29.61},{"city":"Emerson","state_name":"Kentucky","lat":38.36026,"lng":-83.28796,"zip":"41135","miles_from_dt":29.65},{"city":"Hillsboro","state_name":"Kentucky","lat":38.27465,"lng":-83.64581,"zip":"41049","miles_from_dt":29.76}],"targetCityZipCode":"45144","targetCityState":"Ohio"},"__N_SSG":true}