{"pageProps":{"stateName":"Ohio","cityName":"marion","nearbyCities":[{"city":"Marion","state_name":"Ohio","lat":40.59995,"lng":-83.12967,"zip":"43302","miles_from_dt":2.38},{"city":"Green Camp","state_name":"Ohio","lat":40.5327,"lng":-83.20815,"zip":"43322","miles_from_dt":4.94},{"city":"Prospect","state_name":"Ohio","lat":40.47533,"lng":-83.17994,"zip":"43342","miles_from_dt":6.88},{"city":"Waldo","state_name":"Ohio","lat":40.45748,"lng":-83.04788,"zip":"43356","miles_from_dt":8.5},{"city":"Morral","state_name":"Ohio","lat":40.68336,"lng":-83.24107,"zip":"43337","miles_from_dt":10.16},{"city":"New Bloomington","state_name":"Ohio","lat":40.59577,"lng":-83.31544,"zip":"43341","miles_from_dt":10.24},{"city":"Caledonia","state_name":"Ohio","lat":40.6474,"lng":-82.96122,"zip":"43314","miles_from_dt":10.29},{"city":"Radnor","state_name":"Ohio","lat":40.39877,"lng":-83.16313,"zip":"43066","miles_from_dt":11.69},{"city":"Edison","state_name":"Ohio","lat":40.5886,"lng":-82.89994,"zip":"43320","miles_from_dt":11.94},{"city":"Martel","state_name":"Ohio","lat":40.66365,"lng":-82.91045,"zip":"43335","miles_from_dt":13.15},{"city":"Harpster","state_name":"Ohio","lat":40.73116,"lng":-83.25211,"zip":"43323","miles_from_dt":13.23},{"city":"La Rue","state_name":"Ohio","lat":40.58369,"lng":-83.37769,"zip":"43332","miles_from_dt":13.36},{"city":"Ashley","state_name":"Ohio","lat":40.41017,"lng":-82.96866,"zip":"43003","miles_from_dt":13.52},{"city":"Cardington","state_name":"Ohio","lat":40.4841,"lng":-82.87872,"zip":"43315","miles_from_dt":14.13},{"city":"Richwood","state_name":"Ohio","lat":40.43219,"lng":-83.33832,"zip":"43344","miles_from_dt":14.53},{"city":"Magnetic Springs","state_name":"Ohio","lat":40.3524,"lng":-83.26325,"zip":"43036","miles_from_dt":16.42},{"city":"Nevada","state_name":"Ohio","lat":40.80863,"lng":-83.13186,"zip":"44849","miles_from_dt":16.77},{"city":"Iberia","state_name":"Ohio","lat":40.66939,"lng":-82.83102,"zip":"43325","miles_from_dt":17.03},{"city":"Fulton","state_name":"Ohio","lat":40.463,"lng":-82.82889,"zip":"43321","miles_from_dt":17.12},{"city":"Kilbourne","state_name":"Ohio","lat":40.32836,"lng":-82.95812,"zip":"43032","miles_from_dt":18.59},{"city":"Delaware","state_name":"Ohio","lat":40.29812,"lng":-83.06049,"zip":"43015","miles_from_dt":18.77},{"city":"Mount Victory","state_name":"Ohio","lat":40.53748,"lng":-83.48,"zip":"43340","miles_from_dt":18.79},{"city":"Bucyrus","state_name":"Ohio","lat":40.81829,"lng":-82.97186,"zip":"44820","miles_from_dt":19.19},{"city":"Mount Gilead","state_name":"Ohio","lat":40.56207,"lng":-82.75958,"zip":"43338","miles_from_dt":19.22},{"city":"Ostrander","state_name":"Ohio","lat":40.28775,"lng":-83.20256,"zip":"43061","miles_from_dt":19.61},{"city":"Oceola","state_name":"Ohio","lat":40.85189,"lng":-83.0964,"zip":"44860","miles_from_dt":19.8},{"city":"Galion","state_name":"Ohio","lat":40.71059,"lng":-82.79484,"zip":"44833","miles_from_dt":20.02},{"city":"Upper Sandusky","state_name":"Ohio","lat":40.82501,"lng":-83.30424,"zip":"43351","miles_from_dt":20.22},{"city":"Marengo","state_name":"Ohio","lat":40.39912,"lng":-82.79863,"zip":"43334","miles_from_dt":20.68},{"city":"North Robinson","state_name":"Ohio","lat":40.79398,"lng":-82.85627,"zip":"44856","miles_from_dt":21.15},{"city":"Broadway","state_name":"Ohio","lat":40.33154,"lng":-83.40595,"zip":"43007","miles_from_dt":21.92},{"city":"Kirby","state_name":"Ohio","lat":40.81349,"lng":-83.41935,"zip":"43330","miles_from_dt":23.06},{"city":"West Mansfield","state_name":"Ohio","lat":40.41898,"lng":-83.53129,"zip":"43358","miles_from_dt":23.68},{"city":"Chesterville","state_name":"Ohio","lat":40.47748,"lng":-82.68202,"zip":"43317","miles_from_dt":24.1},{"city":"Ridgeway","state_name":"Ohio","lat":40.51341,"lng":-83.58167,"zip":"43345","miles_from_dt":24.32},{"city":"Raymond","state_name":"Ohio","lat":40.34368,"lng":-83.48388,"zip":"43067","miles_from_dt":24.35},{"city":"Marysville","state_name":"Ohio","lat":40.26115,"lng":-83.35812,"zip":"43040","miles_from_dt":24.35},{"city":"Shauck","state_name":"Ohio","lat":40.61868,"lng":-82.66598,"zip":"43349","miles_from_dt":24.41},{"city":"Sunbury","state_name":"Ohio","lat":40.28008,"lng":-82.84899,"zip":"43074","miles_from_dt":24.49},{"city":"Sulphur Springs","state_name":"Ohio","lat":40.8703,"lng":-82.87687,"zip":"44881","miles_from_dt":24.72},{"city":"Sparta","state_name":"Ohio","lat":40.39557,"lng":-82.69977,"zip":"43350","miles_from_dt":25.29},{"city":"Crestline","state_name":"Ohio","lat":40.81921,"lng":-82.75923,"zip":"44827","miles_from_dt":25.98},{"city":"Marysville","state_name":"Ohio","lat":40.23827,"lng":-83.36802,"zip":"43041","miles_from_dt":25.98},{"city":"Forest","state_name":"Ohio","lat":40.78202,"lng":-83.53513,"zip":"45843","miles_from_dt":26.22},{"city":"Kenton","state_name":"Ohio","lat":40.64149,"lng":-83.61443,"zip":"43326","miles_from_dt":26.27},{"city":"Sycamore","state_name":"Ohio","lat":40.94759,"lng":-83.13734,"zip":"44882","miles_from_dt":26.36},{"city":"Powell","state_name":"Ohio","lat":40.17655,"lng":-83.09445,"zip":"43065","miles_from_dt":26.9},{"city":"Lewis Center","state_name":"Ohio","lat":40.18622,"lng":-82.9969,"zip":"43035","miles_from_dt":27.04},{"city":"Wharton","state_name":"Ohio","lat":40.86977,"lng":-83.45319,"zip":"43359","miles_from_dt":27.15},{"city":"Mansfield","state_name":"Ohio","lat":40.66578,"lng":-82.61505,"zip":"44904","miles_from_dt":27.68},{"city":"Galena","state_name":"Ohio","lat":40.20301,"lng":-82.88476,"zip":"43021","miles_from_dt":28.05},{"city":"Ontario","state_name":"Ohio","lat":40.75786,"lng":-82.64614,"zip":"44862","miles_from_dt":28.44},{"city":"Chatfield","state_name":"Ohio","lat":40.95443,"lng":-82.94194,"zip":"44825","miles_from_dt":28.49},{"city":"Rushsylvania","state_name":"Ohio","lat":40.47771,"lng":-83.65804,"zip":"43347","miles_from_dt":28.72},{"city":"Fredericktown","state_name":"Ohio","lat":40.49527,"lng":-82.57831,"zip":"43019","miles_from_dt":29.18},{"city":"Centerburg","state_name":"Ohio","lat":40.30946,"lng":-82.68456,"zip":"43011","miles_from_dt":29.18},{"city":"New Washington","state_name":"Ohio","lat":40.94723,"lng":-82.85748,"zip":"44854","miles_from_dt":29.83},{"city":"East Liberty","state_name":"Ohio","lat":40.30525,"lng":-83.57738,"zip":"43319","miles_from_dt":29.87},{"city":"Carey","state_name":"Ohio","lat":40.95184,"lng":-83.38596,"zip":"43316","miles_from_dt":29.96},{"city":"Columbus","state_name":"Ohio","lat":40.14501,"lng":-82.98209,"zip":"43240","miles_from_dt":29.99}],"targetCityZipCode":"43301","targetCityState":"Ohio"},"__N_SSG":true}