{"pageProps":{"stateName":"Ohio","cityName":"milan","nearbyCities":[{"city":"Huron","state_name":"Ohio","lat":41.3725,"lng":-82.55656,"zip":"44839","miles_from_dt":4.74},{"city":"Norwalk","state_name":"Ohio","lat":41.21785,"lng":-82.58212,"zip":"44857","miles_from_dt":6.9},{"city":"Berlin Heights","state_name":"Ohio","lat":41.32162,"lng":-82.4714,"zip":"44814","miles_from_dt":7.13},{"city":"Monroeville","state_name":"Ohio","lat":41.23025,"lng":-82.70821,"zip":"44847","miles_from_dt":7.87},{"city":"Sandusky","state_name":"Ohio","lat":41.40623,"lng":-82.7171,"zip":"44870","miles_from_dt":8.42},{"city":"Collins","state_name":"Ohio","lat":41.23993,"lng":-82.47931,"zip":"44826","miles_from_dt":8.52},{"city":"Sandusky","state_name":"Ohio","lat":41.44977,"lng":-82.70587,"zip":"44871","miles_from_dt":10.54},{"city":"Castalia","state_name":"Ohio","lat":41.37952,"lng":-82.80422,"zip":"44824","miles_from_dt":11.09},{"city":"Wakeman","state_name":"Ohio","lat":41.24661,"lng":-82.38195,"zip":"44889","miles_from_dt":12.72},{"city":"Birmingham","state_name":"Ohio","lat":41.32996,"lng":-82.36113,"zip":"44816","miles_from_dt":12.9},{"city":"Bellevue","state_name":"Ohio","lat":41.24445,"lng":-82.84474,"zip":"44811","miles_from_dt":13.26},{"city":"Vermilion","state_name":"Ohio","lat":41.38894,"lng":-82.36552,"zip":"44089","miles_from_dt":13.59},{"city":"Flat Rock","state_name":"Ohio","lat":41.23367,"lng":-82.85957,"zip":"44828","miles_from_dt":14.26},{"city":"North Fairfield","state_name":"Ohio","lat":41.10414,"lng":-82.58664,"zip":"44855","miles_from_dt":14.66},{"city":"Kipton","state_name":"Ohio","lat":41.26626,"lng":-82.30553,"zip":"44049","miles_from_dt":16.13},{"city":"Willard","state_name":"Ohio","lat":41.0818,"lng":-82.71248,"zip":"44890","miles_from_dt":17.04},{"city":"Lakeside Marblehead","state_name":"Ohio","lat":41.52662,"lng":-82.78145,"zip":"43440","miles_from_dt":17.1},{"city":"Vickery","state_name":"Ohio","lat":41.40318,"lng":-82.93116,"zip":"43464","miles_from_dt":17.83},{"city":"New London","state_name":"Ohio","lat":41.10577,"lng":-82.40166,"zip":"44851","miles_from_dt":18.06},{"city":"Clyde","state_name":"Ohio","lat":41.30792,"lng":-82.95807,"zip":"43410","miles_from_dt":18.21},{"city":"Amherst","state_name":"Ohio","lat":41.36825,"lng":-82.25958,"zip":"44001","miles_from_dt":18.49},{"city":"Willard","state_name":"Ohio","lat":41.05676,"lng":-82.7219,"zip":"44888","miles_from_dt":18.84},{"city":"Gypsum","state_name":"Ohio","lat":41.50463,"lng":-82.88033,"zip":"43433","miles_from_dt":19.22},{"city":"Oberlin","state_name":"Ohio","lat":41.28858,"lng":-82.23643,"zip":"44074","miles_from_dt":19.44},{"city":"New Haven","state_name":"Ohio","lat":41.03539,"lng":-82.68403,"zip":"44850","miles_from_dt":19.76},{"city":"Kelleys Island","state_name":"Ohio","lat":41.60343,"lng":-82.70268,"zip":"43438","miles_from_dt":20.44},{"city":"Lorain","state_name":"Ohio","lat":41.42694,"lng":-82.22138,"zip":"44053","miles_from_dt":21.53},{"city":"Greenwich","state_name":"Ohio","lat":41.01745,"lng":-82.48241,"zip":"44837","miles_from_dt":21.62},{"city":"Attica","state_name":"Ohio","lat":41.06508,"lng":-82.87533,"zip":"44807","miles_from_dt":22.21},{"city":"Wellington","state_name":"Ohio","lat":41.16757,"lng":-82.22836,"zip":"44090","miles_from_dt":22.28},{"city":"Plymouth","state_name":"Ohio","lat":40.99165,"lng":-82.68168,"zip":"44865","miles_from_dt":22.7},{"city":"Republic","state_name":"Ohio","lat":41.14755,"lng":-82.98963,"zip":"44867","miles_from_dt":23.01},{"city":"Port Clinton","state_name":"Ohio","lat":41.51568,"lng":-82.96522,"zip":"43452","miles_from_dt":23.11},{"city":"Green Springs","state_name":"Ohio","lat":41.23772,"lng":-83.05455,"zip":"44836","miles_from_dt":23.85},{"city":"Elyria","state_name":"Ohio","lat":41.36539,"lng":-82.13025,"zip":"44035","miles_from_dt":25.1},{"city":"Nova","state_name":"Ohio","lat":41.02103,"lng":-82.32636,"zip":"44859","miles_from_dt":25.1},{"city":"Lorain","state_name":"Ohio","lat":41.45519,"lng":-82.16133,"zip":"44052","miles_from_dt":25.14},{"city":"Lagrange","state_name":"Ohio","lat":41.24853,"lng":-82.13119,"zip":"44050","miles_from_dt":25.27},{"city":"Shiloh","state_name":"Ohio","lat":40.95111,"lng":-82.51963,"zip":"44878","miles_from_dt":25.59},{"city":"Put In Bay","state_name":"Ohio","lat":41.64934,"lng":-82.82497,"zip":"43456","miles_from_dt":25.61},{"city":"Lorain","state_name":"Ohio","lat":41.43309,"lng":-82.13354,"zip":"44055","miles_from_dt":25.97},{"city":"Fremont","state_name":"Ohio","lat":41.35749,"lng":-83.11265,"zip":"43420","miles_from_dt":26.39},{"city":"Lacarne","state_name":"Ohio","lat":41.51758,"lng":-83.04275,"zip":"43439","miles_from_dt":26.51},{"city":"Elyria","state_name":"Ohio","lat":41.36776,"lng":-82.09851,"zip":"44036","miles_from_dt":26.75},{"city":"Savannah","state_name":"Ohio","lat":40.96859,"lng":-82.36631,"zip":"44874","miles_from_dt":27.09},{"city":"Middle Bass","state_name":"Ohio","lat":41.68483,"lng":-82.80863,"zip":"43446","miles_from_dt":27.5},{"city":"Sullivan","state_name":"Ohio","lat":41.03352,"lng":-82.21993,"zip":"44880","miles_from_dt":28.1},{"city":"Old Fort","state_name":"Ohio","lat":41.24254,"lng":-83.14626,"zip":"44861","miles_from_dt":28.46},{"city":"New Washington","state_name":"Ohio","lat":40.94723,"lng":-82.85748,"zip":"44854","miles_from_dt":28.57},{"city":"Sheffield Lake","state_name":"Ohio","lat":41.46419,"lng":-82.0931,"zip":"44054","miles_from_dt":28.67},{"city":"Tiro","state_name":"Ohio","lat":40.9205,"lng":-82.788,"zip":"44887","miles_from_dt":28.85},{"city":"Medina","state_name":"Ohio","lat":41.1016,"lng":-82.12428,"zip":"44258","miles_from_dt":29.24},{"city":"Grafton","state_name":"Ohio","lat":41.26779,"lng":-82.04188,"zip":"44044","miles_from_dt":29.67},{"city":"Isle Saint George","state_name":"Ohio","lat":41.71522,"lng":-82.82098,"zip":"43436","miles_from_dt":29.68},{"city":"Shelby","state_name":"Ohio","lat":40.88645,"lng":-82.6489,"zip":"44875","miles_from_dt":29.71},{"city":"Bloomville","state_name":"Ohio","lat":41.0002,"lng":-82.99645,"zip":"44818","miles_from_dt":29.74}],"targetCityZipCode":"44846","targetCityState":"Ohio"},"__N_SSG":true}