{"pageProps":{"stateName":"Ohio","cityName":"milford-center","nearbyCities":[{"city":"Woodstock","state_name":"Ohio","lat":40.15764,"lng":-83.54223,"zip":"43084","miles_from_dt":4.96},{"city":"Irwin","state_name":"Ohio","lat":40.09598,"lng":-83.45408,"zip":"43029","miles_from_dt":5.07},{"city":"Unionville Center","state_name":"Ohio","lat":40.13675,"lng":-83.34165,"zip":"43077","miles_from_dt":6.15},{"city":"Marysville","state_name":"Ohio","lat":40.23827,"lng":-83.36802,"zip":"43041","miles_from_dt":6.43},{"city":"North Lewisburg","state_name":"Ohio","lat":40.21978,"lng":-83.57295,"zip":"43060","miles_from_dt":7.39},{"city":"Marysville","state_name":"Ohio","lat":40.26115,"lng":-83.35812,"zip":"43040","miles_from_dt":7.98},{"city":"Plain City","state_name":"Ohio","lat":40.09819,"lng":-83.28863,"zip":"43064","miles_from_dt":9.84},{"city":"Mechanicsburg","state_name":"Ohio","lat":40.05145,"lng":-83.56423,"zip":"43044","miles_from_dt":10.14},{"city":"Cable","state_name":"Ohio","lat":40.17188,"lng":-83.64234,"zip":"43009","miles_from_dt":10.2},{"city":"Mingo","state_name":"Ohio","lat":40.20795,"lng":-83.63797,"zip":"43047","miles_from_dt":10.31},{"city":"Middleburg","state_name":"Ohio","lat":40.28337,"lng":-83.57651,"zip":"43336","miles_from_dt":10.34},{"city":"Broadway","state_name":"Ohio","lat":40.33154,"lng":-83.40595,"zip":"43007","miles_from_dt":11.43},{"city":"East Liberty","state_name":"Ohio","lat":40.30525,"lng":-83.57738,"zip":"43319","miles_from_dt":11.55},{"city":"Raymond","state_name":"Ohio","lat":40.34368,"lng":-83.48388,"zip":"43067","miles_from_dt":12.16},{"city":"Zanesfield","state_name":"Ohio","lat":40.33272,"lng":-83.63114,"zip":"43360","miles_from_dt":14.8},{"city":"Catawba","state_name":"Ohio","lat":39.99964,"lng":-83.6219,"zip":"43010","miles_from_dt":14.84},{"city":"Ostrander","state_name":"Ohio","lat":40.28775,"lng":-83.20256,"zip":"43061","miles_from_dt":15.42},{"city":"Magnetic Springs","state_name":"Ohio","lat":40.3524,"lng":-83.26325,"zip":"43036","miles_from_dt":16.02},{"city":"Dublin","state_name":"Ohio","lat":40.09732,"lng":-83.15535,"zip":"43016","miles_from_dt":16.36},{"city":"Amlin","state_name":"Ohio","lat":40.05982,"lng":-83.17305,"zip":"43002","miles_from_dt":16.49},{"city":"West Liberty","state_name":"Ohio","lat":40.25316,"lng":-83.74711,"zip":"43357","miles_from_dt":16.76},{"city":"South Vienna","state_name":"Ohio","lat":39.95304,"lng":-83.60304,"zip":"45369","miles_from_dt":16.99},{"city":"Dublin","state_name":"Ohio","lat":40.1189,"lng":-83.13314,"zip":"43017","miles_from_dt":17.12},{"city":"West Jefferson","state_name":"Ohio","lat":39.94369,"lng":-83.30633,"zip":"43162","miles_from_dt":17.32},{"city":"Hilliard","state_name":"Ohio","lat":40.02197,"lng":-83.18472,"zip":"43026","miles_from_dt":17.34},{"city":"Urbana","state_name":"Ohio","lat":40.11302,"lng":-83.77538,"zip":"43078","miles_from_dt":17.67},{"city":"West Mansfield","state_name":"Ohio","lat":40.41898,"lng":-83.53129,"zip":"43358","miles_from_dt":17.76},{"city":"Powell","state_name":"Ohio","lat":40.17655,"lng":-83.09445,"zip":"43065","miles_from_dt":18.81},{"city":"Richwood","state_name":"Ohio","lat":40.43219,"lng":-83.33832,"zip":"43344","miles_from_dt":19.07},{"city":"London","state_name":"Ohio","lat":39.88406,"lng":-83.42946,"zip":"43140","miles_from_dt":19.71},{"city":"Columbus","state_name":"Ohio","lat":39.97857,"lng":-83.16337,"zip":"43226","miles_from_dt":20.09},{"city":"Galloway","state_name":"Ohio","lat":39.93487,"lng":-83.20059,"zip":"43119","miles_from_dt":20.88},{"city":"Westville","state_name":"Ohio","lat":40.10838,"lng":-83.83623,"zip":"43083","miles_from_dt":20.89},{"city":"Bellefontaine","state_name":"Ohio","lat":40.36427,"lng":-83.75812,"zip":"43311","miles_from_dt":21.13},{"city":"Columbus","state_name":"Ohio","lat":40.10298,"lng":-83.05599,"zip":"43234","miles_from_dt":21.35},{"city":"Columbus","state_name":"Ohio","lat":40.10193,"lng":-83.05442,"zip":"43235","miles_from_dt":21.45},{"city":"Columbus","state_name":"Ohio","lat":40.04847,"lng":-83.07161,"zip":"43220","miles_from_dt":21.7},{"city":"Radnor","state_name":"Ohio","lat":40.39877,"lng":-83.16313,"zip":"43066","miles_from_dt":21.91},{"city":"Columbus","state_name":"Ohio","lat":40.02334,"lng":-83.07744,"zip":"43221","miles_from_dt":22.15},{"city":"Springfield","state_name":"Ohio","lat":39.96073,"lng":-83.7682,"zip":"45503","miles_from_dt":22.18},{"city":"Columbus","state_name":"Ohio","lat":39.96367,"lng":-83.12478,"zip":"43228","miles_from_dt":22.32},{"city":"Delaware","state_name":"Ohio","lat":40.29812,"lng":-83.06049,"zip":"43015","miles_from_dt":22.42},{"city":"Tremont City","state_name":"Ohio","lat":40.01471,"lng":-83.83862,"zip":"45372","miles_from_dt":23.2},{"city":"Columbus","state_name":"Ohio","lat":40.09959,"lng":-83.01639,"zip":"43085","miles_from_dt":23.45},{"city":"Rushsylvania","state_name":"Ohio","lat":40.47771,"lng":-83.65804,"zip":"43347","miles_from_dt":23.95},{"city":"Lewis Center","state_name":"Ohio","lat":40.18622,"lng":-82.9969,"zip":"43035","miles_from_dt":23.99},{"city":"Columbus","state_name":"Ohio","lat":40.0523,"lng":-83.01996,"zip":"43214","miles_from_dt":24.16},{"city":"Columbus","state_name":"Ohio","lat":39.96135,"lng":-83.08052,"zip":"43204","miles_from_dt":24.27},{"city":"Springfield","state_name":"Ohio","lat":39.90737,"lng":-83.7615,"zip":"45505","miles_from_dt":24.49},{"city":"Ridgeway","state_name":"Ohio","lat":40.51341,"lng":-83.58167,"zip":"43345","miles_from_dt":24.74},{"city":"Columbus","state_name":"Ohio","lat":40.14501,"lng":-82.98209,"zip":"43240","miles_from_dt":24.81},{"city":"South Charleston","state_name":"Ohio","lat":39.84376,"lng":-83.65413,"zip":"45368","miles_from_dt":24.94},{"city":"Columbus","state_name":"Ohio","lat":39.98763,"lng":-83.04215,"zip":"43212","miles_from_dt":24.98},{"city":"Columbus","state_name":"Ohio","lat":40.02126,"lng":-83.01394,"zip":"43202","miles_from_dt":25.25},{"city":"Springfield","state_name":"Ohio","lat":39.92634,"lng":-83.80745,"zip":"45501","miles_from_dt":25.31},{"city":"Columbus","state_name":"Ohio","lat":40.00487,"lng":-83.02182,"zip":"43210","miles_from_dt":25.36},{"city":"Mount Victory","state_name":"Ohio","lat":40.53748,"lng":-83.48,"zip":"43340","miles_from_dt":25.45},{"city":"Prospect","state_name":"Ohio","lat":40.47533,"lng":-83.17994,"zip":"43342","miles_from_dt":25.47},{"city":"Springfield","state_name":"Ohio","lat":39.92791,"lng":-83.81703,"zip":"45502","miles_from_dt":25.63},{"city":"Columbus","state_name":"Ohio","lat":40.08569,"lng":-82.97636,"zip":"43229","miles_from_dt":25.73},{"city":"Columbus","state_name":"Ohio","lat":39.961,"lng":-83.03581,"zip":"43222","miles_from_dt":26.23},{"city":"Columbus","state_name":"Ohio","lat":39.97093,"lng":-83.02627,"zip":"43271","miles_from_dt":26.29},{"city":"De Graff","state_name":"Ohio","lat":40.30948,"lng":-83.91378,"zip":"43318","miles_from_dt":26.37},{"city":"Columbus","state_name":"Ohio","lat":39.9661,"lng":-83.02545,"zip":"43279","miles_from_dt":26.5},{"city":"Columbus","state_name":"Ohio","lat":40.05642,"lng":-82.9682,"zip":"43266","miles_from_dt":26.67},{"city":"Springfield","state_name":"Ohio","lat":39.94811,"lng":-83.86481,"zip":"45504","miles_from_dt":26.78},{"city":"Columbus","state_name":"Ohio","lat":39.99114,"lng":-83.00056,"zip":"43201","miles_from_dt":26.79},{"city":"Columbus","state_name":"Ohio","lat":39.95972,"lng":-83.0208,"zip":"43251","miles_from_dt":26.95},{"city":"Saint Paris","state_name":"Ohio","lat":40.1172,"lng":-83.95514,"zip":"43072","miles_from_dt":27},{"city":"Rosewood","state_name":"Ohio","lat":40.22056,"lng":-83.95651,"zip":"43070","miles_from_dt":27.04},{"city":"Huntsville","state_name":"Ohio","lat":40.44632,"lng":-83.81207,"zip":"43324","miles_from_dt":27.05},{"city":"Columbus","state_name":"Ohio","lat":40.04256,"lng":-82.9664,"zip":"43224","miles_from_dt":27.06},{"city":"Columbus","state_name":"Ohio","lat":39.96633,"lng":-83.01262,"zip":"43215","miles_from_dt":27.08},{"city":"Grove City","state_name":"Ohio","lat":39.86801,"lng":-83.12088,"zip":"43123","miles_from_dt":27.14},{"city":"Columbus","state_name":"Ohio","lat":40.01163,"lng":-82.97244,"zip":"43211","miles_from_dt":27.53},{"city":"Columbus","state_name":"Ohio","lat":39.96035,"lng":-83.00566,"zip":"43272","miles_from_dt":27.61},{"city":"Columbus","state_name":"Ohio","lat":39.96497,"lng":-83.00032,"zip":"43270","miles_from_dt":27.68},{"city":"Columbus","state_name":"Ohio","lat":39.92636,"lng":-83.03395,"zip":"43223","miles_from_dt":27.7},{"city":"Columbus","state_name":"Ohio","lat":40.07843,"lng":-82.93914,"zip":"43231","miles_from_dt":27.76},{"city":"Columbus","state_name":"Ohio","lat":39.96287,"lng":-82.99842,"zip":"43260","miles_from_dt":27.84},{"city":"Columbus","state_name":"Ohio","lat":39.96142,"lng":-82.99939,"zip":"43287","miles_from_dt":27.85},{"city":"Columbus","state_name":"Ohio","lat":39.9644,"lng":-82.99432,"zip":"43268","miles_from_dt":27.98},{"city":"Green Camp","state_name":"Ohio","lat":40.5327,"lng":-83.20815,"zip":"43322","miles_from_dt":28.13},{"city":"Kilbourne","state_name":"Ohio","lat":40.32836,"lng":-82.95812,"zip":"43032","miles_from_dt":28.21},{"city":"Springfield","state_name":"Ohio","lat":39.89907,"lng":-83.85233,"zip":"45506","miles_from_dt":28.35},{"city":"Westerville","state_name":"Ohio","lat":40.11745,"lng":-82.91666,"zip":"43086","miles_from_dt":28.45},{"city":"North Hampton","state_name":"Ohio","lat":39.98916,"lng":-83.94052,"zip":"45349","miles_from_dt":28.83},{"city":"La Rue","state_name":"Ohio","lat":40.58369,"lng":-83.37769,"zip":"43332","miles_from_dt":28.84},{"city":"Columbus","state_name":"Ohio","lat":39.9729,"lng":-82.96922,"zip":"43203","miles_from_dt":28.85},{"city":"Harrisburg","state_name":"Ohio","lat":39.81077,"lng":-83.16857,"zip":"43126","miles_from_dt":28.89},{"city":"Waldo","state_name":"Ohio","lat":40.45748,"lng":-83.04788,"zip":"43356","miles_from_dt":29.08},{"city":"Quincy","state_name":"Ohio","lat":40.3073,"lng":-83.97647,"zip":"43343","miles_from_dt":29.43},{"city":"Columbus","state_name":"Ohio","lat":39.9575,"lng":-82.96244,"zip":"43205","miles_from_dt":29.68},{"city":"Columbus","state_name":"Ohio","lat":39.94205,"lng":-82.97346,"zip":"43206","miles_from_dt":29.72},{"city":"Columbus","state_name":"Ohio","lat":40.01765,"lng":-82.92367,"zip":"43218","miles_from_dt":29.78},{"city":"Westerville","state_name":"Ohio","lat":40.11064,"lng":-82.89083,"zip":"43081","miles_from_dt":29.87},{"city":"Westerville","state_name":"Ohio","lat":40.15537,"lng":-82.88437,"zip":"43082","miles_from_dt":29.94},{"city":"Galena","state_name":"Ohio","lat":40.20301,"lng":-82.88476,"zip":"43021","miles_from_dt":29.99}],"targetCityZipCode":"43045","targetCityState":"Ohio"},"__N_SSG":true}