{"pageProps":{"stateName":"Ohio","cityName":"mingo","nearbyCities":[{"city":"Cable","state_name":"Ohio","lat":40.17188,"lng":-83.64234,"zip":"43009","miles_from_dt":2.5},{"city":"North Lewisburg","state_name":"Ohio","lat":40.21978,"lng":-83.57295,"zip":"43060","miles_from_dt":3.53},{"city":"Middleburg","state_name":"Ohio","lat":40.28337,"lng":-83.57651,"zip":"43336","miles_from_dt":6.13},{"city":"Woodstock","state_name":"Ohio","lat":40.15764,"lng":-83.54223,"zip":"43084","miles_from_dt":6.14},{"city":"West Liberty","state_name":"Ohio","lat":40.25316,"lng":-83.74711,"zip":"43357","miles_from_dt":6.56},{"city":"East Liberty","state_name":"Ohio","lat":40.30525,"lng":-83.57738,"zip":"43319","miles_from_dt":7.44},{"city":"Zanesfield","state_name":"Ohio","lat":40.33272,"lng":-83.63114,"zip":"43360","miles_from_dt":8.62},{"city":"Urbana","state_name":"Ohio","lat":40.11302,"lng":-83.77538,"zip":"43078","miles_from_dt":9.79},{"city":"Milford Center","state_name":"Ohio","lat":40.16932,"lng":-83.44975,"zip":"43045","miles_from_dt":10.31},{"city":"Mechanicsburg","state_name":"Ohio","lat":40.05145,"lng":-83.56423,"zip":"43044","miles_from_dt":11.48},{"city":"Raymond","state_name":"Ohio","lat":40.34368,"lng":-83.48388,"zip":"43067","miles_from_dt":12.41},{"city":"Irwin","state_name":"Ohio","lat":40.09598,"lng":-83.45408,"zip":"43029","miles_from_dt":12.43},{"city":"Bellefontaine","state_name":"Ohio","lat":40.36427,"lng":-83.75812,"zip":"43311","miles_from_dt":12.52},{"city":"Westville","state_name":"Ohio","lat":40.10838,"lng":-83.83623,"zip":"43083","miles_from_dt":12.54},{"city":"Catawba","state_name":"Ohio","lat":39.99964,"lng":-83.6219,"zip":"43010","miles_from_dt":14.4},{"city":"Marysville","state_name":"Ohio","lat":40.23827,"lng":-83.36802,"zip":"43041","miles_from_dt":14.43},{"city":"Broadway","state_name":"Ohio","lat":40.33154,"lng":-83.40595,"zip":"43007","miles_from_dt":14.94},{"city":"Marysville","state_name":"Ohio","lat":40.26115,"lng":-83.35812,"zip":"43040","miles_from_dt":15.25},{"city":"West Mansfield","state_name":"Ohio","lat":40.41898,"lng":-83.53129,"zip":"43358","miles_from_dt":15.61},{"city":"De Graff","state_name":"Ohio","lat":40.30948,"lng":-83.91378,"zip":"43318","miles_from_dt":16.18},{"city":"Unionville Center","state_name":"Ohio","lat":40.13675,"lng":-83.34165,"zip":"43077","miles_from_dt":16.43},{"city":"Rosewood","state_name":"Ohio","lat":40.22056,"lng":-83.95651,"zip":"43070","miles_from_dt":16.87},{"city":"Tremont City","state_name":"Ohio","lat":40.01471,"lng":-83.83862,"zip":"45372","miles_from_dt":17.05},{"city":"South Vienna","state_name":"Ohio","lat":39.95304,"lng":-83.60304,"zip":"45369","miles_from_dt":17.68},{"city":"Saint Paris","state_name":"Ohio","lat":40.1172,"lng":-83.95514,"zip":"43072","miles_from_dt":17.92},{"city":"Springfield","state_name":"Ohio","lat":39.96073,"lng":-83.7682,"zip":"45503","miles_from_dt":18.4},{"city":"Rushsylvania","state_name":"Ohio","lat":40.47771,"lng":-83.65804,"zip":"43347","miles_from_dt":18.64},{"city":"Huntsville","state_name":"Ohio","lat":40.44632,"lng":-83.81207,"zip":"43324","miles_from_dt":18.84},{"city":"Quincy","state_name":"Ohio","lat":40.3073,"lng":-83.97647,"zip":"43343","miles_from_dt":19.16},{"city":"Plain City","state_name":"Ohio","lat":40.09819,"lng":-83.28863,"zip":"43064","miles_from_dt":19.99},{"city":"Conover","state_name":"Ohio","lat":40.17328,"lng":-84.01971,"zip":"45317","miles_from_dt":20.34},{"city":"Ridgeway","state_name":"Ohio","lat":40.51341,"lng":-83.58167,"zip":"43345","miles_from_dt":21.28},{"city":"Springfield","state_name":"Ohio","lat":39.92634,"lng":-83.80745,"zip":"45501","miles_from_dt":21.41},{"city":"Springfield","state_name":"Ohio","lat":39.92791,"lng":-83.81703,"zip":"45502","miles_from_dt":21.53},{"city":"Springfield","state_name":"Ohio","lat":39.94811,"lng":-83.86481,"zip":"45504","miles_from_dt":21.59},{"city":"Springfield","state_name":"Ohio","lat":39.90737,"lng":-83.7615,"zip":"45505","miles_from_dt":21.75},{"city":"North Hampton","state_name":"Ohio","lat":39.98916,"lng":-83.94052,"zip":"45349","miles_from_dt":22.02},{"city":"Richwood","state_name":"Ohio","lat":40.43219,"lng":-83.33832,"zip":"43344","miles_from_dt":22.13},{"city":"Magnetic Springs","state_name":"Ohio","lat":40.3524,"lng":-83.26325,"zip":"43036","miles_from_dt":22.17},{"city":"Pemberton","state_name":"Ohio","lat":40.29252,"lng":-84.04274,"zip":"45353","miles_from_dt":22.18},{"city":"Russells Point","state_name":"Ohio","lat":40.46754,"lng":-83.88857,"zip":"43348","miles_from_dt":22.27},{"city":"Lewistown","state_name":"Ohio","lat":40.43927,"lng":-83.93221,"zip":"43333","miles_from_dt":22.28},{"city":"Christiansburg","state_name":"Ohio","lat":40.05639,"lng":-84.02532,"zip":"45389","miles_from_dt":23.03},{"city":"Ostrander","state_name":"Ohio","lat":40.28775,"lng":-83.20256,"zip":"43061","miles_from_dt":23.67},{"city":"Belle Center","state_name":"Ohio","lat":40.5346,"lng":-83.78029,"zip":"43310","miles_from_dt":23.76},{"city":"Springfield","state_name":"Ohio","lat":39.89907,"lng":-83.85233,"zip":"45506","miles_from_dt":24.15},{"city":"Mount Victory","state_name":"Ohio","lat":40.53748,"lng":-83.48,"zip":"43340","miles_from_dt":24.22},{"city":"Fletcher","state_name":"Ohio","lat":40.14201,"lng":-84.09039,"zip":"45326","miles_from_dt":24.37},{"city":"Maplewood","state_name":"Ohio","lat":40.37184,"lng":-84.04935,"zip":"45340","miles_from_dt":24.5},{"city":"London","state_name":"Ohio","lat":39.88406,"lng":-83.42946,"zip":"43140","miles_from_dt":24.93},{"city":"South Charleston","state_name":"Ohio","lat":39.84376,"lng":-83.65413,"zip":"45368","miles_from_dt":25.14},{"city":"West Jefferson","state_name":"Ohio","lat":39.94369,"lng":-83.30633,"zip":"43162","miles_from_dt":25.33},{"city":"Port Jefferson","state_name":"Ohio","lat":40.33028,"lng":-84.09206,"zip":"45360","miles_from_dt":25.44},{"city":"Casstown","state_name":"Ohio","lat":40.06028,"lng":-84.07976,"zip":"45312","miles_from_dt":25.52},{"city":"Donnelsville","state_name":"Ohio","lat":39.91608,"lng":-83.94324,"zip":"45319","miles_from_dt":25.83},{"city":"Lakeview","state_name":"Ohio","lat":40.51794,"lng":-83.9191,"zip":"43331","miles_from_dt":26.03},{"city":"New Carlisle","state_name":"Ohio","lat":39.95567,"lng":-84.00734,"zip":"45344","miles_from_dt":26.2},{"city":"Amlin","state_name":"Ohio","lat":40.05982,"lng":-83.17305,"zip":"43002","miles_from_dt":26.66},{"city":"Dublin","state_name":"Ohio","lat":40.09732,"lng":-83.15535,"zip":"43016","miles_from_dt":26.67},{"city":"Jackson Center","state_name":"Ohio","lat":40.44662,"lng":-84.04517,"zip":"45334","miles_from_dt":27.08},{"city":"Hilliard","state_name":"Ohio","lat":40.02197,"lng":-83.18472,"zip":"43026","miles_from_dt":27.22},{"city":"Dublin","state_name":"Ohio","lat":40.1189,"lng":-83.13314,"zip":"43017","miles_from_dt":27.42},{"city":"Roundhead","state_name":"Ohio","lat":40.5768,"lng":-83.84518,"zip":"43346","miles_from_dt":27.7},{"city":"Sidney","state_name":"Ohio","lat":40.2828,"lng":-84.15582,"zip":"45365","miles_from_dt":27.86},{"city":"Radnor","state_name":"Ohio","lat":40.39877,"lng":-83.16313,"zip":"43066","miles_from_dt":28.33},{"city":"Sidney","state_name":"Ohio","lat":40.28915,"lng":-84.16326,"zip":"45367","miles_from_dt":28.33},{"city":"Powell","state_name":"Ohio","lat":40.17655,"lng":-83.09445,"zip":"43065","miles_from_dt":28.84},{"city":"Enon","state_name":"Ohio","lat":39.85131,"lng":-83.92794,"zip":"45323","miles_from_dt":29.02},{"city":"New Hampshire","state_name":"Ohio","lat":40.55621,"lng":-83.95142,"zip":"45870","miles_from_dt":29.17},{"city":"La Rue","state_name":"Ohio","lat":40.58369,"lng":-83.37769,"zip":"43332","miles_from_dt":29.34},{"city":"Columbus","state_name":"Ohio","lat":39.97857,"lng":-83.16337,"zip":"43226","miles_from_dt":29.71},{"city":"Galloway","state_name":"Ohio","lat":39.93487,"lng":-83.20059,"zip":"43119","miles_from_dt":29.87},{"city":"Kenton","state_name":"Ohio","lat":40.64149,"lng":-83.61443,"zip":"43326","miles_from_dt":29.94}],"targetCityZipCode":"43047","targetCityState":"Ohio"},"__N_SSG":true}