{"pageProps":{"stateName":"Ohio","cityName":"new-paris","nearbyCities":[{"city":"Eldorado","state_name":"Ohio","lat":39.87134,"lng":-84.67775,"zip":"45321","miles_from_dt":4.56},{"city":"New Madison","state_name":"Ohio","lat":39.97934,"lng":-84.70911,"zip":"45346","miles_from_dt":7.17},{"city":"Richmond","state_name":"Indiana","lat":39.83376,"lng":-84.88997,"zip":"47374","miles_from_dt":7.63},{"city":"West Manchester","state_name":"Ohio","lat":39.89621,"lng":-84.61626,"zip":"45382","miles_from_dt":7.8},{"city":"Richmond","state_name":"Indiana","lat":39.8307,"lng":-84.89418,"zip":"47375","miles_from_dt":7.92},{"city":"Hollansburg","state_name":"Ohio","lat":39.99967,"lng":-84.78776,"zip":"45332","miles_from_dt":8.11},{"city":"Fountain City","state_name":"Indiana","lat":39.9741,"lng":-84.89361,"zip":"47341","miles_from_dt":9.36},{"city":"Webster","state_name":"Indiana","lat":39.91005,"lng":-84.94394,"zip":"47392","miles_from_dt":9.83},{"city":"Eaton","state_name":"Ohio","lat":39.74673,"lng":-84.68932,"zip":"45320","miles_from_dt":10.22},{"city":"Boston","state_name":"Indiana","lat":39.74119,"lng":-84.85172,"zip":"47324","miles_from_dt":10.93},{"city":"Palestine","state_name":"Ohio","lat":40.05006,"lng":-84.74432,"zip":"45352","miles_from_dt":11.51},{"city":"Lewisburg","state_name":"Ohio","lat":39.85147,"lng":-84.54417,"zip":"45338","miles_from_dt":11.8},{"city":"Williamsburg","state_name":"Indiana","lat":39.96559,"lng":-85.00325,"zip":"47393","miles_from_dt":14},{"city":"Lynn","state_name":"Indiana","lat":40.04376,"lng":-84.9258,"zip":"47355","miles_from_dt":14.05},{"city":"Arcanum","state_name":"Ohio","lat":39.98756,"lng":-84.53145,"zip":"45304","miles_from_dt":14.19},{"city":"Verona","state_name":"Ohio","lat":39.90291,"lng":-84.48781,"zip":"45378","miles_from_dt":14.64},{"city":"Greens Fork","state_name":"Indiana","lat":39.892,"lng":-85.04765,"zip":"47345","miles_from_dt":15.19},{"city":"Centerville","state_name":"Indiana","lat":39.78792,"lng":-85.02226,"zip":"47330","miles_from_dt":15.34},{"city":"Greenville","state_name":"Ohio","lat":40.09729,"lng":-84.64616,"zip":"45331","miles_from_dt":15.96},{"city":"Pitsburg","state_name":"Ohio","lat":39.98724,"lng":-84.48796,"zip":"45358","miles_from_dt":16.21},{"city":"West Alexandria","state_name":"Ohio","lat":39.73223,"lng":-84.52433,"zip":"45381","miles_from_dt":16.41},{"city":"Brookville","state_name":"Ohio","lat":39.84475,"lng":-84.42204,"zip":"45309","miles_from_dt":18.28},{"city":"Camden","state_name":"Ohio","lat":39.62791,"lng":-84.66411,"zip":"45311","miles_from_dt":18.41},{"city":"Economy","state_name":"Indiana","lat":39.96337,"lng":-85.09471,"zip":"47339","miles_from_dt":18.5},{"city":"Brownsville","state_name":"Indiana","lat":39.69395,"lng":-85.01834,"zip":"47325","miles_from_dt":18.91},{"city":"Potsdam","state_name":"Ohio","lat":39.96374,"lng":-84.41484,"zip":"45361","miles_from_dt":19.25},{"city":"Laura","state_name":"Ohio","lat":39.98019,"lng":-84.42095,"zip":"45337","miles_from_dt":19.3},{"city":"Phillipsburg","state_name":"Ohio","lat":39.91033,"lng":-84.39983,"zip":"45354","miles_from_dt":19.34},{"city":"Liberty","state_name":"Indiana","lat":39.62757,"lng":-84.92057,"zip":"47353","miles_from_dt":19.59},{"city":"Gratis","state_name":"Ohio","lat":39.64821,"lng":-84.5282,"zip":"45330","miles_from_dt":20.47},{"city":"Pershing","state_name":"Indiana","lat":39.81281,"lng":-85.13779,"zip":"47370","miles_from_dt":20.57},{"city":"College Corner","state_name":"Ohio","lat":39.58427,"lng":-84.77942,"zip":"45003","miles_from_dt":20.68},{"city":"Gettysburg","state_name":"Ohio","lat":40.11621,"lng":-84.49676,"zip":"45328","miles_from_dt":21.34},{"city":"Hagerstown","state_name":"Indiana","lat":39.93442,"lng":-85.16306,"zip":"47346","miles_from_dt":21.59},{"city":"New Lebanon","state_name":"Ohio","lat":39.7392,"lng":-84.39926,"zip":"45345","miles_from_dt":21.73},{"city":"Modoc","state_name":"Indiana","lat":40.05488,"lng":-85.11204,"zip":"47358","miles_from_dt":22.01},{"city":"Cambridge City","state_name":"Indiana","lat":39.8318,"lng":-85.17314,"zip":"47327","miles_from_dt":22.15},{"city":"Farmersville","state_name":"Ohio","lat":39.69297,"lng":-84.4269,"zip":"45325","miles_from_dt":22.17},{"city":"Milton","state_name":"Indiana","lat":39.75773,"lng":-85.14795,"zip":"47357","miles_from_dt":22.29},{"city":"Clayton","state_name":"Ohio","lat":39.85772,"lng":-84.33875,"zip":"45315","miles_from_dt":22.58},{"city":"Union City","state_name":"Indiana","lat":40.20625,"lng":-84.84671,"zip":"47390","miles_from_dt":22.7},{"city":"Englewood","state_name":"Ohio","lat":39.89967,"lng":-84.33206,"zip":"45322","miles_from_dt":22.88},{"city":"Winchester","state_name":"Indiana","lat":40.1679,"lng":-84.98667,"zip":"47394","miles_from_dt":22.94},{"city":"West College Corner","state_name":"Indiana","lat":39.55628,"lng":-84.84491,"zip":"47003","miles_from_dt":23.02},{"city":"West Elkton","state_name":"Ohio","lat":39.58968,"lng":-84.55804,"zip":"45070","miles_from_dt":23.02},{"city":"Union City","state_name":"Ohio","lat":40.21894,"lng":-84.76778,"zip":"45390","miles_from_dt":23.13},{"city":"Bradford","state_name":"Ohio","lat":40.12535,"lng":-84.45699,"zip":"45308","miles_from_dt":23.23},{"city":"West Milton","state_name":"Ohio","lat":39.9572,"lng":-84.3337,"zip":"45383","miles_from_dt":23.31},{"city":"Somerville","state_name":"Ohio","lat":39.56806,"lng":-84.59785,"zip":"45064","miles_from_dt":23.47},{"city":"Ansonia","state_name":"Ohio","lat":40.2146,"lng":-84.65627,"zip":"45303","miles_from_dt":23.5},{"city":"Ludlow Falls","state_name":"Ohio","lat":40.00826,"lng":-84.34315,"zip":"45339","miles_from_dt":23.85},{"city":"Dublin","state_name":"Indiana","lat":39.81171,"lng":-85.20675,"zip":"47335","miles_from_dt":24.16},{"city":"Dayton","state_name":"Ohio","lat":39.80094,"lng":-84.31461,"zip":"45426","miles_from_dt":24.47},{"city":"Pleasant Hill","state_name":"Ohio","lat":40.05067,"lng":-84.3511,"zip":"45359","miles_from_dt":24.67},{"city":"Saratoga","state_name":"Indiana","lat":40.23692,"lng":-84.91845,"zip":"47382","miles_from_dt":25.74},{"city":"Losantville","state_name":"Indiana","lat":40.04628,"lng":-85.19933,"zip":"47354","miles_from_dt":25.78},{"city":"Germantown","state_name":"Ohio","lat":39.63286,"lng":-84.39841,"zip":"45327","miles_from_dt":25.97},{"city":"New Lisbon","state_name":"Indiana","lat":39.86127,"lng":-85.26068,"zip":"47366","miles_from_dt":26.55},{"city":"Collinsville","state_name":"Ohio","lat":39.51275,"lng":-84.61215,"zip":"45004","miles_from_dt":26.82},{"city":"Bath","state_name":"Indiana","lat":39.4981,"lng":-84.83925,"zip":"47010","miles_from_dt":26.92},{"city":"Dayton","state_name":"Ohio","lat":39.83473,"lng":-84.2568,"zip":"45415","miles_from_dt":27.08},{"city":"Oxford","state_name":"Ohio","lat":39.49029,"lng":-84.74115,"zip":"45056","miles_from_dt":27.17},{"city":"Bentonville","state_name":"Indiana","lat":39.74849,"lng":-85.2418,"zip":"47322","miles_from_dt":27.18},{"city":"Dayton","state_name":"Ohio","lat":39.80754,"lng":-84.25774,"zip":"45416","miles_from_dt":27.33},{"city":"Covington","state_name":"Ohio","lat":40.12745,"lng":-84.35391,"zip":"45318","miles_from_dt":27.42},{"city":"Dayton","state_name":"Ohio","lat":39.73427,"lng":-84.2844,"zip":"45417","miles_from_dt":27.43},{"city":"Connersville","state_name":"Indiana","lat":39.63086,"lng":-85.16313,"zip":"47331","miles_from_dt":27.58},{"city":"Mooreland","state_name":"Indiana","lat":40.01677,"lng":-85.2614,"zip":"47360","miles_from_dt":28.06},{"city":"Versailles","state_name":"Ohio","lat":40.24511,"lng":-84.51314,"zip":"45380","miles_from_dt":28.21},{"city":"Farmland","state_name":"Indiana","lat":40.181,"lng":-85.1318,"zip":"47340","miles_from_dt":28.37},{"city":"Vandalia","state_name":"Ohio","lat":39.89636,"lng":-84.22774,"zip":"45377","miles_from_dt":28.41},{"city":"Dayton","state_name":"Ohio","lat":39.74211,"lng":-84.25954,"zip":"45428","miles_from_dt":28.47},{"city":"Straughn","state_name":"Indiana","lat":39.83677,"lng":-85.2945,"zip":"47387","miles_from_dt":28.49},{"city":"Dayton","state_name":"Ohio","lat":39.78442,"lng":-84.24178,"zip":"45406","miles_from_dt":28.51},{"city":"Hamilton","state_name":"Ohio","lat":39.47491,"lng":-84.68195,"zip":"45012","miles_from_dt":28.53},{"city":"Rossburg","state_name":"Ohio","lat":40.28684,"lng":-84.63368,"zip":"45362","miles_from_dt":28.63},{"city":"Dayton","state_name":"Ohio","lat":39.89335,"lng":-84.21904,"zip":"45490","miles_from_dt":28.87},{"city":"Middletown","state_name":"Ohio","lat":39.54867,"lng":-84.43755,"zip":"45042","miles_from_dt":28.87},{"city":"Dayton","state_name":"Ohio","lat":39.84008,"lng":-84.21115,"zip":"45414","miles_from_dt":29.45},{"city":"Seven Mile","state_name":"Ohio","lat":39.48501,"lng":-84.55371,"zip":"45062","miles_from_dt":29.67},{"city":"Dayton","state_name":"Ohio","lat":39.79241,"lng":-84.21592,"zip":"45405","miles_from_dt":29.72}],"targetCityZipCode":"45347","targetCityState":"Ohio"},"__N_SSG":true}