{"pageProps":{"stateName":"Ohio","cityName":"new-carlisle","nearbyCities":[{"city":"North Hampton","state_name":"Ohio","lat":39.98916,"lng":-83.94052,"zip":"45349","miles_from_dt":4.23},{"city":"Donnelsville","state_name":"Ohio","lat":39.91608,"lng":-83.94324,"zip":"45319","miles_from_dt":4.36},{"city":"Medway","state_name":"Ohio","lat":39.87589,"lng":-84.02045,"zip":"45341","miles_from_dt":5.55},{"city":"Christiansburg","state_name":"Ohio","lat":40.05639,"lng":-84.02532,"zip":"45389","miles_from_dt":7.01},{"city":"Springfield","state_name":"Ohio","lat":39.94811,"lng":-83.86481,"zip":"45504","miles_from_dt":7.59},{"city":"Casstown","state_name":"Ohio","lat":40.06028,"lng":-84.07976,"zip":"45312","miles_from_dt":8.18},{"city":"Enon","state_name":"Ohio","lat":39.85131,"lng":-83.92794,"zip":"45323","miles_from_dt":8.35},{"city":"Tipp City","state_name":"Ohio","lat":39.93885,"lng":-84.16357,"zip":"45371","miles_from_dt":8.38},{"city":"Springfield","state_name":"Ohio","lat":39.89907,"lng":-83.85233,"zip":"45506","miles_from_dt":9.11},{"city":"Dayton","state_name":"Ohio","lat":39.84695,"lng":-84.11032,"zip":"45424","miles_from_dt":9.28},{"city":"Fairborn","state_name":"Ohio","lat":39.81986,"lng":-84.00026,"zip":"45324","miles_from_dt":9.38},{"city":"Tremont City","state_name":"Ohio","lat":40.01471,"lng":-83.83862,"zip":"45372","miles_from_dt":9.84},{"city":"Dayton","state_name":"Ohio","lat":39.81359,"lng":-84.05273,"zip":"45433","miles_from_dt":10.09},{"city":"Springfield","state_name":"Ohio","lat":39.92791,"lng":-83.81703,"zip":"45502","miles_from_dt":10.29},{"city":"Springfield","state_name":"Ohio","lat":39.92634,"lng":-83.80745,"zip":"45501","miles_from_dt":10.81},{"city":"Troy","state_name":"Ohio","lat":40.03353,"lng":-84.19588,"zip":"45373","miles_from_dt":11.36},{"city":"Saint Paris","state_name":"Ohio","lat":40.1172,"lng":-83.95514,"zip":"43072","miles_from_dt":11.48},{"city":"Dayton","state_name":"Ohio","lat":39.89335,"lng":-84.21904,"zip":"45490","miles_from_dt":12.04},{"city":"Dayton","state_name":"Ohio","lat":39.78114,"lng":-84.06312,"zip":"45435","miles_from_dt":12.4},{"city":"Vandalia","state_name":"Ohio","lat":39.89636,"lng":-84.22774,"zip":"45377","miles_from_dt":12.4},{"city":"Yellow Springs","state_name":"Ohio","lat":39.79754,"lng":-83.88622,"zip":"45387","miles_from_dt":12.67},{"city":"Springfield","state_name":"Ohio","lat":39.96073,"lng":-83.7682,"zip":"45503","miles_from_dt":12.7},{"city":"Troy","state_name":"Ohio","lat":40.04409,"lng":-84.21768,"zip":"45374","miles_from_dt":12.72},{"city":"Dayton","state_name":"Ohio","lat":39.82401,"lng":-84.1898,"zip":"45413","miles_from_dt":13.29},{"city":"Dayton","state_name":"Ohio","lat":39.84008,"lng":-84.21115,"zip":"45414","miles_from_dt":13.45},{"city":"Springfield","state_name":"Ohio","lat":39.90737,"lng":-83.7615,"zip":"45505","miles_from_dt":13.48},{"city":"Fletcher","state_name":"Ohio","lat":40.14201,"lng":-84.09039,"zip":"45326","miles_from_dt":13.59},{"city":"Dayton","state_name":"Ohio","lat":39.76488,"lng":-84.08012,"zip":"45431","miles_from_dt":13.72},{"city":"Dayton","state_name":"Ohio","lat":39.79011,"lng":-84.15324,"zip":"45404","miles_from_dt":13.81},{"city":"Westville","state_name":"Ohio","lat":40.10838,"lng":-83.83623,"zip":"43083","miles_from_dt":13.91},{"city":"Dayton","state_name":"Ohio","lat":39.76708,"lng":-84.12512,"zip":"45437","miles_from_dt":14.44},{"city":"Clifton","state_name":"Ohio","lat":39.79754,"lng":-83.82517,"zip":"45316","miles_from_dt":14.59},{"city":"Conover","state_name":"Ohio","lat":40.17328,"lng":-84.01971,"zip":"45317","miles_from_dt":15.03},{"city":"Dayton","state_name":"Ohio","lat":39.76303,"lng":-84.14978,"zip":"45403","miles_from_dt":15.3},{"city":"Dayton","state_name":"Ohio","lat":39.73934,"lng":-84.08627,"zip":"45432","miles_from_dt":15.5},{"city":"Dayton","state_name":"Ohio","lat":39.83473,"lng":-84.2568,"zip":"45415","miles_from_dt":15.66},{"city":"Dayton","state_name":"Ohio","lat":39.79241,"lng":-84.21592,"zip":"45405","miles_from_dt":15.81},{"city":"Dayton","state_name":"Ohio","lat":39.77463,"lng":-84.1984,"zip":"45401","miles_from_dt":16.1},{"city":"Dayton","state_name":"Ohio","lat":39.72284,"lng":-84.03052,"zip":"45434","miles_from_dt":16.11},{"city":"Urbana","state_name":"Ohio","lat":40.11302,"lng":-83.77538,"zip":"43078","miles_from_dt":16.41},{"city":"Dayton","state_name":"Ohio","lat":39.75761,"lng":-84.1788,"zip":"45481","miles_from_dt":16.43},{"city":"Dayton","state_name":"Ohio","lat":39.74757,"lng":-84.15907,"zip":"45410","miles_from_dt":16.47},{"city":"Dayton","state_name":"Ohio","lat":39.7606,"lng":-84.18663,"zip":"45422","miles_from_dt":16.49},{"city":"Dayton","state_name":"Ohio","lat":39.7604,"lng":-84.19112,"zip":"45423","miles_from_dt":16.64},{"city":"Dayton","state_name":"Ohio","lat":39.76081,"lng":-84.1934,"zip":"45412","miles_from_dt":16.69},{"city":"Dayton","state_name":"Ohio","lat":39.80754,"lng":-84.25774,"zip":"45416","miles_from_dt":16.78},{"city":"Alpha","state_name":"Ohio","lat":39.71098,"lng":-84.02301,"zip":"45301","miles_from_dt":16.9},{"city":"Dayton","state_name":"Ohio","lat":39.72153,"lng":-84.10107,"zip":"45482","miles_from_dt":16.91},{"city":"Dayton","state_name":"Ohio","lat":39.78442,"lng":-84.24178,"zip":"45406","miles_from_dt":17.17},{"city":"Dayton","state_name":"Ohio","lat":39.75983,"lng":-84.20751,"zip":"45402","miles_from_dt":17.2},{"city":"Dayton","state_name":"Ohio","lat":39.71296,"lng":-84.08435,"zip":"45430","miles_from_dt":17.24},{"city":"West Milton","state_name":"Ohio","lat":39.9572,"lng":-84.3337,"zip":"45383","miles_from_dt":17.33},{"city":"Dayton","state_name":"Ohio","lat":39.74033,"lng":-84.17911,"zip":"45469","miles_from_dt":17.44},{"city":"Dayton","state_name":"Ohio","lat":39.719,"lng":-84.13045,"zip":"45420","miles_from_dt":17.59},{"city":"Englewood","state_name":"Ohio","lat":39.89967,"lng":-84.33206,"zip":"45322","miles_from_dt":17.68},{"city":"Wilberforce","state_name":"Ohio","lat":39.71444,"lng":-83.88638,"zip":"45384","miles_from_dt":17.84},{"city":"Ludlow Falls","state_name":"Ohio","lat":40.00826,"lng":-84.34315,"zip":"45339","miles_from_dt":18.19},{"city":"Rosewood","state_name":"Ohio","lat":40.22056,"lng":-83.95651,"zip":"43070","miles_from_dt":18.47},{"city":"Piqua","state_name":"Ohio","lat":40.16252,"lng":-84.23097,"zip":"45356","miles_from_dt":18.55},{"city":"Dayton","state_name":"Ohio","lat":39.71436,"lng":-84.1676,"zip":"45419","miles_from_dt":18.7},{"city":"Dayton","state_name":"Ohio","lat":39.72334,"lng":-84.19039,"zip":"45409","miles_from_dt":18.75},{"city":"Dayton","state_name":"Ohio","lat":39.72396,"lng":-84.1924,"zip":"45479","miles_from_dt":18.77},{"city":"Clayton","state_name":"Ohio","lat":39.85772,"lng":-84.33875,"zip":"45315","miles_from_dt":18.86},{"city":"Cedarville","state_name":"Ohio","lat":39.74608,"lng":-83.77363,"zip":"45314","miles_from_dt":19.07},{"city":"Pleasant Hill","state_name":"Ohio","lat":40.05067,"lng":-84.3511,"zip":"45359","miles_from_dt":19.38},{"city":"Dayton","state_name":"Ohio","lat":39.80094,"lng":-84.31461,"zip":"45426","miles_from_dt":19.51},{"city":"Dayton","state_name":"Ohio","lat":39.74211,"lng":-84.25954,"zip":"45428","miles_from_dt":19.92},{"city":"Dayton","state_name":"Ohio","lat":39.67498,"lng":-84.10001,"zip":"45440","miles_from_dt":19.98},{"city":"South Charleston","state_name":"Ohio","lat":39.84376,"lng":-83.65413,"zip":"45368","miles_from_dt":20.3},{"city":"Xenia","state_name":"Ohio","lat":39.66813,"lng":-83.91457,"zip":"45385","miles_from_dt":20.44},{"city":"Dayton","state_name":"Ohio","lat":39.68411,"lng":-84.16248,"zip":"45429","miles_from_dt":20.47},{"city":"Catawba","state_name":"Ohio","lat":39.99964,"lng":-83.6219,"zip":"43010","miles_from_dt":20.68},{"city":"Phillipsburg","state_name":"Ohio","lat":39.91033,"lng":-84.39983,"zip":"45354","miles_from_dt":21.08},{"city":"Dayton","state_name":"Ohio","lat":39.73427,"lng":-84.2844,"zip":"45417","miles_from_dt":21.22},{"city":"Dayton","state_name":"Ohio","lat":39.69867,"lng":-84.22944,"zip":"45439","miles_from_dt":21.31},{"city":"South Vienna","state_name":"Ohio","lat":39.95304,"lng":-83.60304,"zip":"45369","miles_from_dt":21.47},{"city":"Potsdam","state_name":"Ohio","lat":39.96374,"lng":-84.41484,"zip":"45361","miles_from_dt":21.64},{"city":"Covington","state_name":"Ohio","lat":40.12745,"lng":-84.35391,"zip":"45318","miles_from_dt":21.87},{"city":"Laura","state_name":"Ohio","lat":39.98019,"lng":-84.42095,"zip":"45337","miles_from_dt":22.02},{"city":"Bellbrook","state_name":"Ohio","lat":39.63628,"lng":-84.07769,"zip":"45305","miles_from_dt":22.35},{"city":"Dayton","state_name":"Ohio","lat":39.64756,"lng":-84.16984,"zip":"45448","miles_from_dt":22.95},{"city":"Dayton","state_name":"Ohio","lat":39.64658,"lng":-84.16693,"zip":"45459","miles_from_dt":22.95},{"city":"Dayton","state_name":"Ohio","lat":39.64496,"lng":-84.16726,"zip":"45441","miles_from_dt":23.06},{"city":"Dayton","state_name":"Ohio","lat":39.64381,"lng":-84.16633,"zip":"45475","miles_from_dt":23.12},{"city":"Pemberton","state_name":"Ohio","lat":40.29252,"lng":-84.04274,"zip":"45353","miles_from_dt":23.32},{"city":"Brookville","state_name":"Ohio","lat":39.84475,"lng":-84.42204,"zip":"45309","miles_from_dt":23.33},{"city":"Dayton","state_name":"Ohio","lat":39.66472,"lng":-84.24067,"zip":"45449","miles_from_dt":23.6},{"city":"Sidney","state_name":"Ohio","lat":40.2828,"lng":-84.15582,"zip":"45365","miles_from_dt":23.9},{"city":"Spring Valley","state_name":"Ohio","lat":39.60853,"lng":-84.04015,"zip":"45370","miles_from_dt":24.01},{"city":"Quincy","state_name":"Ohio","lat":40.3073,"lng":-83.97647,"zip":"43343","miles_from_dt":24.32},{"city":"Mechanicsburg","state_name":"Ohio","lat":40.05145,"lng":-83.56423,"zip":"43044","miles_from_dt":24.42},{"city":"Cable","state_name":"Ohio","lat":40.17188,"lng":-83.64234,"zip":"43009","miles_from_dt":24.43},{"city":"Sidney","state_name":"Ohio","lat":40.28915,"lng":-84.16326,"zip":"45367","miles_from_dt":24.45},{"city":"West Liberty","state_name":"Ohio","lat":40.25316,"lng":-83.74711,"zip":"43357","miles_from_dt":24.73},{"city":"De Graff","state_name":"Ohio","lat":40.30948,"lng":-83.91378,"zip":"43318","miles_from_dt":24.91},{"city":"Pitsburg","state_name":"Ohio","lat":39.98724,"lng":-84.48796,"zip":"45358","miles_from_dt":25.61},{"city":"New Lebanon","state_name":"Ohio","lat":39.7392,"lng":-84.39926,"zip":"45345","miles_from_dt":25.64},{"city":"Verona","state_name":"Ohio","lat":39.90291,"lng":-84.48781,"zip":"45378","miles_from_dt":25.78},{"city":"Dayton","state_name":"Ohio","lat":39.60036,"lng":-84.1576,"zip":"45458","miles_from_dt":25.79},{"city":"Miamisburg","state_name":"Ohio","lat":39.63639,"lng":-84.26725,"zip":"45343","miles_from_dt":26.01},{"city":"Mingo","state_name":"Ohio","lat":40.20795,"lng":-83.63797,"zip":"43047","miles_from_dt":26.2},{"city":"Port Jefferson","state_name":"Ohio","lat":40.33028,"lng":-84.09206,"zip":"45360","miles_from_dt":26.23},{"city":"Houston","state_name":"Ohio","lat":40.2481,"lng":-84.33209,"zip":"45333","miles_from_dt":26.52},{"city":"Dayton","state_name":"Ohio","lat":39.62974,"lng":-84.2725,"zip":"45470","miles_from_dt":26.55},{"city":"Bradford","state_name":"Ohio","lat":40.12535,"lng":-84.45699,"zip":"45308","miles_from_dt":26.56},{"city":"Miamisburg","state_name":"Ohio","lat":39.62943,"lng":-84.27545,"zip":"45342","miles_from_dt":26.65},{"city":"Jamestown","state_name":"Ohio","lat":39.63079,"lng":-83.73353,"zip":"45335","miles_from_dt":26.73},{"city":"South Solon","state_name":"Ohio","lat":39.74071,"lng":-83.56781,"zip":"43153","miles_from_dt":27.68},{"city":"Arcanum","state_name":"Ohio","lat":39.98756,"lng":-84.53145,"zip":"45304","miles_from_dt":27.91},{"city":"Gettysburg","state_name":"Ohio","lat":40.11621,"lng":-84.49676,"zip":"45328","miles_from_dt":28.22},{"city":"Woodstock","state_name":"Ohio","lat":40.15764,"lng":-83.54223,"zip":"43084","miles_from_dt":28.32},{"city":"Russia","state_name":"Ohio","lat":40.23925,"lng":-84.39841,"zip":"45363","miles_from_dt":28.5},{"city":"Farmersville","state_name":"Ohio","lat":39.69297,"lng":-84.4269,"zip":"45325","miles_from_dt":28.75},{"city":"Maplewood","state_name":"Ohio","lat":40.37184,"lng":-84.04935,"zip":"45340","miles_from_dt":28.8},{"city":"North Lewisburg","state_name":"Ohio","lat":40.21978,"lng":-83.57295,"zip":"43060","miles_from_dt":29.36},{"city":"Lewisburg","state_name":"Ohio","lat":39.85147,"lng":-84.54417,"zip":"45338","miles_from_dt":29.42},{"city":"Waynesville","state_name":"Ohio","lat":39.52813,"lng":-84.05922,"zip":"45068","miles_from_dt":29.63},{"city":"Bowersville","state_name":"Ohio","lat":39.58065,"lng":-83.72347,"zip":"45307","miles_from_dt":29.96}],"targetCityZipCode":"45344","targetCityState":"Ohio"},"__N_SSG":true}