{"pageProps":{"stateName":"Ohio","cityName":"new-lebanon","nearbyCities":[{"city":"Farmersville","state_name":"Ohio","lat":39.69297,"lng":-84.4269,"zip":"45325","miles_from_dt":3.51},{"city":"Dayton","state_name":"Ohio","lat":39.73427,"lng":-84.2844,"zip":"45417","miles_from_dt":6.13},{"city":"Dayton","state_name":"Ohio","lat":39.80094,"lng":-84.31461,"zip":"45426","miles_from_dt":6.2},{"city":"West Alexandria","state_name":"Ohio","lat":39.73223,"lng":-84.52433,"zip":"45381","miles_from_dt":6.68},{"city":"Germantown","state_name":"Ohio","lat":39.63286,"lng":-84.39841,"zip":"45327","miles_from_dt":7.34},{"city":"Brookville","state_name":"Ohio","lat":39.84475,"lng":-84.42204,"zip":"45309","miles_from_dt":7.38},{"city":"Dayton","state_name":"Ohio","lat":39.74211,"lng":-84.25954,"zip":"45428","miles_from_dt":7.44},{"city":"Clayton","state_name":"Ohio","lat":39.85772,"lng":-84.33875,"zip":"45315","miles_from_dt":8.79},{"city":"Dayton","state_name":"Ohio","lat":39.80754,"lng":-84.25774,"zip":"45416","miles_from_dt":8.89},{"city":"Dayton","state_name":"Ohio","lat":39.78442,"lng":-84.24178,"zip":"45406","miles_from_dt":8.95},{"city":"Gratis","state_name":"Ohio","lat":39.64821,"lng":-84.5282,"zip":"45330","miles_from_dt":9.31},{"city":"Dayton","state_name":"Ohio","lat":39.69867,"lng":-84.22944,"zip":"45439","miles_from_dt":9.47},{"city":"Dayton","state_name":"Ohio","lat":39.66472,"lng":-84.24067,"zip":"45449","miles_from_dt":9.89},{"city":"Miamisburg","state_name":"Ohio","lat":39.63639,"lng":-84.26725,"zip":"45343","miles_from_dt":9.99},{"city":"Miamisburg","state_name":"Ohio","lat":39.62943,"lng":-84.27545,"zip":"45342","miles_from_dt":10.05},{"city":"Dayton","state_name":"Ohio","lat":39.83473,"lng":-84.2568,"zip":"45415","miles_from_dt":10.05},{"city":"Dayton","state_name":"Ohio","lat":39.62974,"lng":-84.2725,"zip":"45470","miles_from_dt":10.13},{"city":"Dayton","state_name":"Ohio","lat":39.75983,"lng":-84.20751,"zip":"45402","miles_from_dt":10.31},{"city":"Dayton","state_name":"Ohio","lat":39.79241,"lng":-84.21592,"zip":"45405","miles_from_dt":10.43},{"city":"Lewisburg","state_name":"Ohio","lat":39.85147,"lng":-84.54417,"zip":"45338","miles_from_dt":10.93},{"city":"Dayton","state_name":"Ohio","lat":39.77463,"lng":-84.1984,"zip":"45401","miles_from_dt":10.97},{"city":"Dayton","state_name":"Ohio","lat":39.76081,"lng":-84.1934,"zip":"45412","miles_from_dt":11.06},{"city":"Dayton","state_name":"Ohio","lat":39.72396,"lng":-84.1924,"zip":"45479","miles_from_dt":11.07},{"city":"Dayton","state_name":"Ohio","lat":39.7604,"lng":-84.19112,"zip":"45423","miles_from_dt":11.18},{"city":"Dayton","state_name":"Ohio","lat":39.72334,"lng":-84.19039,"zip":"45409","miles_from_dt":11.18},{"city":"Dayton","state_name":"Ohio","lat":39.7606,"lng":-84.18663,"zip":"45422","miles_from_dt":11.42},{"city":"Englewood","state_name":"Ohio","lat":39.89967,"lng":-84.33206,"zip":"45322","miles_from_dt":11.63},{"city":"Dayton","state_name":"Ohio","lat":39.74033,"lng":-84.17911,"zip":"45469","miles_from_dt":11.73},{"city":"Dayton","state_name":"Ohio","lat":39.75761,"lng":-84.1788,"zip":"45481","miles_from_dt":11.81},{"city":"Phillipsburg","state_name":"Ohio","lat":39.91033,"lng":-84.39983,"zip":"45354","miles_from_dt":11.81},{"city":"Dayton","state_name":"Ohio","lat":39.84008,"lng":-84.21115,"zip":"45414","miles_from_dt":12.19},{"city":"Verona","state_name":"Ohio","lat":39.90291,"lng":-84.48781,"zip":"45378","miles_from_dt":12.24},{"city":"Dayton","state_name":"Ohio","lat":39.71436,"lng":-84.1676,"zip":"45419","miles_from_dt":12.46},{"city":"Dayton","state_name":"Ohio","lat":39.82401,"lng":-84.1898,"zip":"45413","miles_from_dt":12.59},{"city":"Dayton","state_name":"Ohio","lat":39.74757,"lng":-84.15907,"zip":"45410","miles_from_dt":12.81},{"city":"Dayton","state_name":"Ohio","lat":39.68411,"lng":-84.16248,"zip":"45429","miles_from_dt":13.18},{"city":"Middletown","state_name":"Ohio","lat":39.54867,"lng":-84.43755,"zip":"45042","miles_from_dt":13.3},{"city":"West Elkton","state_name":"Ohio","lat":39.58968,"lng":-84.55804,"zip":"45070","miles_from_dt":13.34},{"city":"Dayton","state_name":"Ohio","lat":39.76303,"lng":-84.14978,"zip":"45403","miles_from_dt":13.39},{"city":"Dayton","state_name":"Ohio","lat":39.79011,"lng":-84.15324,"zip":"45404","miles_from_dt":13.56},{"city":"Dayton","state_name":"Ohio","lat":39.64756,"lng":-84.16984,"zip":"45448","miles_from_dt":13.77},{"city":"Dayton","state_name":"Ohio","lat":39.64658,"lng":-84.16693,"zip":"45459","miles_from_dt":13.93},{"city":"Dayton","state_name":"Ohio","lat":39.64496,"lng":-84.16726,"zip":"45441","miles_from_dt":13.97},{"city":"Dayton","state_name":"Ohio","lat":39.64381,"lng":-84.16633,"zip":"45475","miles_from_dt":14.05},{"city":"Vandalia","state_name":"Ohio","lat":39.89636,"lng":-84.22774,"zip":"45377","miles_from_dt":14.17},{"city":"Dayton","state_name":"Ohio","lat":39.89335,"lng":-84.21904,"zip":"45490","miles_from_dt":14.32},{"city":"Dayton","state_name":"Ohio","lat":39.719,"lng":-84.13045,"zip":"45420","miles_from_dt":14.39},{"city":"Dayton","state_name":"Ohio","lat":39.76708,"lng":-84.12512,"zip":"45437","miles_from_dt":14.72},{"city":"Franklin","state_name":"Ohio","lat":39.53478,"lng":-84.3018,"zip":"45005","miles_from_dt":15.03},{"city":"West Milton","state_name":"Ohio","lat":39.9572,"lng":-84.3337,"zip":"45383","miles_from_dt":15.44},{"city":"Eaton","state_name":"Ohio","lat":39.74673,"lng":-84.68932,"zip":"45320","miles_from_dt":15.46},{"city":"Potsdam","state_name":"Ohio","lat":39.96374,"lng":-84.41484,"zip":"45361","miles_from_dt":15.51},{"city":"West Manchester","state_name":"Ohio","lat":39.89621,"lng":-84.61626,"zip":"45382","miles_from_dt":15.83},{"city":"Somerville","state_name":"Ohio","lat":39.56806,"lng":-84.59785,"zip":"45064","miles_from_dt":15.86},{"city":"Dayton","state_name":"Ohio","lat":39.72153,"lng":-84.10107,"zip":"45482","miles_from_dt":15.93},{"city":"Dayton","state_name":"Ohio","lat":39.60036,"lng":-84.1576,"zip":"45458","miles_from_dt":16.05},{"city":"Camden","state_name":"Ohio","lat":39.62791,"lng":-84.66411,"zip":"45311","miles_from_dt":16.07},{"city":"Springboro","state_name":"Ohio","lat":39.54925,"lng":-84.22265,"zip":"45066","miles_from_dt":16.14},{"city":"Dayton","state_name":"Ohio","lat":39.67498,"lng":-84.10001,"zip":"45440","miles_from_dt":16.55},{"city":"Dayton","state_name":"Ohio","lat":39.73934,"lng":-84.08627,"zip":"45432","miles_from_dt":16.67},{"city":"Laura","state_name":"Ohio","lat":39.98019,"lng":-84.42095,"zip":"45337","miles_from_dt":16.67},{"city":"Dayton","state_name":"Ohio","lat":39.71296,"lng":-84.08435,"zip":"45430","miles_from_dt":16.87},{"city":"Dayton","state_name":"Ohio","lat":39.84695,"lng":-84.11032,"zip":"45424","miles_from_dt":17.08},{"city":"Dayton","state_name":"Ohio","lat":39.76488,"lng":-84.08012,"zip":"45431","miles_from_dt":17.09},{"city":"Eldorado","state_name":"Ohio","lat":39.87134,"lng":-84.67775,"zip":"45321","miles_from_dt":17.4},{"city":"Trenton","state_name":"Ohio","lat":39.49017,"lng":-84.47948,"zip":"45067","miles_from_dt":17.71},{"city":"Pitsburg","state_name":"Ohio","lat":39.98724,"lng":-84.48796,"zip":"45358","miles_from_dt":17.75},{"city":"Dayton","state_name":"Ohio","lat":39.78114,"lng":-84.06312,"zip":"45435","miles_from_dt":18.13},{"city":"Arcanum","state_name":"Ohio","lat":39.98756,"lng":-84.53145,"zip":"45304","miles_from_dt":18.52},{"city":"Bellbrook","state_name":"Ohio","lat":39.63628,"lng":-84.07769,"zip":"45305","miles_from_dt":18.55},{"city":"Tipp City","state_name":"Ohio","lat":39.93885,"lng":-84.16357,"zip":"45371","miles_from_dt":18.62},{"city":"Ludlow Falls","state_name":"Ohio","lat":40.00826,"lng":-84.34315,"zip":"45339","miles_from_dt":18.8},{"city":"Dayton","state_name":"Ohio","lat":39.81359,"lng":-84.05273,"zip":"45433","miles_from_dt":19.15},{"city":"Collinsville","state_name":"Ohio","lat":39.51275,"lng":-84.61215,"zip":"45004","miles_from_dt":19.31},{"city":"Seven Mile","state_name":"Ohio","lat":39.48501,"lng":-84.55371,"zip":"45062","miles_from_dt":19.38},{"city":"Dayton","state_name":"Ohio","lat":39.72284,"lng":-84.03052,"zip":"45434","miles_from_dt":19.67},{"city":"Middletown","state_name":"Ohio","lat":39.45028,"lng":-84.37988,"zip":"45044","miles_from_dt":19.96},{"city":"Alpha","state_name":"Ohio","lat":39.71098,"lng":-84.02301,"zip":"45301","miles_from_dt":20.14},{"city":"Overpeck","state_name":"Ohio","lat":39.45701,"lng":-84.51094,"zip":"45055","miles_from_dt":20.36},{"city":"Monroe","state_name":"Ohio","lat":39.44437,"lng":-84.36594,"zip":"45050","miles_from_dt":20.42},{"city":"Spring Valley","state_name":"Ohio","lat":39.60853,"lng":-84.04015,"zip":"45370","miles_from_dt":21.16},{"city":"Pleasant Hill","state_name":"Ohio","lat":40.05067,"lng":-84.3511,"zip":"45359","miles_from_dt":21.64},{"city":"New Paris","state_name":"Ohio","lat":39.88378,"lng":-84.76208,"zip":"45347","miles_from_dt":21.73},{"city":"Fairfield","state_name":"Ohio","lat":39.43024,"lng":-84.49298,"zip":"45018","miles_from_dt":21.89},{"city":"Fairborn","state_name":"Ohio","lat":39.81986,"lng":-84.00026,"zip":"45324","miles_from_dt":21.96},{"city":"Hamilton","state_name":"Ohio","lat":39.42892,"lng":-84.50173,"zip":"45011","miles_from_dt":22.09},{"city":"Medway","state_name":"Ohio","lat":39.87589,"lng":-84.02045,"zip":"45341","miles_from_dt":22.25},{"city":"Lebanon","state_name":"Ohio","lat":39.44487,"lng":-84.21832,"zip":"45036","miles_from_dt":22.49},{"city":"College Corner","state_name":"Ohio","lat":39.58427,"lng":-84.77942,"zip":"45003","miles_from_dt":22.92},{"city":"Troy","state_name":"Ohio","lat":40.03353,"lng":-84.19588,"zip":"45373","miles_from_dt":23},{"city":"Troy","state_name":"Ohio","lat":40.04409,"lng":-84.21768,"zip":"45374","miles_from_dt":23.14},{"city":"Waynesville","state_name":"Ohio","lat":39.52813,"lng":-84.05922,"zip":"45068","miles_from_dt":23.26},{"city":"New Madison","state_name":"Ohio","lat":39.97934,"lng":-84.70911,"zip":"45346","miles_from_dt":23.36},{"city":"Hamilton","state_name":"Ohio","lat":39.47491,"lng":-84.68195,"zip":"45012","miles_from_dt":23.66},{"city":"Boston","state_name":"Indiana","lat":39.74119,"lng":-84.85172,"zip":"47324","miles_from_dt":24.1},{"city":"Oxford","state_name":"Ohio","lat":39.49029,"lng":-84.74115,"zip":"45056","miles_from_dt":25.05},{"city":"New Carlisle","state_name":"Ohio","lat":39.95567,"lng":-84.00734,"zip":"45344","miles_from_dt":25.64},{"city":"Enon","state_name":"Ohio","lat":39.85131,"lng":-83.92794,"zip":"45323","miles_from_dt":26.25},{"city":"Xenia","state_name":"Ohio","lat":39.66813,"lng":-83.91457,"zip":"45385","miles_from_dt":26.29},{"city":"Harveysburg","state_name":"Ohio","lat":39.50268,"lng":-84.00811,"zip":"45032","miles_from_dt":26.49},{"city":"Gettysburg","state_name":"Ohio","lat":40.11621,"lng":-84.49676,"zip":"45328","miles_from_dt":26.52},{"city":"Hamilton","state_name":"Ohio","lat":39.40649,"lng":-84.6501,"zip":"45013","miles_from_dt":26.57},{"city":"Bradford","state_name":"Ohio","lat":40.12535,"lng":-84.45699,"zip":"45308","miles_from_dt":26.82},{"city":"Covington","state_name":"Ohio","lat":40.12745,"lng":-84.35391,"zip":"45318","miles_from_dt":26.89},{"city":"West College Corner","state_name":"Indiana","lat":39.55628,"lng":-84.84491,"zip":"47003","miles_from_dt":26.91},{"city":"Richmond","state_name":"Indiana","lat":39.83376,"lng":-84.88997,"zip":"47374","miles_from_dt":26.92},{"city":"Hamilton","state_name":"Ohio","lat":39.36273,"lng":-84.53785,"zip":"45015","miles_from_dt":27.01},{"city":"Oregonia","state_name":"Ohio","lat":39.43844,"lng":-84.07418,"zip":"45054","miles_from_dt":27.05},{"city":"Richmond","state_name":"Indiana","lat":39.8307,"lng":-84.89418,"zip":"47375","miles_from_dt":27.09},{"city":"Donnelsville","state_name":"Ohio","lat":39.91608,"lng":-83.94324,"zip":"45319","miles_from_dt":27.15},{"city":"Mason","state_name":"Ohio","lat":39.35023,"lng":-84.30996,"zip":"45040","miles_from_dt":27.25},{"city":"South Lebanon","state_name":"Ohio","lat":39.37016,"lng":-84.21426,"zip":"45065","miles_from_dt":27.31},{"city":"Wilberforce","state_name":"Ohio","lat":39.71444,"lng":-83.88638,"zip":"45384","miles_from_dt":27.38},{"city":"Hollansburg","state_name":"Ohio","lat":39.99967,"lng":-84.78776,"zip":"45332","miles_from_dt":27.38},{"city":"West Chester","state_name":"Ohio","lat":39.34213,"lng":-84.4105,"zip":"45069","miles_from_dt":27.4},{"city":"Kings Mills","state_name":"Ohio","lat":39.35749,"lng":-84.24687,"zip":"45034","miles_from_dt":27.56},{"city":"Yellow Springs","state_name":"Ohio","lat":39.79754,"lng":-83.88622,"zip":"45387","miles_from_dt":27.61},{"city":"Casstown","state_name":"Ohio","lat":40.06028,"lng":-84.07976,"zip":"45312","miles_from_dt":27.91},{"city":"Greenville","state_name":"Ohio","lat":40.09729,"lng":-84.64616,"zip":"45331","miles_from_dt":27.97},{"city":"West Chester","state_name":"Ohio","lat":39.3338,"lng":-84.40562,"zip":"45071","miles_from_dt":27.97},{"city":"Palestine","state_name":"Ohio","lat":40.05006,"lng":-84.74432,"zip":"45352","miles_from_dt":28.22},{"city":"Bath","state_name":"Indiana","lat":39.4981,"lng":-84.83925,"zip":"47010","miles_from_dt":28.77},{"city":"Liberty","state_name":"Indiana","lat":39.62757,"lng":-84.92057,"zip":"47353","miles_from_dt":28.84},{"city":"Fairfield","state_name":"Ohio","lat":39.32822,"lng":-84.5521,"zip":"45014","miles_from_dt":29.5},{"city":"Christiansburg","state_name":"Ohio","lat":40.05639,"lng":-84.02532,"zip":"45389","miles_from_dt":29.56},{"city":"Maineville","state_name":"Ohio","lat":39.32655,"lng":-84.23586,"zip":"45039","miles_from_dt":29.78},{"city":"North Hampton","state_name":"Ohio","lat":39.98916,"lng":-83.94052,"zip":"45349","miles_from_dt":29.87}],"targetCityZipCode":"45345","targetCityState":"Ohio"},"__N_SSG":true}