{"pageProps":{"stateName":"Ohio","cityName":"north-canton","nearbyCities":[{"city":"Canton","state_name":"Ohio","lat":40.89443,"lng":-81.42211,"zip":"44767","miles_from_dt":0.72},{"city":"Greentown","state_name":"Ohio","lat":40.92695,"lng":-81.40408,"zip":"44630","miles_from_dt":2.32},{"city":"Green","state_name":"Ohio","lat":40.93254,"lng":-81.46354,"zip":"44232","miles_from_dt":2.71},{"city":"Canton","state_name":"Ohio","lat":40.85122,"lng":-81.44806,"zip":"44718","miles_from_dt":3.54},{"city":"Canton","state_name":"Ohio","lat":40.84795,"lng":-81.44136,"zip":"44735","miles_from_dt":3.7},{"city":"Uniontown","state_name":"Ohio","lat":40.9596,"lng":-81.42361,"zip":"44685","miles_from_dt":4.06},{"city":"Canton","state_name":"Ohio","lat":40.84218,"lng":-81.38634,"zip":"44709","miles_from_dt":4.73},{"city":"Middlebranch","state_name":"Ohio","lat":40.90088,"lng":-81.33015,"zip":"44652","miles_from_dt":5.36},{"city":"Canton","state_name":"Ohio","lat":40.83022,"lng":-81.38645,"zip":"44711","miles_from_dt":5.46},{"city":"Canton","state_name":"Ohio","lat":40.89443,"lng":-81.32694,"zip":"44721","miles_from_dt":5.55},{"city":"Canton","state_name":"Ohio","lat":40.81708,"lng":-81.43486,"zip":"44708","miles_from_dt":5.8},{"city":"Canton","state_name":"Ohio","lat":40.83606,"lng":-81.35905,"zip":"44714","miles_from_dt":5.92},{"city":"Canton","state_name":"Ohio","lat":40.81093,"lng":-81.38134,"zip":"44703","miles_from_dt":6.78},{"city":"Canton","state_name":"Ohio","lat":40.81186,"lng":-81.37337,"zip":"44799","miles_from_dt":6.9},{"city":"Canton","state_name":"Ohio","lat":40.83347,"lng":-81.3327,"zip":"44705","miles_from_dt":7.01},{"city":"Massillon","state_name":"Ohio","lat":40.81055,"lng":-81.49835,"zip":"44646","miles_from_dt":7.14},{"city":"Canton","state_name":"Ohio","lat":40.79992,"lng":-81.37665,"zip":"44702","miles_from_dt":7.57},{"city":"Canton","state_name":"Ohio","lat":40.791,"lng":-81.42362,"zip":"44750","miles_from_dt":7.61},{"city":"Canton","state_name":"Ohio","lat":40.78962,"lng":-81.42659,"zip":"44710","miles_from_dt":7.7},{"city":"Akron","state_name":"Ohio","lat":40.98402,"lng":-81.53169,"zip":"44319","miles_from_dt":7.72},{"city":"Akron","state_name":"Ohio","lat":41.01462,"lng":-81.4412,"zip":"44312","miles_from_dt":7.85},{"city":"Hartville","state_name":"Ohio","lat":40.96401,"lng":-81.3048,"zip":"44632","miles_from_dt":7.97},{"city":"Canal Fulton","state_name":"Ohio","lat":40.88689,"lng":-81.58747,"zip":"44614","miles_from_dt":8.17},{"city":"Lakemore","state_name":"Ohio","lat":41.02159,"lng":-81.43331,"zip":"44250","miles_from_dt":8.31},{"city":"Clinton","state_name":"Ohio","lat":40.93848,"lng":-81.58397,"zip":"44216","miles_from_dt":8.33},{"city":"Canton","state_name":"Ohio","lat":40.80001,"lng":-81.34329,"zip":"44704","miles_from_dt":8.4},{"city":"Akron","state_name":"Ohio","lat":41.03773,"lng":-81.48309,"zip":"44315","miles_from_dt":9.79},{"city":"Akron","state_name":"Ohio","lat":41.03927,"lng":-81.48316,"zip":"44306","miles_from_dt":9.89},{"city":"Massillon","state_name":"Ohio","lat":40.79537,"lng":-81.56575,"zip":"44647","miles_from_dt":10.1},{"city":"Canton","state_name":"Ohio","lat":40.75382,"lng":-81.4198,"zip":"44706","miles_from_dt":10.19},{"city":"Louisville","state_name":"Ohio","lat":40.86528,"lng":-81.23977,"zip":"44641","miles_from_dt":10.4},{"city":"Mogadore","state_name":"Ohio","lat":41.03684,"lng":-81.34079,"zip":"44260","miles_from_dt":10.52},{"city":"Randolph","state_name":"Ohio","lat":41.01951,"lng":-81.30239,"zip":"44265","miles_from_dt":10.64},{"city":"Canton","state_name":"Ohio","lat":40.76031,"lng":-81.34715,"zip":"44707","miles_from_dt":10.7},{"city":"Akron","state_name":"Ohio","lat":41.04398,"lng":-81.52449,"zip":"44301","miles_from_dt":10.97},{"city":"Massillon","state_name":"Ohio","lat":40.75416,"lng":-81.514,"zip":"44648","miles_from_dt":11},{"city":"Akron","state_name":"Ohio","lat":41.04507,"lng":-81.5262,"zip":"44317","miles_from_dt":11.07},{"city":"North Lawrence","state_name":"Ohio","lat":40.84232,"lng":-81.63202,"zip":"44666","miles_from_dt":11.21},{"city":"Akron","state_name":"Ohio","lat":41.04048,"lng":-81.55838,"zip":"44314","miles_from_dt":11.65},{"city":"Canton","state_name":"Ohio","lat":40.7297,"lng":-81.45083,"zip":"44701","miles_from_dt":11.87},{"city":"Akron","state_name":"Ohio","lat":41.06427,"lng":-81.52047,"zip":"44311","miles_from_dt":12.16},{"city":"Akron","state_name":"Ohio","lat":41.07643,"lng":-81.46226,"zip":"44305","miles_from_dt":12.2},{"city":"Akron","state_name":"Ohio","lat":41.06564,"lng":-81.52082,"zip":"44396","miles_from_dt":12.25},{"city":"Akron","state_name":"Ohio","lat":41.07933,"lng":-81.47277,"zip":"44316","miles_from_dt":12.48},{"city":"Akron","state_name":"Ohio","lat":41.07605,"lng":-81.51221,"zip":"44325","miles_from_dt":12.77},{"city":"East Canton","state_name":"Ohio","lat":40.76706,"lng":-81.25814,"zip":"44730","miles_from_dt":13.01},{"city":"Akron","state_name":"Ohio","lat":41.08168,"lng":-81.50728,"zip":"44398","miles_from_dt":13.06},{"city":"Fairlawn","state_name":"Ohio","lat":41.07934,"lng":-81.51662,"zip":"44334","miles_from_dt":13.06},{"city":"Akron","state_name":"Ohio","lat":41.07049,"lng":-81.546,"zip":"44307","miles_from_dt":13.11},{"city":"Barberton","state_name":"Ohio","lat":41.02013,"lng":-81.62896,"zip":"44203","miles_from_dt":13.15},{"city":"Akron","state_name":"Ohio","lat":41.0818,"lng":-81.51751,"zip":"44308","miles_from_dt":13.23},{"city":"Akron","state_name":"Ohio","lat":41.0831,"lng":-81.51749,"zip":"44326","miles_from_dt":13.32},{"city":"Akron","state_name":"Ohio","lat":41.08585,"lng":-81.50908,"zip":"44304","miles_from_dt":13.36},{"city":"Akron","state_name":"Ohio","lat":41.08716,"lng":-81.50691,"zip":"44328","miles_from_dt":13.41},{"city":"Maximo","state_name":"Ohio","lat":40.87603,"lng":-81.17413,"zip":"44650","miles_from_dt":13.65},{"city":"Tallmadge","state_name":"Ohio","lat":41.10052,"lng":-81.42137,"zip":"44278","miles_from_dt":13.77},{"city":"Akron","state_name":"Ohio","lat":41.08951,"lng":-81.53857,"zip":"44302","miles_from_dt":14.13},{"city":"Doylestown","state_name":"Ohio","lat":40.96237,"lng":-81.69064,"zip":"44230","miles_from_dt":14.15},{"city":"Akron","state_name":"Ohio","lat":41.09954,"lng":-81.51447,"zip":"44309","miles_from_dt":14.35},{"city":"Akron","state_name":"Ohio","lat":41.07818,"lng":-81.58379,"zip":"44320","miles_from_dt":14.55},{"city":"Navarre","state_name":"Ohio","lat":40.71036,"lng":-81.55468,"zip":"44662","miles_from_dt":14.64},{"city":"Akron","state_name":"Ohio","lat":41.10771,"lng":-81.49948,"zip":"44310","miles_from_dt":14.68},{"city":"East Sparta","state_name":"Ohio","lat":40.68994,"lng":-81.38404,"zip":"44626","miles_from_dt":14.79},{"city":"Marshallville","state_name":"Ohio","lat":40.90796,"lng":-81.71845,"zip":"44645","miles_from_dt":14.97},{"city":"Akron","state_name":"Ohio","lat":41.10448,"lng":-81.53732,"zip":"44303","miles_from_dt":15.06},{"city":"Brewster","state_name":"Ohio","lat":40.71338,"lng":-81.60026,"zip":"44613","miles_from_dt":15.66},{"city":"Atwater","state_name":"Ohio","lat":41.02741,"lng":-81.18354,"zip":"44201","miles_from_dt":15.67},{"city":"Limaville","state_name":"Ohio","lat":40.98455,"lng":-81.14858,"zip":"44640","miles_from_dt":15.94},{"city":"Robertsville","state_name":"Ohio","lat":40.76305,"lng":-81.18788,"zip":"44670","miles_from_dt":15.98},{"city":"Alliance","state_name":"Ohio","lat":40.91978,"lng":-81.1278,"zip":"44601","miles_from_dt":16.01},{"city":"Dalton","state_name":"Ohio","lat":40.7722,"lng":-81.68925,"zip":"44618","miles_from_dt":16.13},{"city":"Paris","state_name":"Ohio","lat":40.79613,"lng":-81.15619,"zip":"44669","miles_from_dt":16.19},{"city":"Cuyahoga Falls","state_name":"Ohio","lat":41.13534,"lng":-81.48311,"zip":"44222","miles_from_dt":16.38},{"city":"Munroe Falls","state_name":"Ohio","lat":41.13901,"lng":-81.43492,"zip":"44262","miles_from_dt":16.42},{"city":"Cuyahoga Falls","state_name":"Ohio","lat":41.13898,"lng":-81.47624,"zip":"44221","miles_from_dt":16.57},{"city":"Kent","state_name":"Ohio","lat":41.13329,"lng":-81.34241,"zip":"44240","miles_from_dt":16.7},{"city":"Kent","state_name":"Ohio","lat":41.14674,"lng":-81.36268,"zip":"44242","miles_from_dt":17.34},{"city":"Akron","state_name":"Ohio","lat":41.13239,"lng":-81.56512,"zip":"44313","miles_from_dt":17.4},{"city":"Waynesburg","state_name":"Ohio","lat":40.68458,"lng":-81.25757,"zip":"44688","miles_from_dt":17.54},{"city":"Kent","state_name":"Ohio","lat":41.14793,"lng":-81.34046,"zip":"44243","miles_from_dt":17.7},{"city":"Wadsworth","state_name":"Ohio","lat":41.0276,"lng":-81.72765,"zip":"44282","miles_from_dt":17.73},{"city":"Akron","state_name":"Ohio","lat":41.09994,"lng":-81.65182,"zip":"44321","miles_from_dt":17.88},{"city":"Sandyville","state_name":"Ohio","lat":40.64511,"lng":-81.36565,"zip":"44671","miles_from_dt":18.01},{"city":"Orrville","state_name":"Ohio","lat":40.83386,"lng":-81.76495,"zip":"44667","miles_from_dt":18.02},{"city":"Rootstown","state_name":"Ohio","lat":41.08691,"lng":-81.18244,"zip":"44272","miles_from_dt":18.31},{"city":"Bolivar","state_name":"Ohio","lat":40.63488,"lng":-81.46098,"zip":"44612","miles_from_dt":18.43},{"city":"Rittman","state_name":"Ohio","lat":40.96317,"lng":-81.77696,"zip":"44270","miles_from_dt":18.52},{"city":"Stow","state_name":"Ohio","lat":41.17697,"lng":-81.44016,"zip":"44224","miles_from_dt":19.04},{"city":"Magnolia","state_name":"Ohio","lat":40.64304,"lng":-81.2998,"zip":"44643","miles_from_dt":19.12},{"city":"Beach City","state_name":"Ohio","lat":40.65241,"lng":-81.59714,"zip":"44608","miles_from_dt":19.21},{"city":"Cuyahoga Falls","state_name":"Ohio","lat":41.16968,"lng":-81.53051,"zip":"44223","miles_from_dt":19.23},{"city":"Wadsworth","state_name":"Ohio","lat":41.05851,"lng":-81.73854,"zip":"44281","miles_from_dt":19.34},{"city":"Akron","state_name":"Ohio","lat":41.15087,"lng":-81.60889,"zip":"44372","miles_from_dt":19.54},{"city":"Brady Lake","state_name":"Ohio","lat":41.17038,"lng":-81.31682,"zip":"44211","miles_from_dt":19.54},{"city":"Kidron","state_name":"Ohio","lat":40.74234,"lng":-81.74703,"zip":"44636","miles_from_dt":19.79},{"city":"Malvern","state_name":"Ohio","lat":40.68691,"lng":-81.17639,"zip":"44644","miles_from_dt":19.97},{"city":"Mount Eaton","state_name":"Ohio","lat":40.6948,"lng":-81.70191,"zip":"44659","miles_from_dt":20.05},{"city":"Zoar","state_name":"Ohio","lat":40.60807,"lng":-81.41175,"zip":"44697","miles_from_dt":20.25},{"city":"Sharon Center","state_name":"Ohio","lat":41.09944,"lng":-81.7285,"zip":"44274","miles_from_dt":20.65},{"city":"Homeworth","state_name":"Ohio","lat":40.83385,"lng":-81.04685,"zip":"44634","miles_from_dt":20.73},{"city":"Minerva","state_name":"Ohio","lat":40.74313,"lng":-81.09343,"zip":"44657","miles_from_dt":20.85},{"city":"Akron","state_name":"Ohio","lat":41.16195,"lng":-81.63419,"zip":"44333","miles_from_dt":20.86},{"city":"Wilmot","state_name":"Ohio","lat":40.65071,"lng":-81.66209,"zip":"44689","miles_from_dt":21.06},{"city":"Sterling","state_name":"Ohio","lat":40.93667,"lng":-81.83502,"zip":"44276","miles_from_dt":21.21},{"city":"Sebring","state_name":"Ohio","lat":40.92045,"lng":-81.02375,"zip":"44672","miles_from_dt":21.44},{"city":"Strasburg","state_name":"Ohio","lat":40.60174,"lng":-81.54512,"zip":"44680","miles_from_dt":21.49},{"city":"Deerfield","state_name":"Ohio","lat":41.0326,"lng":-81.05092,"zip":"44411","miles_from_dt":21.93},{"city":"Ravenna","state_name":"Ohio","lat":41.1662,"lng":-81.19829,"zip":"44266","miles_from_dt":22.01},{"city":"North Benton","state_name":"Ohio","lat":40.97957,"lng":-81.02446,"zip":"44449","miles_from_dt":22.03},{"city":"Apple Creek","state_name":"Ohio","lat":40.73313,"lng":-81.79625,"zip":"44606","miles_from_dt":22.31},{"city":"Bath","state_name":"Ohio","lat":41.18892,"lng":-81.62975,"zip":"44210","miles_from_dt":22.37},{"city":"Smithville","state_name":"Ohio","lat":40.87254,"lng":-81.85983,"zip":"44677","miles_from_dt":22.46},{"city":"Dundee","state_name":"Ohio","lat":40.61249,"lng":-81.66157,"zip":"44624","miles_from_dt":23.26},{"city":"Beloit","state_name":"Ohio","lat":40.9121,"lng":-80.9879,"zip":"44609","miles_from_dt":23.29},{"city":"Peninsula","state_name":"Ohio","lat":41.22966,"lng":-81.54311,"zip":"44264","miles_from_dt":23.39},{"city":"Mineral City","state_name":"Ohio","lat":40.57027,"lng":-81.33104,"zip":"44656","miles_from_dt":23.44},{"city":"Somerdale","state_name":"Ohio","lat":40.56478,"lng":-81.36408,"zip":"44678","miles_from_dt":23.49},{"city":"Streetsboro","state_name":"Ohio","lat":41.23945,"lng":-81.34728,"zip":"44241","miles_from_dt":23.77},{"city":"North Georgetown","state_name":"Ohio","lat":40.83555,"lng":-80.98706,"zip":"44665","miles_from_dt":23.77},{"city":"Hudson","state_name":"Ohio","lat":41.24669,"lng":-81.44775,"zip":"44236","miles_from_dt":23.86},{"city":"Winesburg","state_name":"Ohio","lat":40.61353,"lng":-81.69391,"zip":"44690","miles_from_dt":24.12},{"city":"Dover","state_name":"Ohio","lat":40.54883,"lng":-81.48375,"zip":"44622","miles_from_dt":24.46},{"city":"Hudson","state_name":"Ohio","lat":41.25496,"lng":-81.48139,"zip":"44237","miles_from_dt":24.55},{"city":"East Rochester","state_name":"Ohio","lat":40.7623,"lng":-80.99919,"zip":"44625","miles_from_dt":24.65},{"city":"Dellroy","state_name":"Ohio","lat":40.5811,"lng":-81.21592,"zip":"44620","miles_from_dt":24.84},{"city":"Seville","state_name":"Ohio","lat":41.0291,"lng":-81.87739,"zip":"44273","miles_from_dt":24.89},{"city":"Damascus","state_name":"Ohio","lat":40.90536,"lng":-80.95381,"zip":"44619","miles_from_dt":25.07},{"city":"Diamond","state_name":"Ohio","lat":41.09671,"lng":-81.0229,"zip":"44412","miles_from_dt":25.32},{"city":"Creston","state_name":"Ohio","lat":40.95561,"lng":-81.9133,"zip":"44217","miles_from_dt":25.44},{"city":"Augusta","state_name":"Ohio","lat":40.69589,"lng":-81.02685,"zip":"44607","miles_from_dt":25.56},{"city":"Richfield","state_name":"Ohio","lat":41.23668,"lng":-81.64017,"zip":"44286","miles_from_dt":25.57},{"city":"Mount Hope","state_name":"Ohio","lat":40.62382,"lng":-81.77487,"zip":"44660","miles_from_dt":26.24},{"city":"Wayland","state_name":"Ohio","lat":41.16241,"lng":-81.06595,"zip":"44285","miles_from_dt":26.31},{"city":"Fredericksburg","state_name":"Ohio","lat":40.66665,"lng":-81.83393,"zip":"44627","miles_from_dt":26.55},{"city":"Berlin Center","state_name":"Ohio","lat":41.02457,"lng":-80.94658,"zip":"44401","miles_from_dt":26.81},{"city":"Chippewa Lake","state_name":"Ohio","lat":41.07195,"lng":-81.8994,"zip":"44215","miles_from_dt":27.11},{"city":"Lake Milton","state_name":"Ohio","lat":41.09648,"lng":-80.98156,"zip":"44429","miles_from_dt":27.16},{"city":"Westfield Center","state_name":"Ohio","lat":41.02814,"lng":-81.92764,"zip":"44251","miles_from_dt":27.34},{"city":"Medina","state_name":"Ohio","lat":41.14092,"lng":-81.85954,"zip":"44256","miles_from_dt":27.78},{"city":"Kensington","state_name":"Ohio","lat":40.71672,"lng":-80.95686,"zip":"44427","miles_from_dt":28},{"city":"Hinckley","state_name":"Ohio","lat":41.23943,"lng":-81.73513,"zip":"44233","miles_from_dt":28.19},{"city":"Mantua","state_name":"Ohio","lat":41.28658,"lng":-81.22982,"zip":"44255","miles_from_dt":28.63},{"city":"Twinsburg","state_name":"Ohio","lat":41.31706,"lng":-81.44106,"zip":"44087","miles_from_dt":28.71},{"city":"Macedonia","state_name":"Ohio","lat":41.31465,"lng":-81.49868,"zip":"44056","miles_from_dt":28.74},{"city":"Walnut Creek","state_name":"Ohio","lat":40.53941,"lng":-81.71189,"zip":"44687","miles_from_dt":28.95},{"city":"Winona","state_name":"Ohio","lat":40.82192,"lng":-80.88864,"zip":"44493","miles_from_dt":29.02},{"city":"Aurora","state_name":"Ohio","lat":41.31645,"lng":-81.34243,"zip":"44202","miles_from_dt":29.04},{"city":"Northfield","state_name":"Ohio","lat":41.31386,"lng":-81.5476,"zip":"44067","miles_from_dt":29.11},{"city":"Sherrodsville","state_name":"Ohio","lat":40.50245,"lng":-81.24975,"zip":"44675","miles_from_dt":29.14},{"city":"Brecksville","state_name":"Ohio","lat":41.30139,"lng":-81.61439,"zip":"44141","miles_from_dt":29.21},{"city":"Wooster","state_name":"Ohio","lat":40.80714,"lng":-81.97971,"zip":"44691","miles_from_dt":29.39},{"city":"Salem","state_name":"Ohio","lat":40.90221,"lng":-80.87026,"zip":"44460","miles_from_dt":29.44},{"city":"Windham","state_name":"Ohio","lat":41.2392,"lng":-81.08354,"zip":"44288","miles_from_dt":29.61},{"city":"Hanoverton","state_name":"Ohio","lat":40.7524,"lng":-80.89963,"zip":"44423","miles_from_dt":29.76},{"city":"Carrollton","state_name":"Ohio","lat":40.5669,"lng":-81.0739,"zip":"44615","miles_from_dt":29.77},{"city":"Burbank","state_name":"Ohio","lat":40.95081,"lng":-81.99935,"zip":"44214","miles_from_dt":29.86}],"targetCityZipCode":"44720","targetCityState":"Ohio"},"__N_SSG":true}