{"pageProps":{"stateName":"Ohio","cityName":"oregonia","nearbyCities":[{"city":"Clarksville","state_name":"Ohio","lat":39.39991,"lng":-83.98561,"zip":"45113","miles_from_dt":5.43},{"city":"Harveysburg","state_name":"Ohio","lat":39.50268,"lng":-84.00811,"zip":"45032","miles_from_dt":5.67},{"city":"Waynesville","state_name":"Ohio","lat":39.52813,"lng":-84.05922,"zip":"45068","miles_from_dt":6.24},{"city":"Morrow","state_name":"Ohio","lat":39.35005,"lng":-84.12316,"zip":"45152","miles_from_dt":6.64},{"city":"Lebanon","state_name":"Ohio","lat":39.44487,"lng":-84.21832,"zip":"45036","miles_from_dt":7.72},{"city":"South Lebanon","state_name":"Ohio","lat":39.37016,"lng":-84.21426,"zip":"45065","miles_from_dt":8.85},{"city":"Kings Mills","state_name":"Ohio","lat":39.35749,"lng":-84.24687,"zip":"45034","miles_from_dt":10.8},{"city":"Springboro","state_name":"Ohio","lat":39.54925,"lng":-84.22265,"zip":"45066","miles_from_dt":11.02},{"city":"Maineville","state_name":"Ohio","lat":39.32655,"lng":-84.23586,"zip":"45039","miles_from_dt":11.6},{"city":"Pleasant Plain","state_name":"Ohio","lat":39.26913,"lng":-84.07851,"zip":"45162","miles_from_dt":11.68},{"city":"Blanchester","state_name":"Ohio","lat":39.28888,"lng":-83.96967,"zip":"45107","miles_from_dt":11.74},{"city":"Spring Valley","state_name":"Ohio","lat":39.60853,"lng":-84.04015,"zip":"45370","miles_from_dt":11.87},{"city":"Dayton","state_name":"Ohio","lat":39.60036,"lng":-84.1576,"zip":"45458","miles_from_dt":12.03},{"city":"Cuba","state_name":"Ohio","lat":39.36189,"lng":-83.86244,"zip":"45114","miles_from_dt":12.5},{"city":"Wilmington","state_name":"Ohio","lat":39.46123,"lng":-83.83692,"zip":"45177","miles_from_dt":12.79},{"city":"Bellbrook","state_name":"Ohio","lat":39.63628,"lng":-84.07769,"zip":"45305","miles_from_dt":13.65},{"city":"Franklin","state_name":"Ohio","lat":39.53478,"lng":-84.3018,"zip":"45005","miles_from_dt":13.86},{"city":"Mason","state_name":"Ohio","lat":39.35023,"lng":-84.30996,"zip":"45040","miles_from_dt":14.01},{"city":"Midland","state_name":"Ohio","lat":39.28849,"lng":-83.88466,"zip":"45148","miles_from_dt":14.49},{"city":"Dayton","state_name":"Ohio","lat":39.64381,"lng":-84.16633,"zip":"45475","miles_from_dt":15},{"city":"Goshen","state_name":"Ohio","lat":39.22411,"lng":-84.12698,"zip":"45122","miles_from_dt":15.05},{"city":"Dayton","state_name":"Ohio","lat":39.64496,"lng":-84.16726,"zip":"45441","miles_from_dt":15.09},{"city":"Dayton","state_name":"Ohio","lat":39.64658,"lng":-84.16693,"zip":"45459","miles_from_dt":15.19},{"city":"Dayton","state_name":"Ohio","lat":39.64756,"lng":-84.16984,"zip":"45448","miles_from_dt":15.3},{"city":"Loveland","state_name":"Ohio","lat":39.25603,"lng":-84.24433,"zip":"45140","miles_from_dt":15.54},{"city":"Monroe","state_name":"Ohio","lat":39.44437,"lng":-84.36594,"zip":"45050","miles_from_dt":15.61},{"city":"Middletown","state_name":"Ohio","lat":39.45028,"lng":-84.37988,"zip":"45044","miles_from_dt":16.37},{"city":"Dayton","state_name":"Ohio","lat":39.67498,"lng":-84.10001,"zip":"45440","miles_from_dt":16.38},{"city":"Dayton","state_name":"Ohio","lat":39.62974,"lng":-84.2725,"zip":"45470","miles_from_dt":16.92},{"city":"Martinsville","state_name":"Ohio","lat":39.3154,"lng":-83.79945,"zip":"45146","miles_from_dt":16.98},{"city":"Miamisburg","state_name":"Ohio","lat":39.62943,"lng":-84.27545,"zip":"45342","miles_from_dt":17.01},{"city":"Miamisburg","state_name":"Ohio","lat":39.63639,"lng":-84.26725,"zip":"45343","miles_from_dt":17.11},{"city":"Port William","state_name":"Ohio","lat":39.55365,"lng":-83.78532,"zip":"45164","miles_from_dt":17.37},{"city":"Dayton","state_name":"Ohio","lat":39.68411,"lng":-84.16248,"zip":"45429","miles_from_dt":17.59},{"city":"Cincinnati","state_name":"Ohio","lat":39.27617,"lng":-84.32777,"zip":"45249","miles_from_dt":17.6},{"city":"Newtonsville","state_name":"Ohio","lat":39.18229,"lng":-84.07769,"zip":"45158","miles_from_dt":17.67},{"city":"Dayton","state_name":"Ohio","lat":39.66472,"lng":-84.24067,"zip":"45449","miles_from_dt":17.97},{"city":"Xenia","state_name":"Ohio","lat":39.66813,"lng":-83.91457,"zip":"45385","miles_from_dt":17.99},{"city":"Dayton","state_name":"Ohio","lat":39.71296,"lng":-84.08435,"zip":"45430","miles_from_dt":18.95},{"city":"Alpha","state_name":"Ohio","lat":39.71098,"lng":-84.02301,"zip":"45301","miles_from_dt":19},{"city":"West Chester","state_name":"Ohio","lat":39.3338,"lng":-84.40562,"zip":"45071","miles_from_dt":19.16},{"city":"West Chester","state_name":"Ohio","lat":39.34213,"lng":-84.4105,"zip":"45069","miles_from_dt":19.19},{"city":"Dayton","state_name":"Ohio","lat":39.72153,"lng":-84.10107,"zip":"45482","miles_from_dt":19.58},{"city":"Dayton","state_name":"Ohio","lat":39.719,"lng":-84.13045,"zip":"45420","miles_from_dt":19.59},{"city":"Dayton","state_name":"Ohio","lat":39.71436,"lng":-84.1676,"zip":"45419","miles_from_dt":19.68},{"city":"Dayton","state_name":"Ohio","lat":39.72284,"lng":-84.03052,"zip":"45434","miles_from_dt":19.76},{"city":"Dayton","state_name":"Ohio","lat":39.69867,"lng":-84.22944,"zip":"45439","miles_from_dt":19.77},{"city":"Miamiville","state_name":"Ohio","lat":39.21114,"lng":-84.30192,"zip":"45147","miles_from_dt":19.87},{"city":"Fayetteville","state_name":"Ohio","lat":39.17192,"lng":-83.93107,"zip":"45118","miles_from_dt":19.92},{"city":"Camp Dennison","state_name":"Ohio","lat":39.20033,"lng":-84.28746,"zip":"45111","miles_from_dt":20.01},{"city":"Cincinnati","state_name":"Ohio","lat":39.24348,"lng":-84.35621,"zip":"45242","miles_from_dt":20.23},{"city":"Dayton","state_name":"Ohio","lat":39.72334,"lng":-84.19039,"zip":"45409","miles_from_dt":20.61},{"city":"Milford","state_name":"Ohio","lat":39.16567,"lng":-84.23281,"zip":"45150","miles_from_dt":20.65},{"city":"Dayton","state_name":"Ohio","lat":39.72396,"lng":-84.1924,"zip":"45479","miles_from_dt":20.68},{"city":"Cincinnati","state_name":"Ohio","lat":39.27441,"lng":-84.39891,"zip":"45235","miles_from_dt":20.75},{"city":"Dayton","state_name":"Ohio","lat":39.73934,"lng":-84.08627,"zip":"45432","miles_from_dt":20.77},{"city":"Cincinnati","state_name":"Ohio","lat":39.27659,"lng":-84.40175,"zip":"45241","miles_from_dt":20.79},{"city":"Cincinnati","state_name":"Ohio","lat":39.27342,"lng":-84.39979,"zip":"45234","miles_from_dt":20.83},{"city":"Reesville","state_name":"Ohio","lat":39.4766,"lng":-83.68774,"zip":"45166","miles_from_dt":20.83},{"city":"Middletown","state_name":"Ohio","lat":39.54867,"lng":-84.43755,"zip":"45042","miles_from_dt":20.86},{"city":"Bowersville","state_name":"Ohio","lat":39.58065,"lng":-83.72347,"zip":"45307","miles_from_dt":21.15},{"city":"Lynchburg","state_name":"Ohio","lat":39.21033,"lng":-83.80553,"zip":"45142","miles_from_dt":21.33},{"city":"Wilberforce","state_name":"Ohio","lat":39.71444,"lng":-83.88638,"zip":"45384","miles_from_dt":21.52},{"city":"Dayton","state_name":"Ohio","lat":39.74033,"lng":-84.17911,"zip":"45469","miles_from_dt":21.57},{"city":"Dayton","state_name":"Ohio","lat":39.74757,"lng":-84.15907,"zip":"45410","miles_from_dt":21.8},{"city":"New Vienna","state_name":"Ohio","lat":39.33389,"lng":-83.68972,"zip":"45159","miles_from_dt":21.81},{"city":"Germantown","state_name":"Ohio","lat":39.63286,"lng":-84.39841,"zip":"45327","miles_from_dt":21.91},{"city":"Trenton","state_name":"Ohio","lat":39.49017,"lng":-84.47948,"zip":"45067","miles_from_dt":21.96},{"city":"Owensville","state_name":"Ohio","lat":39.12358,"lng":-84.13725,"zip":"45160","miles_from_dt":21.98},{"city":"Fairfield","state_name":"Ohio","lat":39.43024,"lng":-84.49298,"zip":"45018","miles_from_dt":22.41},{"city":"Jamestown","state_name":"Ohio","lat":39.63079,"lng":-83.73353,"zip":"45335","miles_from_dt":22.52},{"city":"Dayton","state_name":"Ohio","lat":39.76488,"lng":-84.08012,"zip":"45431","miles_from_dt":22.52},{"city":"Cincinnati","state_name":"Ohio","lat":39.18381,"lng":-84.34171,"zip":"45243","miles_from_dt":22.67},{"city":"Dayton","state_name":"Ohio","lat":39.75761,"lng":-84.1788,"zip":"45481","miles_from_dt":22.72},{"city":"Dayton","state_name":"Ohio","lat":39.76303,"lng":-84.14978,"zip":"45403","miles_from_dt":22.75},{"city":"Dayton","state_name":"Ohio","lat":39.76708,"lng":-84.12512,"zip":"45437","miles_from_dt":22.83},{"city":"Hamilton","state_name":"Ohio","lat":39.42892,"lng":-84.50173,"zip":"45011","miles_from_dt":22.88},{"city":"Dayton","state_name":"Ohio","lat":39.7606,"lng":-84.18663,"zip":"45422","miles_from_dt":23.02},{"city":"Dayton","state_name":"Ohio","lat":39.7604,"lng":-84.19112,"zip":"45423","miles_from_dt":23.07},{"city":"Terrace Park","state_name":"Ohio","lat":39.1588,"lng":-84.31073,"zip":"45174","miles_from_dt":23.08},{"city":"Sabina","state_name":"Ohio","lat":39.505,"lng":-83.65035,"zip":"45169","miles_from_dt":23.12},{"city":"Dayton","state_name":"Ohio","lat":39.76081,"lng":-84.1934,"zip":"45412","miles_from_dt":23.13},{"city":"Dayton","state_name":"Ohio","lat":39.74211,"lng":-84.25954,"zip":"45428","miles_from_dt":23.17},{"city":"Dayton","state_name":"Ohio","lat":39.73427,"lng":-84.2844,"zip":"45417","miles_from_dt":23.29},{"city":"Dayton","state_name":"Ohio","lat":39.75983,"lng":-84.20751,"zip":"45402","miles_from_dt":23.29},{"city":"Cincinnati","state_name":"Ohio","lat":39.2906,"lng":-84.46612,"zip":"45246","miles_from_dt":23.34},{"city":"Overpeck","state_name":"Ohio","lat":39.45701,"lng":-84.51094,"zip":"45055","miles_from_dt":23.4},{"city":"Cincinnati","state_name":"Ohio","lat":39.20949,"lng":-84.39701,"zip":"45236","miles_from_dt":23.42},{"city":"Dayton","state_name":"Ohio","lat":39.78114,"lng":-84.06312,"zip":"45435","miles_from_dt":23.65},{"city":"Batavia","state_name":"Ohio","lat":39.0946,"lng":-84.14006,"zip":"45103","miles_from_dt":23.98},{"city":"Dayton","state_name":"Ohio","lat":39.77463,"lng":-84.1984,"zip":"45401","miles_from_dt":24.12},{"city":"Williamsburg","state_name":"Ohio","lat":39.08438,"lng":-84.02205,"zip":"45176","miles_from_dt":24.58},{"city":"Dayton","state_name":"Ohio","lat":39.79011,"lng":-84.15324,"zip":"45404","miles_from_dt":24.63},{"city":"Cincinnati","state_name":"Ohio","lat":39.23536,"lng":-84.46221,"zip":"45215","miles_from_dt":25.07},{"city":"Hamilton","state_name":"Ohio","lat":39.36273,"lng":-84.53785,"zip":"45015","miles_from_dt":25.36},{"city":"Dayton","state_name":"Ohio","lat":39.78442,"lng":-84.24178,"zip":"45406","miles_from_dt":25.49},{"city":"Dayton","state_name":"Ohio","lat":39.79241,"lng":-84.21592,"zip":"45405","miles_from_dt":25.56},{"city":"Cincinnati","state_name":"Ohio","lat":39.18111,"lng":-84.42006,"zip":"45213","miles_from_dt":25.67},{"city":"Farmersville","state_name":"Ohio","lat":39.69297,"lng":-84.4269,"zip":"45325","miles_from_dt":25.75},{"city":"Cincinnati","state_name":"Ohio","lat":39.15403,"lng":-84.38524,"zip":"45227","miles_from_dt":25.75},{"city":"Cincinnati","state_name":"Ohio","lat":39.12009,"lng":-84.32764,"zip":"45244","miles_from_dt":25.83},{"city":"Seven Mile","state_name":"Ohio","lat":39.48501,"lng":-84.55371,"zip":"45062","miles_from_dt":25.84},{"city":"Dayton","state_name":"Ohio","lat":39.81359,"lng":-84.05273,"zip":"45433","miles_from_dt":25.91},{"city":"Cincinnati","state_name":"Ohio","lat":39.19365,"lng":-84.44642,"zip":"45222","miles_from_dt":26.14},{"city":"Highland","state_name":"Ohio","lat":39.34395,"lng":-83.5996,"zip":"45132","miles_from_dt":26.23},{"city":"Cincinnati","state_name":"Ohio","lat":39.19298,"lng":-84.45244,"zip":"45237","miles_from_dt":26.41},{"city":"Cincinnati","state_name":"Ohio","lat":39.28434,"lng":-84.52605,"zip":"45240","miles_from_dt":26.43},{"city":"Cedarville","state_name":"Ohio","lat":39.74608,"lng":-83.77363,"zip":"45314","miles_from_dt":26.6},{"city":"Fairborn","state_name":"Ohio","lat":39.81986,"lng":-84.00026,"zip":"45324","miles_from_dt":26.61},{"city":"Cincinnati","state_name":"Ohio","lat":39.26623,"lng":-84.51975,"zip":"45218","miles_from_dt":26.66},{"city":"Fairfield","state_name":"Ohio","lat":39.32822,"lng":-84.5521,"zip":"45014","miles_from_dt":26.69},{"city":"Yellow Springs","state_name":"Ohio","lat":39.79754,"lng":-83.88622,"zip":"45387","miles_from_dt":26.73},{"city":"New Lebanon","state_name":"Ohio","lat":39.7392,"lng":-84.39926,"zip":"45345","miles_from_dt":27.05},{"city":"Dayton","state_name":"Ohio","lat":39.80754,"lng":-84.25774,"zip":"45416","miles_from_dt":27.28},{"city":"Cincinnati","state_name":"Ohio","lat":39.20054,"lng":-84.48114,"zip":"45216","miles_from_dt":27.29},{"city":"Mount Orab","state_name":"Ohio","lat":39.06137,"lng":-83.91997,"zip":"45154","miles_from_dt":27.3},{"city":"Dayton","state_name":"Ohio","lat":39.82401,"lng":-84.1898,"zip":"45413","miles_from_dt":27.31},{"city":"Cincinnati","state_name":"Ohio","lat":39.15336,"lng":-84.42762,"zip":"45209","miles_from_dt":27.31},{"city":"Cincinnati","state_name":"Ohio","lat":39.16403,"lng":-84.45173,"zip":"45212","miles_from_dt":27.71},{"city":"West Elkton","state_name":"Ohio","lat":39.58968,"lng":-84.55804,"zip":"45070","miles_from_dt":27.88},{"city":"Milledgeville","state_name":"Ohio","lat":39.59289,"lng":-83.58777,"zip":"43142","miles_from_dt":28.09},{"city":"Clifton","state_name":"Ohio","lat":39.79754,"lng":-83.82517,"zip":"45316","miles_from_dt":28.11},{"city":"Dayton","state_name":"Ohio","lat":39.80094,"lng":-84.31461,"zip":"45426","miles_from_dt":28.11},{"city":"Cincinnati","state_name":"Ohio","lat":39.24617,"lng":-84.5383,"zip":"45231","miles_from_dt":28.18},{"city":"Gratis","state_name":"Ohio","lat":39.64821,"lng":-84.5282,"zip":"45330","miles_from_dt":28.24},{"city":"Dayton","state_name":"Ohio","lat":39.84695,"lng":-84.11032,"zip":"45424","miles_from_dt":28.25},{"city":"Cincinnati","state_name":"Ohio","lat":39.06065,"lng":-84.27748,"zip":"45245","miles_from_dt":28.25},{"city":"Cincinnati","state_name":"Ohio","lat":39.16,"lng":-84.46219,"zip":"45280","miles_from_dt":28.31},{"city":"Cincinnati","state_name":"Ohio","lat":39.13522,"lng":-84.43393,"zip":"45208","miles_from_dt":28.45},{"city":"Dayton","state_name":"Ohio","lat":39.84008,"lng":-84.21115,"zip":"45414","miles_from_dt":28.66},{"city":"Leesburg","state_name":"Ohio","lat":39.35124,"lng":-83.54859,"zip":"45135","miles_from_dt":28.77},{"city":"Cincinnati","state_name":"Ohio","lat":39.14856,"lng":-84.46149,"zip":"45277","miles_from_dt":28.83},{"city":"Dayton","state_name":"Ohio","lat":39.83473,"lng":-84.2568,"zip":"45415","miles_from_dt":29.02},{"city":"Cincinnati","state_name":"Ohio","lat":39.11149,"lng":-84.41989,"zip":"45226","miles_from_dt":29.19},{"city":"Collinsville","state_name":"Ohio","lat":39.51275,"lng":-84.61215,"zip":"45004","miles_from_dt":29.22},{"city":"Somerville","state_name":"Ohio","lat":39.56806,"lng":-84.59785,"zip":"45064","miles_from_dt":29.38},{"city":"Cincinnati","state_name":"Ohio","lat":39.16718,"lng":-84.49792,"zip":"45217","miles_from_dt":29.43},{"city":"Cincinnati","state_name":"Ohio","lat":39.20215,"lng":-84.53222,"zip":"45224","miles_from_dt":29.46},{"city":"Cincinnati","state_name":"Ohio","lat":39.05862,"lng":-84.32675,"zip":"45255","miles_from_dt":29.5},{"city":"Cincinnati","state_name":"Ohio","lat":39.14199,"lng":-84.4713,"zip":"45207","miles_from_dt":29.52},{"city":"Enon","state_name":"Ohio","lat":39.85131,"lng":-83.92794,"zip":"45323","miles_from_dt":29.53},{"city":"Cincinnati","state_name":"Ohio","lat":39.15342,"lng":-84.48612,"zip":"45229","miles_from_dt":29.57},{"city":"Cincinnati","state_name":"Ohio","lat":39.1818,"lng":-84.51673,"zip":"45232","miles_from_dt":29.6},{"city":"Amelia","state_name":"Ohio","lat":39.01718,"lng":-84.20602,"zip":"45102","miles_from_dt":29.91}],"targetCityZipCode":"45054","targetCityState":"Ohio"},"__N_SSG":true}