{"pageProps":{"stateName":"Ohio","cityName":"pataskala","nearbyCities":[{"city":"Etna","state_name":"Ohio","lat":39.95377,"lng":-82.67613,"zip":"43018","miles_from_dt":3.58},{"city":"Summit Station","state_name":"Ohio","lat":40.00197,"lng":-82.75103,"zip":"43073","miles_from_dt":3.8},{"city":"Kirkersville","state_name":"Ohio","lat":39.96098,"lng":-82.59984,"zip":"43033","miles_from_dt":5.23},{"city":"Blacklick","state_name":"Ohio","lat":40.01664,"lng":-82.80025,"zip":"43004","miles_from_dt":6.44},{"city":"Reynoldsburg","state_name":"Ohio","lat":39.95667,"lng":-82.78468,"zip":"43068","miles_from_dt":6.52},{"city":"Alexandria","state_name":"Ohio","lat":40.08794,"lng":-82.61289,"zip":"43001","miles_from_dt":6.7},{"city":"New Albany","state_name":"Ohio","lat":40.07998,"lng":-82.79253,"zip":"43054","miles_from_dt":7.89},{"city":"Reynoldsburg","state_name":"Ohio","lat":39.95,"lng":-82.81219,"zip":"43069","miles_from_dt":8.01},{"city":"Pickerington","state_name":"Ohio","lat":39.8982,"lng":-82.74227,"zip":"43147","miles_from_dt":8.12},{"city":"Hebron","state_name":"Ohio","lat":39.96653,"lng":-82.51529,"zip":"43025","miles_from_dt":9.13},{"city":"Granville","state_name":"Ohio","lat":40.07603,"lng":-82.53061,"zip":"43023","miles_from_dt":9.28},{"city":"Columbus","state_name":"Ohio","lat":39.9766,"lng":-82.85683,"zip":"43291","miles_from_dt":9.61},{"city":"Baltimore","state_name":"Ohio","lat":39.86513,"lng":-82.61826,"zip":"43105","miles_from_dt":10.22},{"city":"Columbus","state_name":"Ohio","lat":39.97117,"lng":-82.86746,"zip":"43213","miles_from_dt":10.25},{"city":"Columbus","state_name":"Ohio","lat":40.03648,"lng":-82.87057,"zip":"43230","miles_from_dt":10.35},{"city":"Brice","state_name":"Ohio","lat":39.9127,"lng":-82.83385,"zip":"43109","miles_from_dt":10.4},{"city":"Millersport","state_name":"Ohio","lat":39.89917,"lng":-82.53844,"zip":"43046","miles_from_dt":10.49},{"city":"Johnstown","state_name":"Ohio","lat":40.16292,"lng":-82.66378,"zip":"43031","miles_from_dt":10.89},{"city":"Columbus","state_name":"Ohio","lat":40.00006,"lng":-82.88796,"zip":"43236","miles_from_dt":11.06},{"city":"Buckeye Lake","state_name":"Ohio","lat":39.93348,"lng":-82.4817,"zip":"43008","miles_from_dt":11.63},{"city":"Columbus","state_name":"Ohio","lat":39.92189,"lng":-82.87053,"zip":"43232","miles_from_dt":11.66},{"city":"Columbus","state_name":"Ohio","lat":39.97419,"lng":-82.89823,"zip":"43216","miles_from_dt":11.8},{"city":"Columbus","state_name":"Ohio","lat":39.94511,"lng":-82.88858,"zip":"43227","miles_from_dt":11.85},{"city":"Newark","state_name":"Ohio","lat":40.05817,"lng":-82.45232,"zip":"43093","miles_from_dt":12.59},{"city":"Columbus","state_name":"Ohio","lat":40.00774,"lng":-82.92233,"zip":"43219","miles_from_dt":12.88},{"city":"Columbus","state_name":"Ohio","lat":40.01765,"lng":-82.92367,"zip":"43218","miles_from_dt":12.97},{"city":"Thurston","state_name":"Ohio","lat":39.84303,"lng":-82.54675,"zip":"43157","miles_from_dt":13.25},{"city":"Westerville","state_name":"Ohio","lat":40.11064,"lng":-82.89083,"zip":"43081","miles_from_dt":13.34},{"city":"Columbus","state_name":"Ohio","lat":39.95462,"lng":-82.92992,"zip":"43209","miles_from_dt":13.74},{"city":"Canal Winchester","state_name":"Ohio","lat":39.82825,"lng":-82.80143,"zip":"43110","miles_from_dt":13.84},{"city":"Carroll","state_name":"Ohio","lat":39.79719,"lng":-82.70472,"zip":"43112","miles_from_dt":14.44},{"city":"Columbus","state_name":"Ohio","lat":40.07843,"lng":-82.93914,"zip":"43231","miles_from_dt":14.65},{"city":"Jacksontown","state_name":"Ohio","lat":39.96783,"lng":-82.40667,"zip":"43030","miles_from_dt":14.72},{"city":"Westerville","state_name":"Ohio","lat":40.11745,"lng":-82.91666,"zip":"43086","miles_from_dt":14.75},{"city":"Westerville","state_name":"Ohio","lat":40.15537,"lng":-82.88437,"zip":"43082","miles_from_dt":14.99},{"city":"Newark","state_name":"Ohio","lat":40.05958,"lng":-82.40378,"zip":"43058","miles_from_dt":15.1},{"city":"Groveport","state_name":"Ohio","lat":39.86,"lng":-82.89219,"zip":"43195","miles_from_dt":15.11},{"city":"Groveport","state_name":"Ohio","lat":39.85969,"lng":-82.89441,"zip":"43199","miles_from_dt":15.21},{"city":"Columbus","state_name":"Ohio","lat":39.9575,"lng":-82.96244,"zip":"43205","miles_from_dt":15.37},{"city":"Columbus","state_name":"Ohio","lat":40.04256,"lng":-82.9664,"zip":"43224","miles_from_dt":15.42},{"city":"Columbus","state_name":"Ohio","lat":39.9729,"lng":-82.96922,"zip":"43203","miles_from_dt":15.53},{"city":"Columbus","state_name":"Ohio","lat":40.01163,"lng":-82.97244,"zip":"43211","miles_from_dt":15.54},{"city":"Croton","state_name":"Ohio","lat":40.23101,"lng":-82.6895,"zip":"43013","miles_from_dt":15.56},{"city":"Columbus","state_name":"Ohio","lat":40.05642,"lng":-82.9682,"zip":"43266","miles_from_dt":15.7},{"city":"Lithopolis","state_name":"Ohio","lat":39.80157,"lng":-82.81543,"zip":"43136","miles_from_dt":15.82},{"city":"Groveport","state_name":"Ohio","lat":39.83747,"lng":-82.88588,"zip":"43125","miles_from_dt":15.95},{"city":"Pleasantville","state_name":"Ohio","lat":39.81809,"lng":-82.49887,"zip":"43148","miles_from_dt":16.11},{"city":"Columbus","state_name":"Ohio","lat":39.94205,"lng":-82.97346,"zip":"43206","miles_from_dt":16.2},{"city":"Columbus","state_name":"Ohio","lat":40.08569,"lng":-82.97636,"zip":"43229","miles_from_dt":16.68},{"city":"Columbus","state_name":"Ohio","lat":39.89599,"lng":-82.96392,"zip":"43207","miles_from_dt":16.88},{"city":"Thornville","state_name":"Ohio","lat":39.89594,"lng":-82.39497,"zip":"43076","miles_from_dt":16.9},{"city":"Columbus","state_name":"Ohio","lat":39.9644,"lng":-82.99432,"zip":"43268","miles_from_dt":16.94},{"city":"Columbus","state_name":"Ohio","lat":39.99114,"lng":-83.00056,"zip":"43201","miles_from_dt":17.06},{"city":"Columbus","state_name":"Ohio","lat":39.96287,"lng":-82.99842,"zip":"43260","miles_from_dt":17.17},{"city":"Columbus","state_name":"Ohio","lat":39.96142,"lng":-82.99939,"zip":"43287","miles_from_dt":17.24},{"city":"Columbus","state_name":"Ohio","lat":39.96497,"lng":-83.00032,"zip":"43270","miles_from_dt":17.25},{"city":"Galena","state_name":"Ohio","lat":40.20301,"lng":-82.88476,"zip":"43021","miles_from_dt":17.43},{"city":"Columbus","state_name":"Ohio","lat":39.96035,"lng":-83.00566,"zip":"43272","miles_from_dt":17.58},{"city":"Columbus","state_name":"Ohio","lat":40.02126,"lng":-83.01394,"zip":"43202","miles_from_dt":17.77},{"city":"Newark","state_name":"Ohio","lat":40.1168,"lng":-82.37672,"zip":"43055","miles_from_dt":17.8},{"city":"Columbus","state_name":"Ohio","lat":39.96633,"lng":-83.01262,"zip":"43215","miles_from_dt":17.88},{"city":"Columbus","state_name":"Ohio","lat":40.00487,"lng":-83.02182,"zip":"43210","miles_from_dt":18.16},{"city":"Columbus","state_name":"Ohio","lat":40.0523,"lng":-83.01996,"zip":"43214","miles_from_dt":18.34},{"city":"Columbus","state_name":"Ohio","lat":39.95972,"lng":-83.0208,"zip":"43251","miles_from_dt":18.38},{"city":"Heath","state_name":"Ohio","lat":40.00895,"lng":-82.33057,"zip":"43056","miles_from_dt":18.52},{"city":"Columbus","state_name":"Ohio","lat":39.9661,"lng":-83.02545,"zip":"43279","miles_from_dt":18.55},{"city":"Columbus","state_name":"Ohio","lat":39.97093,"lng":-83.02627,"zip":"43271","miles_from_dt":18.55},{"city":"Columbus","state_name":"Ohio","lat":40.14501,"lng":-82.98209,"zip":"43240","miles_from_dt":18.7},{"city":"Columbus","state_name":"Ohio","lat":39.81667,"lng":-82.93279,"zip":"43217","miles_from_dt":18.73},{"city":"Columbus","state_name":"Ohio","lat":40.09959,"lng":-83.01639,"zip":"43085","miles_from_dt":19},{"city":"Homer","state_name":"Ohio","lat":40.25375,"lng":-82.52253,"zip":"43027","miles_from_dt":19.04},{"city":"Columbus","state_name":"Ohio","lat":39.961,"lng":-83.03581,"zip":"43222","miles_from_dt":19.15},{"city":"Columbus","state_name":"Ohio","lat":39.98763,"lng":-83.04215,"zip":"43212","miles_from_dt":19.28},{"city":"Columbus","state_name":"Ohio","lat":39.92636,"lng":-83.03395,"zip":"43223","miles_from_dt":19.59},{"city":"Lockbourne","state_name":"Ohio","lat":39.80927,"lng":-82.97473,"zip":"43194","miles_from_dt":20.72},{"city":"Lewis Center","state_name":"Ohio","lat":40.18622,"lng":-82.9969,"zip":"43035","miles_from_dt":20.93},{"city":"Columbus","state_name":"Ohio","lat":40.10193,"lng":-83.05442,"zip":"43235","miles_from_dt":20.95},{"city":"Sunbury","state_name":"Ohio","lat":40.28008,"lng":-82.84899,"zip":"43074","miles_from_dt":20.96},{"city":"Centerburg","state_name":"Ohio","lat":40.30946,"lng":-82.68456,"zip":"43011","miles_from_dt":20.97},{"city":"Columbus","state_name":"Ohio","lat":40.04847,"lng":-83.07161,"zip":"43220","miles_from_dt":21},{"city":"Utica","state_name":"Ohio","lat":40.24284,"lng":-82.43126,"zip":"43080","miles_from_dt":21},{"city":"Columbus","state_name":"Ohio","lat":40.10298,"lng":-83.05599,"zip":"43234","miles_from_dt":21.06},{"city":"Columbus","state_name":"Ohio","lat":40.02334,"lng":-83.07744,"zip":"43221","miles_from_dt":21.14},{"city":"Saint Louisville","state_name":"Ohio","lat":40.18479,"lng":-82.35509,"zip":"43071","miles_from_dt":21.18},{"city":"Lancaster","state_name":"Ohio","lat":39.70013,"lng":-82.60992,"zip":"43130","miles_from_dt":21.4},{"city":"Lockbourne","state_name":"Ohio","lat":39.80486,"lng":-82.98694,"zip":"43137","miles_from_dt":21.41},{"city":"Columbus","state_name":"Ohio","lat":39.96135,"lng":-83.08052,"zip":"43204","miles_from_dt":21.49},{"city":"Rushville","state_name":"Ohio","lat":39.77446,"lng":-82.40565,"zip":"43150","miles_from_dt":21.59},{"city":"Glenford","state_name":"Ohio","lat":39.90693,"lng":-82.29025,"zip":"43739","miles_from_dt":21.77},{"city":"Brownsville","state_name":"Ohio","lat":39.94927,"lng":-82.26015,"zip":"43721","miles_from_dt":22.6},{"city":"Ashville","state_name":"Ohio","lat":39.72484,"lng":-82.93428,"zip":"43103","miles_from_dt":23.63},{"city":"Columbus","state_name":"Ohio","lat":39.96367,"lng":-83.12478,"zip":"43228","miles_from_dt":23.8},{"city":"Mount Liberty","state_name":"Ohio","lat":40.35018,"lng":-82.63004,"zip":"43048","miles_from_dt":23.92},{"city":"Gratiot","state_name":"Ohio","lat":39.9515,"lng":-82.21706,"zip":"43740","miles_from_dt":24.83},{"city":"Powell","state_name":"Ohio","lat":40.17655,"lng":-83.09445,"zip":"43065","miles_from_dt":24.95},{"city":"Somerset","state_name":"Ohio","lat":39.80389,"lng":-82.28878,"zip":"43783","miles_from_dt":25},{"city":"Grove City","state_name":"Ohio","lat":39.86801,"lng":-83.12088,"zip":"43123","miles_from_dt":25.28},{"city":"Dublin","state_name":"Ohio","lat":40.1189,"lng":-83.13314,"zip":"43017","miles_from_dt":25.28},{"city":"Amanda","state_name":"Ohio","lat":39.64076,"lng":-82.76118,"zip":"43102","miles_from_dt":25.54},{"city":"Columbus","state_name":"Ohio","lat":39.97857,"lng":-83.16337,"zip":"43226","miles_from_dt":25.74},{"city":"Bremen","state_name":"Ohio","lat":39.69254,"lng":-82.40993,"zip":"43107","miles_from_dt":25.92},{"city":"Commercial Point","state_name":"Ohio","lat":39.77284,"lng":-83.06275,"zip":"43116","miles_from_dt":25.93},{"city":"Dublin","state_name":"Ohio","lat":40.09732,"lng":-83.15535,"zip":"43016","miles_from_dt":26.01},{"city":"Amlin","state_name":"Ohio","lat":40.05982,"lng":-83.17305,"zip":"43002","miles_from_dt":26.43},{"city":"Kilbourne","state_name":"Ohio","lat":40.32836,"lng":-82.95812,"zip":"43032","miles_from_dt":26.71},{"city":"Hilliard","state_name":"Ohio","lat":40.02197,"lng":-83.18472,"zip":"43026","miles_from_dt":26.82},{"city":"Sparta","state_name":"Ohio","lat":40.39557,"lng":-82.69977,"zip":"43350","miles_from_dt":26.93},{"city":"Mount Perry","state_name":"Ohio","lat":39.8858,"lng":-82.19577,"zip":"43760","miles_from_dt":26.99},{"city":"Hopewell","state_name":"Ohio","lat":39.97146,"lng":-82.17287,"zip":"43746","miles_from_dt":27},{"city":"Martinsburg","state_name":"Ohio","lat":40.28062,"lng":-82.31654,"zip":"43037","miles_from_dt":27.01},{"city":"Mount Vernon","state_name":"Ohio","lat":40.37188,"lng":-82.49536,"zip":"43050","miles_from_dt":27.09},{"city":"Sugar Grove","state_name":"Ohio","lat":39.6251,"lng":-82.52618,"zip":"43155","miles_from_dt":27.49},{"city":"Marengo","state_name":"Ohio","lat":40.39912,"lng":-82.79863,"zip":"43334","miles_from_dt":27.87},{"city":"Galloway","state_name":"Ohio","lat":39.93487,"lng":-83.20059,"zip":"43119","miles_from_dt":28.08},{"city":"Nashport","state_name":"Ohio","lat":40.06116,"lng":-82.14812,"zip":"43830","miles_from_dt":28.45},{"city":"Delaware","state_name":"Ohio","lat":40.29812,"lng":-83.06049,"zip":"43015","miles_from_dt":28.53},{"city":"Stoutsville","state_name":"Ohio","lat":39.60327,"lng":-82.82622,"zip":"43154","miles_from_dt":28.83},{"city":"Junction City","state_name":"Ohio","lat":39.69788,"lng":-82.30899,"zip":"43748","miles_from_dt":28.97},{"city":"Bladensburg","state_name":"Ohio","lat":40.28241,"lng":-82.26728,"zip":"43005","miles_from_dt":29.01},{"city":"Gambier","state_name":"Ohio","lat":40.33765,"lng":-82.34135,"zip":"43022","miles_from_dt":29.08},{"city":"Harrisburg","state_name":"Ohio","lat":39.81077,"lng":-83.16857,"zip":"43126","miles_from_dt":29.25},{"city":"Orient","state_name":"Ohio","lat":39.77293,"lng":-83.14333,"zip":"43146","miles_from_dt":29.41},{"city":"Frazeysburg","state_name":"Ohio","lat":40.17409,"lng":-82.16958,"zip":"43822","miles_from_dt":29.42}],"targetCityZipCode":"43062","targetCityState":"Ohio"},"__N_SSG":true}