{"pageProps":{"stateName":"Ohio","cityName":"plainfield","nearbyCities":[{"city":"West Lafayette","state_name":"Ohio","lat":40.25692,"lng":-81.73144,"zip":"43845","miles_from_dt":3.4},{"city":"Newcomerstown","state_name":"Ohio","lat":40.27333,"lng":-81.57931,"zip":"43832","miles_from_dt":8.61},{"city":"Kimbolton","state_name":"Ohio","lat":40.15932,"lng":-81.56411,"zip":"43749","miles_from_dt":8.85},{"city":"Coshocton","state_name":"Ohio","lat":40.27268,"lng":-81.88347,"zip":"43812","miles_from_dt":9.77},{"city":"Adamsville","state_name":"Ohio","lat":40.09346,"lng":-81.85687,"zip":"43802","miles_from_dt":10.81},{"city":"Bakersville","state_name":"Ohio","lat":40.35531,"lng":-81.64397,"zip":"43803","miles_from_dt":10.86},{"city":"Fresno","state_name":"Ohio","lat":40.36407,"lng":-81.76116,"zip":"43824","miles_from_dt":10.95},{"city":"Conesville","state_name":"Ohio","lat":40.18285,"lng":-81.93232,"zip":"43811","miles_from_dt":11.45},{"city":"Keene","state_name":"Ohio","lat":40.34169,"lng":-81.8657,"zip":"43828","miles_from_dt":12.03},{"city":"New Concord","state_name":"Ohio","lat":40.03156,"lng":-81.74007,"zip":"43762","miles_from_dt":12.27},{"city":"Cambridge","state_name":"Ohio","lat":40.03949,"lng":-81.59934,"zip":"43725","miles_from_dt":13.27},{"city":"Port Washington","state_name":"Ohio","lat":40.29773,"lng":-81.47846,"zip":"43837","miles_from_dt":14.1},{"city":"Norwich","state_name":"Ohio","lat":40.00653,"lng":-81.80198,"zip":"43767","miles_from_dt":14.63},{"city":"Stone Creek","state_name":"Ohio","lat":40.40511,"lng":-81.60025,"zip":"43840","miles_from_dt":14.92},{"city":"Dresden","state_name":"Ohio","lat":40.13559,"lng":-82.00695,"zip":"43821","miles_from_dt":16.08},{"city":"Trinway","state_name":"Ohio","lat":40.13749,"lng":-82.01182,"zip":"43842","miles_from_dt":16.28},{"city":"Baltic","state_name":"Ohio","lat":40.4545,"lng":-81.73704,"zip":"43804","miles_from_dt":16.99},{"city":"Gnadenhutten","state_name":"Ohio","lat":40.35107,"lng":-81.44553,"zip":"44629","miles_from_dt":17.45},{"city":"Blissfield","state_name":"Ohio","lat":40.39177,"lng":-81.97223,"zip":"43805","miles_from_dt":18.42},{"city":"Kipling","state_name":"Ohio","lat":39.99353,"lng":-81.50975,"zip":"43750","miles_from_dt":18.51},{"city":"Lore City","state_name":"Ohio","lat":40.0537,"lng":-81.43318,"zip":"43755","miles_from_dt":18.51},{"city":"Old Washington","state_name":"Ohio","lat":40.03776,"lng":-81.44477,"zip":"43768","miles_from_dt":18.69},{"city":"Byesville","state_name":"Ohio","lat":39.96022,"lng":-81.5412,"zip":"43723","miles_from_dt":19.55},{"city":"Warsaw","state_name":"Ohio","lat":40.33349,"lng":-82.05163,"zip":"43844","miles_from_dt":19.6},{"city":"Sugarcreek","state_name":"Ohio","lat":40.50018,"lng":-81.6625,"zip":"44681","miles_from_dt":20.33},{"city":"Charm","state_name":"Ohio","lat":40.50603,"lng":-81.78447,"zip":"44617","miles_from_dt":20.81},{"city":"Tuscarawas","state_name":"Ohio","lat":40.39765,"lng":-81.40323,"zip":"44682","miles_from_dt":21.15},{"city":"Derwent","state_name":"Ohio","lat":39.92736,"lng":-81.53807,"zip":"43733","miles_from_dt":21.64},{"city":"New Philadelphia","state_name":"Ohio","lat":40.46066,"lng":-81.44961,"zip":"44663","miles_from_dt":22.45},{"city":"Buffalo","state_name":"Ohio","lat":39.91933,"lng":-81.52001,"zip":"43722","miles_from_dt":22.57},{"city":"Zanesville","state_name":"Ohio","lat":39.95986,"lng":-81.99498,"zip":"43701","miles_from_dt":22.57},{"city":"Walnut Creek","state_name":"Ohio","lat":40.53941,"lng":-81.71189,"zip":"44687","miles_from_dt":22.82},{"city":"Salesville","state_name":"Ohio","lat":40.01111,"lng":-81.37001,"zip":"43778","miles_from_dt":22.95},{"city":"Stillwater","state_name":"Ohio","lat":40.32091,"lng":-81.3095,"zip":"44679","miles_from_dt":22.96},{"city":"Uhrichsville","state_name":"Ohio","lat":40.35505,"lng":-81.3218,"zip":"44683","miles_from_dt":23.27},{"city":"Tippecanoe","state_name":"Ohio","lat":40.27789,"lng":-81.28752,"zip":"44699","miles_from_dt":23.28},{"city":"Freeport","state_name":"Ohio","lat":40.19111,"lng":-81.27688,"zip":"43973","miles_from_dt":23.4},{"city":"Chandlersville","state_name":"Ohio","lat":39.8714,"lng":-81.79884,"zip":"43727","miles_from_dt":23.66},{"city":"Frazeysburg","state_name":"Ohio","lat":40.17409,"lng":-82.16958,"zip":"43822","miles_from_dt":23.98},{"city":"Zanesville","state_name":"Ohio","lat":39.94082,"lng":-82.00679,"zip":"43702","miles_from_dt":23.98},{"city":"Millersburg","state_name":"Ohio","lat":40.53861,"lng":-81.87162,"zip":"44654","miles_from_dt":24.15},{"city":"Midvale","state_name":"Ohio","lat":40.43711,"lng":-81.37105,"zip":"44653","miles_from_dt":24.19},{"city":"Duncan Falls","state_name":"Ohio","lat":39.88144,"lng":-81.90489,"zip":"43734","miles_from_dt":24.65},{"city":"Senecaville","state_name":"Ohio","lat":39.92229,"lng":-81.44024,"zip":"43780","miles_from_dt":24.66},{"city":"Berlin","state_name":"Ohio","lat":40.56078,"lng":-81.80139,"zip":"44610","miles_from_dt":24.68},{"city":"Pleasant City","state_name":"Ohio","lat":39.88063,"lng":-81.52448,"zip":"43772","miles_from_dt":24.86},{"city":"Nashport","state_name":"Ohio","lat":40.06116,"lng":-82.14812,"zip":"43830","miles_from_dt":24.92},{"city":"Killbuck","state_name":"Ohio","lat":40.47996,"lng":-82.03347,"zip":"44637","miles_from_dt":25.03},{"city":"Cumberland","state_name":"Ohio","lat":39.84409,"lng":-81.65883,"zip":"43732","miles_from_dt":25.35},{"city":"Walhonding","state_name":"Ohio","lat":40.33485,"lng":-82.17711,"zip":"43843","miles_from_dt":25.75},{"city":"Ava","state_name":"Ohio","lat":39.84262,"lng":-81.57738,"zip":"43711","miles_from_dt":26.34},{"city":"Dover","state_name":"Ohio","lat":40.54883,"lng":-81.48375,"zip":"44622","miles_from_dt":26.54},{"city":"Quaker City","state_name":"Ohio","lat":39.98758,"lng":-81.29636,"zip":"43773","miles_from_dt":27.08},{"city":"Dennison","state_name":"Ohio","lat":40.42878,"lng":-81.28955,"zip":"44621","miles_from_dt":27.27},{"city":"Fairview","state_name":"Ohio","lat":40.05755,"lng":-81.23689,"zip":"43736","miles_from_dt":27.56},{"city":"Piedmont","state_name":"Ohio","lat":40.13886,"lng":-81.20296,"zip":"43983","miles_from_dt":27.71},{"city":"Winesburg","state_name":"Ohio","lat":40.61353,"lng":-81.69391,"zip":"44690","miles_from_dt":27.96},{"city":"Dundee","state_name":"Ohio","lat":40.61249,"lng":-81.66157,"zip":"44624","miles_from_dt":28.02},{"city":"Philo","state_name":"Ohio","lat":39.83586,"lng":-81.94135,"zip":"43771","miles_from_dt":28.31},{"city":"Brinkhaven","state_name":"Ohio","lat":40.4591,"lng":-82.14554,"zip":"43006","miles_from_dt":28.4},{"city":"Strasburg","state_name":"Ohio","lat":40.60174,"lng":-81.54512,"zip":"44680","miles_from_dt":28.62},{"city":"Deersville","state_name":"Ohio","lat":40.2978,"lng":-81.18821,"zip":"44693","miles_from_dt":28.7},{"city":"Mount Hope","state_name":"Ohio","lat":40.62382,"lng":-81.77487,"zip":"44660","miles_from_dt":28.8},{"city":"Hopewell","state_name":"Ohio","lat":39.97146,"lng":-82.17287,"zip":"43746","miles_from_dt":29.11},{"city":"Bladensburg","state_name":"Ohio","lat":40.28241,"lng":-82.26728,"zip":"43005","miles_from_dt":29.45},{"city":"Blue Rock","state_name":"Ohio","lat":39.79272,"lng":-81.86886,"zip":"43720","miles_from_dt":29.79}],"targetCityZipCode":"43836","targetCityState":"Ohio"},"__N_SSG":true}