{"pageProps":{"stateName":"Ohio","cityName":"saint-johns","nearbyCities":[{"city":"Uniopolis","state_name":"Ohio","lat":40.60244,"lng":-84.08583,"zip":"45888","miles_from_dt":3.71},{"city":"Wapakoneta","state_name":"Ohio","lat":40.56991,"lng":-84.15197,"zip":"45895","miles_from_dt":3.9},{"city":"New Hampshire","state_name":"Ohio","lat":40.55621,"lng":-83.95142,"zip":"45870","miles_from_dt":6.96},{"city":"Jackson Center","state_name":"Ohio","lat":40.44662,"lng":-84.04517,"zip":"45334","miles_from_dt":7.32},{"city":"Botkins","state_name":"Ohio","lat":40.45856,"lng":-84.18575,"zip":"45306","miles_from_dt":8.23},{"city":"Waynesfield","state_name":"Ohio","lat":40.60667,"lng":-83.93775,"zip":"45896","miles_from_dt":8.64},{"city":"Lakeview","state_name":"Ohio","lat":40.51794,"lng":-83.9191,"zip":"43331","miles_from_dt":8.9},{"city":"Lima","state_name":"Ohio","lat":40.67615,"lng":-84.12651,"zip":"45806","miles_from_dt":9.09},{"city":"Buckland","state_name":"Ohio","lat":40.62407,"lng":-84.26033,"zip":"45819","miles_from_dt":10.67},{"city":"Lewistown","state_name":"Ohio","lat":40.43927,"lng":-83.93221,"zip":"43333","miles_from_dt":10.97},{"city":"Lima","state_name":"Ohio","lat":40.71569,"lng":-84.06911,"zip":"45804","miles_from_dt":11.55},{"city":"Russells Point","state_name":"Ohio","lat":40.46754,"lng":-83.88857,"zip":"43348","miles_from_dt":11.68},{"city":"Kettlersville","state_name":"Ohio","lat":40.44256,"lng":-84.25988,"zip":"45336","miles_from_dt":11.84},{"city":"New Knoxville","state_name":"Ohio","lat":40.4932,"lng":-84.30089,"zip":"45871","miles_from_dt":12.08},{"city":"Anna","state_name":"Ohio","lat":40.40068,"lng":-84.20756,"zip":"45302","miles_from_dt":12.13},{"city":"Maplewood","state_name":"Ohio","lat":40.37184,"lng":-84.04935,"zip":"45340","miles_from_dt":12.33},{"city":"Roundhead","state_name":"Ohio","lat":40.5768,"lng":-83.84518,"zip":"43346","miles_from_dt":12.68},{"city":"Lima","state_name":"Ohio","lat":40.72979,"lng":-84.16242,"zip":"45805","miles_from_dt":13.17},{"city":"Harrod","state_name":"Ohio","lat":40.70382,"lng":-83.91817,"zip":"45850","miles_from_dt":13.79},{"city":"Lima","state_name":"Ohio","lat":40.74105,"lng":-84.17446,"zip":"45802","miles_from_dt":14.11},{"city":"Port Jefferson","state_name":"Ohio","lat":40.33028,"lng":-84.09206,"zip":"45360","miles_from_dt":15.07},{"city":"Lima","state_name":"Ohio","lat":40.77476,"lng":-84.03703,"zip":"45801","miles_from_dt":15.79},{"city":"Huntsville","state_name":"Ohio","lat":40.44632,"lng":-83.81207,"zip":"43324","miles_from_dt":15.94},{"city":"Belle Center","state_name":"Ohio","lat":40.5346,"lng":-83.78029,"zip":"43310","miles_from_dt":15.98},{"city":"Lafayette","state_name":"Ohio","lat":40.7582,"lng":-83.95231,"zip":"45854","miles_from_dt":16.01},{"city":"Saint Marys","state_name":"Ohio","lat":40.57182,"lng":-84.3871,"zip":"45885","miles_from_dt":16.07},{"city":"Alger","state_name":"Ohio","lat":40.68341,"lng":-83.8135,"zip":"45812","miles_from_dt":16.96},{"city":"New Bremen","state_name":"Ohio","lat":40.4573,"lng":-84.39432,"zip":"45869","miles_from_dt":17.55},{"city":"Quincy","state_name":"Ohio","lat":40.3073,"lng":-83.97647,"zip":"43343","miles_from_dt":17.58},{"city":"Pemberton","state_name":"Ohio","lat":40.29252,"lng":-84.04274,"zip":"45353","miles_from_dt":17.8},{"city":"Lima","state_name":"Ohio","lat":40.8072,"lng":-84.16699,"zip":"45807","miles_from_dt":18.37},{"city":"Sidney","state_name":"Ohio","lat":40.28915,"lng":-84.16326,"zip":"45367","miles_from_dt":18.39},{"city":"Spencerville","state_name":"Ohio","lat":40.71107,"lng":-84.36359,"zip":"45887","miles_from_dt":18.51},{"city":"McGuffey","state_name":"Ohio","lat":40.69305,"lng":-83.78574,"zip":"45859","miles_from_dt":18.55},{"city":"Minster","state_name":"Ohio","lat":40.39379,"lng":-84.37219,"zip":"45865","miles_from_dt":18.6},{"city":"Sidney","state_name":"Ohio","lat":40.2828,"lng":-84.15582,"zip":"45365","miles_from_dt":18.74},{"city":"De Graff","state_name":"Ohio","lat":40.30948,"lng":-83.91378,"zip":"43318","miles_from_dt":18.77},{"city":"Cairo","state_name":"Ohio","lat":40.83074,"lng":-84.08473,"zip":"45820","miles_from_dt":19.46},{"city":"Beaverdam","state_name":"Ohio","lat":40.83178,"lng":-83.9729,"zip":"45808","miles_from_dt":20.38},{"city":"Gomer","state_name":"Ohio","lat":40.8431,"lng":-84.18522,"zip":"45809","miles_from_dt":21.01},{"city":"Ada","state_name":"Ohio","lat":40.77721,"lng":-83.81097,"zip":"45810","miles_from_dt":21.3},{"city":"Bellefontaine","state_name":"Ohio","lat":40.36427,"lng":-83.75812,"zip":"43311","miles_from_dt":21.35},{"city":"Fort Loramie","state_name":"Ohio","lat":40.32995,"lng":-84.37806,"zip":"45845","miles_from_dt":21.66},{"city":"Rushsylvania","state_name":"Ohio","lat":40.47771,"lng":-83.65804,"zip":"43347","miles_from_dt":22.93},{"city":"Chickasaw","state_name":"Ohio","lat":40.43658,"lng":-84.49368,"zip":"45826","miles_from_dt":22.96},{"city":"Vaughnsville","state_name":"Ohio","lat":40.88146,"lng":-84.14536,"zip":"45893","miles_from_dt":23.19},{"city":"Rosewood","state_name":"Ohio","lat":40.22056,"lng":-83.95651,"zip":"43070","miles_from_dt":23.61},{"city":"Mendon","state_name":"Ohio","lat":40.67079,"lng":-84.51356,"zip":"45862","miles_from_dt":24.14},{"city":"Delphos","state_name":"Ohio","lat":40.83415,"lng":-84.35264,"zip":"45833","miles_from_dt":24.25},{"city":"Houston","state_name":"Ohio","lat":40.2481,"lng":-84.33209,"zip":"45333","miles_from_dt":24.54},{"city":"Elgin","state_name":"Ohio","lat":40.74041,"lng":-84.47781,"zip":"45838","miles_from_dt":24.6},{"city":"Columbus Grove","state_name":"Ohio","lat":40.90616,"lng":-84.09213,"zip":"45830","miles_from_dt":24.67},{"city":"Dola","state_name":"Ohio","lat":40.75898,"lng":-83.70076,"zip":"45835","miles_from_dt":24.8},{"city":"Montezuma","state_name":"Ohio","lat":40.48905,"lng":-84.54969,"zip":"45866","miles_from_dt":24.9},{"city":"Bluffton","state_name":"Ohio","lat":40.87691,"lng":-83.88279,"zip":"45817","miles_from_dt":24.98},{"city":"Venedocia","state_name":"Ohio","lat":40.76252,"lng":-84.4684,"zip":"45894","miles_from_dt":25.05},{"city":"Maria Stein","state_name":"Ohio","lat":40.39365,"lng":-84.51566,"zip":"45860","miles_from_dt":25.17},{"city":"Kenton","state_name":"Ohio","lat":40.64149,"lng":-83.61443,"zip":"43326","miles_from_dt":25.48},{"city":"Yorkshire","state_name":"Ohio","lat":40.32799,"lng":-84.47901,"zip":"45388","miles_from_dt":25.83},{"city":"Osgood","state_name":"Ohio","lat":40.33954,"lng":-84.49574,"zip":"45351","miles_from_dt":26.09},{"city":"Conover","state_name":"Ohio","lat":40.17328,"lng":-84.01971,"zip":"45317","miles_from_dt":26.12},{"city":"Ridgeway","state_name":"Ohio","lat":40.51341,"lng":-83.58167,"zip":"43345","miles_from_dt":26.52},{"city":"Celina","state_name":"Ohio","lat":40.55266,"lng":-84.59664,"zip":"45822","miles_from_dt":27.02},{"city":"West Liberty","state_name":"Ohio","lat":40.25316,"lng":-83.74711,"zip":"43357","miles_from_dt":27.02},{"city":"Russia","state_name":"Ohio","lat":40.23925,"lng":-84.39841,"zip":"45363","miles_from_dt":27.06},{"city":"Fort Jennings","state_name":"Ohio","lat":40.91733,"lng":-84.2856,"zip":"45844","miles_from_dt":27.57},{"city":"Piqua","state_name":"Ohio","lat":40.16252,"lng":-84.23097,"zip":"45356","miles_from_dt":27.76},{"city":"Fletcher","state_name":"Ohio","lat":40.14201,"lng":-84.09039,"zip":"45326","miles_from_dt":28.06},{"city":"Zanesfield","state_name":"Ohio","lat":40.33272,"lng":-83.63114,"zip":"43360","miles_from_dt":28.11},{"city":"Dunkirk","state_name":"Ohio","lat":40.79304,"lng":-83.64311,"zip":"45836","miles_from_dt":28.62},{"city":"Pandora","state_name":"Ohio","lat":40.95393,"lng":-83.93779,"zip":"45877","miles_from_dt":28.99},{"city":"Jenera","state_name":"Ohio","lat":40.87955,"lng":-83.735,"zip":"45841","miles_from_dt":29.25},{"city":"Ottoville","state_name":"Ohio","lat":40.93414,"lng":-84.33835,"zip":"45876","miles_from_dt":29.78},{"city":"Williamstown","state_name":"Ohio","lat":40.83434,"lng":-83.65676,"zip":"45897","miles_from_dt":29.84}],"targetCityZipCode":"45884","targetCityState":"Ohio"},"__N_SSG":true}