{"pageProps":{"stateName":"Ohio","cityName":"stafford","nearbyCities":[{"city":"Lewisville","state_name":"Ohio","lat":39.75586,"lng":-81.24017,"zip":"43754","miles_from_dt":3.67},{"city":"Graysville","state_name":"Ohio","lat":39.63982,"lng":-81.18816,"zip":"45734","miles_from_dt":6.82},{"city":"Summerfield","state_name":"Ohio","lat":39.80175,"lng":-81.3334,"zip":"43788","miles_from_dt":6.95},{"city":"Lower Salem","state_name":"Ohio","lat":39.61678,"lng":-81.32689,"zip":"45745","miles_from_dt":7.01},{"city":"Woodsfield","state_name":"Ohio","lat":39.74362,"lng":-81.10219,"zip":"43793","miles_from_dt":9.58},{"city":"Sarahsville","state_name":"Ohio","lat":39.81718,"lng":-81.42528,"zip":"43779","miles_from_dt":10.77},{"city":"Wingett Run","state_name":"Ohio","lat":39.5514,"lng":-81.25592,"zip":"45789","miles_from_dt":11.06},{"city":"Macksburg","state_name":"Ohio","lat":39.604,"lng":-81.44809,"zip":"45746","miles_from_dt":11.73},{"city":"Dexter City","state_name":"Ohio","lat":39.64495,"lng":-81.48171,"zip":"45727","miles_from_dt":11.82},{"city":"Malaga","state_name":"Ohio","lat":39.85623,"lng":-81.14677,"zip":"43757","miles_from_dt":12.19},{"city":"Caldwell","state_name":"Ohio","lat":39.73267,"lng":-81.5166,"zip":"43724","miles_from_dt":12.85},{"city":"Jerusalem","state_name":"Ohio","lat":39.85784,"lng":-81.12128,"zip":"43747","miles_from_dt":13.1},{"city":"New Matamoras","state_name":"Ohio","lat":39.54367,"lng":-81.1312,"zip":"45767","miles_from_dt":13.91},{"city":"Laings","state_name":"Ohio","lat":39.71601,"lng":-81.0131,"zip":"43752","miles_from_dt":14.07},{"city":"Whipple","state_name":"Ohio","lat":39.51349,"lng":-81.37016,"zip":"45788","miles_from_dt":14.49},{"city":"Belle Valley","state_name":"Ohio","lat":39.78943,"lng":-81.5548,"zip":"43717","miles_from_dt":15.75},{"city":"Beallsville","state_name":"Ohio","lat":39.83683,"lng":-81.00752,"zip":"43716","miles_from_dt":16.77},{"city":"Senecaville","state_name":"Ohio","lat":39.92229,"lng":-81.44024,"zip":"43780","miles_from_dt":16.98},{"city":"Sardis","state_name":"Ohio","lat":39.64792,"lng":-80.96887,"zip":"43946","miles_from_dt":16.99},{"city":"Lowell","state_name":"Ohio","lat":39.5396,"lng":-81.5077,"zip":"45744","miles_from_dt":17.06},{"city":"Pleasant City","state_name":"Ohio","lat":39.88063,"lng":-81.52448,"zip":"43772","miles_from_dt":17.62},{"city":"Reno","state_name":"Ohio","lat":39.45525,"lng":-81.28656,"zip":"45773","miles_from_dt":17.64},{"city":"Cameron","state_name":"Ohio","lat":39.77532,"lng":-80.95288,"zip":"43914","miles_from_dt":17.83},{"city":"Ava","state_name":"Ohio","lat":39.84262,"lng":-81.57738,"zip":"43711","miles_from_dt":18.39},{"city":"Quaker City","state_name":"Ohio","lat":39.98758,"lng":-81.29636,"zip":"43773","miles_from_dt":19.12},{"city":"Coal Run","state_name":"Ohio","lat":39.56563,"lng":-81.58347,"zip":"45721","miles_from_dt":19.17},{"city":"Buffalo","state_name":"Ohio","lat":39.91933,"lng":-81.52001,"zip":"43722","miles_from_dt":19.34},{"city":"Paden City","state_name":"West Virginia","lat":39.60724,"lng":-80.93216,"zip":"26159","miles_from_dt":19.73},{"city":"Barnesville","state_name":"Ohio","lat":39.98979,"lng":-81.17368,"zip":"43713","miles_from_dt":20.01},{"city":"Beverly","state_name":"Ohio","lat":39.60484,"lng":-81.6268,"zip":"45715","miles_from_dt":20.03},{"city":"Derwent","state_name":"Ohio","lat":39.92736,"lng":-81.53807,"zip":"43733","miles_from_dt":20.39},{"city":"Sistersville","state_name":"West Virginia","lat":39.53899,"lng":-80.96577,"zip":"26175","miles_from_dt":20.41},{"city":"Newport","state_name":"Ohio","lat":39.4149,"lng":-81.26468,"zip":"45768","miles_from_dt":20.43},{"city":"Clarington","state_name":"Ohio","lat":39.75775,"lng":-80.89729,"zip":"43915","miles_from_dt":20.48},{"city":"Alledonia","state_name":"Ohio","lat":39.88731,"lng":-80.95596,"zip":"43902","miles_from_dt":20.98},{"city":"Marietta","state_name":"Ohio","lat":39.4301,"lng":-81.42947,"zip":"45750","miles_from_dt":21.01},{"city":"Salesville","state_name":"Ohio","lat":40.01111,"lng":-81.37001,"zip":"43778","miles_from_dt":21.3},{"city":"Hannibal","state_name":"Ohio","lat":39.67288,"lng":-80.87137,"zip":"43931","miles_from_dt":21.78},{"city":"Bethesda","state_name":"Ohio","lat":39.98907,"lng":-81.07938,"zip":"43719","miles_from_dt":21.88},{"city":"Friendly","state_name":"West Virginia","lat":39.45053,"lng":-81.03601,"zip":"26146","miles_from_dt":22.09},{"city":"Byesville","state_name":"Ohio","lat":39.96022,"lng":-81.5412,"zip":"43723","miles_from_dt":22.21},{"city":"Cumberland","state_name":"Ohio","lat":39.84409,"lng":-81.65883,"zip":"43732","miles_from_dt":22.31},{"city":"Belmont","state_name":"West Virginia","lat":39.37686,"lng":-81.27544,"zip":"26134","miles_from_dt":23.04},{"city":"Kipling","state_name":"Ohio","lat":39.99353,"lng":-81.50975,"zip":"43750","miles_from_dt":23.1},{"city":"Fairview","state_name":"Ohio","lat":40.05755,"lng":-81.23689,"zip":"43736","miles_from_dt":24.01},{"city":"Old Washington","state_name":"Ohio","lat":40.03776,"lng":-81.44477,"zip":"43768","miles_from_dt":24.25},{"city":"Waterford","state_name":"Ohio","lat":39.50365,"lng":-81.65451,"zip":"45786","miles_from_dt":24.7},{"city":"Saint Marys","state_name":"West Virginia","lat":39.36136,"lng":-81.17136,"zip":"26170","miles_from_dt":24.76},{"city":"Lore City","state_name":"Ohio","lat":40.0537,"lng":-81.43318,"zip":"43755","miles_from_dt":25.07},{"city":"Powhatan Point","state_name":"Ohio","lat":39.86367,"lng":-80.84875,"zip":"43942","miles_from_dt":25.12},{"city":"Belmont","state_name":"Ohio","lat":40.00926,"lng":-81.00596,"zip":"43718","miles_from_dt":25.13},{"city":"Williamstown","state_name":"West Virginia","lat":39.36711,"lng":-81.44894,"zip":"26187","miles_from_dt":25.43},{"city":"Watertown","state_name":"Ohio","lat":39.4658,"lng":-81.63464,"zip":"45787","miles_from_dt":25.5},{"city":"Jacobsburg","state_name":"Ohio","lat":39.93917,"lng":-80.89588,"zip":"43933","miles_from_dt":25.68},{"city":"Middlebourne","state_name":"West Virginia","lat":39.47429,"lng":-80.88269,"zip":"26149","miles_from_dt":26.63},{"city":"Morristown","state_name":"Ohio","lat":40.06393,"lng":-81.06942,"zip":"43759","miles_from_dt":26.74},{"city":"Fleming","state_name":"Ohio","lat":39.41653,"lng":-81.60828,"zip":"45729","miles_from_dt":26.93},{"city":"Proctor","state_name":"West Virginia","lat":39.75338,"lng":-80.77396,"zip":"26055","miles_from_dt":26.96},{"city":"Mcconnelsville","state_name":"Ohio","lat":39.68993,"lng":-81.79574,"zip":"43756","miles_from_dt":27.68},{"city":"New Martinsville","state_name":"West Virginia","lat":39.6333,"lng":-80.76707,"zip":"26155","miles_from_dt":27.71},{"city":"Warnock","state_name":"Ohio","lat":40.02309,"lng":-80.94371,"zip":"43967","miles_from_dt":27.89},{"city":"Cambridge","state_name":"Ohio","lat":40.03949,"lng":-81.59934,"zip":"43725","miles_from_dt":28.42},{"city":"Waverly","state_name":"West Virginia","lat":39.29739,"lng":-81.35086,"zip":"26184","miles_from_dt":28.8},{"city":"Porters Falls","state_name":"West Virginia","lat":39.57231,"lng":-80.76572,"zip":"26162","miles_from_dt":28.9},{"city":"Parkersburg","state_name":"West Virginia","lat":39.32468,"lng":-81.501,"zip":"26106","miles_from_dt":29.21},{"city":"Vienna","state_name":"West Virginia","lat":39.32949,"lng":-81.52267,"zip":"26105","miles_from_dt":29.4},{"city":"Glencoe","state_name":"Ohio","lat":40.01088,"lng":-80.88172,"zip":"43928","miles_from_dt":29.5},{"city":"Piedmont","state_name":"Ohio","lat":40.13886,"lng":-81.20296,"zip":"43983","miles_from_dt":29.79},{"city":"Chandlersville","state_name":"Ohio","lat":39.8714,"lng":-81.79884,"zip":"43727","miles_from_dt":29.9}],"targetCityZipCode":"43786","targetCityState":"Ohio"},"__N_SSG":true}