{"pageProps":{"stateName":"Ohio","cityName":"twinsburg","nearbyCities":[{"city":"Macedonia","state_name":"Ohio","lat":41.31465,"lng":-81.49868,"zip":"44056","miles_from_dt":3},{"city":"Solon","state_name":"Ohio","lat":41.38325,"lng":-81.44439,"zip":"44139","miles_from_dt":4.57},{"city":"Hudson","state_name":"Ohio","lat":41.25496,"lng":-81.48139,"zip":"44237","miles_from_dt":4.77},{"city":"Hudson","state_name":"Ohio","lat":41.24669,"lng":-81.44775,"zip":"44236","miles_from_dt":4.87},{"city":"Aurora","state_name":"Ohio","lat":41.31645,"lng":-81.34243,"zip":"44202","miles_from_dt":5.13},{"city":"Northfield","state_name":"Ohio","lat":41.31386,"lng":-81.5476,"zip":"44067","miles_from_dt":5.55},{"city":"Bedford","state_name":"Ohio","lat":41.38161,"lng":-81.53018,"zip":"44146","miles_from_dt":6.43},{"city":"Streetsboro","state_name":"Ohio","lat":41.23945,"lng":-81.34728,"zip":"44241","miles_from_dt":7.25},{"city":"Peninsula","state_name":"Ohio","lat":41.22966,"lng":-81.54311,"zip":"44264","miles_from_dt":8.04},{"city":"Maple Heights","state_name":"Ohio","lat":41.40903,"lng":-81.56274,"zip":"44137","miles_from_dt":8.96},{"city":"Brecksville","state_name":"Ohio","lat":41.30139,"lng":-81.61439,"zip":"44141","miles_from_dt":9.08},{"city":"Chagrin Falls","state_name":"Ohio","lat":41.44747,"lng":-81.4045,"zip":"44022","miles_from_dt":9.2},{"city":"Chagrin Falls","state_name":"Ohio","lat":41.38732,"lng":-81.28858,"zip":"44023","miles_from_dt":9.29},{"city":"Stow","state_name":"Ohio","lat":41.17697,"lng":-81.44016,"zip":"44224","miles_from_dt":9.67},{"city":"Cleveland","state_name":"Ohio","lat":41.43766,"lng":-81.54036,"zip":"44128","miles_from_dt":9.79},{"city":"Cleveland","state_name":"Ohio","lat":41.40658,"lng":-81.61548,"zip":"44125","miles_from_dt":10.97},{"city":"Mantua","state_name":"Ohio","lat":41.28658,"lng":-81.22982,"zip":"44255","miles_from_dt":11.19},{"city":"Cuyahoga Falls","state_name":"Ohio","lat":41.16968,"lng":-81.53051,"zip":"44223","miles_from_dt":11.19},{"city":"Beachwood","state_name":"Ohio","lat":41.4701,"lng":-81.51272,"zip":"44122","miles_from_dt":11.2},{"city":"Novelty","state_name":"Ohio","lat":41.46685,"lng":-81.33989,"zip":"44073","miles_from_dt":11.6},{"city":"Richfield","state_name":"Ohio","lat":41.23668,"lng":-81.64017,"zip":"44286","miles_from_dt":11.76},{"city":"Independence","state_name":"Ohio","lat":41.3835,"lng":-81.65349,"zip":"44131","miles_from_dt":11.96},{"city":"Brady Lake","state_name":"Ohio","lat":41.17038,"lng":-81.31682,"zip":"44211","miles_from_dt":12.01},{"city":"Novelty","state_name":"Ohio","lat":41.47196,"lng":-81.32917,"zip":"44072","miles_from_dt":12.17},{"city":"Munroe Falls","state_name":"Ohio","lat":41.13901,"lng":-81.43492,"zip":"44262","miles_from_dt":12.29},{"city":"Broadview Heights","state_name":"Ohio","lat":41.31956,"lng":-81.67797,"zip":"44147","miles_from_dt":12.33},{"city":"Cuyahoga Falls","state_name":"Ohio","lat":41.13898,"lng":-81.47624,"zip":"44221","miles_from_dt":12.42},{"city":"Kent","state_name":"Ohio","lat":41.14674,"lng":-81.36268,"zip":"44242","miles_from_dt":12.44},{"city":"Cleveland","state_name":"Ohio","lat":41.49999,"lng":-81.46774,"zip":"44124","miles_from_dt":12.7},{"city":"Cuyahoga Falls","state_name":"Ohio","lat":41.13534,"lng":-81.48311,"zip":"44222","miles_from_dt":12.73},{"city":"Kent","state_name":"Ohio","lat":41.14793,"lng":-81.34046,"zip":"44243","miles_from_dt":12.79},{"city":"Cleveland","state_name":"Ohio","lat":41.47337,"lng":-81.58015,"zip":"44120","miles_from_dt":12.98},{"city":"Bath","state_name":"Ohio","lat":41.18892,"lng":-81.62975,"zip":"44210","miles_from_dt":13.22},{"city":"Cleveland","state_name":"Ohio","lat":41.45069,"lng":-81.63032,"zip":"44105","miles_from_dt":13.48},{"city":"Kent","state_name":"Ohio","lat":41.13329,"lng":-81.34241,"zip":"44240","miles_from_dt":13.68},{"city":"Cleveland","state_name":"Ohio","lat":41.5016,"lng":-81.55653,"zip":"44118","miles_from_dt":14.08},{"city":"Akron","state_name":"Ohio","lat":41.13239,"lng":-81.56512,"zip":"44313","miles_from_dt":14.29},{"city":"Newbury","state_name":"Ohio","lat":41.46308,"lng":-81.24408,"zip":"44065","miles_from_dt":14.36},{"city":"Akron","state_name":"Ohio","lat":41.15087,"lng":-81.60889,"zip":"44372","miles_from_dt":14.42},{"city":"Cleveland","state_name":"Ohio","lat":41.38496,"lng":-81.70459,"zip":"44134","miles_from_dt":14.48},{"city":"Akron","state_name":"Ohio","lat":41.16195,"lng":-81.63419,"zip":"44333","miles_from_dt":14.69},{"city":"Hiram","state_name":"Ohio","lat":41.33454,"lng":-81.15822,"zip":"44234","miles_from_dt":14.76},{"city":"Akron","state_name":"Ohio","lat":41.10771,"lng":-81.49948,"zip":"44310","miles_from_dt":14.76},{"city":"Gates Mills","state_name":"Ohio","lat":41.53128,"lng":-81.4112,"zip":"44040","miles_from_dt":14.86},{"city":"Cleveland","state_name":"Ohio","lat":41.48238,"lng":-81.62702,"zip":"44104","miles_from_dt":14.95},{"city":"Tallmadge","state_name":"Ohio","lat":41.10052,"lng":-81.42137,"zip":"44278","miles_from_dt":14.98},{"city":"Cleveland","state_name":"Ohio","lat":41.471,"lng":-81.64874,"zip":"44127","miles_from_dt":15.14},{"city":"Cleveland","state_name":"Ohio","lat":41.52626,"lng":-81.53246,"zip":"44121","miles_from_dt":15.2},{"city":"Akron","state_name":"Ohio","lat":41.09954,"lng":-81.51447,"zip":"44309","miles_from_dt":15.49},{"city":"Akron","state_name":"Ohio","lat":41.10448,"lng":-81.53732,"zip":"44303","miles_from_dt":15.5},{"city":"Cleveland","state_name":"Ohio","lat":41.5062,"lng":-81.60679,"zip":"44106","miles_from_dt":15.64},{"city":"Cleveland","state_name":"Ohio","lat":41.50218,"lng":-81.61965,"zip":"44195","miles_from_dt":15.79},{"city":"North Royalton","state_name":"Ohio","lat":41.31388,"lng":-81.74497,"zip":"44133","miles_from_dt":15.81},{"city":"Chesterland","state_name":"Ohio","lat":41.53182,"lng":-81.3305,"zip":"44026","miles_from_dt":15.89},{"city":"Cleveland","state_name":"Ohio","lat":41.5035,"lng":-81.62116,"zip":"44190","miles_from_dt":15.91},{"city":"Cleveland","state_name":"Ohio","lat":41.44457,"lng":-81.69681,"zip":"44109","miles_from_dt":15.94},{"city":"Cleveland","state_name":"Ohio","lat":41.39035,"lng":-81.73536,"zip":"44129","miles_from_dt":16.12},{"city":"Hinckley","state_name":"Ohio","lat":41.23943,"lng":-81.73513,"zip":"44233","miles_from_dt":16.22},{"city":"Akron","state_name":"Ohio","lat":41.08716,"lng":-81.50691,"zip":"44328","miles_from_dt":16.23},{"city":"Akron","state_name":"Ohio","lat":41.08585,"lng":-81.50908,"zip":"44304","miles_from_dt":16.34},{"city":"Ravenna","state_name":"Ohio","lat":41.1662,"lng":-81.19829,"zip":"44266","miles_from_dt":16.38},{"city":"Cleveland","state_name":"Ohio","lat":41.55358,"lng":-81.47513,"zip":"44143","miles_from_dt":16.42},{"city":"Akron","state_name":"Ohio","lat":41.07933,"lng":-81.47277,"zip":"44316","miles_from_dt":16.49},{"city":"Akron","state_name":"Ohio","lat":41.08951,"lng":-81.53857,"zip":"44302","miles_from_dt":16.5},{"city":"Cleveland","state_name":"Ohio","lat":41.53562,"lng":-81.57369,"zip":"44112","miles_from_dt":16.58},{"city":"Akron","state_name":"Ohio","lat":41.08168,"lng":-81.50728,"zip":"44398","miles_from_dt":16.61},{"city":"Akron","state_name":"Ohio","lat":41.0831,"lng":-81.51749,"zip":"44326","miles_from_dt":16.63},{"city":"Akron","state_name":"Ohio","lat":41.07643,"lng":-81.46226,"zip":"44305","miles_from_dt":16.64},{"city":"Akron","state_name":"Ohio","lat":41.0818,"lng":-81.51751,"zip":"44308","miles_from_dt":16.72},{"city":"Cleveland","state_name":"Ohio","lat":41.481,"lng":-81.6817,"zip":"44197","miles_from_dt":16.86},{"city":"Fairlawn","state_name":"Ohio","lat":41.07934,"lng":-81.51662,"zip":"44334","miles_from_dt":16.87},{"city":"Cleveland","state_name":"Ohio","lat":41.48988,"lng":-81.6717,"zip":"44101","miles_from_dt":16.91},{"city":"Cleveland","state_name":"Ohio","lat":41.49211,"lng":-81.66999,"zip":"44115","miles_from_dt":16.95},{"city":"Akron","state_name":"Ohio","lat":41.07605,"lng":-81.51221,"zip":"44325","miles_from_dt":17.04},{"city":"Cleveland","state_name":"Ohio","lat":41.49367,"lng":-81.67625,"zip":"44198","miles_from_dt":17.26},{"city":"Cleveland","state_name":"Ohio","lat":41.51559,"lng":-81.64301,"zip":"44103","miles_from_dt":17.26},{"city":"Cleveland","state_name":"Ohio","lat":41.48343,"lng":-81.69638,"zip":"44113","miles_from_dt":17.55},{"city":"Burton","state_name":"Ohio","lat":41.44141,"lng":-81.14579,"zip":"44021","miles_from_dt":17.58},{"city":"Cleveland","state_name":"Ohio","lat":41.53992,"lng":-81.60988,"zip":"44108","miles_from_dt":17.7},{"city":"Cleveland","state_name":"Ohio","lat":41.43738,"lng":-81.74272,"zip":"44144","miles_from_dt":17.74},{"city":"Akron","state_name":"Ohio","lat":41.06564,"lng":-81.52082,"zip":"44396","miles_from_dt":17.84},{"city":"Cleveland","state_name":"Ohio","lat":41.48468,"lng":-81.70274,"zip":"44191","miles_from_dt":17.85},{"city":"Akron","state_name":"Ohio","lat":41.07049,"lng":-81.546,"zip":"44307","miles_from_dt":17.87},{"city":"Akron","state_name":"Ohio","lat":41.06427,"lng":-81.52047,"zip":"44311","miles_from_dt":17.93},{"city":"Cleveland","state_name":"Ohio","lat":41.50172,"lng":-81.68644,"zip":"44192","miles_from_dt":18.03},{"city":"Akron","state_name":"Ohio","lat":41.07818,"lng":-81.58379,"zip":"44320","miles_from_dt":18.09},{"city":"Euclid","state_name":"Ohio","lat":41.57145,"lng":-81.52695,"zip":"44117","miles_from_dt":18.11},{"city":"Cleveland","state_name":"Ohio","lat":41.51603,"lng":-81.67229,"zip":"44194","miles_from_dt":18.24},{"city":"Cleveland","state_name":"Ohio","lat":41.5137,"lng":-81.67625,"zip":"44114","miles_from_dt":18.26},{"city":"Cleveland","state_name":"Ohio","lat":41.56365,"lng":-81.57111,"zip":"44110","miles_from_dt":18.31},{"city":"Cleveland","state_name":"Ohio","lat":41.50288,"lng":-81.69542,"zip":"44193","miles_from_dt":18.41},{"city":"Cleveland","state_name":"Ohio","lat":41.378,"lng":-81.7868,"zip":"44130","miles_from_dt":18.46},{"city":"Cleveland","state_name":"Ohio","lat":41.50535,"lng":-81.69343,"zip":"44199","miles_from_dt":18.46},{"city":"Akron","state_name":"Ohio","lat":41.09994,"lng":-81.65182,"zip":"44321","miles_from_dt":18.58},{"city":"Cleveland","state_name":"Ohio","lat":41.4749,"lng":-81.73751,"zip":"44102","miles_from_dt":18.87},{"city":"Garrettsville","state_name":"Ohio","lat":41.30692,"lng":-81.07197,"zip":"44231","miles_from_dt":19.22},{"city":"Strongsville","state_name":"Ohio","lat":41.31265,"lng":-81.81064,"zip":"44136","miles_from_dt":19.23},{"city":"Akron","state_name":"Ohio","lat":41.03927,"lng":-81.48316,"zip":"44306","miles_from_dt":19.29},{"city":"Akron","state_name":"Ohio","lat":41.04507,"lng":-81.5262,"zip":"44317","miles_from_dt":19.29},{"city":"Akron","state_name":"Ohio","lat":41.04398,"lng":-81.52449,"zip":"44301","miles_from_dt":19.34},{"city":"Windham","state_name":"Ohio","lat":41.2392,"lng":-81.08354,"zip":"44288","miles_from_dt":19.37},{"city":"Akron","state_name":"Ohio","lat":41.03773,"lng":-81.48309,"zip":"44315","miles_from_dt":19.4},{"city":"Cleveland","state_name":"Ohio","lat":41.58673,"lng":-81.54748,"zip":"44119","miles_from_dt":19.41},{"city":"Wickliffe","state_name":"Ohio","lat":41.59797,"lng":-81.46867,"zip":"44092","miles_from_dt":19.44},{"city":"Mogadore","state_name":"Ohio","lat":41.03684,"lng":-81.34079,"zip":"44260","miles_from_dt":20.03},{"city":"Akron","state_name":"Ohio","lat":41.04048,"lng":-81.55838,"zip":"44314","miles_from_dt":20.04},{"city":"Euclid","state_name":"Ohio","lat":41.60484,"lng":-81.49958,"zip":"44132","miles_from_dt":20.09},{"city":"Parkman","state_name":"Ohio","lat":41.36886,"lng":-81.05966,"zip":"44080","miles_from_dt":20.16},{"city":"Euclid","state_name":"Ohio","lat":41.60365,"lng":-81.52441,"zip":"44123","miles_from_dt":20.25},{"city":"Lakemore","state_name":"Ohio","lat":41.02159,"lng":-81.43331,"zip":"44250","miles_from_dt":20.39},{"city":"Willoughby","state_name":"Ohio","lat":41.60985,"lng":-81.3791,"zip":"44094","miles_from_dt":20.46},{"city":"Cleveland","state_name":"Ohio","lat":41.46138,"lng":-81.78691,"zip":"44181","miles_from_dt":20.55},{"city":"Cleveland","state_name":"Ohio","lat":41.45775,"lng":-81.78986,"zip":"44111","miles_from_dt":20.56},{"city":"Brookpark","state_name":"Ohio","lat":41.40205,"lng":-81.82406,"zip":"44142","miles_from_dt":20.76},{"city":"Brunswick","state_name":"Ohio","lat":41.24386,"lng":-81.82863,"zip":"44212","miles_from_dt":20.8},{"city":"Rootstown","state_name":"Ohio","lat":41.08691,"lng":-81.18244,"zip":"44272","miles_from_dt":20.83},{"city":"Akron","state_name":"Ohio","lat":41.01462,"lng":-81.4412,"zip":"44312","miles_from_dt":20.87},{"city":"Cleveland","state_name":"Ohio","lat":41.4005,"lng":-81.82678,"zip":"44188","miles_from_dt":20.87},{"city":"Cleveland","state_name":"Ohio","lat":41.42472,"lng":-81.82135,"zip":"44135","miles_from_dt":21.12},{"city":"Sharon Center","state_name":"Ohio","lat":41.09944,"lng":-81.7285,"zip":"44274","miles_from_dt":21.21},{"city":"Strongsville","state_name":"Ohio","lat":41.31223,"lng":-81.8563,"zip":"44149","miles_from_dt":21.61},{"city":"Randolph","state_name":"Ohio","lat":41.01951,"lng":-81.30239,"zip":"44265","miles_from_dt":21.77},{"city":"Lakewood","state_name":"Ohio","lat":41.48263,"lng":-81.80025,"zip":"44107","miles_from_dt":21.88},{"city":"Chardon","state_name":"Ohio","lat":41.57668,"lng":-81.19112,"zip":"44024","miles_from_dt":22.12},{"city":"Berea","state_name":"Ohio","lat":41.36867,"lng":-81.86303,"zip":"44017","miles_from_dt":22.23},{"city":"Wayland","state_name":"Ohio","lat":41.16241,"lng":-81.06595,"zip":"44285","miles_from_dt":22.26},{"city":"Barberton","state_name":"Ohio","lat":41.02013,"lng":-81.62896,"zip":"44203","miles_from_dt":22.71},{"city":"Willoughby","state_name":"Ohio","lat":41.64662,"lng":-81.40873,"zip":"44096","miles_from_dt":22.81},{"city":"Eastlake","state_name":"Ohio","lat":41.65145,"lng":-81.44878,"zip":"44097","miles_from_dt":23.08},{"city":"Cleveland","state_name":"Ohio","lat":41.44263,"lng":-81.85278,"zip":"44126","miles_from_dt":23.09},{"city":"Eastlake","state_name":"Ohio","lat":41.65223,"lng":-81.44209,"zip":"44095","miles_from_dt":23.13},{"city":"Akron","state_name":"Ohio","lat":40.98402,"lng":-81.53169,"zip":"44319","miles_from_dt":23.46},{"city":"Wadsworth","state_name":"Ohio","lat":41.05851,"lng":-81.73854,"zip":"44281","miles_from_dt":23.64},{"city":"Middlefield","state_name":"Ohio","lat":41.45899,"lng":-81.02698,"zip":"44062","miles_from_dt":23.64},{"city":"East Claridon","state_name":"Ohio","lat":41.54698,"lng":-81.10173,"zip":"44033","miles_from_dt":23.71},{"city":"Rocky River","state_name":"Ohio","lat":41.47011,"lng":-81.85194,"zip":"44116","miles_from_dt":23.82},{"city":"Atwater","state_name":"Ohio","lat":41.02741,"lng":-81.18354,"zip":"44201","miles_from_dt":24.08},{"city":"Huntsburg","state_name":"Ohio","lat":41.54157,"lng":-81.07227,"zip":"44046","miles_from_dt":24.64},{"city":"Uniontown","state_name":"Ohio","lat":40.9596,"lng":-81.42361,"zip":"44685","miles_from_dt":24.68},{"city":"Wadsworth","state_name":"Ohio","lat":41.0276,"lng":-81.72765,"zip":"44282","miles_from_dt":24.95},{"city":"Medina","state_name":"Ohio","lat":41.14092,"lng":-81.85954,"zip":"44256","miles_from_dt":24.96},{"city":"Southington","state_name":"Ohio","lat":41.29783,"lng":-80.95999,"zip":"44470","miles_from_dt":25.07},{"city":"West Farmington","state_name":"Ohio","lat":41.37368,"lng":-80.96478,"zip":"44491","miles_from_dt":25.08},{"city":"Olmsted Falls","state_name":"Ohio","lat":41.37363,"lng":-81.92302,"zip":"44138","miles_from_dt":25.37},{"city":"Hartville","state_name":"Ohio","lat":40.96401,"lng":-81.3048,"zip":"44632","miles_from_dt":25.38},{"city":"Mentor","state_name":"Ohio","lat":41.67742,"lng":-81.32806,"zip":"44060","miles_from_dt":25.55},{"city":"Valley City","state_name":"Ohio","lat":41.23812,"lng":-81.92339,"zip":"44280","miles_from_dt":25.69},{"city":"North Olmsted","state_name":"Ohio","lat":41.41493,"lng":-81.91905,"zip":"44070","miles_from_dt":25.75},{"city":"Columbia Station","state_name":"Ohio","lat":41.30986,"lng":-81.93959,"zip":"44028","miles_from_dt":25.94},{"city":"Newton Falls","state_name":"Ohio","lat":41.17559,"lng":-80.97647,"zip":"44444","miles_from_dt":26.09},{"city":"Mentor","state_name":"Ohio","lat":41.68824,"lng":-81.33282,"zip":"44061","miles_from_dt":26.22},{"city":"Green","state_name":"Ohio","lat":40.93254,"lng":-81.46354,"zip":"44232","miles_from_dt":26.56},{"city":"Diamond","state_name":"Ohio","lat":41.09671,"lng":-81.0229,"zip":"44412","miles_from_dt":26.57},{"city":"Mesopotamia","state_name":"Ohio","lat":41.45436,"lng":-80.95552,"zip":"44439","miles_from_dt":26.96},{"city":"Greentown","state_name":"Ohio","lat":40.92695,"lng":-81.40408,"zip":"44630","miles_from_dt":26.99},{"city":"Westlake","state_name":"Ohio","lat":41.45245,"lng":-81.92944,"zip":"44145","miles_from_dt":27.05},{"city":"Clinton","state_name":"Ohio","lat":40.93848,"lng":-81.58397,"zip":"44216","miles_from_dt":27.17},{"city":"Limaville","state_name":"Ohio","lat":40.98455,"lng":-81.14858,"zip":"44640","miles_from_dt":27.55},{"city":"Doylestown","state_name":"Ohio","lat":40.96237,"lng":-81.69064,"zip":"44230","miles_from_dt":27.72},{"city":"Bay Village","state_name":"Ohio","lat":41.48508,"lng":-81.93171,"zip":"44140","miles_from_dt":28.01},{"city":"Leavittsburg","state_name":"Ohio","lat":41.24011,"lng":-80.90804,"zip":"44430","miles_from_dt":28.25},{"city":"Deerfield","state_name":"Ohio","lat":41.0326,"lng":-81.05092,"zip":"44411","miles_from_dt":28.27},{"city":"Lake Milton","state_name":"Ohio","lat":41.09648,"lng":-80.98156,"zip":"44429","miles_from_dt":28.38},{"city":"Montville","state_name":"Ohio","lat":41.60567,"lng":-81.0477,"zip":"44064","miles_from_dt":28.53},{"city":"North Canton","state_name":"Ohio","lat":40.90112,"lng":-81.43259,"zip":"44720","miles_from_dt":28.71},{"city":"Painesville","state_name":"Ohio","lat":41.69933,"lng":-81.21142,"zip":"44077","miles_from_dt":28.95},{"city":"Windsor","state_name":"Ohio","lat":41.55125,"lng":-80.97446,"zip":"44099","miles_from_dt":29.13},{"city":"Canton","state_name":"Ohio","lat":40.89443,"lng":-81.42211,"zip":"44767","miles_from_dt":29.18},{"city":"Chippewa Lake","state_name":"Ohio","lat":41.07195,"lng":-81.8994,"zip":"44215","miles_from_dt":29.27},{"city":"Middlebranch","state_name":"Ohio","lat":40.90088,"lng":-81.33015,"zip":"44652","miles_from_dt":29.3},{"city":"Canton","state_name":"Ohio","lat":40.89443,"lng":-81.32694,"zip":"44721","miles_from_dt":29.77}],"targetCityZipCode":"44087","targetCityState":"Ohio"},"__N_SSG":true}