{"pageProps":{"stateName":"Ohio","cityName":"waverly","nearbyCities":[{"city":"Jasper","state_name":"Ohio","lat":39.04692,"lng":-83.05408,"zip":"45642","miles_from_dt":6.14},{"city":"Piketon","state_name":"Ohio","lat":39.04096,"lng":-83.10479,"zip":"45661","miles_from_dt":7.81},{"city":"Wakefield","state_name":"Ohio","lat":38.96828,"lng":-83.02155,"zip":"45687","miles_from_dt":11.23},{"city":"Beaver","state_name":"Ohio","lat":39.0318,"lng":-82.84885,"zip":"45613","miles_from_dt":11.33},{"city":"Richmond Dale","state_name":"Ohio","lat":39.20399,"lng":-82.81148,"zip":"45673","miles_from_dt":12.12},{"city":"Bourneville","state_name":"Ohio","lat":39.27967,"lng":-83.15559,"zip":"45617","miles_from_dt":12.67},{"city":"Chillicothe","state_name":"Ohio","lat":39.30996,"lng":-82.9555,"zip":"45601","miles_from_dt":12.77},{"city":"Lucasville","state_name":"Ohio","lat":38.92161,"lng":-83.01393,"zip":"45648","miles_from_dt":14.45},{"city":"Stockdale","state_name":"Ohio","lat":38.95295,"lng":-82.86252,"zip":"45683","miles_from_dt":14.83},{"city":"Bainbridge","state_name":"Ohio","lat":39.21569,"lng":-83.27171,"zip":"45612","miles_from_dt":14.88},{"city":"Rarden","state_name":"Ohio","lat":38.97339,"lng":-83.23775,"zip":"45671","miles_from_dt":16.11},{"city":"Latham","state_name":"Ohio","lat":39.07686,"lng":-83.31627,"zip":"45646","miles_from_dt":16.53},{"city":"South Salem","state_name":"Ohio","lat":39.30551,"lng":-83.24807,"zip":"45681","miles_from_dt":17.29},{"city":"Lucasville","state_name":"Ohio","lat":38.87414,"lng":-82.97045,"zip":"45699","miles_from_dt":17.9},{"city":"Cynthiana","state_name":"Ohio","lat":39.17301,"lng":-83.3487,"zip":"45624","miles_from_dt":18.06},{"city":"Londonderry","state_name":"Ohio","lat":39.29597,"lng":-82.73803,"zip":"45647","miles_from_dt":18.79},{"city":"Ray","state_name":"Ohio","lat":39.20549,"lng":-82.67579,"zip":"45672","miles_from_dt":19.02},{"city":"Minford","state_name":"Ohio","lat":38.88976,"lng":-82.82306,"zip":"45653","miles_from_dt":19.64},{"city":"Sinking Spring","state_name":"Ohio","lat":39.07447,"lng":-83.38688,"zip":"45172","miles_from_dt":20.27},{"city":"Frankfort","state_name":"Ohio","lat":39.38959,"lng":-83.19657,"zip":"45628","miles_from_dt":20.28},{"city":"Peebles","state_name":"Ohio","lat":38.98626,"lng":-83.358,"zip":"45660","miles_from_dt":20.9},{"city":"Jackson","state_name":"Ohio","lat":39.02345,"lng":-82.65032,"zip":"45640","miles_from_dt":21.05},{"city":"McDermott","state_name":"Ohio","lat":38.82911,"lng":-83.08018,"zip":"45652","miles_from_dt":21.11},{"city":"Coalton","state_name":"Ohio","lat":39.11138,"lng":-82.60996,"zip":"45621","miles_from_dt":21.9},{"city":"Otway","state_name":"Ohio","lat":38.85166,"lng":-83.21011,"zip":"45657","miles_from_dt":21.91},{"city":"Kingston","state_name":"Ohio","lat":39.45245,"lng":-82.84176,"zip":"45644","miles_from_dt":24.07},{"city":"Portsmouth","state_name":"Ohio","lat":38.78938,"lng":-82.92114,"zip":"45662","miles_from_dt":24.13},{"city":"Greenfield","state_name":"Ohio","lat":39.3487,"lng":-83.38866,"zip":"45123","miles_from_dt":24.97},{"city":"Wellston","state_name":"Ohio","lat":39.11582,"lng":-82.5426,"zip":"45692","miles_from_dt":25.5},{"city":"Hallsville","state_name":"Ohio","lat":39.45557,"lng":-82.78811,"zip":"45633","miles_from_dt":25.52},{"city":"Clarksburg","state_name":"Ohio","lat":39.48989,"lng":-83.16579,"zip":"43115","miles_from_dt":26.01},{"city":"Scioto Furnace","state_name":"Ohio","lat":38.79555,"lng":-82.75511,"zip":"45677","miles_from_dt":27.1},{"city":"West Portsmouth","state_name":"Ohio","lat":38.74507,"lng":-83.11198,"zip":"45663","miles_from_dt":27.12},{"city":"Adelphi","state_name":"Ohio","lat":39.46466,"lng":-82.74563,"zip":"43101","miles_from_dt":27.22},{"city":"South Bloomingville","state_name":"Ohio","lat":39.39211,"lng":-82.61433,"zip":"43152","miles_from_dt":28.11},{"city":"South Webster","state_name":"Ohio","lat":38.80839,"lng":-82.69658,"zip":"45682","miles_from_dt":28.15},{"city":"Hamden","state_name":"Ohio","lat":39.17891,"lng":-82.49037,"zip":"45634","miles_from_dt":28.46},{"city":"Oak Hill","state_name":"Ohio","lat":38.87565,"lng":-82.59143,"zip":"45656","miles_from_dt":28.89},{"city":"Laurelville","state_name":"Ohio","lat":39.4711,"lng":-82.69736,"zip":"43135","miles_from_dt":29.04},{"city":"Wheelersburg","state_name":"Ohio","lat":38.74807,"lng":-82.78345,"zip":"45694","miles_from_dt":29.26},{"city":"South Portsmouth","state_name":"Kentucky","lat":38.69841,"lng":-83.0139,"zip":"41174","miles_from_dt":29.84},{"city":"Hillsboro","state_name":"Ohio","lat":39.15695,"lng":-83.57282,"zip":"45133","miles_from_dt":29.92}],"targetCityZipCode":"45690","targetCityState":"Ohio"},"__N_SSG":true}