{"pageProps":{"stateName":"Maryland","cityName":"scotland","nearbyCities":[{"city":"Ridge","state_name":"Maryland","lat":38.11071,"lng":-76.37353,"zip":"20680","miles_from_dt":2.9},{"city":"Dameron","state_name":"Maryland","lat":38.1459,"lng":-76.35027,"zip":"20628","miles_from_dt":4.85},{"city":"Saint Inigoes","state_name":"Maryland","lat":38.14308,"lng":-76.41027,"zip":"20684","miles_from_dt":5.89},{"city":"Saint Marys City","state_name":"Maryland","lat":38.18557,"lng":-76.43898,"zip":"20686","miles_from_dt":9.18},{"city":"Drayden","state_name":"Maryland","lat":38.16653,"lng":-76.47087,"zip":"20630","miles_from_dt":9.33},{"city":"Piney Point","state_name":"Maryland","lat":38.13307,"lng":-76.50019,"zip":"20674","miles_from_dt":9.39},{"city":"Lottsburg","state_name":"Virginia","lat":37.98352,"lng":-76.50323,"zip":"22511","miles_from_dt":10.78},{"city":"Park Hall","state_name":"Maryland","lat":38.21782,"lng":-76.44537,"zip":"20667","miles_from_dt":11.25},{"city":"Tall Timbers","state_name":"Maryland","lat":38.15916,"lng":-76.52631,"zip":"20690","miles_from_dt":11.49},{"city":"Lexington Park","state_name":"Maryland","lat":38.22795,"lng":-76.43139,"zip":"20653","miles_from_dt":11.53},{"city":"Valley Lee","state_name":"Maryland","lat":38.18352,"lng":-76.50682,"zip":"20692","miles_from_dt":11.58},{"city":"Edwardsville","state_name":"Virginia","lat":37.90854,"lng":-76.36714,"zip":"22456","miles_from_dt":11.6},{"city":"Ophelia","state_name":"Virginia","lat":37.91247,"lng":-76.28359,"zip":"22530","miles_from_dt":11.73},{"city":"Sandy Point","state_name":"Virginia","lat":38.0653,"lng":-76.55916,"zip":"22577","miles_from_dt":11.76},{"city":"Kinsale","state_name":"Virginia","lat":38.04986,"lng":-76.58796,"zip":"22488","miles_from_dt":13.43},{"city":"Heathsville","state_name":"Virginia","lat":37.88316,"lng":-76.41386,"zip":"22473","miles_from_dt":13.82},{"city":"Great Mills","state_name":"Maryland","lat":38.24582,"lng":-76.49412,"zip":"20634","miles_from_dt":14.3},{"city":"Callao","state_name":"Virginia","lat":37.97216,"lng":-76.57288,"zip":"22435","miles_from_dt":14.4},{"city":"Callaway","state_name":"Maryland","lat":38.23288,"lng":-76.52196,"zip":"20620","miles_from_dt":14.54},{"city":"Burgess","state_name":"Virginia","lat":37.8637,"lng":-76.35043,"zip":"22432","miles_from_dt":14.63},{"city":"Patuxent River","state_name":"Maryland","lat":38.2824,"lng":-76.42031,"zip":"20670","miles_from_dt":14.85},{"city":"Reedville","state_name":"Virginia","lat":37.85865,"lng":-76.28731,"zip":"22539","miles_from_dt":15.29},{"city":"Fishing Creek","state_name":"Maryland","lat":38.27995,"lng":-76.185,"zip":"21634","miles_from_dt":16.52},{"city":"Coles Point","state_name":"Virginia","lat":38.14623,"lng":-76.63382,"zip":"22442","miles_from_dt":16.53},{"city":"Hague","state_name":"Virginia","lat":38.0667,"lng":-76.64749,"zip":"22469","miles_from_dt":16.57},{"city":"Village","state_name":"Virginia","lat":37.9484,"lng":-76.60462,"zip":"22570","miles_from_dt":16.72},{"city":"Mount Holly","state_name":"Virginia","lat":38.13575,"lng":-76.66166,"zip":"22524","miles_from_dt":17.81},{"city":"California","state_name":"Maryland","lat":38.2919,"lng":-76.52714,"zip":"20619","miles_from_dt":17.94},{"city":"Ewell","state_name":"Maryland","lat":37.97982,"lng":-76.02871,"zip":"21824","miles_from_dt":18.42},{"city":"Oldhams","state_name":"Virginia","lat":38.01036,"lng":-76.67942,"zip":"22529","miles_from_dt":18.85},{"city":"Tylerton","state_name":"Maryland","lat":37.9672,"lng":-76.02137,"zip":"21866","miles_from_dt":19.12},{"city":"Solomons","state_name":"Maryland","lat":38.33475,"lng":-76.46965,"zip":"20688","miles_from_dt":19.13},{"city":"Dowell","state_name":"Maryland","lat":38.33996,"lng":-76.45388,"zip":"20629","miles_from_dt":19.18},{"city":"Crocheron","state_name":"Maryland","lat":38.23528,"lng":-76.04967,"zip":"21627","miles_from_dt":19.43},{"city":"Haynesville","state_name":"Virginia","lat":37.95897,"lng":-76.67257,"zip":"22472","miles_from_dt":19.66},{"city":"Wicomico Church","state_name":"Virginia","lat":37.78895,"lng":-76.36013,"zip":"22579","miles_from_dt":19.8},{"city":"Farnham","state_name":"Virginia","lat":37.87612,"lng":-76.60692,"zip":"22460","miles_from_dt":19.9},{"city":"Wingate","state_name":"Maryland","lat":38.29011,"lng":-76.0884,"zip":"21675","miles_from_dt":20.29},{"city":"Toddville","state_name":"Maryland","lat":38.27707,"lng":-76.06148,"zip":"21672","miles_from_dt":20.71},{"city":"Leonardtown","state_name":"Maryland","lat":38.27186,"lng":-76.63276,"zip":"20650","miles_from_dt":20.75},{"city":"Lusby","state_name":"Maryland","lat":38.38358,"lng":-76.44537,"zip":"20657","miles_from_dt":21.94},{"city":"Compton","state_name":"Maryland","lat":38.30501,"lng":-76.63201,"zip":"20627","miles_from_dt":22.27},{"city":"Lively","state_name":"Virginia","lat":37.77585,"lng":-76.51487,"zip":"22507","miles_from_dt":22.7},{"city":"Merry Point","state_name":"Virginia","lat":37.77585,"lng":-76.51487,"zip":"22513","miles_from_dt":22.7},{"city":"Mollusk","state_name":"Virginia","lat":37.77585,"lng":-76.51487,"zip":"22517","miles_from_dt":22.7},{"city":"Nuttsville","state_name":"Virginia","lat":37.79008,"lng":-76.55182,"zip":"22528","miles_from_dt":22.75},{"city":"Hollywood","state_name":"Maryland","lat":38.35582,"lng":-76.57212,"zip":"20636","miles_from_dt":22.97},{"city":"Crapo","state_name":"Maryland","lat":38.33902,"lng":-76.08398,"zip":"21626","miles_from_dt":23.01},{"city":"Lancaster","state_name":"Virginia","lat":37.7624,"lng":-76.50432,"zip":"22503","miles_from_dt":23.32},{"city":"Kilmarnock","state_name":"Virginia","lat":37.73723,"lng":-76.35245,"zip":"22482","miles_from_dt":23.35},{"city":"Zacata","state_name":"Virginia","lat":38.1197,"lng":-76.785,"zip":"22581","miles_from_dt":24.24},{"city":"Warsaw","state_name":"Virginia","lat":37.97552,"lng":-76.77495,"zip":"22572","miles_from_dt":24.52},{"city":"Deal Island","state_name":"Maryland","lat":38.16664,"lng":-75.90611,"zip":"21821","miles_from_dt":24.66},{"city":"Church Creek","state_name":"Maryland","lat":38.40821,"lng":-76.17381,"zip":"21622","miles_from_dt":24.72},{"city":"Abell","state_name":"Maryland","lat":38.25412,"lng":-76.73878,"zip":"20606","miles_from_dt":24.78},{"city":"Morattico","state_name":"Virginia","lat":37.78866,"lng":-76.63003,"zip":"22523","miles_from_dt":25.23},{"city":"Coltons Point","state_name":"Maryland","lat":38.23256,"lng":-76.76404,"zip":"20626","miles_from_dt":25.31},{"city":"Montross","state_name":"Virginia","lat":38.11651,"lng":-76.80634,"zip":"22520","miles_from_dt":25.37},{"city":"Sharps","state_name":"Virginia","lat":37.82929,"lng":-76.69256,"zip":"22548","miles_from_dt":25.53},{"city":"Tangier","state_name":"Virginia","lat":37.83048,"lng":-75.99019,"zip":"23440","miles_from_dt":25.67},{"city":"Loveville","state_name":"Maryland","lat":38.33914,"lng":-76.6787,"zip":"20656","miles_from_dt":25.73},{"city":"Avenue","state_name":"Maryland","lat":38.27191,"lng":-76.74625,"zip":"20609","miles_from_dt":25.75},{"city":"Broomes Island","state_name":"Maryland","lat":38.4204,"lng":-76.54772,"zip":"20615","miles_from_dt":26.23},{"city":"Taylors Island","state_name":"Maryland","lat":38.45897,"lng":-76.28509,"zip":"21669","miles_from_dt":26.62},{"city":"Saint Leonard","state_name":"Maryland","lat":38.43465,"lng":-76.52904,"zip":"20685","miles_from_dt":26.72},{"city":"Weems","state_name":"Virginia","lat":37.69398,"lng":-76.43277,"zip":"22576","miles_from_dt":26.78},{"city":"Nanticoke","state_name":"Maryland","lat":38.25814,"lng":-75.89276,"zip":"21840","miles_from_dt":27.59},{"city":"Stratford","state_name":"Virginia","lat":38.14647,"lng":-76.84229,"zip":"22558","miles_from_dt":27.6},{"city":"Clements","state_name":"Maryland","lat":38.33523,"lng":-76.73451,"zip":"20624","miles_from_dt":27.79},{"city":"Bushwood","state_name":"Maryland","lat":38.28152,"lng":-76.78891,"zip":"20618","miles_from_dt":28.08},{"city":"Morganza","state_name":"Maryland","lat":38.36928,"lng":-76.70741,"zip":"20660","miles_from_dt":28.31},{"city":"Crisfield","state_name":"Maryland","lat":37.98081,"lng":-75.83537,"zip":"21817","miles_from_dt":28.5},{"city":"Irvington","state_name":"Virginia","lat":37.66631,"lng":-76.41498,"zip":"22480","miles_from_dt":28.51},{"city":"Bivalve","state_name":"Maryland","lat":38.29176,"lng":-75.88669,"zip":"21814","miles_from_dt":29},{"city":"White Stone","state_name":"Virginia","lat":37.65063,"lng":-76.36268,"zip":"22578","miles_from_dt":29.34},{"city":"Woolford","state_name":"Maryland","lat":38.48454,"lng":-76.18544,"zip":"21677","miles_from_dt":29.48},{"city":"Madison","state_name":"Maryland","lat":38.4966,"lng":-76.23386,"zip":"21648","miles_from_dt":29.63}],"targetCityZipCode":"20687","targetCityState":"Maryland"},"__N_SSG":true}