{"pageProps":{"stateName":"Maryland","cityName":"walkersville","nearbyCities":[{"city":"Frederick","state_name":"Maryland","lat":39.44729,"lng":-77.33512,"zip":"21701","miles_from_dt":2.96},{"city":"Woodsboro","state_name":"Maryland","lat":39.53858,"lng":-77.29985,"zip":"21798","miles_from_dt":4.11},{"city":"New Midway","state_name":"Maryland","lat":39.55622,"lng":-77.30221,"zip":"21775","miles_from_dt":5.1},{"city":"Libertytown","state_name":"Maryland","lat":39.48058,"lng":-77.24842,"zip":"21762","miles_from_dt":5.12},{"city":"Frederick","state_name":"Maryland","lat":39.42776,"lng":-77.41549,"zip":"21709","miles_from_dt":5.75},{"city":"Frederick","state_name":"Maryland","lat":39.48019,"lng":-77.4578,"zip":"21702","miles_from_dt":6.14},{"city":"New Market","state_name":"Maryland","lat":39.4088,"lng":-77.27844,"zip":"21774","miles_from_dt":6.57},{"city":"Frederick","state_name":"Maryland","lat":39.40887,"lng":-77.41002,"zip":"21705","miles_from_dt":6.61},{"city":"Ladiesburg","state_name":"Maryland","lat":39.57501,"lng":-77.26392,"zip":"21759","miles_from_dt":7.27},{"city":"Thurmont","state_name":"Maryland","lat":39.59429,"lng":-77.41958,"zip":"21788","miles_from_dt":8.28},{"city":"Unionville","state_name":"Maryland","lat":39.47481,"lng":-77.18722,"zip":"21792","miles_from_dt":8.42},{"city":"Rocky Ridge","state_name":"Maryland","lat":39.61576,"lng":-77.33754,"zip":"21778","miles_from_dt":8.71},{"city":"Keymar","state_name":"Maryland","lat":39.59902,"lng":-77.25906,"zip":"21757","miles_from_dt":8.79},{"city":"Union Bridge","state_name":"Maryland","lat":39.54267,"lng":-77.18713,"zip":"21791","miles_from_dt":9.12},{"city":"Frederick","state_name":"Maryland","lat":39.3506,"lng":-77.3735,"zip":"21704","miles_from_dt":9.72},{"city":"Braddock Heights","state_name":"Maryland","lat":39.41059,"lng":-77.51003,"zip":"21714","miles_from_dt":10.44},{"city":"Monrovia","state_name":"Maryland","lat":39.35245,"lng":-77.25791,"zip":"21770","miles_from_dt":10.52},{"city":"Ijamsville","state_name":"Maryland","lat":39.33684,"lng":-77.31131,"zip":"21754","miles_from_dt":10.68},{"city":"Frederick","state_name":"Maryland","lat":39.36961,"lng":-77.47088,"zip":"21703","miles_from_dt":10.72},{"city":"Buckeystown","state_name":"Maryland","lat":39.33865,"lng":-77.43147,"zip":"21717","miles_from_dt":11.43},{"city":"Myersville","state_name":"Maryland","lat":39.53725,"lng":-77.55301,"zip":"21773","miles_from_dt":11.66},{"city":"Mount Airy","state_name":"Maryland","lat":39.3955,"lng":-77.15869,"zip":"21771","miles_from_dt":11.83},{"city":"Middletown","state_name":"Maryland","lat":39.44582,"lng":-77.56489,"zip":"21769","miles_from_dt":12.21},{"city":"New Windsor","state_name":"Maryland","lat":39.51861,"lng":-77.10376,"zip":"21776","miles_from_dt":12.97},{"city":"Emmitsburg","state_name":"Maryland","lat":39.68865,"lng":-77.33096,"zip":"21727","miles_from_dt":13.75},{"city":"Adamstown","state_name":"Maryland","lat":39.29652,"lng":-77.44941,"zip":"21710","miles_from_dt":14.48},{"city":"Sabillasville","state_name":"Maryland","lat":39.67676,"lng":-77.46777,"zip":"21780","miles_from_dt":14.51},{"city":"Jefferson","state_name":"Maryland","lat":39.36101,"lng":-77.56887,"zip":"21755","miles_from_dt":14.97},{"city":"Damascus","state_name":"Maryland","lat":39.29142,"lng":-77.21619,"zip":"20872","miles_from_dt":15.28},{"city":"Taneytown","state_name":"Maryland","lat":39.67169,"lng":-77.17317,"zip":"21787","miles_from_dt":15.51},{"city":"Smithsburg","state_name":"Maryland","lat":39.64885,"lng":-77.55903,"zip":"21783","miles_from_dt":15.91},{"city":"Clarksburg","state_name":"Maryland","lat":39.2592,"lng":-77.28187,"zip":"20871","miles_from_dt":16.24},{"city":"Cavetown","state_name":"Maryland","lat":39.64237,"lng":-77.58285,"zip":"21720","miles_from_dt":16.56},{"city":"Burkittsville","state_name":"Maryland","lat":39.39343,"lng":-77.62734,"zip":"21718","miles_from_dt":16.57},{"city":"Cascade","state_name":"Maryland","lat":39.70501,"lng":-77.49977,"zip":"21719","miles_from_dt":17.04},{"city":"Rohrersville","state_name":"Maryland","lat":39.42447,"lng":-77.65398,"zip":"21779","miles_from_dt":17.2},{"city":"Point Of Rocks","state_name":"Maryland","lat":39.27918,"lng":-77.5287,"zip":"21777","miles_from_dt":17.58},{"city":"Boonsboro","state_name":"Maryland","lat":39.52618,"lng":-77.66933,"zip":"21713","miles_from_dt":17.59},{"city":"Tuscarora","state_name":"Maryland","lat":39.25908,"lng":-77.49559,"zip":"21790","miles_from_dt":17.87},{"city":"Woodbine","state_name":"Maryland","lat":39.33284,"lng":-77.07002,"zip":"21797","miles_from_dt":18.2},{"city":"Lisbon","state_name":"Maryland","lat":39.33483,"lng":-77.06811,"zip":"21765","miles_from_dt":18.2},{"city":"Barnesville","state_name":"Maryland","lat":39.22341,"lng":-77.37223,"zip":"20838","miles_from_dt":18.43},{"city":"Brownsville","state_name":"Maryland","lat":39.37879,"lng":-77.66063,"zip":"21715","miles_from_dt":18.61},{"city":"Chewsville","state_name":"Maryland","lat":39.64822,"lng":-77.62758,"zip":"21721","miles_from_dt":18.7},{"city":"Blue Ridge Summit","state_name":"Pennsylvania","lat":39.74811,"lng":-77.47025,"zip":"17214","miles_from_dt":19.07},{"city":"Brunswick","state_name":"Maryland","lat":39.31798,"lng":-77.6262,"zip":"21716","miles_from_dt":19.21},{"city":"Keedysville","state_name":"Maryland","lat":39.45758,"lng":-77.70118,"zip":"21756","miles_from_dt":19.25},{"city":"Fairfield","state_name":"Pennsylvania","lat":39.7695,"lng":-77.38749,"zip":"17320","miles_from_dt":19.45},{"city":"Rouzerville","state_name":"Pennsylvania","lat":39.73668,"lng":-77.52338,"zip":"17250","miles_from_dt":19.56},{"city":"Knoxville","state_name":"Maryland","lat":39.34567,"lng":-77.66265,"zip":"21758","miles_from_dt":19.75},{"city":"Westminster","state_name":"Maryland","lat":39.54889,"lng":-76.98162,"zip":"21157","miles_from_dt":19.77},{"city":"Westminster","state_name":"Maryland","lat":39.6466,"lng":-77.03217,"zip":"21158","miles_from_dt":19.84},{"city":"Dickerson","state_name":"Maryland","lat":39.20831,"lng":-77.42473,"zip":"20842","miles_from_dt":19.89},{"city":"Germantown","state_name":"Maryland","lat":39.20706,"lng":-77.23284,"zip":"20876","miles_from_dt":20.38},{"city":"Hagerstown","state_name":"Maryland","lat":39.56591,"lng":-77.71409,"zip":"21746","miles_from_dt":20.48},{"city":"Gaithersburg","state_name":"Maryland","lat":39.23182,"lng":-77.14514,"zip":"20882","miles_from_dt":20.72},{"city":"Sykesville","state_name":"Maryland","lat":39.40087,"lng":-76.9726,"zip":"21784","miles_from_dt":20.77},{"city":"Funkstown","state_name":"Maryland","lat":39.60583,"lng":-77.70382,"zip":"21734","miles_from_dt":20.84},{"city":"Boyds","state_name":"Maryland","lat":39.1858,"lng":-77.32581,"zip":"20841","miles_from_dt":20.98},{"city":"Cooksville","state_name":"Maryland","lat":39.32825,"lng":-77.01056,"zip":"21723","miles_from_dt":21.01},{"city":"Hagerstown","state_name":"Maryland","lat":39.67363,"lng":-77.65928,"zip":"21742","miles_from_dt":21.1},{"city":"Beallsville","state_name":"Maryland","lat":39.17909,"lng":-77.41438,"zip":"20839","miles_from_dt":21.76},{"city":"Lovettsville","state_name":"Virginia","lat":39.26775,"lng":-77.63804,"zip":"20180","miles_from_dt":21.97},{"city":"Germantown","state_name":"Maryland","lat":39.17643,"lng":-77.26251,"zip":"20875","miles_from_dt":22.04},{"city":"Littlestown","state_name":"Pennsylvania","lat":39.75566,"lng":-77.11183,"zip":"17340","miles_from_dt":22.13},{"city":"Glenwood","state_name":"Maryland","lat":39.27973,"lng":-77.02554,"zip":"21738","miles_from_dt":22.35},{"city":"Sharpsburg","state_name":"Maryland","lat":39.4552,"lng":-77.75995,"zip":"21782","miles_from_dt":22.39},{"city":"Fairplay","state_name":"Maryland","lat":39.55004,"lng":-77.75838,"zip":"21733","miles_from_dt":22.55},{"city":"Hagerstown","state_name":"Maryland","lat":39.64139,"lng":-77.71879,"zip":"21741","miles_from_dt":22.61},{"city":"Montgomery Village","state_name":"Maryland","lat":39.17952,"lng":-77.197,"zip":"20886","miles_from_dt":22.79},{"city":"Saint James","state_name":"Maryland","lat":39.57123,"lng":-77.75981,"zip":"21781","miles_from_dt":22.94},{"city":"Finksburg","state_name":"Maryland","lat":39.49568,"lng":-76.91057,"zip":"21048","miles_from_dt":23.15},{"city":"Waynesboro","state_name":"Pennsylvania","lat":39.77421,"lng":-77.57354,"zip":"17268","miles_from_dt":23.15},{"city":"Hagerstown","state_name":"Maryland","lat":39.63233,"lng":-77.73902,"zip":"21740","miles_from_dt":23.3},{"city":"Gaithersburg","state_name":"Maryland","lat":39.17,"lng":-77.19219,"zip":"20883","miles_from_dt":23.49},{"city":"Leesburg","state_name":"Virginia","lat":39.18147,"lng":-77.5345,"zip":"20176","miles_from_dt":23.59},{"city":"Hagerstown","state_name":"Maryland","lat":39.63447,"lng":-77.74596,"zip":"21747","miles_from_dt":23.7},{"city":"Hagerstown","state_name":"Maryland","lat":39.63737,"lng":-77.74454,"zip":"21749","miles_from_dt":23.71},{"city":"Glenelg","state_name":"Maryland","lat":39.2543,"lng":-77.01959,"zip":"21737","miles_from_dt":23.76},{"city":"West Friendship","state_name":"Maryland","lat":39.29705,"lng":-76.97388,"zip":"21794","miles_from_dt":23.83},{"city":"Gaithersburg","state_name":"Maryland","lat":39.16992,"lng":-77.17416,"zip":"20879","miles_from_dt":23.85},{"city":"Gettysburg","state_name":"Pennsylvania","lat":39.82762,"lng":-77.22641,"zip":"17325","miles_from_dt":24.14},{"city":"Zullinger","state_name":"Pennsylvania","lat":39.76764,"lng":-77.62183,"zip":"17272","miles_from_dt":24.25},{"city":"Quincy","state_name":"Pennsylvania","lat":39.79883,"lng":-77.57933,"zip":"17247","miles_from_dt":24.76},{"city":"Gaithersburg","state_name":"Maryland","lat":39.14442,"lng":-77.21621,"zip":"20899","miles_from_dt":24.77},{"city":"Brookeville","state_name":"Maryland","lat":39.20595,"lng":-77.05552,"zip":"20833","miles_from_dt":24.92},{"city":"Germantown","state_name":"Maryland","lat":39.1291,"lng":-77.29721,"zip":"20874","miles_from_dt":25},{"city":"Gaithersburg","state_name":"Maryland","lat":39.14289,"lng":-77.20282,"zip":"20898","miles_from_dt":25.08},{"city":"Gaithersburg","state_name":"Maryland","lat":39.14269,"lng":-77.19508,"zip":"20884","miles_from_dt":25.22},{"city":"Marriottsville","state_name":"Maryland","lat":39.35044,"lng":-76.90654,"zip":"21104","miles_from_dt":25.28},{"city":"Waterford","state_name":"Virginia","lat":39.19379,"lng":-77.62252,"zip":"20197","miles_from_dt":25.29},{"city":"Gaithersburg","state_name":"Maryland","lat":39.13349,"lng":-77.22906,"zip":"20885","miles_from_dt":25.32},{"city":"Dayton","state_name":"Maryland","lat":39.23416,"lng":-77.00223,"zip":"21036","miles_from_dt":25.39},{"city":"Shepherdstown","state_name":"West Virginia","lat":39.43835,"lng":-77.81477,"zip":"25443","miles_from_dt":25.44},{"city":"Gaithersburg","state_name":"Maryland","lat":39.14068,"lng":-77.18865,"zip":"20877","miles_from_dt":25.46},{"city":"State Line","state_name":"Pennsylvania","lat":39.72409,"lng":-77.71727,"zip":"17263","miles_from_dt":25.68},{"city":"Washington Grove","state_name":"Maryland","lat":39.14077,"lng":-77.17456,"zip":"20880","miles_from_dt":25.71},{"city":"Maugansville","state_name":"Maryland","lat":39.69773,"lng":-77.74638,"zip":"21767","miles_from_dt":25.85},{"city":"Bakerton","state_name":"West Virginia","lat":39.32699,"lng":-77.78005,"zip":"25410","miles_from_dt":25.91},{"city":"Paeonian Springs","state_name":"Virginia","lat":39.16673,"lng":-77.59404,"zip":"20129","miles_from_dt":26.01},{"city":"McKnightstown","state_name":"Pennsylvania","lat":39.86863,"lng":-77.32948,"zip":"17343","miles_from_dt":26.16},{"city":"Mont Alto","state_name":"Pennsylvania","lat":39.83705,"lng":-77.54091,"zip":"17237","miles_from_dt":26.18},{"city":"Poolesville","state_name":"Maryland","lat":39.11208,"lng":-77.40823,"zip":"20837","miles_from_dt":26.27},{"city":"Shady Grove","state_name":"Pennsylvania","lat":39.77776,"lng":-77.66873,"zip":"17256","miles_from_dt":26.38},{"city":"Gaithersburg","state_name":"Maryland","lat":39.11376,"lng":-77.24781,"zip":"20878","miles_from_dt":26.43},{"city":"Williamsport","state_name":"Maryland","lat":39.582,"lng":-77.82733,"zip":"21795","miles_from_dt":26.62},{"city":"Derwood","state_name":"Maryland","lat":39.13702,"lng":-77.13197,"zip":"20855","miles_from_dt":26.84},{"city":"Olney","state_name":"Maryland","lat":39.15927,"lng":-77.07572,"zip":"20830","miles_from_dt":26.93},{"city":"South Mountain","state_name":"Pennsylvania","lat":39.85981,"lng":-77.51164,"zip":"17261","miles_from_dt":27.06},{"city":"Halltown","state_name":"West Virginia","lat":39.31449,"lng":-77.79823,"zip":"25423","miles_from_dt":27.17},{"city":"Millville","state_name":"West Virginia","lat":39.29562,"lng":-77.78663,"zip":"25432","miles_from_dt":27.23},{"city":"Cashtown","state_name":"Pennsylvania","lat":39.88481,"lng":-77.35878,"zip":"17310","miles_from_dt":27.28},{"city":"Shenandoah Junction","state_name":"West Virginia","lat":39.37157,"lng":-77.83181,"zip":"25442","miles_from_dt":27.36},{"city":"Olney","state_name":"Maryland","lat":39.15134,"lng":-77.07331,"zip":"20832","miles_from_dt":27.47},{"city":"Brinklow","state_name":"Maryland","lat":39.18039,"lng":-77.01879,"zip":"20862","miles_from_dt":27.53},{"city":"Orrtanna","state_name":"Pennsylvania","lat":39.88741,"lng":-77.38714,"zip":"17353","miles_from_dt":27.54},{"city":"McSherrystown","state_name":"Pennsylvania","lat":39.80535,"lng":-77.01887,"zip":"17344","miles_from_dt":27.83},{"city":"Woodstock","state_name":"Maryland","lat":39.34024,"lng":-76.85706,"zip":"21163","miles_from_dt":28},{"city":"Hampstead","state_name":"Maryland","lat":39.61746,"lng":-76.84351,"zip":"21074","miles_from_dt":28.12},{"city":"Harpers Ferry","state_name":"West Virginia","lat":39.27613,"lng":-77.79184,"zip":"25425","miles_from_dt":28.16},{"city":"Leesburg","state_name":"Virginia","lat":39.11878,"lng":-77.56645,"zip":"20178","miles_from_dt":28.23},{"city":"Boring","state_name":"Maryland","lat":39.52394,"lng":-76.8169,"zip":"21020","miles_from_dt":28.25},{"city":"Hanover","state_name":"Pennsylvania","lat":39.79085,"lng":-76.98028,"zip":"17331","miles_from_dt":28.41},{"city":"Ellicott City","state_name":"Maryland","lat":39.27105,"lng":-76.8924,"zip":"21042","miles_from_dt":28.47},{"city":"Hanover","state_name":"Pennsylvania","lat":39.7981,"lng":-76.9882,"zip":"17332","miles_from_dt":28.5},{"city":"Reisterstown","state_name":"Maryland","lat":39.48851,"lng":-76.80888,"zip":"21136","miles_from_dt":28.58},{"city":"Glyndon","state_name":"Maryland","lat":39.48516,"lng":-76.8081,"zip":"21071","miles_from_dt":28.63},{"city":"Clarksville","state_name":"Maryland","lat":39.20633,"lng":-76.95206,"zip":"21029","miles_from_dt":28.67},{"city":"Sandy Spring","state_name":"Maryland","lat":39.15072,"lng":-77.03069,"zip":"20860","miles_from_dt":28.77},{"city":"Hanover","state_name":"Pennsylvania","lat":39.8,"lng":-76.98219,"zip":"17334","miles_from_dt":28.81},{"city":"Rockville","state_name":"Maryland","lat":39.0908,"lng":-77.1809,"zip":"20850","miles_from_dt":28.86},{"city":"Leesburg","state_name":"Virginia","lat":39.10694,"lng":-77.56527,"zip":"20177","miles_from_dt":28.95},{"city":"Hamilton","state_name":"Virginia","lat":39.14126,"lng":-77.65514,"zip":"20158","miles_from_dt":29.26},{"city":"Upperco","state_name":"Maryland","lat":39.57183,"lng":-76.80597,"zip":"21155","miles_from_dt":29.27},{"city":"Fayetteville","state_name":"Pennsylvania","lat":39.89983,"lng":-77.49242,"zip":"17222","miles_from_dt":29.39},{"city":"Randallstown","state_name":"Maryland","lat":39.37705,"lng":-76.81174,"zip":"21133","miles_from_dt":29.49},{"city":"Highland","state_name":"Maryland","lat":39.17487,"lng":-76.96783,"zip":"20777","miles_from_dt":29.61},{"city":"Falling Waters","state_name":"West Virginia","lat":39.58286,"lng":-77.88493,"zip":"25419","miles_from_dt":29.63},{"city":"Martinsburg","state_name":"West Virginia","lat":39.48631,"lng":-77.89782,"zip":"25404","miles_from_dt":29.63},{"city":"Hanover","state_name":"Pennsylvania","lat":39.80769,"lng":-76.97011,"zip":"17335","miles_from_dt":29.63},{"city":"Rockville","state_name":"Maryland","lat":39.08448,"lng":-77.15186,"zip":"20847","miles_from_dt":29.78},{"city":"Hanover","state_name":"Pennsylvania","lat":39.82421,"lng":-76.9907,"zip":"17333","miles_from_dt":29.78},{"city":"Rockville","state_name":"Maryland","lat":39.10237,"lng":-77.09462,"zip":"20853","miles_from_dt":29.86},{"city":"Manchester","state_name":"Maryland","lat":39.68732,"lng":-76.84564,"zip":"21102","miles_from_dt":29.87},{"city":"Rockville","state_name":"Maryland","lat":39.08242,"lng":-77.15282,"zip":"20849","miles_from_dt":29.89},{"city":"Hamilton","state_name":"Virginia","lat":39.13425,"lng":-77.66495,"zip":"20159","miles_from_dt":29.96}],"targetCityZipCode":"21793","targetCityState":"Maryland"},"__N_SSG":true}