{"pageProps":{"stateName":"Georgia","cityName":"baxley","nearbyCities":[{"city":"Baxley","state_name":"Georgia","lat":31.77602,"lng":-82.35016,"zip":"31515","miles_from_dt":0.27},{"city":"Surrency","state_name":"Georgia","lat":31.73653,"lng":-82.18288,"zip":"31563","miles_from_dt":10.03},{"city":"Hazlehurst","state_name":"Georgia","lat":31.82393,"lng":-82.60658,"zip":"31539","miles_from_dt":15.64},{"city":"Alma","state_name":"Georgia","lat":31.54729,"lng":-82.43992,"zip":"31510","miles_from_dt":16.82},{"city":"Odum","state_name":"Georgia","lat":31.70275,"lng":-82.06647,"zip":"31555","miles_from_dt":17.27},{"city":"Uvalda","state_name":"Georgia","lat":32.01613,"lng":-82.47198,"zip":"30473","miles_from_dt":18},{"city":"Mershon","state_name":"Georgia","lat":31.49223,"lng":-82.27322,"zip":"31551","miles_from_dt":20.15},{"city":"Bristol","state_name":"Georgia","lat":31.51272,"lng":-82.18325,"zip":"31518","miles_from_dt":20.64},{"city":"Reidsville","state_name":"Georgia","lat":32.01926,"lng":-82.11899,"zip":"30453","miles_from_dt":21.33},{"city":"Alston","state_name":"Georgia","lat":32.07973,"lng":-82.48643,"zip":"30412","miles_from_dt":22.37},{"city":"West Green","state_name":"Georgia","lat":31.63011,"lng":-82.70705,"zip":"31567","miles_from_dt":23.57},{"city":"Denton","state_name":"Georgia","lat":31.72462,"lng":-82.74889,"zip":"31532","miles_from_dt":23.99},{"city":"Lumber City","state_name":"Georgia","lat":31.94503,"lng":-82.70922,"zip":"31549","miles_from_dt":24.25},{"city":"Glennville","state_name":"Georgia","lat":31.92271,"lng":-81.96622,"zip":"30427","miles_from_dt":24.47},{"city":"Reidsville","state_name":"Georgia","lat":32.0833,"lng":-82.11906,"zip":"30499","miles_from_dt":24.92},{"city":"Jesup","state_name":"Georgia","lat":31.64867,"lng":-81.9405,"zip":"31545","miles_from_dt":25.5},{"city":"Lyons","state_name":"Georgia","lat":32.1494,"lng":-82.29026,"zip":"30436","miles_from_dt":25.81},{"city":"Nicholls","state_name":"Georgia","lat":31.48265,"lng":-82.61861,"zip":"31554","miles_from_dt":25.92},{"city":"Screven","state_name":"Georgia","lat":31.50312,"lng":-82.02896,"zip":"31560","miles_from_dt":26.61},{"city":"Manassas","state_name":"Georgia","lat":32.08868,"lng":-82.05257,"zip":"30438","miles_from_dt":27.5},{"city":"Offerman","state_name":"Georgia","lat":31.40508,"lng":-82.1152,"zip":"31556","miles_from_dt":29.08},{"city":"Ailey","state_name":"Georgia","lat":32.18655,"lng":-82.51767,"zip":"30410","miles_from_dt":29.9}],"targetCityZipCode":"31513","targetCityState":"Georgia"},"__N_SSG":true}