{"pageProps":{"stateName":"Georgia","cityName":"climax","nearbyCities":[{"city":"Whigham","state_name":"Georgia","lat":30.91234,"lng":-84.33297,"zip":"39897","miles_from_dt":5.77},{"city":"Bainbridge","state_name":"Georgia","lat":30.90795,"lng":-84.57878,"zip":"39818","miles_from_dt":9.05},{"city":"Fowlstown","state_name":"Georgia","lat":30.79908,"lng":-84.55414,"zip":"39852","miles_from_dt":9.93},{"city":"Bainbridge","state_name":"Georgia","lat":30.93953,"lng":-84.59132,"zip":"39817","miles_from_dt":10.25},{"city":"Attapulgus","state_name":"Georgia","lat":30.74138,"lng":-84.4935,"zip":"39815","miles_from_dt":11.16},{"city":"Calvary","state_name":"Georgia","lat":30.72646,"lng":-84.34621,"zip":"39829","miles_from_dt":12.45},{"city":"Cairo","state_name":"Georgia","lat":30.94911,"lng":-84.21674,"zip":"39827","miles_from_dt":13.1},{"city":"Cairo","state_name":"Georgia","lat":30.79741,"lng":-84.22444,"zip":"39828","miles_from_dt":13.75},{"city":"Bainbridge","state_name":"Georgia","lat":30.78485,"lng":-84.64297,"zip":"39819","miles_from_dt":14.82},{"city":"Brinson","state_name":"Georgia","lat":30.92359,"lng":-84.73496,"zip":"39825","miles_from_dt":18.39},{"city":"Quincy","state_name":"Florida","lat":30.6499,"lng":-84.58535,"zip":"32352","miles_from_dt":19.2},{"city":"Havana","state_name":"Florida","lat":30.60677,"lng":-84.41249,"zip":"32333","miles_from_dt":19.74},{"city":"Pelham","state_name":"Georgia","lat":31.10032,"lng":-84.19117,"zip":"31779","miles_from_dt":20.02},{"city":"Cotton","state_name":"Georgia","lat":31.12337,"lng":-84.15268,"zip":"31739","miles_from_dt":22.76},{"city":"Tallahassee","state_name":"Florida","lat":30.60421,"lng":-84.23996,"zip":"32312","miles_from_dt":22.81},{"city":"Colquitt","state_name":"Georgia","lat":31.15321,"lng":-84.67283,"zip":"39837","miles_from_dt":23.09},{"city":"Camilla","state_name":"Georgia","lat":31.20749,"lng":-84.28438,"zip":"31730","miles_from_dt":23.27},{"city":"Ochlocknee","state_name":"Georgia","lat":30.97795,"lng":-84.04624,"zip":"31773","miles_from_dt":23.38},{"city":"Iron City","state_name":"Georgia","lat":30.99493,"lng":-84.80731,"zip":"39859","miles_from_dt":23.62},{"city":"Quincy","state_name":"Florida","lat":30.57899,"lng":-84.5928,"zip":"32353","miles_from_dt":23.76},{"city":"Gretna","state_name":"Florida","lat":30.61168,"lng":-84.6657,"zip":"32332","miles_from_dt":24.01},{"city":"Thomasville","state_name":"Georgia","lat":30.77079,"lng":-84.04238,"zip":"31792","miles_from_dt":24.39},{"city":"Tallahassee","state_name":"Florida","lat":30.51237,"lng":-84.34386,"zip":"32303","miles_from_dt":26.69},{"city":"Thomasville","state_name":"Georgia","lat":30.83761,"lng":-83.97854,"zip":"31758","miles_from_dt":26.95},{"city":"Thomasville","state_name":"Georgia","lat":30.83761,"lng":-83.97801,"zip":"31799","miles_from_dt":26.98},{"city":"Chattahoochee","state_name":"Florida","lat":30.65635,"lng":-84.79126,"zip":"32324","miles_from_dt":27.09},{"city":"Meigs","state_name":"Georgia","lat":31.09514,"lng":-84.0346,"zip":"31765","miles_from_dt":27.16},{"city":"Tallahassee","state_name":"Florida","lat":30.56,"lng":-84.18219,"zip":"32318","miles_from_dt":27.19},{"city":"Donalsonville","state_name":"Georgia","lat":30.95011,"lng":-84.89329,"zip":"39845","miles_from_dt":27.94},{"city":"Midway","state_name":"Florida","lat":30.48515,"lng":-84.47652,"zip":"32343","miles_from_dt":28.25},{"city":"Greensboro","state_name":"Florida","lat":30.57859,"lng":-84.74799,"zip":"32330","miles_from_dt":28.86},{"city":"Newton","state_name":"Georgia","lat":31.31944,"lng":-84.41071,"zip":"39870","miles_from_dt":29.4},{"city":"Tallahassee","state_name":"Florida","lat":30.57174,"lng":-84.10128,"zip":"32309","miles_from_dt":29.44},{"city":"Quincy","state_name":"Florida","lat":30.52358,"lng":-84.68362,"zip":"32351","miles_from_dt":29.66}],"targetCityZipCode":"39834","targetCityState":"Georgia"},"__N_SSG":true}