{"pageProps":{"stateName":"Georgia","cityName":"dacula","nearbyCities":[{"city":"Auburn","state_name":"Georgia","lat":34.02281,"lng":-83.8364,"zip":"30011","miles_from_dt":4.15},{"city":"Lawrenceville","state_name":"Georgia","lat":33.93046,"lng":-83.93019,"zip":"30045","miles_from_dt":4.19},{"city":"Lawrenceville","state_name":"Georgia","lat":33.95634,"lng":-83.99053,"zip":"30049","miles_from_dt":6.36},{"city":"Lawrenceville","state_name":"Georgia","lat":33.9497,"lng":-83.99389,"zip":"30046","miles_from_dt":6.66},{"city":"Lawrenceville","state_name":"Georgia","lat":34.00353,"lng":-84.00703,"zip":"30043","miles_from_dt":7.39},{"city":"Grayson","state_name":"Georgia","lat":33.88939,"lng":-83.96348,"zip":"30017","miles_from_dt":7.59},{"city":"Bethlehem","state_name":"Georgia","lat":33.92917,"lng":-83.75958,"zip":"30620","miles_from_dt":7.78},{"city":"Buford","state_name":"Georgia","lat":34.08792,"lng":-83.9423,"zip":"30519","miles_from_dt":8.42},{"city":"Hoschton","state_name":"Georgia","lat":34.09311,"lng":-83.7646,"zip":"30548","miles_from_dt":10.51},{"city":"Winder","state_name":"Georgia","lat":33.99725,"lng":-83.69743,"zip":"30680","miles_from_dt":10.72},{"city":"Loganville","state_name":"Georgia","lat":33.81654,"lng":-83.89538,"zip":"30052","miles_from_dt":11.04},{"city":"Snellville","state_name":"Georgia","lat":33.86118,"lng":-84.01795,"zip":"30078","miles_from_dt":11.12},{"city":"Lawrenceville","state_name":"Georgia","lat":33.92207,"lng":-84.06924,"zip":"30044","miles_from_dt":11.36},{"city":"Lawrenceville","state_name":"Georgia","lat":33.92354,"lng":-84.07302,"zip":"30042","miles_from_dt":11.53},{"city":"Braselton","state_name":"Georgia","lat":34.13047,"lng":-83.7975,"zip":"30517","miles_from_dt":11.68},{"city":"Monroe","state_name":"Georgia","lat":33.86302,"lng":-83.71903,"zip":"30656","miles_from_dt":12.22},{"city":"Suwanee","state_name":"Georgia","lat":34.06341,"lng":-84.09116,"zip":"30024","miles_from_dt":13.39},{"city":"Buford","state_name":"Georgia","lat":34.132,"lng":-84.02578,"zip":"30518","miles_from_dt":13.51},{"city":"Chestnut Mountain","state_name":"Georgia","lat":34.17686,"lng":-83.90784,"zip":"30502","miles_from_dt":13.89},{"city":"Flowery Branch","state_name":"Georgia","lat":34.17846,"lng":-83.90915,"zip":"30542","miles_from_dt":14.01},{"city":"Lilburn","state_name":"Georgia","lat":33.90025,"lng":-84.1255,"zip":"30048","miles_from_dt":14.91},{"city":"Snellville","state_name":"Georgia","lat":33.79871,"lng":-84.03414,"zip":"30039","miles_from_dt":15.03},{"city":"Lilburn","state_name":"Georgia","lat":33.87104,"lng":-84.11304,"zip":"30047","miles_from_dt":15.11},{"city":"North Metro","state_name":"Georgia","lat":33.97794,"lng":-84.14769,"zip":"30029","miles_from_dt":15.23},{"city":"Duluth","state_name":"Georgia","lat":33.97691,"lng":-84.14791,"zip":"30096","miles_from_dt":15.24},{"city":"Duluth","state_name":"Georgia","lat":33.97752,"lng":-84.1487,"zip":"30095","miles_from_dt":15.28},{"city":"Duluth","state_name":"Georgia","lat":33.98012,"lng":-84.14934,"zip":"30099","miles_from_dt":15.32},{"city":"North Metro","state_name":"Georgia","lat":33.97658,"lng":-84.15005,"zip":"30026","miles_from_dt":15.36},{"city":"Duluth","state_name":"Georgia","lat":34.02556,"lng":-84.14541,"zip":"30098","miles_from_dt":15.47},{"city":"Duluth","state_name":"Georgia","lat":34.0271,"lng":-84.14702,"zip":"30097","miles_from_dt":15.58},{"city":"Norcross","state_name":"Georgia","lat":33.94642,"lng":-84.17501,"zip":"30091","miles_from_dt":16.92},{"city":"Statham","state_name":"Georgia","lat":33.95891,"lng":-83.58266,"zip":"30666","miles_from_dt":17.26},{"city":"Monroe","state_name":"Georgia","lat":33.78214,"lng":-83.69072,"zip":"30655","miles_from_dt":17.35},{"city":"Stone Mountain","state_name":"Georgia","lat":33.80336,"lng":-84.10343,"zip":"30086","miles_from_dt":17.42},{"city":"Norcross","state_name":"Georgia","lat":33.90879,"lng":-84.17839,"zip":"30093","miles_from_dt":17.62},{"city":"Oakwood","state_name":"Georgia","lat":34.23747,"lng":-83.89477,"zip":"30566","miles_from_dt":18.01},{"city":"Stone Mountain","state_name":"Georgia","lat":33.81087,"lng":-84.13135,"zip":"30087","miles_from_dt":18.3},{"city":"Pendergrass","state_name":"Georgia","lat":34.18326,"lng":-83.6814,"zip":"30567","miles_from_dt":18.34},{"city":"Talmo","state_name":"Georgia","lat":34.20353,"lng":-83.71556,"zip":"30575","miles_from_dt":18.35},{"city":"Jersey","state_name":"Georgia","lat":33.71737,"lng":-83.80034,"zip":"30018","miles_from_dt":18.47},{"city":"Norcross","state_name":"Georgia","lat":33.93977,"lng":-84.20561,"zip":"30071","miles_from_dt":18.73},{"city":"Conyers","state_name":"Georgia","lat":33.71739,"lng":-83.99913,"zip":"30012","miles_from_dt":19.07},{"city":"Norcross","state_name":"Georgia","lat":33.96606,"lng":-84.21844,"zip":"30010","miles_from_dt":19.3},{"city":"Cumming","state_name":"Georgia","lat":34.20166,"lng":-84.09371,"zip":"30041","miles_from_dt":19.69},{"city":"Jefferson","state_name":"Georgia","lat":34.10731,"lng":-83.57684,"zip":"30549","miles_from_dt":19.72},{"city":"Gainesville","state_name":"Georgia","lat":34.26639,"lng":-83.88751,"zip":"30504","miles_from_dt":19.99},{"city":"Peachtree Corners","state_name":"Georgia","lat":33.97145,"lng":-84.23537,"zip":"30092","miles_from_dt":20.26},{"city":"Bogart","state_name":"Georgia","lat":33.92041,"lng":-83.53076,"zip":"30622","miles_from_dt":20.57},{"city":"Oxford","state_name":"Georgia","lat":33.67651,"lng":-83.87558,"zip":"30054","miles_from_dt":20.67},{"city":"Gainesville","state_name":"Georgia","lat":34.26082,"lng":-83.76622,"zip":"30507","miles_from_dt":20.71},{"city":"Alpharetta","state_name":"Georgia","lat":34.08582,"lng":-84.22158,"zip":"30005","miles_from_dt":20.87},{"city":"Lithonia","state_name":"Georgia","lat":33.7377,"lng":-84.10779,"zip":"30058","miles_from_dt":20.94},{"city":"Tucker","state_name":"Georgia","lat":33.85457,"lng":-84.21657,"zip":"30084","miles_from_dt":20.95},{"city":"Alpharetta","state_name":"Georgia","lat":34.02745,"lng":-84.24643,"zip":"30022","miles_from_dt":21.18},{"city":"Tucker","state_name":"Georgia","lat":33.85701,"lng":-84.22299,"zip":"30085","miles_from_dt":21.22},{"city":"Norcross","state_name":"Georgia","lat":33.68081,"lng":-84.00732,"zip":"30003","miles_from_dt":21.6},{"city":"Redan","state_name":"Georgia","lat":33.74461,"lng":-84.13599,"zip":"30074","miles_from_dt":21.63},{"city":"Stone Mountain","state_name":"Georgia","lat":33.79641,"lng":-84.19231,"zip":"30083","miles_from_dt":21.7},{"city":"Atlanta","state_name":"Georgia","lat":33.89808,"lng":-84.25113,"zip":"30340","miles_from_dt":21.85},{"city":"Athens","state_name":"Georgia","lat":34.00684,"lng":-83.49323,"zip":"30604","miles_from_dt":22.45},{"city":"Pine Lake","state_name":"Georgia","lat":33.79115,"lng":-84.20598,"zip":"30072","miles_from_dt":22.56},{"city":"Atlanta","state_name":"Georgia","lat":33.93198,"lng":-84.27302,"zip":"30360","miles_from_dt":22.64},{"city":"Stone Mountain","state_name":"Georgia","lat":33.75959,"lng":-84.17918,"zip":"30088","miles_from_dt":22.68},{"city":"Good Hope","state_name":"Georgia","lat":33.77872,"lng":-83.56456,"zip":"30641","miles_from_dt":22.8},{"city":"Alpharetta","state_name":"Georgia","lat":34.06763,"lng":-84.27115,"zip":"30023","miles_from_dt":23.17},{"city":"Atlanta","state_name":"Georgia","lat":33.90087,"lng":-84.27643,"zip":"30362","miles_from_dt":23.22},{"city":"Conyers","state_name":"Georgia","lat":33.643,"lng":-83.97147,"zip":"30013","miles_from_dt":23.54},{"city":"Clarkston","state_name":"Georgia","lat":33.80803,"lng":-84.23909,"zip":"30021","miles_from_dt":23.55},{"city":"Cumming","state_name":"Georgia","lat":34.21622,"lng":-84.17978,"zip":"30040","miles_from_dt":23.74},{"city":"Gainesville","state_name":"Georgia","lat":34.31844,"lng":-83.81636,"zip":"30501","miles_from_dt":23.88},{"city":"Atlanta","state_name":"Georgia","lat":33.89074,"lng":-84.28763,"zip":"39901","miles_from_dt":24.01},{"city":"Atlanta","state_name":"Georgia","lat":33.88753,"lng":-84.28764,"zip":"30366","miles_from_dt":24.07},{"city":"Atlanta","state_name":"Georgia","lat":33.88711,"lng":-84.28992,"zip":"30341","miles_from_dt":24.2},{"city":"High Shoals","state_name":"Georgia","lat":33.82076,"lng":-83.50247,"zip":"30645","miles_from_dt":24.34},{"city":"Atlanta","state_name":"Georgia","lat":33.85314,"lng":-84.27962,"zip":"31145","miles_from_dt":24.35},{"city":"Social Circle","state_name":"Georgia","lat":33.65689,"lng":-83.69869,"zip":"30025","miles_from_dt":24.43},{"city":"Atlanta","state_name":"Georgia","lat":33.85082,"lng":-84.28317,"zip":"30345","miles_from_dt":24.6},{"city":"Scottdale","state_name":"Georgia","lat":33.79173,"lng":-84.25839,"zip":"30079","miles_from_dt":25.08},{"city":"Alpharetta","state_name":"Georgia","lat":34.07711,"lng":-84.3029,"zip":"30009","miles_from_dt":25.1},{"city":"Atlanta","state_name":"Georgia","lat":33.9437,"lng":-84.31801,"zip":"30338","miles_from_dt":25.11},{"city":"Athens","state_name":"Georgia","lat":34.01895,"lng":-83.44774,"zip":"30607","miles_from_dt":25.13},{"city":"Roswell","state_name":"Georgia","lat":34.02777,"lng":-84.31723,"zip":"30076","miles_from_dt":25.2},{"city":"Decatur","state_name":"Georgia","lat":33.72563,"lng":-84.20541,"zip":"30035","miles_from_dt":25.37},{"city":"Decatur","state_name":"Georgia","lat":33.81342,"lng":-84.28355,"zip":"30033","miles_from_dt":25.64},{"city":"Gainesville","state_name":"Georgia","lat":34.34918,"lng":-83.89486,"zip":"30506","miles_from_dt":25.7},{"city":"Lithonia","state_name":"Georgia","lat":33.67078,"lng":-84.14209,"zip":"30038","miles_from_dt":25.82},{"city":"Atlanta","state_name":"Georgia","lat":33.94736,"lng":-84.33079,"zip":"30356","miles_from_dt":25.82},{"city":"Gillsville","state_name":"Georgia","lat":34.29781,"lng":-83.64971,"zip":"30543","miles_from_dt":25.86},{"city":"Avondale Estates","state_name":"Georgia","lat":33.77309,"lng":-84.26093,"zip":"30002","miles_from_dt":25.88},{"city":"Atlanta","state_name":"Georgia","lat":33.98237,"lng":-84.33368,"zip":"31150","miles_from_dt":25.91},{"city":"Atlanta","state_name":"Georgia","lat":33.97881,"lng":-84.33366,"zip":"30350","miles_from_dt":25.91},{"city":"Athens","state_name":"Georgia","lat":33.93873,"lng":-83.43305,"zip":"30606","miles_from_dt":25.95},{"city":"Covington","state_name":"Georgia","lat":33.60047,"lng":-83.85378,"zip":"30015","miles_from_dt":25.96},{"city":"Bishop","state_name":"Georgia","lat":33.80194,"lng":-83.4791,"zip":"30621","miles_from_dt":26.12},{"city":"Atlanta","state_name":"Georgia","lat":33.92425,"lng":-84.33881,"zip":"30346","miles_from_dt":26.45},{"city":"Alpharetta","state_name":"Georgia","lat":34.14352,"lng":-84.29926,"zip":"30004","miles_from_dt":26.54},{"city":"Atlanta","state_name":"Georgia","lat":33.92544,"lng":-84.34121,"zip":"31146","miles_from_dt":26.58},{"city":"Atlanta","state_name":"Georgia","lat":33.87875,"lng":-84.33596,"zip":"30319","miles_from_dt":26.91},{"city":"Conyers","state_name":"Georgia","lat":33.61243,"lng":-84.0555,"zip":"30094","miles_from_dt":26.99},{"city":"Maysville","state_name":"Georgia","lat":34.2683,"lng":-83.56787,"zip":"30558","miles_from_dt":27.02},{"city":"Bostwick","state_name":"Georgia","lat":33.73113,"lng":-83.51592,"zip":"30623","miles_from_dt":27.02},{"city":"Decatur","state_name":"Georgia","lat":33.7672,"lng":-84.28548,"zip":"30031","miles_from_dt":27.29},{"city":"Atlanta","state_name":"Georgia","lat":33.82625,"lng":-84.32282,"zip":"30329","miles_from_dt":27.34},{"city":"Decatur","state_name":"Georgia","lat":33.73987,"lng":-84.2641,"zip":"30032","miles_from_dt":27.34},{"city":"Decatur","state_name":"Georgia","lat":33.77435,"lng":-84.2919,"zip":"30036","miles_from_dt":27.35},{"city":"Decatur","state_name":"Georgia","lat":33.7721,"lng":-84.29135,"zip":"30030","miles_from_dt":27.4},{"city":"Gainesville","state_name":"Georgia","lat":34.37128,"lng":-83.82255,"zip":"30503","miles_from_dt":27.43},{"city":"Roswell","state_name":"Georgia","lat":34.04033,"lng":-84.35459,"zip":"30077","miles_from_dt":27.45},{"city":"Atlanta","state_name":"Georgia","lat":33.82281,"lng":-84.32317,"zip":"30359","miles_from_dt":27.45},{"city":"Cumming","state_name":"Georgia","lat":34.28928,"lng":-84.17985,"zip":"30028","miles_from_dt":27.48},{"city":"Covington","state_name":"Georgia","lat":33.58109,"lng":-83.8191,"zip":"30014","miles_from_dt":27.49},{"city":"Atlanta","state_name":"Georgia","lat":33.95996,"lng":-84.36491,"zip":"31156","miles_from_dt":27.73},{"city":"Porterdale","state_name":"Georgia","lat":33.5733,"lng":-83.89546,"zip":"30070","miles_from_dt":27.79},{"city":"Atlanta","state_name":"Georgia","lat":33.85704,"lng":-84.34441,"zip":"31119","miles_from_dt":27.79},{"city":"Nicholson","state_name":"Georgia","lat":34.08802,"lng":-83.41203,"zip":"30565","miles_from_dt":28.07},{"city":"Athens","state_name":"Georgia","lat":33.95563,"lng":-83.3931,"zip":"30612","miles_from_dt":28.14},{"city":"Atlanta","state_name":"Georgia","lat":33.79574,"lng":-84.32339,"zip":"30333","miles_from_dt":28.24},{"city":"Commerce","state_name":"Georgia","lat":34.2155,"lng":-83.482,"zip":"30529","miles_from_dt":28.27},{"city":"Atlanta","state_name":"Georgia","lat":33.7948,"lng":-84.32539,"zip":"30322","miles_from_dt":28.37},{"city":"Decatur","state_name":"Georgia","lat":33.69198,"lng":-84.24835,"zip":"30034","miles_from_dt":28.76},{"city":"Atlanta","state_name":"Georgia","lat":33.84792,"lng":-84.35905,"zip":"31126","miles_from_dt":28.78},{"city":"Commerce","state_name":"Georgia","lat":34.2052,"lng":-83.46061,"zip":"30599","miles_from_dt":28.88},{"city":"Atlanta","state_name":"Georgia","lat":33.84957,"lng":-84.36342,"zip":"30326","miles_from_dt":28.98},{"city":"Atlanta","state_name":"Georgia","lat":33.88227,"lng":-84.37429,"zip":"30342","miles_from_dt":28.99},{"city":"Decatur","state_name":"Georgia","lat":33.69156,"lng":-84.25328,"zip":"30037","miles_from_dt":28.99},{"city":"Athens","state_name":"Georgia","lat":33.95962,"lng":-83.37699,"zip":"30608","miles_from_dt":29.05},{"city":"Athens","state_name":"Georgia","lat":33.95929,"lng":-83.37689,"zip":"30603","miles_from_dt":29.06},{"city":"Atlanta","state_name":"Georgia","lat":33.93194,"lng":-84.38617,"zip":"30328","miles_from_dt":29.09},{"city":"Atlanta","state_name":"Georgia","lat":33.93452,"lng":-84.38865,"zip":"30358","miles_from_dt":29.21},{"city":"Atlanta","state_name":"Georgia","lat":33.8196,"lng":-84.3572,"zip":"30324","miles_from_dt":29.34},{"city":"Athens","state_name":"Georgia","lat":33.94252,"lng":-83.37256,"zip":"30602","miles_from_dt":29.38},{"city":"Atlanta","state_name":"Georgia","lat":33.74913,"lng":-84.31537,"zip":"30317","miles_from_dt":29.41},{"city":"Roswell","state_name":"Georgia","lat":34.05282,"lng":-84.38739,"zip":"30075","miles_from_dt":29.45},{"city":"Athens","state_name":"Georgia","lat":33.93289,"lng":-83.37223,"zip":"30609","miles_from_dt":29.46},{"city":"Atlanta","state_name":"Georgia","lat":33.83545,"lng":-84.3664,"zip":"30355","miles_from_dt":29.46},{"city":"Rutledge","state_name":"Georgia","lat":33.61572,"lng":-83.60357,"zip":"30663","miles_from_dt":29.59},{"city":"Atlanta","state_name":"Georgia","lat":33.77053,"lng":-84.33419,"zip":"30307","miles_from_dt":29.59},{"city":"Atlanta","state_name":"Georgia","lat":33.78867,"lng":-84.35136,"zip":"30306","miles_from_dt":29.9}],"targetCityZipCode":"30019","targetCityState":"Georgia"},"__N_SSG":true}