{"pageProps":{"stateName":"Georgia","cityName":"dixie","nearbyCities":[{"city":"Barwick","state_name":"Georgia","lat":30.87986,"lng":-83.72297,"zip":"31720","miles_from_dt":4.58},{"city":"Boston","state_name":"Georgia","lat":30.77609,"lng":-83.80208,"zip":"31626","miles_from_dt":7.44},{"city":"Quitman","state_name":"Georgia","lat":30.77061,"lng":-83.55859,"zip":"31643","miles_from_dt":8.43},{"city":"Pavo","state_name":"Georgia","lat":30.9754,"lng":-83.70931,"zip":"31778","miles_from_dt":10.74},{"city":"Morven","state_name":"Georgia","lat":30.90627,"lng":-83.51589,"zip":"31638","miles_from_dt":11.82},{"city":"Thomasville","state_name":"Georgia","lat":30.87291,"lng":-83.89945,"zip":"31757","miles_from_dt":13.07},{"city":"Barney","state_name":"Georgia","lat":30.9918,"lng":-83.52556,"zip":"31625","miles_from_dt":15.25},{"city":"Berlin","state_name":"Georgia","lat":31.05492,"lng":-83.61559,"zip":"31722","miles_from_dt":16.71},{"city":"Coolidge","state_name":"Georgia","lat":31.01133,"lng":-83.87502,"zip":"31738","miles_from_dt":17.21},{"city":"Thomasville","state_name":"Georgia","lat":30.83761,"lng":-83.97801,"zip":"31799","miles_from_dt":17.28},{"city":"Thomasville","state_name":"Georgia","lat":30.83761,"lng":-83.97854,"zip":"31758","miles_from_dt":17.31},{"city":"Moultrie","state_name":"Georgia","lat":31.10891,"lng":-83.68099,"zip":"31788","miles_from_dt":19.87},{"city":"Valdosta","state_name":"Georgia","lat":30.86734,"lng":-83.34269,"zip":"31602","miles_from_dt":20.78},{"city":"Valdosta","state_name":"Georgia","lat":30.74772,"lng":-83.33968,"zip":"31601","miles_from_dt":21.32},{"city":"Thomasville","state_name":"Georgia","lat":30.77079,"lng":-84.04238,"zip":"31792","miles_from_dt":21.35},{"city":"Monticello","state_name":"Florida","lat":30.54402,"lng":-83.87248,"zip":"32345","miles_from_dt":21.98},{"city":"Hahira","state_name":"Georgia","lat":30.9876,"lng":-83.36006,"zip":"31632","miles_from_dt":22.63},{"city":"Cecil","state_name":"Georgia","lat":31.03923,"lng":-83.39238,"zip":"31627","miles_from_dt":23.14},{"city":"Valdosta","state_name":"Georgia","lat":30.84749,"lng":-83.29051,"zip":"31698","miles_from_dt":23.71},{"city":"Ochlocknee","state_name":"Georgia","lat":30.97795,"lng":-84.04624,"zip":"31773","miles_from_dt":23.88},{"city":"Moultrie","state_name":"Georgia","lat":31.15565,"lng":-83.7939,"zip":"31776","miles_from_dt":23.93},{"city":"Valdosta","state_name":"Georgia","lat":30.87206,"lng":-83.28537,"zip":"31603","miles_from_dt":24.2},{"city":"Valdosta","state_name":"Georgia","lat":30.88111,"lng":-83.28047,"zip":"31604","miles_from_dt":24.58},{"city":"Ellenton","state_name":"Georgia","lat":31.1753,"lng":-83.58736,"zip":"31747","miles_from_dt":25.16},{"city":"Greenville","state_name":"Florida","lat":30.45851,"lng":-83.6294,"zip":"32331","miles_from_dt":25.18},{"city":"Adel","state_name":"Georgia","lat":31.11861,"lng":-83.43731,"zip":"31620","miles_from_dt":25.36},{"city":"Pinetta","state_name":"Florida","lat":30.58662,"lng":-83.32242,"zip":"32350","miles_from_dt":27.08},{"city":"Moultrie","state_name":"Georgia","lat":31.19329,"lng":-83.84047,"zip":"31768","miles_from_dt":27.23},{"city":"Meigs","state_name":"Georgia","lat":31.09514,"lng":-84.0346,"zip":"31765","miles_from_dt":27.95},{"city":"Valdosta","state_name":"Georgia","lat":30.93334,"lng":-83.23482,"zip":"31605","miles_from_dt":28.03},{"city":"Funston","state_name":"Georgia","lat":31.20044,"lng":-83.87287,"zip":"31753","miles_from_dt":28.38},{"city":"Madison","state_name":"Florida","lat":30.46973,"lng":-83.41748,"zip":"32341","miles_from_dt":29.05},{"city":"Monticello","state_name":"Florida","lat":30.44645,"lng":-83.91902,"zip":"32344","miles_from_dt":29.21},{"city":"Norman Park","state_name":"Georgia","lat":31.24332,"lng":-83.64775,"zip":"31771","miles_from_dt":29.23},{"city":"Hartsfield","state_name":"Georgia","lat":31.17558,"lng":-83.96224,"zip":"31756","miles_from_dt":29.38},{"city":"Madison","state_name":"Florida","lat":30.45651,"lng":-83.42667,"zip":"32340","miles_from_dt":29.52},{"city":"Valdosta","state_name":"Georgia","lat":30.7963,"lng":-83.18647,"zip":"31606","miles_from_dt":29.87},{"city":"Tallahassee","state_name":"Florida","lat":30.57174,"lng":-84.10128,"zip":"32309","miles_from_dt":29.98}],"targetCityZipCode":"31629","targetCityState":"Georgia"},"__N_SSG":true}