{"pageProps":{"stateName":"Georgia","cityName":"donalsonville","nearbyCities":[{"city":"Iron City","state_name":"Georgia","lat":30.99493,"lng":-84.80731,"zip":"39859","miles_from_dt":5.97},{"city":"Brinson","state_name":"Georgia","lat":30.92359,"lng":-84.73496,"zip":"39825","miles_from_dt":9.58},{"city":"Bascom","state_name":"Florida","lat":30.94496,"lng":-85.06073,"zip":"32423","miles_from_dt":9.95},{"city":"Sneads","state_name":"Florida","lat":30.77565,"lng":-84.94949,"zip":"32460","miles_from_dt":12.47},{"city":"Jakin","state_name":"Georgia","lat":31.13635,"lng":-84.9884,"zip":"39861","miles_from_dt":14.02},{"city":"Greenwood","state_name":"Florida","lat":30.86586,"lng":-85.11695,"zip":"32443","miles_from_dt":14.5},{"city":"Gordon","state_name":"Alabama","lat":31.05753,"lng":-85.11812,"zip":"36343","miles_from_dt":15.26},{"city":"Bainbridge","state_name":"Georgia","lat":30.93953,"lng":-84.59132,"zip":"39817","miles_from_dt":17.95},{"city":"Malone","state_name":"Florida","lat":30.96924,"lng":-85.19504,"zip":"32445","miles_from_dt":17.96},{"city":"Cedar Springs","state_name":"Georgia","lat":31.19304,"lng":-85.0257,"zip":"39832","miles_from_dt":18.49},{"city":"Bainbridge","state_name":"Georgia","lat":30.78485,"lng":-84.64297,"zip":"39819","miles_from_dt":18.73},{"city":"Bainbridge","state_name":"Georgia","lat":30.90795,"lng":-84.57878,"zip":"39818","miles_from_dt":18.9},{"city":"Colquitt","state_name":"Georgia","lat":31.15321,"lng":-84.67283,"zip":"39837","miles_from_dt":19.15},{"city":"Grand Ridge","state_name":"Florida","lat":30.68531,"lng":-85.00829,"zip":"32442","miles_from_dt":19.48},{"city":"Cypress","state_name":"Florida","lat":30.71415,"lng":-85.07727,"zip":"32432","miles_from_dt":19.59},{"city":"Pansey","state_name":"Alabama","lat":31.13175,"lng":-85.15688,"zip":"36370","miles_from_dt":20.03},{"city":"Marianna","state_name":"Florida","lat":30.85296,"lng":-85.22784,"zip":"32447","miles_from_dt":20.97},{"city":"Chattahoochee","state_name":"Florida","lat":30.65635,"lng":-84.79126,"zip":"32324","miles_from_dt":21.13},{"city":"Marianna","state_name":"Florida","lat":30.84493,"lng":-85.23017,"zip":"32446","miles_from_dt":21.28},{"city":"Fowlstown","state_name":"Georgia","lat":30.79908,"lng":-84.55414,"zip":"39852","miles_from_dt":22.68},{"city":"Ashford","state_name":"Alabama","lat":31.16748,"lng":-85.23867,"zip":"36312","miles_from_dt":25.37},{"city":"Cottonwood","state_name":"Alabama","lat":31.05105,"lng":-85.31765,"zip":"36320","miles_from_dt":26.13},{"city":"Damascus","state_name":"Georgia","lat":31.29031,"lng":-84.69124,"zip":"39841","miles_from_dt":26.32},{"city":"Gretna","state_name":"Florida","lat":30.61168,"lng":-84.6657,"zip":"32332","miles_from_dt":26.96},{"city":"Greensboro","state_name":"Florida","lat":30.57859,"lng":-84.74799,"zip":"32330","miles_from_dt":27.01},{"city":"Blakely","state_name":"Georgia","lat":31.34004,"lng":-84.94641,"zip":"39823","miles_from_dt":27.05},{"city":"Marianna","state_name":"Florida","lat":30.66663,"lng":-85.21616,"zip":"32448","miles_from_dt":27.39},{"city":"Quincy","state_name":"Florida","lat":30.6499,"lng":-84.58535,"zip":"32352","miles_from_dt":27.62},{"city":"Attapulgus","state_name":"Georgia","lat":30.74138,"lng":-84.4935,"zip":"39815","miles_from_dt":27.77},{"city":"Climax","state_name":"Georgia","lat":30.89298,"lng":-84.42749,"zip":"39834","miles_from_dt":27.94},{"city":"Campbellton","state_name":"Florida","lat":30.94861,"lng":-85.36714,"zip":"32426","miles_from_dt":28.13},{"city":"Columbia","state_name":"Alabama","lat":31.32367,"lng":-85.14931,"zip":"36319","miles_from_dt":29.87},{"city":"Cowarts","state_name":"Alabama","lat":31.20558,"lng":-85.30093,"zip":"36321","miles_from_dt":29.9}],"targetCityZipCode":"39845","targetCityState":"Georgia"},"__N_SSG":true}