{"pageProps":{"stateName":"Georgia","cityName":"eastanollee","nearbyCities":[{"city":"Toccoa","state_name":"Georgia","lat":34.55549,"lng":-83.32632,"zip":"30577","miles_from_dt":4.86},{"city":"Martin","state_name":"Georgia","lat":34.48143,"lng":-83.18484,"zip":"30557","miles_from_dt":5.03},{"city":"Toccoa Falls","state_name":"Georgia","lat":34.59663,"lng":-83.35411,"zip":"30598","miles_from_dt":8.05},{"city":"Carnesville","state_name":"Georgia","lat":34.36202,"lng":-83.29355,"zip":"30521","miles_from_dt":9.85},{"city":"Lavonia","state_name":"Georgia","lat":34.44473,"lng":-83.08771,"zip":"30553","miles_from_dt":11.11},{"city":"Mount Airy","state_name":"Georgia","lat":34.5596,"lng":-83.46283,"zip":"30563","miles_from_dt":11.72},{"city":"Baldwin","state_name":"Georgia","lat":34.45674,"lng":-83.47474,"zip":"30511","miles_from_dt":12.18},{"city":"Westminster","state_name":"South Carolina","lat":34.65641,"lng":-83.15284,"zip":"29693","miles_from_dt":12.44},{"city":"Homer","state_name":"Georgia","lat":34.35737,"lng":-83.46095,"zip":"30547","miles_from_dt":14.89},{"city":"Canon","state_name":"Georgia","lat":34.33833,"lng":-83.08661,"zip":"30520","miles_from_dt":15.43},{"city":"Bowersville","state_name":"Georgia","lat":34.37535,"lng":-83.03748,"zip":"30516","miles_from_dt":15.9},{"city":"Franklin Springs","state_name":"Georgia","lat":34.28283,"lng":-83.15232,"zip":"30639","miles_from_dt":16.6},{"city":"Fair Play","state_name":"South Carolina","lat":34.50506,"lng":-82.97441,"zip":"29643","miles_from_dt":16.8},{"city":"Long Creek","state_name":"South Carolina","lat":34.76191,"lng":-83.29858,"zip":"29658","miles_from_dt":17.89},{"city":"Royston","state_name":"Georgia","lat":34.26383,"lng":-83.14624,"zip":"30662","miles_from_dt":17.95},{"city":"Tallulah Falls","state_name":"Georgia","lat":34.74242,"lng":-83.39986,"zip":"30573","miles_from_dt":18.08},{"city":"Demorest","state_name":"Georgia","lat":34.58063,"lng":-83.57652,"zip":"30535","miles_from_dt":18.33},{"city":"Cornelia","state_name":"Georgia","lat":34.51017,"lng":-83.59103,"zip":"30531","miles_from_dt":18.39},{"city":"Alto","state_name":"Georgia","lat":34.44194,"lng":-83.58446,"zip":"30510","miles_from_dt":18.51},{"city":"Turnerville","state_name":"Georgia","lat":34.68976,"lng":-83.52623,"zip":"30580","miles_from_dt":19.49},{"city":"Richland","state_name":"South Carolina","lat":34.70479,"lng":-83.02001,"zip":"29675","miles_from_dt":19.84},{"city":"Commerce","state_name":"Georgia","lat":34.22691,"lng":-83.38433,"zip":"30530","miles_from_dt":20.17},{"city":"Seneca","state_name":"South Carolina","lat":34.63365,"lng":-82.93991,"zip":"29678","miles_from_dt":20.79},{"city":"Lakemont","state_name":"Georgia","lat":34.76965,"lng":-83.44575,"zip":"30552","miles_from_dt":20.93},{"city":"Clarkesville","state_name":"Georgia","lat":34.72012,"lng":-83.54166,"zip":"30523","miles_from_dt":21.56},{"city":"Walhalla","state_name":"South Carolina","lat":34.78547,"lng":-83.07669,"zip":"29691","miles_from_dt":22.31},{"city":"Seneca","state_name":"South Carolina","lat":34.68597,"lng":-82.94482,"zip":"29679","miles_from_dt":22.35},{"city":"Wiley","state_name":"Georgia","lat":34.80195,"lng":-83.42405,"zip":"30581","miles_from_dt":22.39},{"city":"Danielsville","state_name":"Georgia","lat":34.17896,"lng":-83.24612,"zip":"30633","miles_from_dt":22.41},{"city":"Townville","state_name":"South Carolina","lat":34.53624,"lng":-82.87658,"zip":"29689","miles_from_dt":22.5},{"city":"Hartwell","state_name":"Georgia","lat":34.36464,"lng":-82.91143,"zip":"30643","miles_from_dt":22.55},{"city":"Ila","state_name":"Georgia","lat":34.17269,"lng":-83.29241,"zip":"30647","miles_from_dt":22.84},{"city":"Commerce","state_name":"Georgia","lat":34.2155,"lng":-83.482,"zip":"30529","miles_from_dt":23.29},{"city":"Commerce","state_name":"Georgia","lat":34.2052,"lng":-83.46061,"zip":"30599","miles_from_dt":23.3},{"city":"Lula","state_name":"Georgia","lat":34.40093,"lng":-83.65926,"zip":"30554","miles_from_dt":23.38},{"city":"Maysville","state_name":"Georgia","lat":34.2683,"lng":-83.56787,"zip":"30558","miles_from_dt":23.55},{"city":"West Union","state_name":"South Carolina","lat":34.77458,"lng":-83.00771,"zip":"29696","miles_from_dt":23.89},{"city":"Tiger","state_name":"Georgia","lat":34.82682,"lng":-83.44539,"zip":"30576","miles_from_dt":24.45},{"city":"Seneca","state_name":"South Carolina","lat":34.75036,"lng":-82.94257,"zip":"29672","miles_from_dt":25.2},{"city":"Newry","state_name":"South Carolina","lat":34.72399,"lng":-82.91413,"zip":"29665","miles_from_dt":25.29},{"city":"Clemson","state_name":"South Carolina","lat":34.69888,"lng":-82.89315,"zip":"29633","miles_from_dt":25.3},{"city":"Mountain Rest","state_name":"South Carolina","lat":34.86393,"lng":-83.15991,"zip":"29664","miles_from_dt":25.61},{"city":"Bowman","state_name":"Georgia","lat":34.18097,"lng":-83.03885,"zip":"30624","miles_from_dt":25.83},{"city":"Gillsville","state_name":"Georgia","lat":34.29781,"lng":-83.64971,"zip":"30543","miles_from_dt":25.97},{"city":"Clemson","state_name":"South Carolina","lat":34.67517,"lng":-82.83978,"zip":"29634","miles_from_dt":27.17},{"city":"Sautee Nacoochee","state_name":"Georgia","lat":34.71219,"lng":-83.68322,"zip":"30571","miles_from_dt":27.65},{"city":"Dewy Rose","state_name":"Georgia","lat":34.20307,"lng":-82.94522,"zip":"30634","miles_from_dt":27.77},{"city":"Clemson","state_name":"South Carolina","lat":34.68133,"lng":-82.81716,"zip":"29631","miles_from_dt":28.52},{"city":"Clayton","state_name":"Georgia","lat":34.91289,"lng":-83.35853,"zip":"30525","miles_from_dt":28.68},{"city":"Clemson","state_name":"South Carolina","lat":34.68501,"lng":-82.8112,"zip":"29632","miles_from_dt":28.93},{"city":"Anderson","state_name":"South Carolina","lat":34.55577,"lng":-82.76294,"zip":"29625","miles_from_dt":29.09},{"city":"Anderson","state_name":"South Carolina","lat":34.46004,"lng":-82.76057,"zip":"29626","miles_from_dt":29.17},{"city":"Hull","state_name":"Georgia","lat":34.08011,"lng":-83.31254,"zip":"30646","miles_from_dt":29.29},{"city":"Mountain City","state_name":"Georgia","lat":34.91937,"lng":-83.38177,"zip":"30562","miles_from_dt":29.38},{"city":"Clermont","state_name":"Georgia","lat":34.47948,"lng":-83.7863,"zip":"30527","miles_from_dt":29.58},{"city":"Nicholson","state_name":"Georgia","lat":34.08802,"lng":-83.41203,"zip":"30565","miles_from_dt":29.79},{"city":"Cleveland","state_name":"Georgia","lat":34.6083,"lng":-83.77589,"zip":"30528","miles_from_dt":29.8},{"city":"La France","state_name":"South Carolina","lat":34.61207,"lng":-82.76134,"zip":"29656","miles_from_dt":29.9}],"targetCityZipCode":"30538","targetCityState":"Georgia"},"__N_SSG":true}