{"pageProps":{"stateName":"Georgia","cityName":"georgetown","nearbyCities":[{"city":"Eufaula","state_name":"Alabama","lat":31.88909,"lng":-85.14373,"zip":"36072","miles_from_dt":5.78},{"city":"Morris","state_name":"Georgia","lat":31.84076,"lng":-84.93684,"zip":"39867","miles_from_dt":6.83},{"city":"Eufaula","state_name":"Alabama","lat":31.93307,"lng":-85.20968,"zip":"36027","miles_from_dt":10.49},{"city":"Fort Gaines","state_name":"Georgia","lat":31.63432,"lng":-85.00086,"zip":"39851","miles_from_dt":16.29},{"city":"Lumpkin","state_name":"Georgia","lat":32.04117,"lng":-84.85407,"zip":"31815","miles_from_dt":16.57},{"city":"Coleman","state_name":"Georgia","lat":31.66293,"lng":-84.87726,"zip":"39836","miles_from_dt":17.32},{"city":"Cuthbert","state_name":"Georgia","lat":31.78874,"lng":-84.75986,"zip":"39840","miles_from_dt":17.83},{"city":"Omaha","state_name":"Georgia","lat":32.14048,"lng":-84.97083,"zip":"31821","miles_from_dt":19.38},{"city":"Cottonton","state_name":"Alabama","lat":32.15039,"lng":-85.08094,"zip":"36851","miles_from_dt":19.61},{"city":"Abbeville","state_name":"Alabama","lat":31.60296,"lng":-85.21229,"zip":"36310","miles_from_dt":20.59},{"city":"Holy Trinity","state_name":"Alabama","lat":32.17073,"lng":-85.12872,"zip":"36859","miles_from_dt":21.44},{"city":"Pittsview","state_name":"Alabama","lat":32.17455,"lng":-85.14892,"zip":"36871","miles_from_dt":21.98},{"city":"Clayton","state_name":"Alabama","lat":31.84562,"lng":-85.4255,"zip":"36016","miles_from_dt":22.2},{"city":"Shorterville","state_name":"Alabama","lat":31.52131,"lng":-85.10355,"zip":"36373","miles_from_dt":24.04},{"city":"Clopton","state_name":"Alabama","lat":31.63532,"lng":-85.38748,"zip":"36317","miles_from_dt":25.55},{"city":"Bluffton","state_name":"Georgia","lat":31.52882,"lng":-84.86552,"zip":"39824","miles_from_dt":25.69},{"city":"Midway","state_name":"Alabama","lat":32.03514,"lng":-85.43945,"zip":"36053","miles_from_dt":25.7},{"city":"Louvale","state_name":"Georgia","lat":32.20531,"lng":-84.8614,"zip":"31814","miles_from_dt":25.77},{"city":"Weston","state_name":"Georgia","lat":31.95501,"lng":-84.61709,"zip":"31832","miles_from_dt":26.09},{"city":"Shellman","state_name":"Georgia","lat":31.73469,"lng":-84.61554,"zip":"39886","miles_from_dt":27.08},{"city":"Edison","state_name":"Georgia","lat":31.56841,"lng":-84.74271,"zip":"39846","miles_from_dt":27.36},{"city":"Richland","state_name":"Georgia","lat":32.1081,"lng":-84.6693,"zip":"31825","miles_from_dt":27.79},{"city":"Fort Mitchell","state_name":"Alabama","lat":32.26897,"lng":-84.99757,"zip":"36856","miles_from_dt":27.85}],"targetCityZipCode":"39854","targetCityState":"Georgia"},"__N_SSG":true}