{"pageProps":{"stateName":"Georgia","cityName":"haddock","nearbyCities":[{"city":"Milledgeville","state_name":"Georgia","lat":33.08,"lng":-83.30219,"zip":"31059","miles_from_dt":7.79},{"city":"Gray","state_name":"Georgia","lat":33.01039,"lng":-83.57292,"zip":"31032","miles_from_dt":9.14},{"city":"Hillsboro","state_name":"Georgia","lat":33.15554,"lng":-83.61644,"zip":"31038","miles_from_dt":11.77},{"city":"Milledgeville","state_name":"Georgia","lat":33.06041,"lng":-83.22816,"zip":"31061","miles_from_dt":12.14},{"city":"Hardwick","state_name":"Georgia","lat":33.05473,"lng":-83.22538,"zip":"31034","miles_from_dt":12.34},{"city":"Milledgeville","state_name":"Georgia","lat":33.04336,"lng":-83.21563,"zip":"31062","miles_from_dt":13.02},{"city":"Macon","state_name":"Georgia","lat":32.90665,"lng":-83.60435,"zip":"31211","miles_from_dt":15.24},{"city":"Gordon","state_name":"Georgia","lat":32.87424,"lng":-83.32555,"zip":"31031","miles_from_dt":15.36},{"city":"Macon","state_name":"Georgia","lat":32.84506,"lng":-83.50568,"zip":"31217","miles_from_dt":16.46},{"city":"Eatonton","state_name":"Georgia","lat":33.32344,"lng":-83.36987,"zip":"31024","miles_from_dt":17.44},{"city":"Eatonton","state_name":"Georgia","lat":33.33,"lng":-83.39219,"zip":"31026","miles_from_dt":17.65},{"city":"McIntyre","state_name":"Georgia","lat":32.88214,"lng":-83.20723,"zip":"31054","miles_from_dt":18.89},{"city":"Macon","state_name":"Georgia","lat":32.87909,"lng":-83.66496,"zip":"31209","miles_from_dt":19.01},{"city":"Macon","state_name":"Georgia","lat":32.81058,"lng":-83.57104,"zip":"31295","miles_from_dt":19.93},{"city":"Macon","state_name":"Georgia","lat":32.8087,"lng":-83.5695,"zip":"31296","miles_from_dt":20.02},{"city":"Macon","state_name":"Georgia","lat":32.83749,"lng":-83.63235,"zip":"31294","miles_from_dt":20.03},{"city":"Macon","state_name":"Georgia","lat":32.84009,"lng":-83.63937,"zip":"31213","miles_from_dt":20.12},{"city":"Juliette","state_name":"Georgia","lat":33.05237,"lng":-83.78302,"zip":"31046","miles_from_dt":20.18},{"city":"Macon","state_name":"Georgia","lat":32.83405,"lng":-83.63221,"zip":"31202","miles_from_dt":20.22},{"city":"Macon","state_name":"Georgia","lat":32.83118,"lng":-83.63993,"zip":"31208","miles_from_dt":20.64},{"city":"Macon","state_name":"Georgia","lat":32.86733,"lng":-83.6931,"zip":"31203","miles_from_dt":20.74},{"city":"Macon","state_name":"Georgia","lat":32.84996,"lng":-83.67609,"zip":"31204","miles_from_dt":20.92},{"city":"Macon","state_name":"Georgia","lat":32.81433,"lng":-83.61846,"zip":"31201","miles_from_dt":20.94},{"city":"Macon","state_name":"Georgia","lat":32.90486,"lng":-83.7356,"zip":"31210","miles_from_dt":21.02},{"city":"Macon","state_name":"Georgia","lat":32.82859,"lng":-83.64928,"zip":"31207","miles_from_dt":21.1},{"city":"Monticello","state_name":"Georgia","lat":33.29031,"lng":-83.69986,"zip":"31064","miles_from_dt":21.21},{"city":"Bolingbroke","state_name":"Georgia","lat":32.95167,"lng":-83.80536,"zip":"31004","miles_from_dt":23.09},{"city":"Macon","state_name":"Georgia","lat":32.80886,"lng":-83.69068,"zip":"31297","miles_from_dt":23.64},{"city":"Macon","state_name":"Georgia","lat":32.79383,"lng":-83.6832,"zip":"31206","miles_from_dt":24.19},{"city":"Macon","state_name":"Georgia","lat":32.88049,"lng":-83.81862,"zip":"31221","miles_from_dt":25.99},{"city":"Macon","state_name":"Georgia","lat":32.75017,"lng":-83.66114,"zip":"31205","miles_from_dt":26.01},{"city":"Macon","state_name":"Georgia","lat":32.87813,"lng":-83.8209,"zip":"31220","miles_from_dt":26.19},{"city":"Shady Dale","state_name":"Georgia","lat":33.42557,"lng":-83.631,"zip":"31085","miles_from_dt":26.56},{"city":"Irwinton","state_name":"Georgia","lat":32.74421,"lng":-83.16964,"zip":"31042","miles_from_dt":27.66},{"city":"Macon","state_name":"Georgia","lat":32.72885,"lng":-83.67914,"zip":"31216","miles_from_dt":27.81},{"city":"Sparta","state_name":"Georgia","lat":33.26609,"lng":-83.00712,"zip":"31087","miles_from_dt":28.1},{"city":"Flovilla","state_name":"Georgia","lat":33.23951,"lng":-83.88162,"zip":"30216","miles_from_dt":28.14},{"city":"Jeffersonville","state_name":"Georgia","lat":32.66857,"lng":-83.37612,"zip":"31044","miles_from_dt":28.34},{"city":"Forsyth","state_name":"Georgia","lat":33.03894,"lng":-83.92977,"zip":"31029","miles_from_dt":28.75},{"city":"Dry Branch","state_name":"Georgia","lat":32.65376,"lng":-83.501,"zip":"31020","miles_from_dt":29.38},{"city":"Toomsboro","state_name":"Georgia","lat":32.79599,"lng":-83.0512,"zip":"31090","miles_from_dt":29.58}],"targetCityZipCode":"31033","targetCityState":"Georgia"},"__N_SSG":true}