{"pageProps":{"stateName":"Georgia","cityName":"kennesaw","nearbyCities":[{"city":"Kennesaw","state_name":"Georgia","lat":33.99435,"lng":-84.6474,"zip":"30152","miles_from_dt":4.33},{"city":"Kennesaw","state_name":"Georgia","lat":33.99,"lng":-84.65219,"zip":"30156","miles_from_dt":4.73},{"city":"Kennesaw","state_name":"Georgia","lat":33.99,"lng":-84.65219,"zip":"30160","miles_from_dt":4.73},{"city":"Marietta","state_name":"Georgia","lat":34.034,"lng":-84.50798,"zip":"30066","miles_from_dt":4.81},{"city":"Marietta","state_name":"Georgia","lat":33.96331,"lng":-84.55106,"zip":"30007","miles_from_dt":5.57},{"city":"Acworth","state_name":"Georgia","lat":34.10857,"lng":-84.64622,"zip":"30102","miles_from_dt":5.86},{"city":"Marietta","state_name":"Georgia","lat":33.953,"lng":-84.54837,"zip":"30090","miles_from_dt":6.28},{"city":"Marietta","state_name":"Georgia","lat":33.95373,"lng":-84.54116,"zip":"30006","miles_from_dt":6.41},{"city":"Woodstock","state_name":"Georgia","lat":34.12835,"lng":-84.57148,"zip":"30189","miles_from_dt":6.42},{"city":"Acworth","state_name":"Georgia","lat":34.04355,"lng":-84.71244,"zip":"30101","miles_from_dt":6.94},{"city":"Marietta","state_name":"Georgia","lat":33.93809,"lng":-84.61691,"zip":"30064","miles_from_dt":6.95},{"city":"Marietta","state_name":"Georgia","lat":33.99977,"lng":-84.46899,"zip":"30062","miles_from_dt":7.49},{"city":"Marietta","state_name":"Georgia","lat":33.92851,"lng":-84.52209,"zip":"30063","miles_from_dt":8.46},{"city":"Marietta","state_name":"Georgia","lat":33.9209,"lng":-84.543,"zip":"30060","miles_from_dt":8.46},{"city":"Marietta","state_name":"Georgia","lat":33.92008,"lng":-84.54407,"zip":"30061","miles_from_dt":8.49},{"city":"Marietta","state_name":"Georgia","lat":34.04721,"lng":-84.44248,"zip":"30065","miles_from_dt":8.59},{"city":"Marietta","state_name":"Georgia","lat":33.91691,"lng":-84.51797,"zip":"30069","miles_from_dt":9.28},{"city":"Marietta","state_name":"Georgia","lat":33.8966,"lng":-84.58847,"zip":"30008","miles_from_dt":9.66},{"city":"Woodstock","state_name":"Georgia","lat":34.11873,"lng":-84.45526,"zip":"30188","miles_from_dt":9.66},{"city":"Marietta","state_name":"Georgia","lat":33.96887,"lng":-84.43273,"zip":"30068","miles_from_dt":10.26},{"city":"Marietta","state_name":"Georgia","lat":33.93286,"lng":-84.46187,"zip":"30067","miles_from_dt":10.34},{"city":"Holly Springs","state_name":"Georgia","lat":34.17547,"lng":-84.49804,"zip":"30142","miles_from_dt":10.97},{"city":"Emerson","state_name":"Georgia","lat":34.11657,"lng":-84.7657,"zip":"30137","miles_from_dt":11.39},{"city":"Roswell","state_name":"Georgia","lat":34.05282,"lng":-84.38739,"zip":"30075","miles_from_dt":11.78},{"city":"Smyrna","state_name":"Georgia","lat":33.87864,"lng":-84.5053,"zip":"30080","miles_from_dt":11.97},{"city":"Smyrna","state_name":"Georgia","lat":33.87002,"lng":-84.51826,"zip":"30081","miles_from_dt":12.24},{"city":"Atlanta","state_name":"Georgia","lat":33.89746,"lng":-84.45155,"zip":"30384","miles_from_dt":12.53},{"city":"Powder Springs","state_name":"Georgia","lat":33.87647,"lng":-84.69648,"zip":"30127","miles_from_dt":12.58},{"city":"Smyrna","state_name":"Georgia","lat":33.85517,"lng":-84.5373,"zip":"30082","miles_from_dt":12.9},{"city":"Roswell","state_name":"Georgia","lat":34.04033,"lng":-84.35459,"zip":"30077","miles_from_dt":13.61},{"city":"Atlanta","state_name":"Georgia","lat":33.93452,"lng":-84.38865,"zip":"30358","miles_from_dt":13.62},{"city":"Atlanta","state_name":"Georgia","lat":33.86786,"lng":-84.46483,"zip":"30339","miles_from_dt":13.73},{"city":"Atlanta","state_name":"Georgia","lat":33.93194,"lng":-84.38617,"zip":"30328","miles_from_dt":13.84},{"city":"Atlanta","state_name":"Georgia","lat":33.95996,"lng":-84.36491,"zip":"31156","miles_from_dt":14.06},{"city":"Austell","state_name":"Georgia","lat":33.83476,"lng":-84.62947,"zip":"30106","miles_from_dt":14.09},{"city":"Clarkdale","state_name":"Georgia","lat":33.8318,"lng":-84.65499,"zip":"30111","miles_from_dt":14.58},{"city":"Canton","state_name":"Georgia","lat":34.24433,"lng":-84.5393,"zip":"30114","miles_from_dt":14.62},{"city":"Canton","state_name":"Georgia","lat":34.24724,"lng":-84.52159,"zip":"30169","miles_from_dt":15.06},{"city":"Lebanon","state_name":"Georgia","lat":34.22525,"lng":-84.4583,"zip":"30146","miles_from_dt":15.08},{"city":"Atlanta","state_name":"Georgia","lat":33.86708,"lng":-84.42358,"zip":"30327","miles_from_dt":15.17},{"city":"Atlanta","state_name":"Georgia","lat":33.98237,"lng":-84.33368,"zip":"31150","miles_from_dt":15.28},{"city":"Dallas","state_name":"Georgia","lat":33.99042,"lng":-84.85279,"zip":"30132","miles_from_dt":15.32},{"city":"Atlanta","state_name":"Georgia","lat":33.97881,"lng":-84.33366,"zip":"30350","miles_from_dt":15.34},{"city":"Mableton","state_name":"Georgia","lat":33.81588,"lng":-84.55171,"zip":"30126","miles_from_dt":15.39},{"city":"Roswell","state_name":"Georgia","lat":34.02777,"lng":-84.31723,"zip":"30076","miles_from_dt":15.76},{"city":"Hiram","state_name":"Georgia","lat":33.86244,"lng":-84.77521,"zip":"30141","miles_from_dt":15.98},{"city":"Cartersville","state_name":"Georgia","lat":34.21073,"lng":-84.77802,"zip":"30121","miles_from_dt":16.06},{"city":"Atlanta","state_name":"Georgia","lat":33.94736,"lng":-84.33079,"zip":"30356","miles_from_dt":16.2},{"city":"Atlanta","state_name":"Georgia","lat":33.92544,"lng":-84.34121,"zip":"31146","miles_from_dt":16.3},{"city":"Canton","state_name":"Georgia","lat":34.21296,"lng":-84.40138,"zip":"30115","miles_from_dt":16.33},{"city":"Atlanta","state_name":"Georgia","lat":33.88227,"lng":-84.37429,"zip":"30342","miles_from_dt":16.41},{"city":"Atlanta","state_name":"Georgia","lat":33.92425,"lng":-84.33881,"zip":"30346","miles_from_dt":16.46},{"city":"Alpharetta","state_name":"Georgia","lat":34.07711,"lng":-84.3029,"zip":"30009","miles_from_dt":16.8},{"city":"Atlanta","state_name":"Georgia","lat":33.8559,"lng":-84.3953,"zip":"30301","miles_from_dt":16.81},{"city":"Atlanta","state_name":"Georgia","lat":33.9437,"lng":-84.31801,"zip":"30338","miles_from_dt":16.97},{"city":"White","state_name":"Georgia","lat":34.26042,"lng":-84.71603,"zip":"30184","miles_from_dt":16.98},{"city":"Atlanta","state_name":"Georgia","lat":33.80789,"lng":-84.47493,"zip":"31196","miles_from_dt":17.14},{"city":"Atlanta","state_name":"Georgia","lat":33.80607,"lng":-84.47752,"zip":"31195","miles_from_dt":17.2},{"city":"Austell","state_name":"Georgia","lat":33.78354,"lng":-84.58765,"zip":"30168","miles_from_dt":17.45},{"city":"Atlanta","state_name":"Georgia","lat":33.80358,"lng":-84.47134,"zip":"30369","miles_from_dt":17.49},{"city":"Cartersville","state_name":"Georgia","lat":34.16639,"lng":-84.85597,"zip":"30120","miles_from_dt":17.59},{"city":"Atlanta","state_name":"Georgia","lat":33.83533,"lng":-84.39267,"zip":"30348","miles_from_dt":17.98},{"city":"Atlanta","state_name":"Georgia","lat":33.83518,"lng":-84.38931,"zip":"30305","miles_from_dt":18.12},{"city":"Atlanta","state_name":"Georgia","lat":33.87875,"lng":-84.33596,"zip":"30319","miles_from_dt":18.29},{"city":"Alpharetta","state_name":"Georgia","lat":34.14352,"lng":-84.29926,"zip":"30004","miles_from_dt":18.32},{"city":"Atlanta","state_name":"Georgia","lat":33.84957,"lng":-84.36342,"zip":"30326","miles_from_dt":18.4},{"city":"Alpharetta","state_name":"Georgia","lat":34.06763,"lng":-84.27115,"zip":"30023","miles_from_dt":18.52},{"city":"Atlanta","state_name":"Georgia","lat":33.84792,"lng":-84.35905,"zip":"31126","miles_from_dt":18.65},{"city":"Atlanta","state_name":"Georgia","lat":33.79305,"lng":-84.45011,"zip":"30377","miles_from_dt":18.66},{"city":"Atlanta","state_name":"Georgia","lat":33.79235,"lng":-84.44831,"zip":"30318","miles_from_dt":18.75},{"city":"Atlanta","state_name":"Georgia","lat":33.79199,"lng":-84.44728,"zip":"30325","miles_from_dt":18.8},{"city":"Atlanta","state_name":"Georgia","lat":33.85704,"lng":-84.34441,"zip":"31119","miles_from_dt":18.85},{"city":"Atlanta","state_name":"Georgia","lat":33.83545,"lng":-84.3664,"zip":"30355","miles_from_dt":18.97},{"city":"Lithia Springs","state_name":"Georgia","lat":33.76329,"lng":-84.6386,"zip":"30122","miles_from_dt":19.04},{"city":"Dallas","state_name":"Georgia","lat":33.88641,"lng":-84.8731,"zip":"30157","miles_from_dt":19.19},{"city":"Atlanta","state_name":"Georgia","lat":33.75762,"lng":-84.55068,"zip":"30378","miles_from_dt":19.38},{"city":"Atlanta","state_name":"Georgia","lat":33.93198,"lng":-84.27302,"zip":"30360","miles_from_dt":19.67},{"city":"Alpharetta","state_name":"Georgia","lat":34.02745,"lng":-84.24643,"zip":"30022","miles_from_dt":19.83},{"city":"Atlanta","state_name":"Georgia","lat":33.8196,"lng":-84.3572,"zip":"30324","miles_from_dt":20.14},{"city":"Atlanta","state_name":"Georgia","lat":33.89074,"lng":-84.28763,"zip":"39901","miles_from_dt":20.16},{"city":"Atlanta","state_name":"Georgia","lat":33.79906,"lng":-84.38717,"zip":"30357","miles_from_dt":20.16},{"city":"Atlanta","state_name":"Georgia","lat":33.88711,"lng":-84.28992,"zip":"30341","miles_from_dt":20.17},{"city":"Atlanta","state_name":"Georgia","lat":33.798,"lng":-84.38774,"zip":"30309","miles_from_dt":20.2},{"city":"Atlanta","state_name":"Georgia","lat":33.79147,"lng":-84.39887,"zip":"30363","miles_from_dt":20.21},{"city":"Atlanta","state_name":"Georgia","lat":33.88753,"lng":-84.28764,"zip":"30366","miles_from_dt":20.27},{"city":"Atlanta","state_name":"Georgia","lat":33.90087,"lng":-84.27643,"zip":"30362","miles_from_dt":20.38},{"city":"Atlanta","state_name":"Georgia","lat":33.73718,"lng":-84.56768,"zip":"30336","miles_from_dt":20.69},{"city":"Waleska","state_name":"Georgia","lat":34.33854,"lng":-84.59762,"zip":"30183","miles_from_dt":20.81},{"city":"Atlanta","state_name":"Georgia","lat":33.77757,"lng":-84.40429,"zip":"30332","miles_from_dt":20.86},{"city":"Peachtree Corners","state_name":"Georgia","lat":33.97145,"lng":-84.23537,"zip":"30092","miles_from_dt":20.95},{"city":"Atlanta","state_name":"Georgia","lat":33.7899,"lng":-84.37874,"zip":"30361","miles_from_dt":20.96},{"city":"Cassville","state_name":"Georgia","lat":34.24806,"lng":-84.85599,"zip":"30123","miles_from_dt":21.01},{"city":"Douglasville","state_name":"Georgia","lat":33.77436,"lng":-84.78241,"zip":"30134","miles_from_dt":21.14},{"city":"Atlanta","state_name":"Georgia","lat":33.82625,"lng":-84.32282,"zip":"30329","miles_from_dt":21.19},{"city":"Atlanta","state_name":"Georgia","lat":33.76216,"lng":-84.42469,"zip":"30371","miles_from_dt":21.22},{"city":"Atlanta","state_name":"Georgia","lat":33.75787,"lng":-84.43193,"zip":"30314","miles_from_dt":21.3},{"city":"Atlanta","state_name":"Georgia","lat":33.82281,"lng":-84.32317,"zip":"30359","miles_from_dt":21.34},{"city":"Atlanta","state_name":"Georgia","lat":33.76151,"lng":-84.4198,"zip":"31141","miles_from_dt":21.39},{"city":"Atlanta","state_name":"Georgia","lat":33.77521,"lng":-84.38943,"zip":"30375","miles_from_dt":21.45},{"city":"Alpharetta","state_name":"Georgia","lat":34.08582,"lng":-84.22158,"zip":"30005","miles_from_dt":21.5},{"city":"Douglasville","state_name":"Georgia","lat":33.73502,"lng":-84.70208,"zip":"30133","miles_from_dt":21.74},{"city":"Atlanta","state_name":"Georgia","lat":33.89808,"lng":-84.25113,"zip":"30340","miles_from_dt":21.77},{"city":"Atlanta","state_name":"Georgia","lat":33.72004,"lng":-84.58739,"zip":"31136","miles_from_dt":21.83},{"city":"Atlanta","state_name":"Georgia","lat":33.85082,"lng":-84.28317,"zip":"30345","miles_from_dt":21.87},{"city":"Atlanta","state_name":"Georgia","lat":33.76369,"lng":-84.39761,"zip":"30313","miles_from_dt":21.88},{"city":"Atlanta","state_name":"Georgia","lat":33.78762,"lng":-84.35552,"zip":"31106","miles_from_dt":21.89},{"city":"Atlanta","state_name":"Georgia","lat":33.85314,"lng":-84.27962,"zip":"31145","miles_from_dt":21.94},{"city":"Atlanta","state_name":"Georgia","lat":33.78867,"lng":-84.35136,"zip":"30306","miles_from_dt":21.98},{"city":"Norcross","state_name":"Georgia","lat":33.96606,"lng":-84.21844,"zip":"30010","miles_from_dt":21.98},{"city":"Douglasville","state_name":"Georgia","lat":33.74428,"lng":-84.74696,"zip":"30154","miles_from_dt":22.04},{"city":"Atlanta","state_name":"Georgia","lat":33.77094,"lng":-84.37773,"zip":"30308","miles_from_dt":22.06},{"city":"Taylorsville","state_name":"Georgia","lat":34.09709,"lng":-84.97051,"zip":"30178","miles_from_dt":22.12},{"city":"Atlanta","state_name":"Georgia","lat":33.7612,"lng":-84.38535,"zip":"31193","miles_from_dt":22.39},{"city":"Atlanta","state_name":"Georgia","lat":33.75541,"lng":-84.39264,"zip":"30392","miles_from_dt":22.51},{"city":"Atlanta","state_name":"Georgia","lat":33.75632,"lng":-84.38955,"zip":"30321","miles_from_dt":22.55},{"city":"Atlanta","state_name":"Georgia","lat":33.72345,"lng":-84.47442,"zip":"30311","miles_from_dt":22.62},{"city":"Atlanta","state_name":"Georgia","lat":33.75384,"lng":-84.39217,"zip":"30343","miles_from_dt":22.62},{"city":"Atlanta","state_name":"Georgia","lat":33.7948,"lng":-84.32539,"zip":"30322","miles_from_dt":22.63},{"city":"Atlanta","state_name":"Georgia","lat":33.79574,"lng":-84.32339,"zip":"30333","miles_from_dt":22.66},{"city":"Atlanta","state_name":"Georgia","lat":33.75545,"lng":-84.3876,"zip":"30302","miles_from_dt":22.66},{"city":"Atlanta","state_name":"Georgia","lat":33.7528,"lng":-84.39264,"zip":"30394","miles_from_dt":22.67},{"city":"Atlanta","state_name":"Georgia","lat":33.7533,"lng":-84.39141,"zip":"30353","miles_from_dt":22.67},{"city":"Atlanta","state_name":"Georgia","lat":33.75284,"lng":-84.39028,"zip":"30303","miles_from_dt":22.74},{"city":"Atlanta","state_name":"Georgia","lat":33.75225,"lng":-84.38899,"zip":"30370","miles_from_dt":22.81},{"city":"Atlanta","state_name":"Georgia","lat":33.70627,"lng":-84.54439,"zip":"30331","miles_from_dt":22.94},{"city":"Atlanta","state_name":"Georgia","lat":33.7057,"lng":-84.5472,"zip":"31131","miles_from_dt":22.96},{"city":"Atlanta","state_name":"Georgia","lat":33.74855,"lng":-84.38804,"zip":"30334","miles_from_dt":23.06},{"city":"Norcross","state_name":"Georgia","lat":33.93977,"lng":-84.20561,"zip":"30071","miles_from_dt":23.15},{"city":"Atlanta","state_name":"Georgia","lat":33.74811,"lng":-84.38492,"zip":"31139","miles_from_dt":23.17},{"city":"Atlanta","state_name":"Georgia","lat":33.76358,"lng":-84.35157,"zip":"31107","miles_from_dt":23.34},{"city":"Atlanta","state_name":"Georgia","lat":33.72695,"lng":-84.42726,"zip":"30310","miles_from_dt":23.35},{"city":"Decatur","state_name":"Georgia","lat":33.81342,"lng":-84.28355,"zip":"30033","miles_from_dt":23.46},{"city":"Atlanta","state_name":"Georgia","lat":33.77053,"lng":-84.33419,"zip":"30307","miles_from_dt":23.57},{"city":"Atlanta","state_name":"Georgia","lat":33.74463,"lng":-84.37577,"zip":"30312","miles_from_dt":23.65},{"city":"Rydal","state_name":"Georgia","lat":34.36122,"lng":-84.73584,"zip":"30171","miles_from_dt":23.84},{"city":"Tucker","state_name":"Georgia","lat":33.85701,"lng":-84.22299,"zip":"30085","miles_from_dt":24.54},{"city":"Norcross","state_name":"Georgia","lat":33.94642,"lng":-84.17501,"zip":"30091","miles_from_dt":24.72},{"city":"Ball Ground","state_name":"Georgia","lat":34.3352,"lng":-84.34744,"zip":"30107","miles_from_dt":24.88},{"city":"Tucker","state_name":"Georgia","lat":33.85457,"lng":-84.21657,"zip":"30084","miles_from_dt":24.94},{"city":"Decatur","state_name":"Georgia","lat":33.77435,"lng":-84.2919,"zip":"30036","miles_from_dt":24.98},{"city":"Decatur","state_name":"Georgia","lat":33.7721,"lng":-84.29135,"zip":"30030","miles_from_dt":25.11},{"city":"Norcross","state_name":"Georgia","lat":33.90879,"lng":-84.17839,"zip":"30093","miles_from_dt":25.32},{"city":"Atlanta","state_name":"Georgia","lat":33.74913,"lng":-84.31537,"zip":"30317","miles_from_dt":25.4},{"city":"Duluth","state_name":"Georgia","lat":34.0271,"lng":-84.14702,"zip":"30097","miles_from_dt":25.53},{"city":"Scottdale","state_name":"Georgia","lat":33.79173,"lng":-84.25839,"zip":"30079","miles_from_dt":25.54},{"city":"Decatur","state_name":"Georgia","lat":33.7672,"lng":-84.28548,"zip":"30031","miles_from_dt":25.59},{"city":"Duluth","state_name":"Georgia","lat":34.02556,"lng":-84.14541,"zip":"30098","miles_from_dt":25.62},{"city":"Clarkston","state_name":"Georgia","lat":33.80803,"lng":-84.23909,"zip":"30021","miles_from_dt":25.67},{"city":"Duluth","state_name":"Georgia","lat":33.98012,"lng":-84.14934,"zip":"30099","miles_from_dt":25.69},{"city":"North Metro","state_name":"Georgia","lat":33.97658,"lng":-84.15005,"zip":"30026","miles_from_dt":25.69},{"city":"Duluth","state_name":"Georgia","lat":33.97752,"lng":-84.1487,"zip":"30095","miles_from_dt":25.76},{"city":"Duluth","state_name":"Georgia","lat":33.97691,"lng":-84.14791,"zip":"30096","miles_from_dt":25.81},{"city":"North Metro","state_name":"Georgia","lat":33.97794,"lng":-84.14769,"zip":"30029","miles_from_dt":25.81},{"city":"Atlanta","state_name":"Georgia","lat":33.70312,"lng":-84.38272,"zip":"30315","miles_from_dt":25.94},{"city":"Atlanta","state_name":"Georgia","lat":33.676,"lng":-84.462,"zip":"30364","miles_from_dt":25.96},{"city":"Atlanta","state_name":"Georgia","lat":33.67508,"lng":-84.46029,"zip":"30344","miles_from_dt":26.05},{"city":"Avondale Estates","state_name":"Georgia","lat":33.77309,"lng":-84.26093,"zip":"30002","miles_from_dt":26.3},{"city":"Kingston","state_name":"Georgia","lat":34.24177,"lng":-84.98076,"zip":"30145","miles_from_dt":26.4},{"city":"Atlanta","state_name":"Georgia","lat":33.67439,"lng":-84.44161,"zip":"30385","miles_from_dt":26.42},{"city":"Douglasville","state_name":"Georgia","lat":33.67285,"lng":-84.74523,"zip":"30135","miles_from_dt":26.59},{"city":"Cumming","state_name":"Georgia","lat":34.21622,"lng":-84.17978,"zip":"30040","miles_from_dt":26.66},{"city":"Atlanta","state_name":"Georgia","lat":33.71277,"lng":-84.33218,"zip":"30316","miles_from_dt":26.85},{"city":"Rockmart","state_name":"Georgia","lat":33.96678,"lng":-85.05425,"zip":"30153","miles_from_dt":26.98},{"city":"Nelson","state_name":"Georgia","lat":34.3824,"lng":-84.3693,"zip":"30151","miles_from_dt":27.02},{"city":"Aragon","state_name":"Georgia","lat":34.0879,"lng":-85.06982,"zip":"30104","miles_from_dt":27.65},{"city":"Decatur","state_name":"Georgia","lat":33.73987,"lng":-84.2641,"zip":"30032","miles_from_dt":27.81},{"city":"Pine Lake","state_name":"Georgia","lat":33.79115,"lng":-84.20598,"zip":"30072","miles_from_dt":27.89},{"city":"Fairmount","state_name":"Georgia","lat":34.43346,"lng":-84.70575,"zip":"30139","miles_from_dt":28.11},{"city":"Stone Mountain","state_name":"Georgia","lat":33.79641,"lng":-84.19231,"zip":"30083","miles_from_dt":28.3},{"city":"Lilburn","state_name":"Georgia","lat":33.90025,"lng":-84.1255,"zip":"30048","miles_from_dt":28.38},{"city":"Tate","state_name":"Georgia","lat":34.40705,"lng":-84.37401,"zip":"30177","miles_from_dt":28.41},{"city":"Atlanta","state_name":"Georgia","lat":33.66058,"lng":-84.38609,"zip":"30354","miles_from_dt":28.49},{"city":"Atlanta","state_name":"Georgia","lat":33.64019,"lng":-84.44962,"zip":"30337","miles_from_dt":28.53},{"city":"Atlanta","state_name":"Georgia","lat":33.62387,"lng":-84.53472,"zip":"31192","miles_from_dt":28.64},{"city":"Atlanta","state_name":"Georgia","lat":33.62346,"lng":-84.52591,"zip":"30349","miles_from_dt":28.73},{"city":"Suwanee","state_name":"Georgia","lat":34.06341,"lng":-84.09116,"zip":"30024","miles_from_dt":28.78},{"city":"Villa Rica","state_name":"Georgia","lat":33.72018,"lng":-84.91956,"zip":"30180","miles_from_dt":28.83},{"city":"Atlanta","state_name":"Georgia","lat":33.65155,"lng":-84.39425,"zip":"30304","miles_from_dt":28.87},{"city":"Red Oak","state_name":"Georgia","lat":33.62313,"lng":-84.50175,"zip":"30272","miles_from_dt":28.97},{"city":"Atlanta","state_name":"Georgia","lat":33.64917,"lng":-84.39257,"zip":"30368","miles_from_dt":29.06},{"city":"Atlanta","state_name":"Georgia","lat":33.65034,"lng":-84.38904,"zip":"30398","miles_from_dt":29.07},{"city":"Atlanta","state_name":"Georgia","lat":33.63564,"lng":-84.43329,"zip":"30320","miles_from_dt":29.11},{"city":"Atlanta","state_name":"Georgia","lat":33.64767,"lng":-84.39374,"zip":"30396","miles_from_dt":29.13},{"city":"Atlanta","state_name":"Georgia","lat":33.64785,"lng":-84.3884,"zip":"30388","miles_from_dt":29.24},{"city":"Atlanta","state_name":"Georgia","lat":33.64631,"lng":-84.38951,"zip":"30380","miles_from_dt":29.31},{"city":"Cumming","state_name":"Georgia","lat":34.28928,"lng":-84.17985,"zip":"30028","miles_from_dt":29.33},{"city":"Adairsville","state_name":"Georgia","lat":34.36457,"lng":-84.92014,"zip":"30103","miles_from_dt":29.4},{"city":"Lilburn","state_name":"Georgia","lat":33.87104,"lng":-84.11304,"zip":"30047","miles_from_dt":29.77}],"targetCityZipCode":"30144","targetCityState":"Georgia"},"__N_SSG":true}