{"pageProps":{"stateName":"Georgia","cityName":"leary","nearbyCities":[{"city":"Morgan","state_name":"Georgia","lat":31.55954,"lng":-84.60553,"zip":"39866","miles_from_dt":8.82},{"city":"Arlington","state_name":"Georgia","lat":31.42631,"lng":-84.68361,"zip":"39813","miles_from_dt":10.11},{"city":"Newton","state_name":"Georgia","lat":31.31944,"lng":-84.41071,"zip":"39870","miles_from_dt":11.34},{"city":"Albany","state_name":"Georgia","lat":31.5087,"lng":-84.30331,"zip":"31721","miles_from_dt":13.06},{"city":"Edison","state_name":"Georgia","lat":31.56841,"lng":-84.74271,"zip":"39846","miles_from_dt":15.42},{"city":"Damascus","state_name":"Georgia","lat":31.29031,"lng":-84.69124,"zip":"39841","miles_from_dt":15.46},{"city":"Shellman","state_name":"Georgia","lat":31.73469,"lng":-84.61554,"zip":"39886","miles_from_dt":20.01},{"city":"Albany","state_name":"Georgia","lat":31.58736,"lng":-84.20689,"zip":"31707","miles_from_dt":20.34},{"city":"Sasser","state_name":"Georgia","lat":31.72189,"lng":-84.34304,"zip":"39885","miles_from_dt":20.92},{"city":"Albany","state_name":"Georgia","lat":31.59825,"lng":-84.19996,"zip":"31702","miles_from_dt":21.05},{"city":"Dawson","state_name":"Georgia","lat":31.75837,"lng":-84.44314,"zip":"39842","miles_from_dt":21.21},{"city":"Bluffton","state_name":"Georgia","lat":31.52882,"lng":-84.86552,"zip":"39824","miles_from_dt":21.21},{"city":"Camilla","state_name":"Georgia","lat":31.20749,"lng":-84.28438,"zip":"31730","miles_from_dt":21.98},{"city":"Albany","state_name":"Georgia","lat":31.57376,"lng":-84.15508,"zip":"31701","miles_from_dt":22.78},{"city":"Albany","state_name":"Georgia","lat":31.57908,"lng":-84.15624,"zip":"31706","miles_from_dt":22.85},{"city":"Colquitt","state_name":"Georgia","lat":31.15321,"lng":-84.67283,"zip":"39837","miles_from_dt":22.89},{"city":"Albany","state_name":"Georgia","lat":31.57707,"lng":-84.15307,"zip":"31703","miles_from_dt":22.97},{"city":"Albany","state_name":"Georgia","lat":31.59339,"lng":-84.14105,"zip":"31708","miles_from_dt":24.05},{"city":"Baconton","state_name":"Georgia","lat":31.36512,"lng":-84.11445,"zip":"31716","miles_from_dt":24.56},{"city":"Coleman","state_name":"Georgia","lat":31.66293,"lng":-84.87726,"zip":"39836","miles_from_dt":25.6},{"city":"Blakely","state_name":"Georgia","lat":31.34004,"lng":-84.94641,"zip":"39823","miles_from_dt":26.67},{"city":"Cuthbert","state_name":"Georgia","lat":31.78874,"lng":-84.75986,"zip":"39840","miles_from_dt":27},{"city":"Bronwood","state_name":"Georgia","lat":31.82092,"lng":-84.32423,"zip":"39826","miles_from_dt":27.51},{"city":"Albany","state_name":"Georgia","lat":31.51169,"lng":-84.05333,"zip":"31705","miles_from_dt":27.58},{"city":"Albany","state_name":"Georgia","lat":31.551,"lng":-84.05634,"zip":"31704","miles_from_dt":27.91},{"city":"Leesburg","state_name":"Georgia","lat":31.73889,"lng":-84.14711,"zip":"31763","miles_from_dt":29.17}],"targetCityZipCode":"39862","targetCityState":"Georgia"},"__N_SSG":true}