{"pageProps":{"stateName":"Georgia","cityName":"macon","nearbyCities":[{"city":"Macon","state_name":"Georgia","lat":32.83405,"lng":-83.63221,"zip":"31202","miles_from_dt":1.58},{"city":"Macon","state_name":"Georgia","lat":32.83118,"lng":-83.63993,"zip":"31208","miles_from_dt":1.71},{"city":"Macon","state_name":"Georgia","lat":32.83749,"lng":-83.63235,"zip":"31294","miles_from_dt":1.79},{"city":"Macon","state_name":"Georgia","lat":32.82859,"lng":-83.64928,"zip":"31207","miles_from_dt":2.04},{"city":"Macon","state_name":"Georgia","lat":32.84009,"lng":-83.63937,"zip":"31213","miles_from_dt":2.15},{"city":"Macon","state_name":"Georgia","lat":32.81058,"lng":-83.57104,"zip":"31295","miles_from_dt":2.77},{"city":"Macon","state_name":"Georgia","lat":32.8087,"lng":-83.5695,"zip":"31296","miles_from_dt":2.88},{"city":"Macon","state_name":"Georgia","lat":32.79383,"lng":-83.6832,"zip":"31206","miles_from_dt":4.02},{"city":"Macon","state_name":"Georgia","lat":32.84996,"lng":-83.67609,"zip":"31204","miles_from_dt":4.16},{"city":"Macon","state_name":"Georgia","lat":32.80886,"lng":-83.69068,"zip":"31297","miles_from_dt":4.22},{"city":"Macon","state_name":"Georgia","lat":32.75017,"lng":-83.66114,"zip":"31205","miles_from_dt":5.07},{"city":"Macon","state_name":"Georgia","lat":32.87909,"lng":-83.66496,"zip":"31209","miles_from_dt":5.22},{"city":"Macon","state_name":"Georgia","lat":32.86733,"lng":-83.6931,"zip":"31203","miles_from_dt":5.67},{"city":"Macon","state_name":"Georgia","lat":32.90665,"lng":-83.60435,"zip":"31211","miles_from_dt":6.41},{"city":"Macon","state_name":"Georgia","lat":32.72885,"lng":-83.67914,"zip":"31216","miles_from_dt":6.87},{"city":"Macon","state_name":"Georgia","lat":32.84506,"lng":-83.50568,"zip":"31217","miles_from_dt":6.89},{"city":"Macon","state_name":"Georgia","lat":32.90486,"lng":-83.7356,"zip":"31210","miles_from_dt":9.24},{"city":"Warner Robins","state_name":"Georgia","lat":32.64815,"lng":-83.65688,"zip":"31093","miles_from_dt":11.67},{"city":"Warner Robins","state_name":"Georgia","lat":32.64314,"lng":-83.63447,"zip":"31099","miles_from_dt":11.83},{"city":"Macon","state_name":"Georgia","lat":32.88049,"lng":-83.81862,"zip":"31221","miles_from_dt":12.5},{"city":"Macon","state_name":"Georgia","lat":32.87813,"lng":-83.8209,"zip":"31220","miles_from_dt":12.57},{"city":"Dry Branch","state_name":"Georgia","lat":32.65376,"lng":-83.501,"zip":"31020","miles_from_dt":13.01},{"city":"Centerville","state_name":"Georgia","lat":32.63164,"lng":-83.68459,"zip":"31028","miles_from_dt":13.17},{"city":"Warner Robins","state_name":"Georgia","lat":32.61964,"lng":-83.59943,"zip":"31095","miles_from_dt":13.46},{"city":"Lizella","state_name":"Georgia","lat":32.7743,"lng":-83.84664,"zip":"31052","miles_from_dt":13.56},{"city":"Warner Robins","state_name":"Georgia","lat":32.61898,"lng":-83.57357,"zip":"31098","miles_from_dt":13.71},{"city":"Gray","state_name":"Georgia","lat":33.01039,"lng":-83.57292,"zip":"31032","miles_from_dt":13.77},{"city":"Bolingbroke","state_name":"Georgia","lat":32.95167,"lng":-83.80536,"zip":"31004","miles_from_dt":14.41},{"city":"Byron","state_name":"Georgia","lat":32.65479,"lng":-83.78287,"zip":"31008","miles_from_dt":14.58},{"city":"Warner Robins","state_name":"Georgia","lat":32.58587,"lng":-83.65528,"zip":"31088","miles_from_dt":15.89},{"city":"Jeffersonville","state_name":"Georgia","lat":32.66857,"lng":-83.37612,"zip":"31044","miles_from_dt":17.32},{"city":"Gordon","state_name":"Georgia","lat":32.87424,"lng":-83.32555,"zip":"31031","miles_from_dt":17.53},{"city":"Bonaire","state_name":"Georgia","lat":32.54533,"lng":-83.59497,"zip":"31005","miles_from_dt":18.59},{"city":"Juliette","state_name":"Georgia","lat":33.05237,"lng":-83.78302,"zip":"31046","miles_from_dt":18.99},{"city":"Knoxville","state_name":"Georgia","lat":32.72924,"lng":-83.94096,"zip":"31050","miles_from_dt":19.67},{"city":"Haddock","state_name":"Georgia","lat":33.07661,"lng":-83.43643,"zip":"31033","miles_from_dt":20.94},{"city":"Musella","state_name":"Georgia","lat":32.80757,"lng":-83.98953,"zip":"31066","miles_from_dt":21.6},{"city":"Fort Valley","state_name":"Georgia","lat":32.56861,"lng":-83.89103,"zip":"31030","miles_from_dt":23.22},{"city":"Hillsboro","state_name":"Georgia","lat":33.15554,"lng":-83.61644,"zip":"31038","miles_from_dt":23.51},{"city":"Forsyth","state_name":"Georgia","lat":33.03894,"lng":-83.92977,"zip":"31029","miles_from_dt":23.81},{"city":"Kathleen","state_name":"Georgia","lat":32.46786,"lng":-83.58009,"zip":"31047","miles_from_dt":23.98},{"city":"McIntyre","state_name":"Georgia","lat":32.88214,"lng":-83.20723,"zip":"31054","miles_from_dt":24.37},{"city":"Milledgeville","state_name":"Georgia","lat":33.08,"lng":-83.30219,"zip":"31059","miles_from_dt":25.94},{"city":"Smarr","state_name":"Georgia","lat":32.8766,"lng":-84.05844,"zip":"31086","miles_from_dt":25.95},{"city":"Danville","state_name":"Georgia","lat":32.62075,"lng":-83.23305,"zip":"31017","miles_from_dt":26.12},{"city":"Irwinton","state_name":"Georgia","lat":32.74421,"lng":-83.16964,"zip":"31042","miles_from_dt":26.57},{"city":"Perry","state_name":"Georgia","lat":32.4406,"lng":-83.74373,"zip":"31069","miles_from_dt":26.77},{"city":"Roberta","state_name":"Georgia","lat":32.6987,"lng":-84.06456,"zip":"31078","miles_from_dt":27.17},{"city":"Allentown","state_name":"Georgia","lat":32.59688,"lng":-83.22299,"zip":"31003","miles_from_dt":27.48},{"city":"Hardwick","state_name":"Georgia","lat":33.05473,"lng":-83.22538,"zip":"31034","miles_from_dt":28.22},{"city":"Milledgeville","state_name":"Georgia","lat":33.04336,"lng":-83.21563,"zip":"31062","miles_from_dt":28.23},{"city":"Milledgeville","state_name":"Georgia","lat":33.06041,"lng":-83.22816,"zip":"31061","miles_from_dt":28.32},{"city":"Culloden","state_name":"Georgia","lat":32.83656,"lng":-84.11477,"zip":"31016","miles_from_dt":28.92}],"targetCityZipCode":"31201","targetCityState":"Georgia"},"__N_SSG":true}