{"pageProps":{"stateName":"Georgia","cityName":"madison","nearbyCities":[{"city":"Rutledge","state_name":"Georgia","lat":33.61572,"lng":-83.60357,"zip":"30663","miles_from_dt":8.07},{"city":"Buckhead","state_name":"Georgia","lat":33.52128,"lng":-83.34211,"zip":"30625","miles_from_dt":8.65},{"city":"Bostwick","state_name":"Georgia","lat":33.73113,"lng":-83.51592,"zip":"30623","miles_from_dt":10.08},{"city":"Newborn","state_name":"Georgia","lat":33.49496,"lng":-83.65068,"zip":"30056","miles_from_dt":12.49},{"city":"Farmington","state_name":"Georgia","lat":33.77004,"lng":-83.42241,"zip":"30638","miles_from_dt":12.62},{"city":"Social Circle","state_name":"Georgia","lat":33.65689,"lng":-83.69869,"zip":"30025","miles_from_dt":14.12},{"city":"Good Hope","state_name":"Georgia","lat":33.77872,"lng":-83.56456,"zip":"30641","miles_from_dt":14.13},{"city":"Bishop","state_name":"Georgia","lat":33.80194,"lng":-83.4791,"zip":"30621","miles_from_dt":14.58},{"city":"Watkinsville","state_name":"Georgia","lat":33.7929,"lng":-83.38186,"zip":"30677","miles_from_dt":14.77},{"city":"Shady Dale","state_name":"Georgia","lat":33.42557,"lng":-83.631,"zip":"31085","miles_from_dt":14.81},{"city":"High Shoals","state_name":"Georgia","lat":33.82076,"lng":-83.50247,"zip":"30645","miles_from_dt":15.99},{"city":"Greensboro","state_name":"Georgia","lat":33.5446,"lng":-83.1832,"zip":"30642","miles_from_dt":16.68},{"city":"Mansfield","state_name":"Georgia","lat":33.49055,"lng":-83.74224,"zip":"30055","miles_from_dt":17.32},{"city":"Monroe","state_name":"Georgia","lat":33.78214,"lng":-83.69072,"zip":"30655","miles_from_dt":18.45},{"city":"Eatonton","state_name":"Georgia","lat":33.33,"lng":-83.39219,"zip":"31026","miles_from_dt":18.48},{"city":"Eatonton","state_name":"Georgia","lat":33.32344,"lng":-83.36987,"zip":"31024","miles_from_dt":19.25},{"city":"Covington","state_name":"Georgia","lat":33.58109,"lng":-83.8191,"zip":"30014","miles_from_dt":20.32},{"city":"Jersey","state_name":"Georgia","lat":33.71737,"lng":-83.80034,"zip":"30018","miles_from_dt":21.11},{"city":"Union Point","state_name":"Georgia","lat":33.67159,"lng":-83.11187,"zip":"30669","miles_from_dt":21.22},{"city":"Stephens","state_name":"Georgia","lat":33.78526,"lng":-83.16634,"zip":"30667","miles_from_dt":21.9},{"city":"Covington","state_name":"Georgia","lat":33.60047,"lng":-83.85378,"zip":"30015","miles_from_dt":22.32},{"city":"Arnoldsville","state_name":"Georgia","lat":33.85752,"lng":-83.2403,"zip":"30619","miles_from_dt":22.55},{"city":"Siloam","state_name":"Georgia","lat":33.53707,"lng":-83.07475,"zip":"30665","miles_from_dt":22.93},{"city":"Bogart","state_name":"Georgia","lat":33.92041,"lng":-83.53076,"zip":"30622","miles_from_dt":23.02},{"city":"Athens","state_name":"Georgia","lat":33.90551,"lng":-83.32405,"zip":"30605","miles_from_dt":23.2},{"city":"Monroe","state_name":"Georgia","lat":33.86302,"lng":-83.71903,"zip":"30656","miles_from_dt":23.73},{"city":"Athens","state_name":"Georgia","lat":33.93873,"lng":-83.43305,"zip":"30606","miles_from_dt":24.07},{"city":"Athens","state_name":"Georgia","lat":33.93289,"lng":-83.37223,"zip":"30609","miles_from_dt":24.21},{"city":"Maxeys","state_name":"Georgia","lat":33.77287,"lng":-83.10717,"zip":"30671","miles_from_dt":24.23},{"city":"Oxford","state_name":"Georgia","lat":33.67651,"lng":-83.87558,"zip":"30054","miles_from_dt":24.29},{"city":"White Plains","state_name":"Georgia","lat":33.44626,"lng":-83.07598,"zip":"30678","miles_from_dt":24.67},{"city":"Monticello","state_name":"Georgia","lat":33.29031,"lng":-83.69986,"zip":"31064","miles_from_dt":24.69},{"city":"Porterdale","state_name":"Georgia","lat":33.5733,"lng":-83.89546,"zip":"30070","miles_from_dt":24.75},{"city":"Athens","state_name":"Georgia","lat":33.94252,"lng":-83.37256,"zip":"30602","miles_from_dt":24.85},{"city":"Athens","state_name":"Georgia","lat":33.95563,"lng":-83.3931,"zip":"30612","miles_from_dt":25.51},{"city":"Athens","state_name":"Georgia","lat":33.95929,"lng":-83.37689,"zip":"30603","miles_from_dt":25.93},{"city":"Athens","state_name":"Georgia","lat":33.95962,"lng":-83.37699,"zip":"30608","miles_from_dt":25.95},{"city":"Statham","state_name":"Georgia","lat":33.95891,"lng":-83.58266,"zip":"30666","miles_from_dt":26.24},{"city":"Covington","state_name":"Georgia","lat":33.51836,"lng":-83.93073,"zip":"30016","miles_from_dt":27.22},{"city":"Winterville","state_name":"Georgia","lat":33.94703,"lng":-83.25775,"zip":"30683","miles_from_dt":27.35},{"city":"Crawford","state_name":"Georgia","lat":33.89894,"lng":-83.14366,"zip":"30630","miles_from_dt":28.24},{"city":"Athens","state_name":"Georgia","lat":34.00684,"lng":-83.49323,"zip":"30604","miles_from_dt":28.72},{"city":"Bethlehem","state_name":"Georgia","lat":33.92917,"lng":-83.75958,"zip":"30620","miles_from_dt":28.77},{"city":"Athens","state_name":"Georgia","lat":34.00032,"lng":-83.34851,"zip":"30601","miles_from_dt":29.04},{"city":"Loganville","state_name":"Georgia","lat":33.81654,"lng":-83.89538,"zip":"30052","miles_from_dt":29.18},{"city":"Conyers","state_name":"Georgia","lat":33.643,"lng":-83.97147,"zip":"30013","miles_from_dt":29.32},{"city":"Athens","state_name":"Georgia","lat":34.01895,"lng":-83.44774,"zip":"30607","miles_from_dt":29.54}],"targetCityZipCode":"30650","targetCityState":"Georgia"},"__N_SSG":true}