{"pageProps":{"stateName":"Georgia","cityName":"resaca","nearbyCities":[{"city":"Calhoun","state_name":"Georgia","lat":34.50135,"lng":-84.95382,"zip":"30703","miles_from_dt":7.73},{"city":"Sugar Valley","state_name":"Georgia","lat":34.59214,"lng":-85.03285,"zip":"30746","miles_from_dt":7.96},{"city":"Calhoun","state_name":"Georgia","lat":34.49535,"lng":-84.95385,"zip":"30701","miles_from_dt":8.1},{"city":"Dalton","state_name":"Georgia","lat":34.73472,"lng":-85.00289,"zip":"30720","miles_from_dt":11.07},{"city":"Oakman","state_name":"Georgia","lat":34.5644,"lng":-84.70435,"zip":"30732","miles_from_dt":11.1},{"city":"Ranger","state_name":"Georgia","lat":34.53361,"lng":-84.71346,"zip":"30734","miles_from_dt":11.3},{"city":"Dalton","state_name":"Georgia","lat":34.76101,"lng":-84.94988,"zip":"30722","miles_from_dt":11.43},{"city":"Dalton","state_name":"Georgia","lat":34.77002,"lng":-84.97073,"zip":"30719","miles_from_dt":12.39},{"city":"Chatsworth","state_name":"Georgia","lat":34.74711,"lng":-84.74929,"zip":"30705","miles_from_dt":12.96},{"city":"Dalton","state_name":"Georgia","lat":34.79168,"lng":-84.91187,"zip":"30721","miles_from_dt":13.13},{"city":"Rocky Face","state_name":"Georgia","lat":34.75407,"lng":-85.07786,"zip":"30740","miles_from_dt":14.83},{"city":"Plainville","state_name":"Georgia","lat":34.41574,"lng":-85.04349,"zip":"30733","miles_from_dt":15.41},{"city":"Fairmount","state_name":"Georgia","lat":34.43346,"lng":-84.70575,"zip":"30139","miles_from_dt":15.8},{"city":"Adairsville","state_name":"Georgia","lat":34.36457,"lng":-84.92014,"zip":"30103","miles_from_dt":16.42},{"city":"Eton","state_name":"Georgia","lat":34.8253,"lng":-84.75795,"zip":"30724","miles_from_dt":17.23},{"city":"Armuchee","state_name":"Georgia","lat":34.47012,"lng":-85.15532,"zip":"30105","miles_from_dt":17.47},{"city":"Rydal","state_name":"Georgia","lat":34.36122,"lng":-84.73584,"zip":"30171","miles_from_dt":18.88},{"city":"La Fayette","state_name":"Georgia","lat":34.68015,"lng":-85.23417,"zip":"30728","miles_from_dt":20.13},{"city":"Tunnel Hill","state_name":"Georgia","lat":34.86944,"lng":-85.04072,"zip":"30755","miles_from_dt":20.25},{"city":"Shannon","state_name":"Georgia","lat":34.34307,"lng":-85.08376,"zip":"30172","miles_from_dt":20.88},{"city":"Varnell","state_name":"Georgia","lat":34.90103,"lng":-84.97458,"zip":"30756","miles_from_dt":21.13},{"city":"Talking Rock","state_name":"Georgia","lat":34.54239,"lng":-84.52793,"zip":"30175","miles_from_dt":21.26},{"city":"Ellijay","state_name":"Georgia","lat":34.72313,"lng":-84.54421,"zip":"30540","miles_from_dt":21.59},{"city":"Trion","state_name":"Georgia","lat":34.57896,"lng":-85.28806,"zip":"30753","miles_from_dt":22.53},{"city":"Rock Spring","state_name":"Georgia","lat":34.80345,"lng":-85.21515,"zip":"30739","miles_from_dt":22.98},{"city":"Crandall","state_name":"Georgia","lat":34.92905,"lng":-84.76259,"zip":"30711","miles_from_dt":23.76},{"city":"Summerville","state_name":"Georgia","lat":34.50179,"lng":-85.29407,"zip":"30747","miles_from_dt":23.85},{"city":"Cohutta","state_name":"Georgia","lat":34.95002,"lng":-84.91993,"zip":"30710","miles_from_dt":24.05},{"city":"Cassville","state_name":"Georgia","lat":34.24806,"lng":-84.85599,"zip":"30123","miles_from_dt":24.48},{"city":"East Ellijay","state_name":"Georgia","lat":34.68061,"lng":-84.47016,"zip":"30539","miles_from_dt":24.74},{"city":"Ringgold","state_name":"Georgia","lat":34.90244,"lng":-85.13306,"zip":"30736","miles_from_dt":24.79},{"city":"Waleska","state_name":"Georgia","lat":34.33854,"lng":-84.59762,"zip":"30183","miles_from_dt":24.8},{"city":"Kingston","state_name":"Georgia","lat":34.24177,"lng":-84.98076,"zip":"30145","miles_from_dt":25.31},{"city":"White","state_name":"Georgia","lat":34.26042,"lng":-84.71603,"zip":"30184","miles_from_dt":25.63},{"city":"Cisco","state_name":"Georgia","lat":34.93985,"lng":-84.66754,"zip":"30708","miles_from_dt":26.62},{"city":"Mount Berry","state_name":"Georgia","lat":34.31107,"lng":-85.21691,"zip":"30149","miles_from_dt":27.24},{"city":"Tennga","state_name":"Georgia","lat":34.98212,"lng":-84.73743,"zip":"30751","miles_from_dt":27.68},{"city":"Cartersville","state_name":"Georgia","lat":34.21073,"lng":-84.77802,"zip":"30121","miles_from_dt":27.76},{"city":"Rome","state_name":"Georgia","lat":34.24631,"lng":-85.12771,"zip":"30162","miles_from_dt":27.91},{"city":"Jasper","state_name":"Georgia","lat":34.46198,"lng":-84.42385,"zip":"30143","miles_from_dt":28.49},{"city":"Conasauga","state_name":"Tennessee","lat":35.00161,"lng":-84.72975,"zip":"37316","miles_from_dt":29.09},{"city":"Apison","state_name":"Tennessee","lat":35.01303,"lng":-85.01961,"zip":"37302","miles_from_dt":29.23},{"city":"Chickamauga","state_name":"Georgia","lat":34.77943,"lng":-85.36028,"zip":"30707","miles_from_dt":29.25},{"city":"Graysville","state_name":"Georgia","lat":34.97579,"lng":-85.13959,"zip":"30726","miles_from_dt":29.33},{"city":"Epworth","state_name":"Georgia","lat":34.91164,"lng":-84.53482,"zip":"30541","miles_from_dt":29.55},{"city":"Rome","state_name":"Georgia","lat":34.27643,"lng":-85.23108,"zip":"30164","miles_from_dt":29.57},{"city":"Rome","state_name":"Georgia","lat":34.23758,"lng":-85.17319,"zip":"30161","miles_from_dt":29.75},{"city":"Rome","state_name":"Georgia","lat":34.30279,"lng":-85.27233,"zip":"30165","miles_from_dt":29.87}],"targetCityZipCode":"30735","targetCityState":"Georgia"},"__N_SSG":true}