{"pageProps":{"stateName":"Georgia","cityName":"riceboro","nearbyCities":[{"city":"Midway","state_name":"Georgia","lat":31.76707,"lng":-81.36231,"zip":"31320","miles_from_dt":8.37},{"city":"Allenhurst","state_name":"Georgia","lat":31.7581,"lng":-81.60386,"zip":"31301","miles_from_dt":10.62},{"city":"Townsend","state_name":"Georgia","lat":31.5159,"lng":-81.42042,"zip":"31331","miles_from_dt":11.03},{"city":"Walthourville","state_name":"Georgia","lat":31.76786,"lng":-81.62758,"zip":"31333","miles_from_dt":12.16},{"city":"Crescent","state_name":"Georgia","lat":31.49963,"lng":-81.3731,"zip":"31304","miles_from_dt":12.88},{"city":"Hinesville","state_name":"Georgia","lat":31.83391,"lng":-81.6001,"zip":"31310","miles_from_dt":14.03},{"city":"Fleming","state_name":"Georgia","lat":31.88382,"lng":-81.44358,"zip":"31309","miles_from_dt":14.5},{"city":"Hinesville","state_name":"Georgia","lat":31.83534,"lng":-81.6183,"zip":"31313","miles_from_dt":14.79},{"city":"Richmond Hill","state_name":"Georgia","lat":31.85707,"lng":-81.26951,"zip":"31324","miles_from_dt":16.63},{"city":"Ludowici","state_name":"Georgia","lat":31.7183,"lng":-81.73457,"zip":"31316","miles_from_dt":16.87},{"city":"Fort Stewart","state_name":"Georgia","lat":31.88768,"lng":-81.60598,"zip":"31315","miles_from_dt":17.28},{"city":"Meridian","state_name":"Georgia","lat":31.42175,"lng":-81.42368,"zip":"31319","miles_from_dt":17.44},{"city":"Fort Stewart","state_name":"Georgia","lat":31.90628,"lng":-81.61671,"zip":"31314","miles_from_dt":18.7},{"city":"Sapelo Island","state_name":"Georgia","lat":31.44909,"lng":-81.25132,"zip":"31327","miles_from_dt":19.52},{"city":"Darien","state_name":"Georgia","lat":31.39057,"lng":-81.39054,"zip":"31305","miles_from_dt":19.84},{"city":"Jesup","state_name":"Georgia","lat":31.52521,"lng":-81.8113,"zip":"31546","miles_from_dt":23.47},{"city":"Jesup","state_name":"Georgia","lat":31.50607,"lng":-81.82296,"zip":"31598","miles_from_dt":24.68},{"city":"Savannah","state_name":"Georgia","lat":31.98479,"lng":-81.23867,"zip":"31419","miles_from_dt":24.87},{"city":"Brunswick","state_name":"Georgia","lat":31.3114,"lng":-81.5229,"zip":"31525","miles_from_dt":25.29},{"city":"Jesup","state_name":"Georgia","lat":31.56333,"lng":-81.90271,"zip":"31599","miles_from_dt":27.58},{"city":"Savannah","state_name":"Georgia","lat":31.97938,"lng":-81.14582,"zip":"31420","miles_from_dt":27.76},{"city":"Jesup","state_name":"Georgia","lat":31.64867,"lng":-81.9405,"zip":"31545","miles_from_dt":28.78},{"city":"Savannah","state_name":"Georgia","lat":32.0106,"lng":-81.15539,"zip":"31409","miles_from_dt":29.08},{"city":"Brunswick","state_name":"Georgia","lat":31.24098,"lng":-81.47449,"zip":"31524","miles_from_dt":29.83},{"city":"Savannah","state_name":"Georgia","lat":32.0954,"lng":-81.3345,"zip":"31402","miles_from_dt":29.89}],"targetCityZipCode":"31323","targetCityState":"Georgia"},"__N_SSG":true}