{"pageProps":{"stateName":"Georgia","cityName":"stone-mountain","nearbyCities":[{"city":"Pine Lake","state_name":"Georgia","lat":33.79115,"lng":-84.20598,"zip":"30072","miles_from_dt":0.87},{"city":"Stone Mountain","state_name":"Georgia","lat":33.75959,"lng":-84.17918,"zip":"30088","miles_from_dt":2.65},{"city":"Clarkston","state_name":"Georgia","lat":33.80803,"lng":-84.23909,"zip":"30021","miles_from_dt":2.81},{"city":"Stone Mountain","state_name":"Georgia","lat":33.81087,"lng":-84.13135,"zip":"30087","miles_from_dt":3.65},{"city":"Scottdale","state_name":"Georgia","lat":33.79173,"lng":-84.25839,"zip":"30079","miles_from_dt":3.82},{"city":"Tucker","state_name":"Georgia","lat":33.85457,"lng":-84.21657,"zip":"30084","miles_from_dt":4.24},{"city":"Avondale Estates","state_name":"Georgia","lat":33.77309,"lng":-84.26093,"zip":"30002","miles_from_dt":4.26},{"city":"Tucker","state_name":"Georgia","lat":33.85701,"lng":-84.22299,"zip":"30085","miles_from_dt":4.53},{"city":"Redan","state_name":"Georgia","lat":33.74461,"lng":-84.13599,"zip":"30074","miles_from_dt":4.82},{"city":"Decatur","state_name":"Georgia","lat":33.72563,"lng":-84.20541,"zip":"30035","miles_from_dt":4.94},{"city":"Stone Mountain","state_name":"Georgia","lat":33.80336,"lng":-84.10343,"zip":"30086","miles_from_dt":5.14},{"city":"Decatur","state_name":"Georgia","lat":33.81342,"lng":-84.28355,"zip":"30033","miles_from_dt":5.38},{"city":"Decatur","state_name":"Georgia","lat":33.73987,"lng":-84.2641,"zip":"30032","miles_from_dt":5.68},{"city":"Decatur","state_name":"Georgia","lat":33.7672,"lng":-84.28548,"zip":"30031","miles_from_dt":5.73},{"city":"Decatur","state_name":"Georgia","lat":33.77435,"lng":-84.2919,"zip":"30036","miles_from_dt":5.93},{"city":"Decatur","state_name":"Georgia","lat":33.7721,"lng":-84.29135,"zip":"30030","miles_from_dt":5.94},{"city":"Lithonia","state_name":"Georgia","lat":33.7377,"lng":-84.10779,"zip":"30058","miles_from_dt":6.33},{"city":"Atlanta","state_name":"Georgia","lat":33.85314,"lng":-84.27962,"zip":"31145","miles_from_dt":6.36},{"city":"Atlanta","state_name":"Georgia","lat":33.85082,"lng":-84.28317,"zip":"30345","miles_from_dt":6.43},{"city":"Lilburn","state_name":"Georgia","lat":33.87104,"lng":-84.11304,"zip":"30047","miles_from_dt":6.87},{"city":"Atlanta","state_name":"Georgia","lat":33.79574,"lng":-84.32339,"zip":"30333","miles_from_dt":7.54},{"city":"Atlanta","state_name":"Georgia","lat":33.7948,"lng":-84.32539,"zip":"30322","miles_from_dt":7.66},{"city":"Atlanta","state_name":"Georgia","lat":33.82281,"lng":-84.32317,"zip":"30359","miles_from_dt":7.75},{"city":"Atlanta","state_name":"Georgia","lat":33.89808,"lng":-84.25113,"zip":"30340","miles_from_dt":7.78},{"city":"Atlanta","state_name":"Georgia","lat":33.82625,"lng":-84.32282,"zip":"30329","miles_from_dt":7.79},{"city":"Norcross","state_name":"Georgia","lat":33.90879,"lng":-84.17839,"zip":"30093","miles_from_dt":7.79},{"city":"Atlanta","state_name":"Georgia","lat":33.74913,"lng":-84.31537,"zip":"30317","miles_from_dt":7.8},{"city":"Decatur","state_name":"Georgia","lat":33.69198,"lng":-84.24835,"zip":"30034","miles_from_dt":7.89},{"city":"Decatur","state_name":"Georgia","lat":33.69156,"lng":-84.25328,"zip":"30037","miles_from_dt":8.03},{"city":"Lilburn","state_name":"Georgia","lat":33.90025,"lng":-84.1255,"zip":"30048","miles_from_dt":8.12},{"city":"Atlanta","state_name":"Georgia","lat":33.88753,"lng":-84.28764,"zip":"30366","miles_from_dt":8.34},{"city":"Atlanta","state_name":"Georgia","lat":33.77053,"lng":-84.33419,"zip":"30307","miles_from_dt":8.36},{"city":"Atlanta","state_name":"Georgia","lat":33.88711,"lng":-84.28992,"zip":"30341","miles_from_dt":8.4},{"city":"Atlanta","state_name":"Georgia","lat":33.89074,"lng":-84.28763,"zip":"39901","miles_from_dt":8.5},{"city":"Atlanta","state_name":"Georgia","lat":33.90087,"lng":-84.27643,"zip":"30362","miles_from_dt":8.67},{"city":"Snellville","state_name":"Georgia","lat":33.79871,"lng":-84.03414,"zip":"30039","miles_from_dt":9.1},{"city":"Lithonia","state_name":"Georgia","lat":33.67078,"lng":-84.14209,"zip":"30038","miles_from_dt":9.13},{"city":"Atlanta","state_name":"Georgia","lat":33.78867,"lng":-84.35136,"zip":"30306","miles_from_dt":9.17},{"city":"Atlanta","state_name":"Georgia","lat":33.78762,"lng":-84.35552,"zip":"31106","miles_from_dt":9.41},{"city":"Atlanta","state_name":"Georgia","lat":33.76358,"lng":-84.35157,"zip":"31107","miles_from_dt":9.44},{"city":"Atlanta","state_name":"Georgia","lat":33.8196,"lng":-84.3572,"zip":"30324","miles_from_dt":9.62},{"city":"Atlanta","state_name":"Georgia","lat":33.85704,"lng":-84.34441,"zip":"31119","miles_from_dt":9.7},{"city":"Atlanta","state_name":"Georgia","lat":33.71277,"lng":-84.33218,"zip":"30316","miles_from_dt":9.9},{"city":"Norcross","state_name":"Georgia","lat":33.93977,"lng":-84.20561,"zip":"30071","miles_from_dt":9.91},{"city":"Atlanta","state_name":"Georgia","lat":33.87875,"lng":-84.33596,"zip":"30319","miles_from_dt":10.02},{"city":"Atlanta","state_name":"Georgia","lat":33.84792,"lng":-84.35905,"zip":"31126","miles_from_dt":10.23},{"city":"Atlanta","state_name":"Georgia","lat":33.83545,"lng":-84.3664,"zip":"30355","miles_from_dt":10.37},{"city":"Norcross","state_name":"Georgia","lat":33.94642,"lng":-84.17501,"zip":"30091","miles_from_dt":10.39},{"city":"Atlanta","state_name":"Georgia","lat":33.93198,"lng":-84.27302,"zip":"30360","miles_from_dt":10.43},{"city":"Atlanta","state_name":"Georgia","lat":33.84957,"lng":-84.36342,"zip":"30326","miles_from_dt":10.5},{"city":"Atlanta","state_name":"Georgia","lat":33.7899,"lng":-84.37874,"zip":"30361","miles_from_dt":10.74},{"city":"Atlanta","state_name":"Georgia","lat":33.77094,"lng":-84.37773,"zip":"30308","miles_from_dt":10.81},{"city":"Snellville","state_name":"Georgia","lat":33.86118,"lng":-84.01795,"zip":"30078","miles_from_dt":10.98},{"city":"Lawrenceville","state_name":"Georgia","lat":33.92354,"lng":-84.07302,"zip":"30042","miles_from_dt":11.13},{"city":"Atlanta","state_name":"Georgia","lat":33.74463,"lng":-84.37577,"zip":"30312","miles_from_dt":11.15},{"city":"Lawrenceville","state_name":"Georgia","lat":33.92207,"lng":-84.06924,"zip":"30044","miles_from_dt":11.18},{"city":"Atlanta","state_name":"Georgia","lat":33.79906,"lng":-84.38717,"zip":"30357","miles_from_dt":11.21},{"city":"Atlanta","state_name":"Georgia","lat":33.798,"lng":-84.38774,"zip":"30309","miles_from_dt":11.25},{"city":"Atlanta","state_name":"Georgia","lat":33.7612,"lng":-84.38535,"zip":"31193","miles_from_dt":11.37},{"city":"Atlanta","state_name":"Georgia","lat":33.77521,"lng":-84.38943,"zip":"30375","miles_from_dt":11.44},{"city":"Atlanta","state_name":"Georgia","lat":33.74811,"lng":-84.38492,"zip":"31139","miles_from_dt":11.58},{"city":"Atlanta","state_name":"Georgia","lat":33.75545,"lng":-84.3876,"zip":"30302","miles_from_dt":11.59},{"city":"Atlanta","state_name":"Georgia","lat":33.83518,"lng":-84.38931,"zip":"30305","miles_from_dt":11.64},{"city":"Atlanta","state_name":"Georgia","lat":33.75632,"lng":-84.38955,"zip":"30321","miles_from_dt":11.68},{"city":"Ellenwood","state_name":"Georgia","lat":33.6371,"lng":-84.26289,"zip":"30294","miles_from_dt":11.71},{"city":"Atlanta","state_name":"Georgia","lat":33.75225,"lng":-84.38899,"zip":"30370","miles_from_dt":11.72},{"city":"Atlanta","state_name":"Georgia","lat":33.74855,"lng":-84.38804,"zip":"30334","miles_from_dt":11.74},{"city":"Atlanta","state_name":"Georgia","lat":33.75284,"lng":-84.39028,"zip":"30303","miles_from_dt":11.78},{"city":"Norcross","state_name":"Georgia","lat":33.96606,"lng":-84.21844,"zip":"30010","miles_from_dt":11.79},{"city":"Atlanta","state_name":"Georgia","lat":33.83533,"lng":-84.39267,"zip":"30348","miles_from_dt":11.83},{"city":"Atlanta","state_name":"Georgia","lat":33.7533,"lng":-84.39141,"zip":"30353","miles_from_dt":11.84},{"city":"Atlanta","state_name":"Georgia","lat":33.75384,"lng":-84.39217,"zip":"30343","miles_from_dt":11.87},{"city":"Atlanta","state_name":"Georgia","lat":33.75541,"lng":-84.39264,"zip":"30392","miles_from_dt":11.87},{"city":"Atlanta","state_name":"Georgia","lat":33.79147,"lng":-84.39887,"zip":"30363","miles_from_dt":11.89},{"city":"Atlanta","state_name":"Georgia","lat":33.7528,"lng":-84.39264,"zip":"30394","miles_from_dt":11.92},{"city":"Atlanta","state_name":"Georgia","lat":33.88227,"lng":-84.37429,"zip":"30342","miles_from_dt":12.02},{"city":"Atlanta","state_name":"Georgia","lat":33.76369,"lng":-84.39761,"zip":"30313","miles_from_dt":12.03},{"city":"Atlanta","state_name":"Georgia","lat":33.92425,"lng":-84.33881,"zip":"30346","miles_from_dt":12.19},{"city":"Atlanta","state_name":"Georgia","lat":33.77757,"lng":-84.40429,"zip":"30332","miles_from_dt":12.27},{"city":"Peachtree Corners","state_name":"Georgia","lat":33.97145,"lng":-84.23537,"zip":"30092","miles_from_dt":12.32},{"city":"Atlanta","state_name":"Georgia","lat":33.92544,"lng":-84.34121,"zip":"31146","miles_from_dt":12.34},{"city":"Conyers","state_name":"Georgia","lat":33.71739,"lng":-83.99913,"zip":"30012","miles_from_dt":12.38},{"city":"Atlanta","state_name":"Georgia","lat":33.8559,"lng":-84.3953,"zip":"30301","miles_from_dt":12.38},{"city":"Atlanta","state_name":"Georgia","lat":33.9437,"lng":-84.31801,"zip":"30338","miles_from_dt":12.46},{"city":"Conley","state_name":"Georgia","lat":33.65502,"lng":-84.32813,"zip":"30288","miles_from_dt":12.5},{"city":"North Metro","state_name":"Georgia","lat":33.97658,"lng":-84.15005,"zip":"30026","miles_from_dt":12.65},{"city":"Duluth","state_name":"Georgia","lat":33.97691,"lng":-84.14791,"zip":"30096","miles_from_dt":12.7},{"city":"Atlanta","state_name":"Georgia","lat":33.70312,"lng":-84.38272,"zip":"30315","miles_from_dt":12.71},{"city":"Duluth","state_name":"Georgia","lat":33.97752,"lng":-84.1487,"zip":"30095","miles_from_dt":12.73},{"city":"North Metro","state_name":"Georgia","lat":33.97794,"lng":-84.14769,"zip":"30029","miles_from_dt":12.77},{"city":"Duluth","state_name":"Georgia","lat":33.98012,"lng":-84.14934,"zip":"30099","miles_from_dt":12.9},{"city":"Atlanta","state_name":"Georgia","lat":33.94736,"lng":-84.33079,"zip":"30356","miles_from_dt":13.1},{"city":"Norcross","state_name":"Georgia","lat":33.68081,"lng":-84.00732,"zip":"30003","miles_from_dt":13.3},{"city":"Atlanta","state_name":"Georgia","lat":33.76151,"lng":-84.4198,"zip":"31141","miles_from_dt":13.31},{"city":"Atlanta","state_name":"Georgia","lat":33.76216,"lng":-84.42469,"zip":"30371","miles_from_dt":13.58},{"city":"Atlanta","state_name":"Georgia","lat":33.75787,"lng":-84.43193,"zip":"30314","miles_from_dt":14.04},{"city":"Atlanta","state_name":"Georgia","lat":33.86708,"lng":-84.42358,"zip":"30327","miles_from_dt":14.17},{"city":"Atlanta","state_name":"Georgia","lat":33.72695,"lng":-84.42726,"zip":"30310","miles_from_dt":14.35},{"city":"Atlanta","state_name":"Georgia","lat":33.93194,"lng":-84.38617,"zip":"30328","miles_from_dt":14.54},{"city":"Atlanta","state_name":"Georgia","lat":33.66058,"lng":-84.38609,"zip":"30354","miles_from_dt":14.57},{"city":"Grayson","state_name":"Georgia","lat":33.88939,"lng":-83.96348,"zip":"30017","miles_from_dt":14.64},{"city":"Atlanta","state_name":"Georgia","lat":33.79199,"lng":-84.44728,"zip":"30325","miles_from_dt":14.67},{"city":"Atlanta","state_name":"Georgia","lat":33.79235,"lng":-84.44831,"zip":"30318","miles_from_dt":14.73},{"city":"Atlanta","state_name":"Georgia","lat":33.93452,"lng":-84.38865,"zip":"30358","miles_from_dt":14.77},{"city":"Atlanta","state_name":"Georgia","lat":33.79305,"lng":-84.45011,"zip":"30377","miles_from_dt":14.84},{"city":"Conyers","state_name":"Georgia","lat":33.61243,"lng":-84.0555,"zip":"30094","miles_from_dt":14.93},{"city":"Atlanta","state_name":"Georgia","lat":33.97881,"lng":-84.33366,"zip":"30350","miles_from_dt":14.97},{"city":"Atlanta","state_name":"Georgia","lat":33.95996,"lng":-84.36491,"zip":"31156","miles_from_dt":15.02},{"city":"Atlanta","state_name":"Georgia","lat":33.65034,"lng":-84.38904,"zip":"30398","miles_from_dt":15.16},{"city":"Atlanta","state_name":"Georgia","lat":33.98237,"lng":-84.33368,"zip":"31150","miles_from_dt":15.18},{"city":"Atlanta","state_name":"Georgia","lat":33.64785,"lng":-84.3884,"zip":"30388","miles_from_dt":15.24},{"city":"Atlanta","state_name":"Georgia","lat":33.65155,"lng":-84.39425,"zip":"30304","miles_from_dt":15.33},{"city":"Atlanta","state_name":"Georgia","lat":33.64631,"lng":-84.38951,"zip":"30380","miles_from_dt":15.36},{"city":"Atlanta","state_name":"Georgia","lat":33.64917,"lng":-84.39257,"zip":"30368","miles_from_dt":15.36},{"city":"Rex","state_name":"Georgia","lat":33.58365,"lng":-84.27208,"zip":"30273","miles_from_dt":15.37},{"city":"Forest Park","state_name":"Georgia","lat":33.62019,"lng":-84.3558,"zip":"30298","miles_from_dt":15.37},{"city":"Atlanta","state_name":"Georgia","lat":33.64767,"lng":-84.39374,"zip":"30396","miles_from_dt":15.48},{"city":"Lawrenceville","state_name":"Georgia","lat":33.9497,"lng":-83.99389,"zip":"30046","miles_from_dt":15.55},{"city":"Lawrenceville","state_name":"Georgia","lat":33.95634,"lng":-83.99053,"zip":"30049","miles_from_dt":16},{"city":"Duluth","state_name":"Georgia","lat":34.02556,"lng":-84.14541,"zip":"30098","miles_from_dt":16.02},{"city":"Atlanta","state_name":"Georgia","lat":33.80358,"lng":-84.47134,"zip":"30369","miles_from_dt":16.06},{"city":"Stockbridge","state_name":"Georgia","lat":33.56338,"lng":-84.1961,"zip":"30281","miles_from_dt":16.06},{"city":"Duluth","state_name":"Georgia","lat":34.0271,"lng":-84.14702,"zip":"30097","miles_from_dt":16.11},{"city":"Forest Park","state_name":"Georgia","lat":33.61511,"lng":-84.37145,"zip":"30297","miles_from_dt":16.21},{"city":"Alpharetta","state_name":"Georgia","lat":34.02745,"lng":-84.24643,"zip":"30022","miles_from_dt":16.22},{"city":"Atlanta","state_name":"Georgia","lat":33.80789,"lng":-84.47493,"zip":"31196","miles_from_dt":16.28},{"city":"Atlanta","state_name":"Georgia","lat":33.80607,"lng":-84.47752,"zip":"31195","miles_from_dt":16.42},{"city":"Atlanta","state_name":"Georgia","lat":33.86786,"lng":-84.46483,"zip":"30339","miles_from_dt":16.43},{"city":"Atlanta","state_name":"Georgia","lat":33.89746,"lng":-84.45155,"zip":"30384","miles_from_dt":16.45},{"city":"Morrow","state_name":"Georgia","lat":33.5862,"lng":-84.33046,"zip":"30260","miles_from_dt":16.53},{"city":"Conyers","state_name":"Georgia","lat":33.643,"lng":-83.97147,"zip":"30013","miles_from_dt":16.54},{"city":"Atlanta","state_name":"Georgia","lat":33.67439,"lng":-84.44161,"zip":"30385","miles_from_dt":16.64},{"city":"Atlanta","state_name":"Georgia","lat":33.72345,"lng":-84.47442,"zip":"30311","miles_from_dt":17},{"city":"Loganville","state_name":"Georgia","lat":33.81654,"lng":-83.89538,"zip":"30052","miles_from_dt":17.14},{"city":"Roswell","state_name":"Georgia","lat":34.02777,"lng":-84.31723,"zip":"30076","miles_from_dt":17.49},{"city":"Atlanta","state_name":"Georgia","lat":33.67508,"lng":-84.46029,"zip":"30344","miles_from_dt":17.55},{"city":"Atlanta","state_name":"Georgia","lat":33.676,"lng":-84.462,"zip":"30364","miles_from_dt":17.61},{"city":"Lawrenceville","state_name":"Georgia","lat":33.93046,"lng":-83.93019,"zip":"30045","miles_from_dt":17.68},{"city":"Atlanta","state_name":"Georgia","lat":33.63564,"lng":-84.43329,"zip":"30320","miles_from_dt":17.76},{"city":"Lawrenceville","state_name":"Georgia","lat":34.00353,"lng":-84.00703,"zip":"30043","miles_from_dt":17.81},{"city":"Marietta","state_name":"Georgia","lat":33.93286,"lng":-84.46187,"zip":"30067","miles_from_dt":18.13},{"city":"Marietta","state_name":"Georgia","lat":33.96887,"lng":-84.43273,"zip":"30068","miles_from_dt":18.23},{"city":"Atlanta","state_name":"Georgia","lat":33.64019,"lng":-84.44962,"zip":"30337","miles_from_dt":18.32},{"city":"Smyrna","state_name":"Georgia","lat":33.87864,"lng":-84.5053,"zip":"30080","miles_from_dt":18.87},{"city":"Atlanta","state_name":"Georgia","lat":33.57683,"lng":-84.39474,"zip":"30374","miles_from_dt":19.11},{"city":"Roswell","state_name":"Georgia","lat":34.04033,"lng":-84.35459,"zip":"30077","miles_from_dt":19.22},{"city":"Alpharetta","state_name":"Georgia","lat":34.06763,"lng":-84.27115,"zip":"30023","miles_from_dt":19.23},{"city":"Suwanee","state_name":"Georgia","lat":34.06341,"lng":-84.09116,"zip":"30024","miles_from_dt":19.3},{"city":"Smyrna","state_name":"Georgia","lat":33.87002,"lng":-84.51826,"zip":"30081","miles_from_dt":19.42},{"city":"Oxford","state_name":"Georgia","lat":33.67651,"lng":-83.87558,"zip":"30054","miles_from_dt":20.02},{"city":"Alpharetta","state_name":"Georgia","lat":34.08582,"lng":-84.22158,"zip":"30005","miles_from_dt":20.02},{"city":"Smyrna","state_name":"Georgia","lat":33.85517,"lng":-84.5373,"zip":"30082","miles_from_dt":20.25},{"city":"Alpharetta","state_name":"Georgia","lat":34.07711,"lng":-84.3029,"zip":"30009","miles_from_dt":20.36},{"city":"Jonesboro","state_name":"Georgia","lat":33.52157,"lng":-84.32405,"zip":"30236","miles_from_dt":20.41},{"city":"Riverdale","state_name":"Georgia","lat":33.55583,"lng":-84.40091,"zip":"30274","miles_from_dt":20.48},{"city":"Marietta","state_name":"Georgia","lat":33.91691,"lng":-84.51797,"zip":"30069","miles_from_dt":20.49},{"city":"Mableton","state_name":"Georgia","lat":33.81588,"lng":-84.55171,"zip":"30126","miles_from_dt":20.72},{"city":"Atlanta","state_name":"Georgia","lat":33.75762,"lng":-84.55068,"zip":"30378","miles_from_dt":20.8},{"city":"Morrow","state_name":"Georgia","lat":33.54979,"lng":-84.4031,"zip":"30287","miles_from_dt":20.89},{"city":"Roswell","state_name":"Georgia","lat":34.05282,"lng":-84.38739,"zip":"30075","miles_from_dt":20.93},{"city":"Jonesboro","state_name":"Georgia","lat":33.5229,"lng":-84.353,"zip":"30237","miles_from_dt":21},{"city":"Marietta","state_name":"Georgia","lat":33.92851,"lng":-84.52209,"zip":"30063","miles_from_dt":21.03},{"city":"Marietta","state_name":"Georgia","lat":33.99977,"lng":-84.46899,"zip":"30062","miles_from_dt":21.2},{"city":"Atlanta","state_name":"Georgia","lat":33.70627,"lng":-84.54439,"zip":"30331","miles_from_dt":21.2},{"city":"Atlanta","state_name":"Georgia","lat":33.7057,"lng":-84.5472,"zip":"31131","miles_from_dt":21.37},{"city":"Red Oak","state_name":"Georgia","lat":33.62313,"lng":-84.50175,"zip":"30272","miles_from_dt":21.45},{"city":"Riverdale","state_name":"Georgia","lat":33.56351,"lng":-84.44254,"zip":"30296","miles_from_dt":21.58},{"city":"Dacula","state_name":"Georgia","lat":33.97642,"lng":-83.88252,"zip":"30019","miles_from_dt":21.7},{"city":"Marietta","state_name":"Georgia","lat":33.9209,"lng":-84.543,"zip":"30060","miles_from_dt":21.91},{"city":"Marietta","state_name":"Georgia","lat":33.92008,"lng":-84.54407,"zip":"30061","miles_from_dt":21.95},{"city":"Atlanta","state_name":"Georgia","lat":33.73718,"lng":-84.56768,"zip":"30336","miles_from_dt":21.99},{"city":"Marietta","state_name":"Georgia","lat":34.04721,"lng":-84.44248,"zip":"30065","miles_from_dt":22.48},{"city":"Atlanta","state_name":"Georgia","lat":33.62346,"lng":-84.52591,"zip":"30349","miles_from_dt":22.61},{"city":"Austell","state_name":"Georgia","lat":33.78354,"lng":-84.58765,"zip":"30168","miles_from_dt":22.77},{"city":"Marietta","state_name":"Georgia","lat":33.95373,"lng":-84.54116,"zip":"30006","miles_from_dt":22.8},{"city":"Porterdale","state_name":"Georgia","lat":33.5733,"lng":-83.89546,"zip":"30070","miles_from_dt":23},{"city":"Atlanta","state_name":"Georgia","lat":33.62387,"lng":-84.53472,"zip":"31192","miles_from_dt":23.03},{"city":"Marietta","state_name":"Georgia","lat":33.953,"lng":-84.54837,"zip":"30090","miles_from_dt":23.14},{"city":"Jersey","state_name":"Georgia","lat":33.71737,"lng":-83.80034,"zip":"30018","miles_from_dt":23.21},{"city":"Atlanta","state_name":"Georgia","lat":33.72004,"lng":-84.58739,"zip":"31136","miles_from_dt":23.34},{"city":"Jonesboro","state_name":"Georgia","lat":33.4949,"lng":-84.38181,"zip":"30238","miles_from_dt":23.48},{"city":"Mcdonough","state_name":"Georgia","lat":33.47206,"lng":-84.06416,"zip":"30252","miles_from_dt":23.54},{"city":"Marietta","state_name":"Georgia","lat":33.96331,"lng":-84.55106,"zip":"30007","miles_from_dt":23.61},{"city":"Covington","state_name":"Georgia","lat":33.60047,"lng":-83.85378,"zip":"30015","miles_from_dt":23.72},{"city":"Marietta","state_name":"Georgia","lat":33.8966,"lng":-84.58847,"zip":"30008","miles_from_dt":23.81},{"city":"Mcdonough","state_name":"Georgia","lat":33.45028,"lng":-84.18579,"zip":"30253","miles_from_dt":23.86},{"city":"Covington","state_name":"Georgia","lat":33.51836,"lng":-83.93073,"zip":"30016","miles_from_dt":24.38},{"city":"Marietta","state_name":"Georgia","lat":34.034,"lng":-84.50798,"zip":"30066","miles_from_dt":24.44},{"city":"Alpharetta","state_name":"Georgia","lat":34.14352,"lng":-84.29926,"zip":"30004","miles_from_dt":24.7},{"city":"Buford","state_name":"Georgia","lat":34.08792,"lng":-83.9423,"zip":"30519","miles_from_dt":24.7},{"city":"Buford","state_name":"Georgia","lat":34.132,"lng":-84.02578,"zip":"30518","miles_from_dt":25.03},{"city":"Union City","state_name":"Georgia","lat":33.57569,"lng":-84.5408,"zip":"30291","miles_from_dt":25.19},{"city":"Austell","state_name":"Georgia","lat":33.83476,"lng":-84.62947,"zip":"30106","miles_from_dt":25.29},{"city":"Auburn","state_name":"Georgia","lat":34.02281,"lng":-83.8364,"zip":"30011","miles_from_dt":25.73},{"city":"Lovejoy","state_name":"Georgia","lat":33.43473,"lng":-84.30603,"zip":"30250","miles_from_dt":25.77},{"city":"Lithia Springs","state_name":"Georgia","lat":33.76329,"lng":-84.6386,"zip":"30122","miles_from_dt":25.79},{"city":"Covington","state_name":"Georgia","lat":33.58109,"lng":-83.8191,"zip":"30014","miles_from_dt":26.13},{"city":"Marietta","state_name":"Georgia","lat":33.93809,"lng":-84.61691,"zip":"30064","miles_from_dt":26.29},{"city":"Bethlehem","state_name":"Georgia","lat":33.92917,"lng":-83.75958,"zip":"30620","miles_from_dt":26.51},{"city":"Clarkdale","state_name":"Georgia","lat":33.8318,"lng":-84.65499,"zip":"30111","miles_from_dt":26.73},{"city":"Woodstock","state_name":"Georgia","lat":34.11873,"lng":-84.45526,"zip":"30188","miles_from_dt":26.86},{"city":"Fayetteville","state_name":"Georgia","lat":33.49222,"lng":-84.48697,"zip":"30214","miles_from_dt":26.98},{"city":"Monroe","state_name":"Georgia","lat":33.86302,"lng":-83.71903,"zip":"30656","miles_from_dt":27.61},{"city":"Hampton","state_name":"Georgia","lat":33.40374,"lng":-84.30575,"zip":"30228","miles_from_dt":27.84},{"city":"Kennesaw","state_name":"Georgia","lat":34.03672,"lng":-84.59174,"zip":"30144","miles_from_dt":28.3},{"city":"Cumming","state_name":"Georgia","lat":34.20166,"lng":-84.09371,"zip":"30041","miles_from_dt":28.5},{"city":"Monroe","state_name":"Georgia","lat":33.78214,"lng":-83.69072,"zip":"30655","miles_from_dt":28.88},{"city":"Cumming","state_name":"Georgia","lat":34.21622,"lng":-84.17978,"zip":"30040","miles_from_dt":28.94},{"city":"Fairburn","state_name":"Georgia","lat":33.59113,"lng":-84.6333,"zip":"30213","miles_from_dt":29.08},{"city":"Kennesaw","state_name":"Georgia","lat":33.99435,"lng":-84.6474,"zip":"30152","miles_from_dt":29.5},{"city":"Powder Springs","state_name":"Georgia","lat":33.87647,"lng":-84.69648,"zip":"30127","miles_from_dt":29.52},{"city":"Kennesaw","state_name":"Georgia","lat":33.99,"lng":-84.65219,"zip":"30156","miles_from_dt":29.61},{"city":"Kennesaw","state_name":"Georgia","lat":33.99,"lng":-84.65219,"zip":"30160","miles_from_dt":29.61},{"city":"Douglasville","state_name":"Georgia","lat":33.73502,"lng":-84.70208,"zip":"30133","miles_from_dt":29.65}],"targetCityZipCode":"30083","targetCityState":"Georgia"},"__N_SSG":true}