{"pageProps":{"stateName":"Georgia","cityName":"tarrytown","nearbyCities":[{"city":"Soperton","state_name":"Georgia","lat":32.39852,"lng":-82.56498,"zip":"30457","miles_from_dt":5.45},{"city":"Vidalia","state_name":"Georgia","lat":32.22393,"lng":-82.41381,"zip":"30474","miles_from_dt":9.54},{"city":"Ailey","state_name":"Georgia","lat":32.18655,"lng":-82.51767,"zip":"30410","miles_from_dt":9.9},{"city":"Vidalia","state_name":"Georgia","lat":32.21108,"lng":-82.40389,"zip":"30475","miles_from_dt":10.59},{"city":"Mount Vernon","state_name":"Georgia","lat":32.16715,"lng":-82.58413,"zip":"30445","miles_from_dt":11.88},{"city":"Norristown","state_name":"Georgia","lat":32.50395,"lng":-82.49446,"zip":"30447","miles_from_dt":12.05},{"city":"Glenwood","state_name":"Georgia","lat":32.21706,"lng":-82.71436,"zip":"30428","miles_from_dt":13.88},{"city":"Nunez","state_name":"Georgia","lat":32.48754,"lng":-82.36444,"zip":"30448","miles_from_dt":14.08},{"city":"Rockledge","state_name":"Georgia","lat":32.43857,"lng":-82.73421,"zip":"30454","miles_from_dt":14.67},{"city":"Adrian","state_name":"Georgia","lat":32.54802,"lng":-82.59012,"zip":"31002","miles_from_dt":15.59},{"city":"Alston","state_name":"Georgia","lat":32.07973,"lng":-82.48643,"zip":"30412","miles_from_dt":17.36},{"city":"Lyons","state_name":"Georgia","lat":32.1494,"lng":-82.29026,"zip":"30436","miles_from_dt":18.26},{"city":"Stillmore","state_name":"Georgia","lat":32.43509,"lng":-82.22186,"zip":"30464","miles_from_dt":18.77},{"city":"Swainsboro","state_name":"Georgia","lat":32.604,"lng":-82.34825,"zip":"30401","miles_from_dt":21.32},{"city":"Alamo","state_name":"Georgia","lat":32.1254,"lng":-82.79362,"zip":"30411","miles_from_dt":21.43},{"city":"Uvalda","state_name":"Georgia","lat":32.01613,"lng":-82.47198,"zip":"30473","miles_from_dt":21.81},{"city":"Cobbtown","state_name":"Georgia","lat":32.30363,"lng":-82.12958,"zip":"30420","miles_from_dt":22.81},{"city":"Twin City","state_name":"Georgia","lat":32.53816,"lng":-82.18563,"zip":"30471","miles_from_dt":24.15},{"city":"Kite","state_name":"Georgia","lat":32.68281,"lng":-82.52634,"zip":"31049","miles_from_dt":24.3},{"city":"East Dublin","state_name":"Georgia","lat":32.57405,"lng":-82.81959,"zip":"31027","miles_from_dt":24.34},{"city":"Rentz","state_name":"Georgia","lat":32.35428,"lng":-82.95277,"zip":"31075","miles_from_dt":25.48},{"city":"Collins","state_name":"Georgia","lat":32.18401,"lng":-82.11096,"zip":"30421","miles_from_dt":25.88},{"city":"Scotland","state_name":"Georgia","lat":32.04473,"lng":-82.81957,"zip":"31083","miles_from_dt":26.43},{"city":"Dublin","state_name":"Georgia","lat":32.49002,"lng":-82.93435,"zip":"31021","miles_from_dt":26.7},{"city":"Metter","state_name":"Georgia","lat":32.4169,"lng":-82.07112,"zip":"30439","miles_from_dt":26.82},{"city":"Dublin","state_name":"Georgia","lat":32.54794,"lng":-82.90164,"zip":"31040","miles_from_dt":26.97},{"city":"McRae Helena","state_name":"Georgia","lat":32.12056,"lng":-82.93245,"zip":"31037","miles_from_dt":28.24},{"city":"Cadwell","state_name":"Georgia","lat":32.27636,"lng":-83.00564,"zip":"31009","miles_from_dt":28.77},{"city":"Lumber City","state_name":"Georgia","lat":31.94503,"lng":-82.70922,"zip":"31549","miles_from_dt":28.8},{"city":"Reidsville","state_name":"Georgia","lat":32.0833,"lng":-82.11906,"zip":"30499","miles_from_dt":28.92},{"city":"Wrightsville","state_name":"Georgia","lat":32.71875,"lng":-82.70636,"zip":"31096","miles_from_dt":28.94}],"targetCityZipCode":"30470","targetCityState":"Georgia"},"__N_SSG":true}