{"pageProps":{"stateName":"Georgia","cityName":"waleska","nearbyCities":[{"city":"Canton","state_name":"Georgia","lat":34.24433,"lng":-84.5393,"zip":"30114","miles_from_dt":7.3},{"city":"Canton","state_name":"Georgia","lat":34.24724,"lng":-84.52159,"zip":"30169","miles_from_dt":7.65},{"city":"Rydal","state_name":"Georgia","lat":34.36122,"lng":-84.73584,"zip":"30171","miles_from_dt":8.06},{"city":"White","state_name":"Georgia","lat":34.26042,"lng":-84.71603,"zip":"30184","miles_from_dt":8.65},{"city":"Fairmount","state_name":"Georgia","lat":34.43346,"lng":-84.70575,"zip":"30139","miles_from_dt":9},{"city":"Lebanon","state_name":"Georgia","lat":34.22525,"lng":-84.4583,"zip":"30146","miles_from_dt":11.16},{"city":"Holly Springs","state_name":"Georgia","lat":34.17547,"lng":-84.49804,"zip":"30142","miles_from_dt":12.6},{"city":"Jasper","state_name":"Georgia","lat":34.46198,"lng":-84.42385,"zip":"30143","miles_from_dt":13.08},{"city":"Nelson","state_name":"Georgia","lat":34.3824,"lng":-84.3693,"zip":"30151","miles_from_dt":13.4},{"city":"Cartersville","state_name":"Georgia","lat":34.21073,"lng":-84.77802,"zip":"30121","miles_from_dt":13.57},{"city":"Tate","state_name":"Georgia","lat":34.40705,"lng":-84.37401,"zip":"30177","miles_from_dt":13.62},{"city":"Canton","state_name":"Georgia","lat":34.21296,"lng":-84.40138,"zip":"30115","miles_from_dt":14.18},{"city":"Ball Ground","state_name":"Georgia","lat":34.3352,"lng":-84.34744,"zip":"30107","miles_from_dt":14.31},{"city":"Woodstock","state_name":"Georgia","lat":34.12835,"lng":-84.57148,"zip":"30189","miles_from_dt":14.56},{"city":"Talking Rock","state_name":"Georgia","lat":34.54239,"lng":-84.52793,"zip":"30175","miles_from_dt":14.6},{"city":"Ranger","state_name":"Georgia","lat":34.53361,"lng":-84.71346,"zip":"30734","miles_from_dt":14.99},{"city":"Cassville","state_name":"Georgia","lat":34.24806,"lng":-84.85599,"zip":"30123","miles_from_dt":16.04},{"city":"Acworth","state_name":"Georgia","lat":34.10857,"lng":-84.64622,"zip":"30102","miles_from_dt":16.09},{"city":"Oakman","state_name":"Georgia","lat":34.5644,"lng":-84.70435,"zip":"30732","miles_from_dt":16.72},{"city":"Woodstock","state_name":"Georgia","lat":34.11873,"lng":-84.45526,"zip":"30188","miles_from_dt":17.2},{"city":"Emerson","state_name":"Georgia","lat":34.11657,"lng":-84.7657,"zip":"30137","miles_from_dt":18.07},{"city":"Adairsville","state_name":"Georgia","lat":34.36457,"lng":-84.92014,"zip":"30103","miles_from_dt":18.52},{"city":"Cartersville","state_name":"Georgia","lat":34.16639,"lng":-84.85597,"zip":"30120","miles_from_dt":18.96},{"city":"Marble Hill","state_name":"Georgia","lat":34.46009,"lng":-84.2648,"zip":"30148","miles_from_dt":20.78},{"city":"Kennesaw","state_name":"Georgia","lat":34.03672,"lng":-84.59174,"zip":"30144","miles_from_dt":20.81},{"city":"Acworth","state_name":"Georgia","lat":34.04355,"lng":-84.71244,"zip":"30101","miles_from_dt":21.37},{"city":"Marietta","state_name":"Georgia","lat":34.034,"lng":-84.50798,"zip":"30066","miles_from_dt":21.61},{"city":"Alpharetta","state_name":"Georgia","lat":34.14352,"lng":-84.29926,"zip":"30004","miles_from_dt":21.73},{"city":"Marietta","state_name":"Georgia","lat":34.04721,"lng":-84.44248,"zip":"30065","miles_from_dt":21.96},{"city":"Kingston","state_name":"Georgia","lat":34.24177,"lng":-84.98076,"zip":"30145","miles_from_dt":22.91},{"city":"Calhoun","state_name":"Georgia","lat":34.49535,"lng":-84.95385,"zip":"30701","miles_from_dt":23.04},{"city":"Roswell","state_name":"Georgia","lat":34.05282,"lng":-84.38739,"zip":"30075","miles_from_dt":23.08},{"city":"Calhoun","state_name":"Georgia","lat":34.50135,"lng":-84.95382,"zip":"30703","miles_from_dt":23.24},{"city":"Kennesaw","state_name":"Georgia","lat":33.99435,"lng":-84.6474,"zip":"30152","miles_from_dt":23.89},{"city":"Cumming","state_name":"Georgia","lat":34.28928,"lng":-84.17985,"zip":"30028","miles_from_dt":24.13},{"city":"Kennesaw","state_name":"Georgia","lat":33.99,"lng":-84.65219,"zip":"30160","miles_from_dt":24.23},{"city":"Kennesaw","state_name":"Georgia","lat":33.99,"lng":-84.65219,"zip":"30156","miles_from_dt":24.23},{"city":"Marietta","state_name":"Georgia","lat":33.99977,"lng":-84.46899,"zip":"30062","miles_from_dt":24.49},{"city":"East Ellijay","state_name":"Georgia","lat":34.68061,"lng":-84.47016,"zip":"30539","miles_from_dt":24.67},{"city":"Alpharetta","state_name":"Georgia","lat":34.07711,"lng":-84.3029,"zip":"30009","miles_from_dt":24.69},{"city":"Resaca","state_name":"Georgia","lat":34.60183,"lng":-84.89375,"zip":"30735","miles_from_dt":24.8},{"city":"Roswell","state_name":"Georgia","lat":34.04033,"lng":-84.35459,"zip":"30077","miles_from_dt":24.82},{"city":"Cumming","state_name":"Georgia","lat":34.21622,"lng":-84.17978,"zip":"30040","miles_from_dt":25.35},{"city":"Ellijay","state_name":"Georgia","lat":34.65151,"lng":-84.35223,"zip":"30536","miles_from_dt":25.72},{"city":"Marietta","state_name":"Georgia","lat":33.96331,"lng":-84.55106,"zip":"30007","miles_from_dt":26},{"city":"Plainville","state_name":"Georgia","lat":34.41574,"lng":-85.04349,"zip":"30733","miles_from_dt":26.03},{"city":"Alpharetta","state_name":"Georgia","lat":34.06763,"lng":-84.27115,"zip":"30023","miles_from_dt":26.42},{"city":"Ellijay","state_name":"Georgia","lat":34.72313,"lng":-84.54421,"zip":"30540","miles_from_dt":26.68},{"city":"Dawsonville","state_name":"Georgia","lat":34.43085,"lng":-84.1439,"zip":"30534","miles_from_dt":26.7},{"city":"Marietta","state_name":"Georgia","lat":33.953,"lng":-84.54837,"zip":"30090","miles_from_dt":26.72},{"city":"Marietta","state_name":"Georgia","lat":33.95373,"lng":-84.54116,"zip":"30006","miles_from_dt":26.72},{"city":"Roswell","state_name":"Georgia","lat":34.02777,"lng":-84.31723,"zip":"30076","miles_from_dt":26.77},{"city":"Taylorsville","state_name":"Georgia","lat":34.09709,"lng":-84.97051,"zip":"30178","miles_from_dt":27.07},{"city":"Marietta","state_name":"Georgia","lat":33.96887,"lng":-84.43273,"zip":"30068","miles_from_dt":27.18},{"city":"Marietta","state_name":"Georgia","lat":33.93809,"lng":-84.61691,"zip":"30064","miles_from_dt":27.62},{"city":"Alpharetta","state_name":"Georgia","lat":34.08582,"lng":-84.22158,"zip":"30005","miles_from_dt":27.7},{"city":"Shannon","state_name":"Georgia","lat":34.34307,"lng":-85.08376,"zip":"30172","miles_from_dt":27.8},{"city":"Dallas","state_name":"Georgia","lat":33.99042,"lng":-84.85279,"zip":"30132","miles_from_dt":28.1},{"city":"Marietta","state_name":"Georgia","lat":33.92851,"lng":-84.52209,"zip":"30063","miles_from_dt":28.59},{"city":"Atlanta","state_name":"Georgia","lat":33.98237,"lng":-84.33368,"zip":"31150","miles_from_dt":28.83},{"city":"Marietta","state_name":"Georgia","lat":33.9209,"lng":-84.543,"zip":"30060","miles_from_dt":28.96},{"city":"Marietta","state_name":"Georgia","lat":33.92008,"lng":-84.54407,"zip":"30061","miles_from_dt":29.01},{"city":"Marietta","state_name":"Georgia","lat":33.93286,"lng":-84.46187,"zip":"30067","miles_from_dt":29.02},{"city":"Atlanta","state_name":"Georgia","lat":33.97881,"lng":-84.33366,"zip":"30350","miles_from_dt":29.04},{"city":"Atlanta","state_name":"Georgia","lat":33.95996,"lng":-84.36491,"zip":"31156","miles_from_dt":29.3},{"city":"Alpharetta","state_name":"Georgia","lat":34.02745,"lng":-84.24643,"zip":"30022","miles_from_dt":29.4},{"city":"Marietta","state_name":"Georgia","lat":33.91691,"lng":-84.51797,"zip":"30069","miles_from_dt":29.42},{"city":"Chatsworth","state_name":"Georgia","lat":34.74711,"lng":-84.74929,"zip":"30705","miles_from_dt":29.46}],"targetCityZipCode":"30183","targetCityState":"Georgia"},"__N_SSG":true}