{"pageProps":{"stateName":"Georgia","cityName":"whitesburg","nearbyCities":[{"city":"Carrollton","state_name":"Georgia","lat":33.55224,"lng":-85.01298,"zip":"30116","miles_from_dt":6.42},{"city":"Sargent","state_name":"Georgia","lat":33.43066,"lng":-84.86798,"zip":"30275","miles_from_dt":6.58},{"city":"Newnan","state_name":"Georgia","lat":33.38852,"lng":-84.85911,"zip":"30263","miles_from_dt":9.49},{"city":"Winston","state_name":"Georgia","lat":33.65736,"lng":-84.85454,"zip":"30187","miles_from_dt":9.99},{"city":"Bowdon Junction","state_name":"Georgia","lat":33.56744,"lng":-85.08147,"zip":"30109","miles_from_dt":10.49},{"city":"Carrollton","state_name":"Georgia","lat":33.58,"lng":-85.08219,"zip":"30112","miles_from_dt":10.83},{"city":"Palmetto","state_name":"Georgia","lat":33.54357,"lng":-84.72262,"zip":"30268","miles_from_dt":10.87},{"city":"Carrollton","state_name":"Georgia","lat":33.57288,"lng":-85.09938,"zip":"30118","miles_from_dt":11.59},{"city":"Newnan","state_name":"Georgia","lat":33.37186,"lng":-84.8115,"zip":"30264","miles_from_dt":11.64},{"city":"Newnan","state_name":"Georgia","lat":33.37763,"lng":-84.78763,"zip":"30271","miles_from_dt":12.04},{"city":"Carrollton","state_name":"Georgia","lat":33.58113,"lng":-85.13197,"zip":"30117","miles_from_dt":13.56},{"city":"Newnan","state_name":"Georgia","lat":33.41649,"lng":-84.70749,"zip":"30265","miles_from_dt":13.63},{"city":"Carrollton","state_name":"Georgia","lat":33.58913,"lng":-85.13233,"zip":"30119","miles_from_dt":13.76},{"city":"Villa Rica","state_name":"Georgia","lat":33.72018,"lng":-84.91956,"zip":"30180","miles_from_dt":13.83},{"city":"Douglasville","state_name":"Georgia","lat":33.67285,"lng":-84.74523,"zip":"30135","miles_from_dt":14.15},{"city":"Roopville","state_name":"Georgia","lat":33.43065,"lng":-85.16821,"zip":"30170","miles_from_dt":16.19},{"city":"Fairburn","state_name":"Georgia","lat":33.59113,"lng":-84.6333,"zip":"30213","miles_from_dt":16.64},{"city":"Mount Zion","state_name":"Georgia","lat":33.62591,"lng":-85.18526,"zip":"30150","miles_from_dt":17.55},{"city":"Sharpsburg","state_name":"Georgia","lat":33.37962,"lng":-84.64767,"zip":"30277","miles_from_dt":17.91},{"city":"Douglasville","state_name":"Georgia","lat":33.74428,"lng":-84.74696,"zip":"30154","miles_from_dt":18.07},{"city":"Tyrone","state_name":"Georgia","lat":33.47675,"lng":-84.58804,"zip":"30290","miles_from_dt":18.76},{"city":"Douglasville","state_name":"Georgia","lat":33.77436,"lng":-84.78241,"zip":"30134","miles_from_dt":19},{"city":"Douglasville","state_name":"Georgia","lat":33.73502,"lng":-84.70208,"zip":"30133","miles_from_dt":19.03},{"city":"Temple","state_name":"Georgia","lat":33.78088,"lng":-85.01961,"zip":"30179","miles_from_dt":19.1},{"city":"Peachtree City","state_name":"Georgia","lat":33.4,"lng":-84.60219,"zip":"30270","miles_from_dt":19.54},{"city":"Moreland","state_name":"Georgia","lat":33.26522,"lng":-84.74073,"zip":"30259","miles_from_dt":20.05},{"city":"Bremen","state_name":"Georgia","lat":33.74071,"lng":-85.137,"zip":"30110","miles_from_dt":20.12},{"city":"Peachtree City","state_name":"Georgia","lat":33.39406,"lng":-84.59025,"zip":"31169","miles_from_dt":20.34},{"city":"Bowdon","state_name":"Georgia","lat":33.53172,"lng":-85.26242,"zip":"30108","miles_from_dt":20.43},{"city":"Franklin","state_name":"Georgia","lat":33.28671,"lng":-85.13309,"zip":"30217","miles_from_dt":20.64},{"city":"Grantville","state_name":"Georgia","lat":33.22849,"lng":-84.82463,"zip":"30220","miles_from_dt":20.65},{"city":"Turin","state_name":"Georgia","lat":33.32358,"lng":-84.63368,"zip":"30289","miles_from_dt":20.87},{"city":"Peachtree City","state_name":"Georgia","lat":33.39375,"lng":-84.56974,"zip":"30269","miles_from_dt":21.42},{"city":"Union City","state_name":"Georgia","lat":33.57569,"lng":-84.5408,"zip":"30291","miles_from_dt":21.58},{"city":"Waco","state_name":"Georgia","lat":33.65603,"lng":-85.24628,"zip":"30182","miles_from_dt":21.61},{"city":"Atlanta","state_name":"Georgia","lat":33.62387,"lng":-84.53472,"zip":"31192","miles_from_dt":22.74},{"city":"Lithia Springs","state_name":"Georgia","lat":33.76329,"lng":-84.6386,"zip":"30122","miles_from_dt":22.9},{"city":"Atlanta","state_name":"Georgia","lat":33.72004,"lng":-84.58739,"zip":"31136","miles_from_dt":23.11},{"city":"Atlanta","state_name":"Georgia","lat":33.62346,"lng":-84.52591,"zip":"30349","miles_from_dt":23.22},{"city":"Hogansville","state_name":"Georgia","lat":33.16699,"lng":-84.92071,"zip":"30230","miles_from_dt":24.32},{"city":"Fayetteville","state_name":"Georgia","lat":33.49222,"lng":-84.48697,"zip":"30214","miles_from_dt":24.43},{"city":"Atlanta","state_name":"Georgia","lat":33.7057,"lng":-84.5472,"zip":"31131","miles_from_dt":24.47},{"city":"Red Oak","state_name":"Georgia","lat":33.62313,"lng":-84.50175,"zip":"30272","miles_from_dt":24.54},{"city":"Atlanta","state_name":"Georgia","lat":33.70627,"lng":-84.54439,"zip":"30331","miles_from_dt":24.63},{"city":"Atlanta","state_name":"Georgia","lat":33.73718,"lng":-84.56768,"zip":"30336","miles_from_dt":24.72},{"city":"Hiram","state_name":"Georgia","lat":33.86244,"lng":-84.77521,"zip":"30141","miles_from_dt":24.84},{"city":"Dallas","state_name":"Georgia","lat":33.88641,"lng":-84.8731,"zip":"30157","miles_from_dt":25.35},{"city":"Senoia","state_name":"Georgia","lat":33.26552,"lng":-84.582,"zip":"30276","miles_from_dt":25.77},{"city":"Luthersville","state_name":"Georgia","lat":33.18871,"lng":-84.69983,"zip":"30251","miles_from_dt":25.82},{"city":"Austell","state_name":"Georgia","lat":33.78354,"lng":-84.58765,"zip":"30168","miles_from_dt":25.95},{"city":"Clarkdale","state_name":"Georgia","lat":33.8318,"lng":-84.65499,"zip":"30111","miles_from_dt":26.01},{"city":"Graham","state_name":"Alabama","lat":33.46727,"lng":-85.36016,"zip":"36263","miles_from_dt":26.31},{"city":"Atlanta","state_name":"Georgia","lat":33.75762,"lng":-84.55068,"zip":"30378","miles_from_dt":26.36},{"city":"Austell","state_name":"Georgia","lat":33.83476,"lng":-84.62947,"zip":"30106","miles_from_dt":27.03},{"city":"Riverdale","state_name":"Georgia","lat":33.56351,"lng":-84.44254,"zip":"30296","miles_from_dt":27.08},{"city":"Ranburne","state_name":"Alabama","lat":33.53904,"lng":-85.37742,"zip":"36273","miles_from_dt":27.08},{"city":"Powder Springs","state_name":"Georgia","lat":33.87647,"lng":-84.69648,"zip":"30127","miles_from_dt":27.46},{"city":"Fayetteville","state_name":"Georgia","lat":33.3888,"lng":-84.45709,"zip":"30215","miles_from_dt":27.61},{"city":"Atlanta","state_name":"Georgia","lat":33.64019,"lng":-84.44962,"zip":"30337","miles_from_dt":27.76},{"city":"Atlanta","state_name":"Georgia","lat":33.676,"lng":-84.462,"zip":"30364","miles_from_dt":27.93},{"city":"Atlanta","state_name":"Georgia","lat":33.67508,"lng":-84.46029,"zip":"30344","miles_from_dt":27.99},{"city":"Haralson","state_name":"Georgia","lat":33.22791,"lng":-84.57033,"zip":"30229","miles_from_dt":28.06},{"city":"Tallapoosa","state_name":"Georgia","lat":33.76972,"lng":-85.30398,"zip":"30176","miles_from_dt":28.56},{"city":"Atlanta","state_name":"Georgia","lat":33.63564,"lng":-84.43329,"zip":"30320","miles_from_dt":28.57},{"city":"Atlanta","state_name":"Georgia","lat":33.72345,"lng":-84.47442,"zip":"30311","miles_from_dt":28.71},{"city":"Buchanan","state_name":"Georgia","lat":33.8531,"lng":-85.20967,"zip":"30113","miles_from_dt":28.78},{"city":"Mableton","state_name":"Georgia","lat":33.81588,"lng":-84.55171,"zip":"30126","miles_from_dt":28.98},{"city":"Atlanta","state_name":"Georgia","lat":33.67439,"lng":-84.44161,"zip":"30385","miles_from_dt":28.98},{"city":"Morrow","state_name":"Georgia","lat":33.54979,"lng":-84.4031,"zip":"30287","miles_from_dt":29.26},{"city":"Woodland","state_name":"Alabama","lat":33.38427,"lng":-85.3891,"zip":"36280","miles_from_dt":29.28},{"city":"Riverdale","state_name":"Georgia","lat":33.55583,"lng":-84.40091,"zip":"30274","miles_from_dt":29.42},{"city":"Atlanta","state_name":"Georgia","lat":33.57683,"lng":-84.39474,"zip":"30374","miles_from_dt":29.92}],"targetCityZipCode":"30185","targetCityState":"Georgia"},"__N_SSG":true}