{"pageProps":{"stateName":"Minnesota","cityName":"chokio","nearbyCities":[{"city":"Alberta","state_name":"Minnesota","lat":45.50266,"lng":-96.0708,"zip":"56207","miles_from_dt":7.01},{"city":"Dumont","state_name":"Minnesota","lat":45.66341,"lng":-96.40312,"zip":"56236","miles_from_dt":12.58},{"city":"Morris","state_name":"Minnesota","lat":45.58512,"lng":-95.9322,"zip":"56267","miles_from_dt":12.85},{"city":"Donnelly","state_name":"Minnesota","lat":45.70588,"lng":-96.01079,"zip":"56235","miles_from_dt":13.64},{"city":"Graceville","state_name":"Minnesota","lat":45.56327,"lng":-96.47475,"zip":"56240","miles_from_dt":13.64},{"city":"Clinton","state_name":"Minnesota","lat":45.45325,"lng":-96.4482,"zip":"56225","miles_from_dt":14.24},{"city":"Herman","state_name":"Minnesota","lat":45.79317,"lng":-96.13677,"zip":"56248","miles_from_dt":16.62},{"city":"Ortonville","state_name":"Minnesota","lat":45.345,"lng":-96.37718,"zip":"56278","miles_from_dt":17.07},{"city":"Barry","state_name":"Minnesota","lat":45.55739,"lng":-96.55958,"zip":"56210","miles_from_dt":17.75},{"city":"Correll","state_name":"Minnesota","lat":45.29436,"lng":-96.16938,"zip":"56227","miles_from_dt":18.1},{"city":"Hancock","state_name":"Minnesota","lat":45.48372,"lng":-95.77963,"zip":"56244","miles_from_dt":20.71},{"city":"Holloway","state_name":"Minnesota","lat":45.31795,"lng":-95.89899,"zip":"56249","miles_from_dt":21.8},{"city":"Odessa","state_name":"Minnesota","lat":45.24134,"lng":-96.31249,"zip":"56276","miles_from_dt":22.47},{"city":"Wheaton","state_name":"Minnesota","lat":45.82981,"lng":-96.46953,"zip":"56296","miles_from_dt":23.15},{"city":"Cyrus","state_name":"Minnesota","lat":45.63321,"lng":-95.72586,"zip":"56323","miles_from_dt":23.31},{"city":"Appleton","state_name":"Minnesota","lat":45.24422,"lng":-96.00961,"zip":"56208","miles_from_dt":23.31},{"city":"Beardsley","state_name":"Minnesota","lat":45.58641,"lng":-96.6828,"zip":"56211","miles_from_dt":23.81},{"city":"Big Stone City","state_name":"South Dakota","lat":45.30041,"lng":-96.52471,"zip":"57216","miles_from_dt":23.88},{"city":"Norcross","state_name":"Minnesota","lat":45.90145,"lng":-96.2383,"zip":"56274","miles_from_dt":23.97},{"city":"Hoffman","state_name":"Minnesota","lat":45.8258,"lng":-95.82129,"zip":"56339","miles_from_dt":25.94},{"city":"Clontarf","state_name":"Minnesota","lat":45.41065,"lng":-95.67705,"zip":"56226","miles_from_dt":27.03},{"city":"Barrett","state_name":"Minnesota","lat":45.89756,"lng":-95.89852,"zip":"56311","miles_from_dt":27.59},{"city":"Danvers","state_name":"Minnesota","lat":45.2788,"lng":-95.76381,"zip":"56231","miles_from_dt":28.34},{"city":"Corona","state_name":"South Dakota","lat":45.36184,"lng":-96.72105,"zip":"57227","miles_from_dt":28.92},{"city":"Kensington","state_name":"Minnesota","lat":45.79088,"lng":-95.69765,"zip":"56343","miles_from_dt":28.99},{"city":"Bellingham","state_name":"Minnesota","lat":45.13499,"lng":-96.32459,"zip":"56212","miles_from_dt":29.75}],"targetCityZipCode":"56221","targetCityState":"Minnesota"},"__N_SSG":true}