{"pageProps":{"stateName":"Minnesota","cityName":"deerwood","nearbyCities":[{"city":"Ironton","state_name":"Minnesota","lat":46.44953,"lng":-94.00681,"zip":"56455","miles_from_dt":6.54},{"city":"Aitkin","state_name":"Minnesota","lat":46.4828,"lng":-93.64356,"zip":"56431","miles_from_dt":12.07},{"city":"Crosby","state_name":"Minnesota","lat":46.58625,"lng":-93.9865,"zip":"56441","miles_from_dt":12.75},{"city":"Garrison","state_name":"Minnesota","lat":46.23341,"lng":-93.8361,"zip":"56450","miles_from_dt":12.87},{"city":"Brainerd","state_name":"Minnesota","lat":46.32259,"lng":-94.11974,"zip":"56401","miles_from_dt":13.29},{"city":"Merrifield","state_name":"Minnesota","lat":46.53459,"lng":-94.11381,"zip":"56465","miles_from_dt":13.86},{"city":"Lake Hubert","state_name":"Minnesota","lat":46.50215,"lng":-94.25726,"zip":"56459","miles_from_dt":19.02},{"city":"Baxter","state_name":"Minnesota","lat":46.34162,"lng":-94.28308,"zip":"56425","miles_from_dt":20.06},{"city":"Crosslake","state_name":"Minnesota","lat":46.67629,"lng":-94.09726,"zip":"56442","miles_from_dt":20.7},{"city":"Nisswa","state_name":"Minnesota","lat":46.49141,"lng":-94.29856,"zip":"56468","miles_from_dt":20.71},{"city":"Emily","state_name":"Minnesota","lat":46.74151,"lng":-93.90262,"zip":"56447","miles_from_dt":22.41},{"city":"Onamia","state_name":"Minnesota","lat":46.08979,"lng":-93.67786,"zip":"56359","miles_from_dt":24.58},{"city":"Pequot Lakes","state_name":"Minnesota","lat":46.57507,"lng":-94.34884,"zip":"56472","miles_from_dt":24.96},{"city":"Fort Ripley","state_name":"Minnesota","lat":46.17436,"lng":-94.27214,"zip":"56449","miles_from_dt":25.26},{"city":"Wahkon","state_name":"Minnesota","lat":46.11402,"lng":-93.52176,"zip":"56386","miles_from_dt":27.03},{"city":"Jenkins","state_name":"Minnesota","lat":46.64989,"lng":-94.3358,"zip":"56456","miles_from_dt":27.09},{"city":"Fifty Lakes","state_name":"Minnesota","lat":46.78604,"lng":-94.09014,"zip":"56448","miles_from_dt":27.39},{"city":"Lastrup","state_name":"Minnesota","lat":46.03834,"lng":-94.06392,"zip":"56344","miles_from_dt":27.66},{"city":"Isle","state_name":"Minnesota","lat":46.18347,"lng":-93.40392,"zip":"56342","miles_from_dt":27.86},{"city":"Hillman","state_name":"Minnesota","lat":46.00631,"lng":-93.88089,"zip":"56338","miles_from_dt":28.4},{"city":"Pierz","state_name":"Minnesota","lat":46.01605,"lng":-94.06704,"zip":"56364","miles_from_dt":29.17},{"city":"Pillager","state_name":"Minnesota","lat":46.35649,"lng":-94.48355,"zip":"56473","miles_from_dt":29.25},{"city":"Palisade","state_name":"Minnesota","lat":46.77701,"lng":-93.5463,"zip":"56469","miles_from_dt":29.43},{"city":"Outing","state_name":"Minnesota","lat":46.84524,"lng":-93.89926,"zip":"56662","miles_from_dt":29.56}],"targetCityZipCode":"56444","targetCityState":"Minnesota"},"__N_SSG":true}