{"pageProps":{"stateName":"Minnesota","cityName":"euclid","nearbyCities":[{"city":"Warren","state_name":"Minnesota","lat":48.1688,"lng":-96.7415,"zip":"56762","miles_from_dt":13.6},{"city":"East Grand Forks","state_name":"Minnesota","lat":47.97108,"lng":-96.94336,"zip":"56721","miles_from_dt":13.8},{"city":"Fisher","state_name":"Minnesota","lat":47.80493,"lng":-96.8059,"zip":"56723","miles_from_dt":14.33},{"city":"Crookston","state_name":"Minnesota","lat":47.74189,"lng":-96.55522,"zip":"56716","miles_from_dt":17.16},{"city":"Red Lake Falls","state_name":"Minnesota","lat":47.89027,"lng":-96.30172,"zip":"56750","miles_from_dt":17.23},{"city":"Viking","state_name":"Minnesota","lat":48.24037,"lng":-96.44586,"zip":"56760","miles_from_dt":20.09},{"city":"Grand Forks","state_name":"North Dakota","lat":47.92224,"lng":-97.07435,"zip":"58202","miles_from_dt":20.29},{"city":"Grand Forks","state_name":"North Dakota","lat":47.89929,"lng":-97.06762,"zip":"58206","miles_from_dt":20.38},{"city":"Grand Forks","state_name":"North Dakota","lat":47.88038,"lng":-97.06217,"zip":"58208","miles_from_dt":20.55},{"city":"Saint Hilaire","state_name":"Minnesota","lat":47.99065,"lng":-96.18199,"zip":"56754","miles_from_dt":21.55},{"city":"Thief River Falls","state_name":"Minnesota","lat":48.12021,"lng":-96.1994,"zip":"56701","miles_from_dt":22.79},{"city":"Alvarado","state_name":"Minnesota","lat":48.2182,"lng":-96.99776,"zip":"56710","miles_from_dt":23.01},{"city":"Grand Forks","state_name":"North Dakota","lat":47.97181,"lng":-97.15425,"zip":"58203","miles_from_dt":23.57},{"city":"Grand Forks","state_name":"North Dakota","lat":47.86938,"lng":-97.14013,"zip":"58201","miles_from_dt":24.22},{"city":"Climax","state_name":"Minnesota","lat":47.63838,"lng":-96.80871,"zip":"56523","miles_from_dt":24.95},{"city":"Argyle","state_name":"Minnesota","lat":48.3487,"lng":-96.81717,"zip":"56713","miles_from_dt":26.5},{"city":"Thompson","state_name":"North Dakota","lat":47.77761,"lng":-97.13084,"zip":"58278","miles_from_dt":26.59},{"city":"Manvel","state_name":"North Dakota","lat":48.08739,"lng":-97.20203,"zip":"58256","miles_from_dt":26.75},{"city":"Oslo","state_name":"Minnesota","lat":48.23456,"lng":-97.1089,"zip":"56744","miles_from_dt":27.59},{"city":"Mentor","state_name":"Minnesota","lat":47.71212,"lng":-96.20567,"zip":"56736","miles_from_dt":27.73},{"city":"Newfolden","state_name":"Minnesota","lat":48.34448,"lng":-96.33456,"zip":"56738","miles_from_dt":28.87},{"city":"Reynolds","state_name":"North Dakota","lat":47.68956,"lng":-97.10609,"zip":"58275","miles_from_dt":29.44},{"city":"Plummer","state_name":"Minnesota","lat":47.92066,"lng":-96.00743,"zip":"56748","miles_from_dt":29.96},{"city":"Beltrami","state_name":"Minnesota","lat":47.55474,"lng":-96.53825,"zip":"56517","miles_from_dt":29.98}],"targetCityZipCode":"56722","targetCityState":"Minnesota"},"__N_SSG":true}