{"pageProps":{"stateName":"Minnesota","cityName":"floodwood","nearbyCities":[{"city":"Meadowlands","state_name":"Minnesota","lat":47.10057,"lng":-92.74545,"zip":"55765","miles_from_dt":11.99},{"city":"Alborn","state_name":"Minnesota","lat":46.97121,"lng":-92.6448,"zip":"55702","miles_from_dt":13.08},{"city":"Swan River","state_name":"Minnesota","lat":47.05306,"lng":-93.18769,"zip":"55784","miles_from_dt":13.68},{"city":"Brookston","state_name":"Minnesota","lat":46.84066,"lng":-92.69498,"zip":"55711","miles_from_dt":14.2},{"city":"Jacobson","state_name":"Minnesota","lat":46.95494,"lng":-93.25323,"zip":"55752","miles_from_dt":15.76},{"city":"Goodland","state_name":"Minnesota","lat":47.17195,"lng":-93.14076,"zip":"55742","miles_from_dt":17.07},{"city":"Wright","state_name":"Minnesota","lat":46.72138,"lng":-92.97907,"zip":"55798","miles_from_dt":17.76},{"city":"Tamarack","state_name":"Minnesota","lat":46.73707,"lng":-93.11756,"zip":"55787","miles_from_dt":18.91},{"city":"Warba","state_name":"Minnesota","lat":47.11585,"lng":-93.28442,"zip":"55793","miles_from_dt":19.7},{"city":"Cromwell","state_name":"Minnesota","lat":46.67027,"lng":-92.83209,"zip":"55726","miles_from_dt":21.5},{"city":"Saginaw","state_name":"Minnesota","lat":46.90915,"lng":-92.4548,"zip":"55779","miles_from_dt":22.54},{"city":"Sawyer","state_name":"Minnesota","lat":46.67505,"lng":-92.68321,"zip":"55780","miles_from_dt":23.62},{"city":"Cloquet","state_name":"Minnesota","lat":46.75138,"lng":-92.5399,"zip":"55720","miles_from_dt":23.79},{"city":"Forbes","state_name":"Minnesota","lat":47.27342,"lng":-92.65826,"zip":"55738","miles_from_dt":24.03},{"city":"Pengilly","state_name":"Minnesota","lat":47.30588,"lng":-93.1646,"zip":"55775","miles_from_dt":25.55},{"city":"Canyon","state_name":"Minnesota","lat":47.05026,"lng":-92.38642,"zip":"55717","miles_from_dt":25.8},{"city":"Hibbing","state_name":"Minnesota","lat":47.35766,"lng":-92.95698,"zip":"55746","miles_from_dt":26.46},{"city":"Twig","state_name":"Minnesota","lat":46.89584,"lng":-92.35632,"zip":"55791","miles_from_dt":27.29},{"city":"Calumet","state_name":"Minnesota","lat":47.32169,"lng":-93.26432,"zip":"55716","miles_from_dt":28.87},{"city":"Mcgregor","state_name":"Minnesota","lat":46.62491,"lng":-93.27049,"zip":"55760","miles_from_dt":29.33},{"city":"Cotton","state_name":"Minnesota","lat":47.17874,"lng":-92.37277,"zip":"55724","miles_from_dt":29.45}],"targetCityZipCode":"55736","targetCityState":"Minnesota"},"__N_SSG":true}