{"pageProps":{"stateName":"Minnesota","cityName":"foxhome","nearbyCities":[{"city":"Breckenridge","state_name":"Minnesota","lat":46.28645,"lng":-96.50361,"zip":"56520","miles_from_dt":8},{"city":"Campbell","state_name":"Minnesota","lat":46.1352,"lng":-96.3887,"zip":"56522","miles_from_dt":10.67},{"city":"Fergus Falls","state_name":"Minnesota","lat":46.27697,"lng":-96.08977,"zip":"56537","miles_from_dt":11.83},{"city":"Elizabeth","state_name":"Minnesota","lat":46.40393,"lng":-96.15144,"zip":"56533","miles_from_dt":12.06},{"city":"Fergus Falls","state_name":"Minnesota","lat":46.2828,"lng":-96.07481,"zip":"56538","miles_from_dt":12.53},{"city":"Rothsay","state_name":"Minnesota","lat":46.4688,"lng":-96.34229,"zip":"56579","miles_from_dt":12.67},{"city":"Wahpeton","state_name":"North Dakota","lat":46.27416,"lng":-96.60746,"zip":"58076","miles_from_dt":13},{"city":"Nashua","state_name":"Minnesota","lat":46.04861,"lng":-96.31511,"zip":"56565","miles_from_dt":16.39},{"city":"Kent","state_name":"Minnesota","lat":46.42946,"lng":-96.61757,"zip":"56553","miles_from_dt":16.72},{"city":"Wahpeton","state_name":"North Dakota","lat":46.27426,"lng":-96.72211,"zip":"58075","miles_from_dt":18.48},{"city":"Wendell","state_name":"Minnesota","lat":46.03514,"lng":-96.16093,"zip":"56590","miles_from_dt":19.23},{"city":"Erhard","state_name":"Minnesota","lat":46.46325,"lng":-96.01431,"zip":"56534","miles_from_dt":19.7},{"city":"Tintah","state_name":"Minnesota","lat":46.00332,"lng":-96.40667,"zip":"56583","miles_from_dt":19.77},{"city":"Dalton","state_name":"Minnesota","lat":46.16385,"lng":-95.90766,"zip":"56324","miles_from_dt":22.21},{"city":"Abercrombie","state_name":"North Dakota","lat":46.44837,"lng":-96.74134,"zip":"58001","miles_from_dt":22.39},{"city":"Wolverton","state_name":"Minnesota","lat":46.54906,"lng":-96.64493,"zip":"56594","miles_from_dt":23.42},{"city":"Fairmount","state_name":"North Dakota","lat":46.03035,"lng":-96.66818,"zip":"58030","miles_from_dt":23.74},{"city":"Underwood","state_name":"Minnesota","lat":46.32324,"lng":-95.84,"zip":"56586","miles_from_dt":23.91},{"city":"Pelican Rapids","state_name":"Minnesota","lat":46.60485,"lng":-96.08682,"zip":"56572","miles_from_dt":25.08},{"city":"Barnesville","state_name":"Minnesota","lat":46.64892,"lng":-96.43486,"zip":"56514","miles_from_dt":25.54},{"city":"Wahpeton","state_name":"North Dakota","lat":46.21807,"lng":-96.87603,"zip":"58074","miles_from_dt":26.26},{"city":"Elbow Lake","state_name":"Minnesota","lat":45.98967,"lng":-95.98376,"zip":"56531","miles_from_dt":26.54},{"city":"Mooreton","state_name":"North Dakota","lat":46.27721,"lng":-96.89564,"zip":"58061","miles_from_dt":26.78},{"city":"Norcross","state_name":"Minnesota","lat":45.90145,"lng":-96.2383,"zip":"56274","miles_from_dt":26.94},{"city":"Colfax","state_name":"North Dakota","lat":46.43458,"lng":-96.8887,"zip":"58018","miles_from_dt":28.34},{"city":"Ashby","state_name":"Minnesota","lat":46.08035,"lng":-95.80202,"zip":"56309","miles_from_dt":29.29}],"targetCityZipCode":"56543","targetCityState":"Minnesota"},"__N_SSG":true}