{"pageProps":{"stateName":"Minnesota","cityName":"glenwood","nearbyCities":[{"city":"Starbuck","state_name":"Minnesota","lat":45.55523,"lng":-95.54669,"zip":"56381","miles_from_dt":9.86},{"city":"Villard","state_name":"Minnesota","lat":45.70349,"lng":-95.20681,"zip":"56385","miles_from_dt":10.71},{"city":"Brooten","state_name":"Minnesota","lat":45.49959,"lng":-95.14992,"zip":"56316","miles_from_dt":11.23},{"city":"Lowry","state_name":"Minnesota","lat":45.72373,"lng":-95.52456,"zip":"56349","miles_from_dt":12.9},{"city":"Farwell","state_name":"Minnesota","lat":45.75893,"lng":-95.61336,"zip":"56327","miles_from_dt":17.65},{"city":"Sunburg","state_name":"Minnesota","lat":45.33334,"lng":-95.2236,"zip":"56289","miles_from_dt":18.33},{"city":"Cyrus","state_name":"Minnesota","lat":45.63321,"lng":-95.72586,"zip":"56323","miles_from_dt":18.64},{"city":"Holmes City","state_name":"Minnesota","lat":45.80743,"lng":-95.57312,"zip":"56341","miles_from_dt":18.9},{"city":"West Union","state_name":"Minnesota","lat":45.79961,"lng":-95.08832,"zip":"56389","miles_from_dt":19.47},{"city":"Elrosa","state_name":"Minnesota","lat":45.56303,"lng":-94.94732,"zip":"56325","miles_from_dt":19.47},{"city":"Alexandria","state_name":"Minnesota","lat":45.87047,"lng":-95.38985,"zip":"56308","miles_from_dt":19.89},{"city":"Clontarf","state_name":"Minnesota","lat":45.41065,"lng":-95.67705,"zip":"56226","miles_from_dt":19.98},{"city":"Sauk Centre","state_name":"Minnesota","lat":45.72308,"lng":-94.97982,"zip":"56378","miles_from_dt":20.24},{"city":"Belgrade","state_name":"Minnesota","lat":45.46285,"lng":-94.95323,"zip":"56312","miles_from_dt":20.9},{"city":"Benson","state_name":"Minnesota","lat":45.31077,"lng":-95.57233,"zip":"56215","miles_from_dt":21.8},{"city":"Hancock","state_name":"Minnesota","lat":45.48372,"lng":-95.77963,"zip":"56244","miles_from_dt":22.08},{"city":"Kensington","state_name":"Minnesota","lat":45.79088,"lng":-95.69765,"zip":"56343","miles_from_dt":22.16},{"city":"Osakis","state_name":"Minnesota","lat":45.87482,"lng":-95.12686,"zip":"56360","miles_from_dt":22.75},{"city":"Greenwald","state_name":"Minnesota","lat":45.60137,"lng":-94.85941,"zip":"56335","miles_from_dt":23.7},{"city":"Murdock","state_name":"Minnesota","lat":45.24125,"lng":-95.41288,"zip":"56271","miles_from_dt":23.88},{"city":"Nelson","state_name":"Minnesota","lat":45.94007,"lng":-95.24031,"zip":"56355","miles_from_dt":25.13},{"city":"New London","state_name":"Minnesota","lat":45.32163,"lng":-94.96777,"zip":"56273","miles_from_dt":25.87},{"city":"Pennock","state_name":"Minnesota","lat":45.21651,"lng":-95.17585,"zip":"56279","miles_from_dt":26.72},{"city":"Melrose","state_name":"Minnesota","lat":45.65078,"lng":-94.80076,"zip":"56352","miles_from_dt":26.9},{"city":"Garfield","state_name":"Minnesota","lat":45.96993,"lng":-95.50554,"zip":"56332","miles_from_dt":27.72},{"city":"Kerkhoven","state_name":"Minnesota","lat":45.17785,"lng":-95.30397,"zip":"56252","miles_from_dt":28.13},{"city":"Morris","state_name":"Minnesota","lat":45.58512,"lng":-95.9322,"zip":"56267","miles_from_dt":28.35},{"city":"Hoffman","state_name":"Minnesota","lat":45.8258,"lng":-95.82129,"zip":"56339","miles_from_dt":28.36},{"city":"Danvers","state_name":"Minnesota","lat":45.2788,"lng":-95.76381,"zip":"56231","miles_from_dt":29.22},{"city":"Carlos","state_name":"Minnesota","lat":46.00488,"lng":-95.22322,"zip":"56319","miles_from_dt":29.68},{"city":"Brandon","state_name":"Minnesota","lat":45.97996,"lng":-95.59211,"zip":"56315","miles_from_dt":29.79},{"city":"New Munich","state_name":"Minnesota","lat":45.63334,"lng":-94.73332,"zip":"56356","miles_from_dt":29.97}],"targetCityZipCode":"56334","targetCityState":"Minnesota"},"__N_SSG":true}