{"pageProps":{"stateName":"Minnesota","cityName":"grand-meadow","nearbyCities":[{"city":"Dexter","state_name":"Minnesota","lat":43.74279,"lng":-92.70689,"zip":"55926","miles_from_dt":6.51},{"city":"Elkton","state_name":"Minnesota","lat":43.64787,"lng":-92.68504,"zip":"55933","miles_from_dt":6.56},{"city":"Racine","state_name":"Minnesota","lat":43.79343,"lng":-92.51354,"zip":"55967","miles_from_dt":6.82},{"city":"Ostrander","state_name":"Minnesota","lat":43.60541,"lng":-92.47544,"zip":"55961","miles_from_dt":9.05},{"city":"Spring Valley","state_name":"Minnesota","lat":43.67569,"lng":-92.37296,"zip":"55975","miles_from_dt":10.89},{"city":"Taopi","state_name":"Minnesota","lat":43.55371,"lng":-92.64792,"zip":"55977","miles_from_dt":11.2},{"city":"Sargeant","state_name":"Minnesota","lat":43.80794,"lng":-92.772,"zip":"55973","miles_from_dt":11.56},{"city":"Stewartville","state_name":"Minnesota","lat":43.86378,"lng":-92.48394,"zip":"55976","miles_from_dt":11.8},{"city":"Adams","state_name":"Minnesota","lat":43.56312,"lng":-92.73461,"zip":"55909","miles_from_dt":12.57},{"city":"Le Roy","state_name":"Minnesota","lat":43.53529,"lng":-92.48414,"zip":"55951","miles_from_dt":13.05},{"city":"Brownsdale","state_name":"Minnesota","lat":43.74236,"lng":-92.84673,"zip":"55918","miles_from_dt":13.29},{"city":"Rose Creek","state_name":"Minnesota","lat":43.59681,"lng":-92.83118,"zip":"55970","miles_from_dt":14.58},{"city":"Wykoff","state_name":"Minnesota","lat":43.7285,"lng":-92.2591,"zip":"55990","miles_from_dt":16.38},{"city":"Waltham","state_name":"Minnesota","lat":43.81582,"lng":-92.886,"zip":"55982","miles_from_dt":16.75},{"city":"Hayfield","state_name":"Minnesota","lat":43.89417,"lng":-92.80775,"zip":"55940","miles_from_dt":16.93},{"city":"McIntire","state_name":"Iowa","lat":43.45695,"lng":-92.64981,"zip":"50455","miles_from_dt":17.73},{"city":"Rochester","state_name":"Minnesota","lat":43.9671,"lng":-92.51584,"zip":"55902","miles_from_dt":18.12},{"city":"Chester","state_name":"Iowa","lat":43.47156,"lng":-92.40078,"zip":"52134","miles_from_dt":18.85},{"city":"Lansing","state_name":"Minnesota","lat":43.74341,"lng":-92.96618,"zip":"55950","miles_from_dt":19.22},{"city":"Rochester","state_name":"Minnesota","lat":43.96204,"lng":-92.39931,"zip":"55904","miles_from_dt":19.76},{"city":"Stacyville","state_name":"Iowa","lat":43.4527,"lng":-92.76311,"zip":"50476","miles_from_dt":19.84},{"city":"Austin","state_name":"Minnesota","lat":43.6827,"lng":-92.99148,"zip":"55912","miles_from_dt":20.43},{"city":"Kasson","state_name":"Minnesota","lat":43.98754,"lng":-92.73758,"zip":"55944","miles_from_dt":20.65},{"city":"Byron","state_name":"Minnesota","lat":44.01246,"lng":-92.62111,"zip":"55920","miles_from_dt":21},{"city":"Chatfield","state_name":"Minnesota","lat":43.8494,"lng":-92.18315,"zip":"55923","miles_from_dt":22.31},{"city":"Riceville","state_name":"Iowa","lat":43.38782,"lng":-92.53815,"zip":"50466","miles_from_dt":22.33},{"city":"Lyle","state_name":"Minnesota","lat":43.52772,"lng":-92.96521,"zip":"55953","miles_from_dt":22.82},{"city":"Rochester","state_name":"Minnesota","lat":44.02391,"lng":-92.43657,"zip":"55903","miles_from_dt":22.95},{"city":"Fountain","state_name":"Minnesota","lat":43.74737,"lng":-92.12734,"zip":"55935","miles_from_dt":23.07},{"city":"Preston","state_name":"Minnesota","lat":43.62913,"lng":-92.13282,"zip":"55965","miles_from_dt":23.34},{"city":"Little Cedar","state_name":"Iowa","lat":43.38505,"lng":-92.73935,"zip":"50454","miles_from_dt":23.69},{"city":"Rochester","state_name":"Minnesota","lat":44.05595,"lng":-92.52589,"zip":"55905","miles_from_dt":24.11},{"city":"Lime Springs","state_name":"Iowa","lat":43.41412,"lng":-92.29683,"zip":"52155","miles_from_dt":25.01},{"city":"Rochester","state_name":"Minnesota","lat":44.07679,"lng":-92.5018,"zip":"55901","miles_from_dt":25.7},{"city":"Eyota","state_name":"Minnesota","lat":44.00388,"lng":-92.26573,"zip":"55934","miles_from_dt":25.85},{"city":"Dodge Center","state_name":"Minnesota","lat":44.0335,"lng":-92.87291,"zip":"55927","miles_from_dt":26.59},{"city":"Saint Ansgar","state_name":"Iowa","lat":43.42265,"lng":-92.94644,"zip":"50472","miles_from_dt":26.85},{"city":"Blooming Prairie","state_name":"Minnesota","lat":43.88164,"lng":-93.0716,"zip":"55917","miles_from_dt":27.07},{"city":"Mantorville","state_name":"Minnesota","lat":44.09179,"lng":-92.73985,"zip":"55955","miles_from_dt":27.5},{"city":"Harmony","state_name":"Minnesota","lat":43.54682,"lng":-92.08144,"zip":"55939","miles_from_dt":27.65},{"city":"Toeterville","state_name":"Iowa","lat":43.37833,"lng":-92.91861,"zip":"50481","miles_from_dt":28.33},{"city":"Dover","state_name":"Minnesota","lat":43.97765,"lng":-92.14412,"zip":"55929","miles_from_dt":28.79},{"city":"Rochester","state_name":"Minnesota","lat":44.10751,"lng":-92.40142,"zip":"55906","miles_from_dt":28.97},{"city":"Carpenter","state_name":"Iowa","lat":43.41507,"lng":-93.01718,"zip":"50426","miles_from_dt":29.72},{"city":"Oronoco","state_name":"Minnesota","lat":44.14226,"lng":-92.53564,"zip":"55960","miles_from_dt":29.99}],"targetCityZipCode":"55936","targetCityState":"Minnesota"},"__N_SSG":true}