{"pageProps":{"stateName":"Minnesota","cityName":"hinckley","nearbyCities":[{"city":"Askov","state_name":"Minnesota","lat":46.2057,"lng":-92.76581,"zip":"55704","miles_from_dt":13.51},{"city":"Pine City","state_name":"Minnesota","lat":45.83263,"lng":-92.90584,"zip":"55063","miles_from_dt":13.52},{"city":"Sandstone","state_name":"Minnesota","lat":46.15118,"lng":-92.59274,"zip":"55072","miles_from_dt":13.54},{"city":"Brook Park","state_name":"Minnesota","lat":45.97511,"lng":-93.12223,"zip":"55007","miles_from_dt":16.21},{"city":"Finlayson","state_name":"Minnesota","lat":46.21756,"lng":-93.01688,"zip":"55735","miles_from_dt":17.99},{"city":"Grantsburg","state_name":"Wisconsin","lat":45.7556,"lng":-92.68928,"zip":"54840","miles_from_dt":18.27},{"city":"Rock Creek","state_name":"Minnesota","lat":45.7623,"lng":-92.9262,"zip":"55067","miles_from_dt":18.38},{"city":"Henriette","state_name":"Minnesota","lat":45.87114,"lng":-93.11999,"zip":"55036","miles_from_dt":18.62},{"city":"Grasston","state_name":"Minnesota","lat":45.83911,"lng":-93.11493,"zip":"55030","miles_from_dt":19.67},{"city":"Willow River","state_name":"Minnesota","lat":46.31337,"lng":-92.87031,"zip":"55795","miles_from_dt":21.26},{"city":"Bruno","state_name":"Minnesota","lat":46.29398,"lng":-92.52513,"zip":"55712","miles_from_dt":23.32},{"city":"Rush City","state_name":"Minnesota","lat":45.6928,"lng":-92.96768,"zip":"55069","miles_from_dt":23.58},{"city":"Webster","state_name":"Wisconsin","lat":45.87094,"lng":-92.30837,"zip":"54893","miles_from_dt":25.11},{"city":"Siren","state_name":"Wisconsin","lat":45.76965,"lng":-92.39622,"zip":"54872","miles_from_dt":25.23},{"city":"Mora","state_name":"Minnesota","lat":45.93818,"lng":-93.33201,"zip":"55051","miles_from_dt":26.61},{"city":"Kerrick","state_name":"Minnesota","lat":46.37535,"lng":-92.60128,"zip":"55756","miles_from_dt":26.75},{"city":"Braham","state_name":"Minnesota","lat":45.74002,"lng":-93.20504,"zip":"55006","miles_from_dt":27.42},{"city":"Danbury","state_name":"Wisconsin","lat":46.10571,"lng":-92.22305,"zip":"54830","miles_from_dt":28.01},{"city":"Sturgeon Lake","state_name":"Minnesota","lat":46.40836,"lng":-92.92625,"zip":"55783","miles_from_dt":28.24},{"city":"Cushing","state_name":"Wisconsin","lat":45.58958,"lng":-92.64824,"zip":"54006","miles_from_dt":29.87},{"city":"McGrath","state_name":"Minnesota","lat":46.31101,"lng":-93.23922,"zip":"56350","miles_from_dt":29.94}],"targetCityZipCode":"55037","targetCityState":"Minnesota"},"__N_SSG":true}