{"pageProps":{"stateName":"Minnesota","cityName":"huntley","nearbyCities":[{"city":"Winnebago","state_name":"Minnesota","lat":43.77565,"lng":-94.18528,"zip":"56098","miles_from_dt":3.67},{"city":"Granada","state_name":"Minnesota","lat":43.66246,"lng":-94.32287,"zip":"56039","miles_from_dt":7.76},{"city":"Blue Earth","state_name":"Minnesota","lat":43.62142,"lng":-94.10734,"zip":"56013","miles_from_dt":8.18},{"city":"Delavan","state_name":"Minnesota","lat":43.77224,"lng":-94.01402,"zip":"56023","miles_from_dt":9.54},{"city":"Amboy","state_name":"Minnesota","lat":43.89112,"lng":-94.17869,"zip":"56010","miles_from_dt":11.64},{"city":"Northrop","state_name":"Minnesota","lat":43.73516,"lng":-94.43663,"zip":"56075","miles_from_dt":12.28},{"city":"Easton","state_name":"Minnesota","lat":43.7516,"lng":-93.90877,"zip":"56025","miles_from_dt":14.32},{"city":"Elmore","state_name":"Minnesota","lat":43.51935,"lng":-94.12432,"zip":"56027","miles_from_dt":14.45},{"city":"Truman","state_name":"Minnesota","lat":43.82647,"lng":-94.45031,"zip":"56088","miles_from_dt":14.77},{"city":"Fairmont","state_name":"Minnesota","lat":43.62246,"lng":-94.46757,"zip":"56031","miles_from_dt":15.45},{"city":"Vernon Center","state_name":"Minnesota","lat":43.9584,"lng":-94.23303,"zip":"56090","miles_from_dt":16.4},{"city":"Frost","state_name":"Minnesota","lat":43.55926,"lng":-93.93118,"zip":"56033","miles_from_dt":17.28},{"city":"Ledyard","state_name":"Iowa","lat":43.45276,"lng":-94.20114,"zip":"50556","miles_from_dt":18.65},{"city":"Lewisville","state_name":"Minnesota","lat":43.93221,"lng":-94.43691,"zip":"56060","miles_from_dt":18.94},{"city":"Mapleton","state_name":"Minnesota","lat":43.93376,"lng":-93.91799,"zip":"56065","miles_from_dt":20},{"city":"Bricelyn","state_name":"Minnesota","lat":43.58363,"lng":-93.82568,"zip":"56014","miles_from_dt":20.72},{"city":"Garden City","state_name":"Minnesota","lat":44.03036,"lng":-94.18285,"zip":"56034","miles_from_dt":21.24},{"city":"Welcome","state_name":"Minnesota","lat":43.67951,"lng":-94.61549,"zip":"56181","miles_from_dt":21.42},{"city":"Rake","state_name":"Iowa","lat":43.48703,"lng":-93.91056,"zip":"50465","miles_from_dt":21.55},{"city":"Good Thunder","state_name":"Minnesota","lat":44.0172,"lng":-94.0465,"zip":"56037","miles_from_dt":21.59},{"city":"Minnesota Lake","state_name":"Minnesota","lat":43.86303,"lng":-93.80601,"zip":"56068","miles_from_dt":21.6},{"city":"Swea City","state_name":"Iowa","lat":43.40647,"lng":-94.30303,"zip":"50590","miles_from_dt":22.54},{"city":"Wells","state_name":"Minnesota","lat":43.72261,"lng":-93.71593,"zip":"56097","miles_from_dt":23.84},{"city":"Lakota","state_name":"Iowa","lat":43.37746,"lng":-94.09134,"zip":"50451","miles_from_dt":24.37},{"city":"Ceylon","state_name":"Minnesota","lat":43.53858,"lng":-94.61051,"zip":"56121","miles_from_dt":24.54},{"city":"Madelia","state_name":"Minnesota","lat":44.0483,"lng":-94.41469,"zip":"56062","miles_from_dt":25.08},{"city":"Ormsby","state_name":"Minnesota","lat":43.84034,"lng":-94.66736,"zip":"56162","miles_from_dt":25.12},{"city":"Buffalo Center","state_name":"Iowa","lat":43.40366,"lng":-93.94939,"zip":"50424","miles_from_dt":25.17},{"city":"Armstrong","state_name":"Iowa","lat":43.41374,"lng":-94.47361,"zip":"50514","miles_from_dt":25.59},{"city":"Trimont","state_name":"Minnesota","lat":43.78319,"lng":-94.72835,"zip":"56176","miles_from_dt":27.16},{"city":"Kiester","state_name":"Minnesota","lat":43.53649,"lng":-93.70868,"zip":"56051","miles_from_dt":27.44},{"city":"Dolliver","state_name":"Iowa","lat":43.45841,"lng":-94.61417,"zip":"50531","miles_from_dt":27.96},{"city":"Lake Crystal","state_name":"Minnesota","lat":44.12693,"lng":-94.24531,"zip":"56055","miles_from_dt":28.03},{"city":"Waldorf","state_name":"Minnesota","lat":43.91813,"lng":-93.68831,"zip":"56091","miles_from_dt":28.56},{"city":"Sherburn","state_name":"Minnesota","lat":43.66902,"lng":-94.75925,"zip":"56171","miles_from_dt":28.65},{"city":"Saint James","state_name":"Minnesota","lat":43.99345,"lng":-94.63062,"zip":"56081","miles_from_dt":28.8},{"city":"Pemberton","state_name":"Minnesota","lat":44.00525,"lng":-93.76757,"zip":"56078","miles_from_dt":28.81},{"city":"Bancroft","state_name":"Iowa","lat":43.30099,"lng":-94.23452,"zip":"50517","miles_from_dt":29.2},{"city":"Saint Clair","state_name":"Minnesota","lat":44.08166,"lng":-93.85781,"zip":"56080","miles_from_dt":29.87}],"targetCityZipCode":"56047","targetCityState":"Minnesota"},"__N_SSG":true}