{"pageProps":{"stateName":"Minnesota","cityName":"knife-river","nearbyCities":[{"city":"Duluth","state_name":"Minnesota","lat":46.9381,"lng":-91.93089,"zip":"55804","miles_from_dt":7.1},{"city":"Duluth","state_name":"Minnesota","lat":47.09906,"lng":-91.85264,"zip":"55801","miles_from_dt":9.88},{"city":"Duluth","state_name":"Minnesota","lat":47.03398,"lng":-92.07104,"zip":"55803","miles_from_dt":14.34},{"city":"Duluth","state_name":"Minnesota","lat":46.81236,"lng":-92.07564,"zip":"55812","miles_from_dt":17.26},{"city":"Duluth","state_name":"Minnesota","lat":46.80065,"lng":-92.09552,"zip":"55805","miles_from_dt":18.5},{"city":"Duluth","state_name":"Minnesota","lat":46.75267,"lng":-92.08197,"zip":"55802","miles_from_dt":20.24},{"city":"Two Harbors","state_name":"Minnesota","lat":47.25095,"lng":-91.66982,"zip":"55616","miles_from_dt":20.59},{"city":"Duluth","state_name":"Minnesota","lat":46.76826,"lng":-92.12835,"zip":"55806","miles_from_dt":21.12},{"city":"Duluth","state_name":"Minnesota","lat":46.76816,"lng":-92.13313,"zip":"55816","miles_from_dt":21.29},{"city":"Duluth","state_name":"Minnesota","lat":46.83519,"lng":-92.19716,"zip":"55814","miles_from_dt":21.41},{"city":"Duluth","state_name":"Minnesota","lat":46.76106,"lng":-92.12983,"zip":"55815","miles_from_dt":21.49},{"city":"Duluth","state_name":"Minnesota","lat":46.83767,"lng":-92.21993,"zip":"55811","miles_from_dt":22.33},{"city":"Maple","state_name":"Wisconsin","lat":46.64127,"lng":-91.66864,"zip":"54854","miles_from_dt":22.95},{"city":"Duluth","state_name":"Minnesota","lat":46.73508,"lng":-92.1686,"zip":"55807","miles_from_dt":24.06},{"city":"Port Wing","state_name":"Wisconsin","lat":46.74787,"lng":-91.37517,"zip":"54865","miles_from_dt":24.5},{"city":"Poplar","state_name":"Wisconsin","lat":46.60431,"lng":-91.79443,"zip":"54864","miles_from_dt":24.82},{"city":"Brimson","state_name":"Minnesota","lat":47.33207,"lng":-91.91047,"zip":"55602","miles_from_dt":26.13},{"city":"Duluth","state_name":"Minnesota","lat":46.75894,"lng":-92.27445,"zip":"55810","miles_from_dt":27.14},{"city":"Beaver Bay","state_name":"Minnesota","lat":47.23404,"lng":-91.36425,"zip":"55601","miles_from_dt":27.28},{"city":"Twig","state_name":"Minnesota","lat":46.89584,"lng":-92.35632,"zip":"55791","miles_from_dt":27.41},{"city":"South Range","state_name":"Wisconsin","lat":46.56911,"lng":-91.94304,"zip":"54874","miles_from_dt":28.26},{"city":"Canyon","state_name":"Minnesota","lat":47.05026,"lng":-92.38642,"zip":"55717","miles_from_dt":29.02},{"city":"Duluth","state_name":"Minnesota","lat":46.6792,"lng":-92.23686,"zip":"55808","miles_from_dt":29.05},{"city":"Herbster","state_name":"Wisconsin","lat":46.78649,"lng":-91.21441,"zip":"54844","miles_from_dt":29.69},{"city":"Brule","state_name":"Wisconsin","lat":46.56024,"lng":-91.55475,"zip":"54820","miles_from_dt":29.94}],"targetCityZipCode":"55609","targetCityState":"Minnesota"},"__N_SSG":true}