{"pageProps":{"stateName":"Minnesota","cityName":"lake-benton","nearbyCities":[{"city":"Tyler","state_name":"Minnesota","lat":44.28593,"lng":-96.12997,"zip":"56178","miles_from_dt":8.72},{"city":"Elkton","state_name":"South Dakota","lat":44.24996,"lng":-96.50149,"zip":"57026","miles_from_dt":10.38},{"city":"Arco","state_name":"Minnesota","lat":44.40218,"lng":-96.14904,"zip":"56113","miles_from_dt":10.42},{"city":"Ivanhoe","state_name":"Minnesota","lat":44.4711,"lng":-96.2327,"zip":"56142","miles_from_dt":12.3},{"city":"Ruthton","state_name":"Minnesota","lat":44.16694,"lng":-96.08647,"zip":"56170","miles_from_dt":14.22},{"city":"Hendricks","state_name":"Minnesota","lat":44.50187,"lng":-96.41645,"zip":"56136","miles_from_dt":14.96},{"city":"Russell","state_name":"Minnesota","lat":44.33136,"lng":-96.00555,"zip":"56169","miles_from_dt":14.97},{"city":"Holland","state_name":"Minnesota","lat":44.10368,"lng":-96.1757,"zip":"56139","miles_from_dt":15.03},{"city":"Pipestone","state_name":"Minnesota","lat":44.04936,"lng":-96.33361,"zip":"56164","miles_from_dt":17.41},{"city":"White","state_name":"South Dakota","lat":44.43308,"lng":-96.61983,"zip":"57276","miles_from_dt":18.1},{"city":"Aurora","state_name":"South Dakota","lat":44.28785,"lng":-96.67752,"zip":"57002","miles_from_dt":18.52},{"city":"Lynd","state_name":"Minnesota","lat":44.39702,"lng":-95.94805,"zip":"56157","miles_from_dt":18.88},{"city":"Balaton","state_name":"Minnesota","lat":44.21514,"lng":-95.90038,"zip":"56115","miles_from_dt":20.9},{"city":"Astoria","state_name":"South Dakota","lat":44.57112,"lng":-96.5323,"zip":"57213","miles_from_dt":21.81},{"city":"Woodstock","state_name":"Minnesota","lat":44.02823,"lng":-96.08131,"zip":"56186","miles_from_dt":21.83},{"city":"Flandreau","state_name":"South Dakota","lat":44.05766,"lng":-96.60443,"zip":"57028","miles_from_dt":22.44},{"city":"Brookings","state_name":"South Dakota","lat":44.31924,"lng":-96.78408,"zip":"57007","miles_from_dt":23.81},{"city":"Porter","state_name":"Minnesota","lat":44.63212,"lng":-96.16719,"zip":"56280","miles_from_dt":23.88},{"city":"Ghent","state_name":"Minnesota","lat":44.50416,"lng":-95.91079,"zip":"56239","miles_from_dt":24.03},{"city":"Brookings","state_name":"South Dakota","lat":44.31588,"lng":-96.79518,"zip":"57006","miles_from_dt":24.35},{"city":"Minneota","state_name":"Minnesota","lat":44.57529,"lng":-95.98001,"zip":"56264","miles_from_dt":24.85},{"city":"Taunton","state_name":"Minnesota","lat":44.62254,"lng":-96.06933,"zip":"56291","miles_from_dt":25.09},{"city":"Lake Wilson","state_name":"Minnesota","lat":44.03304,"lng":-95.92833,"zip":"56151","miles_from_dt":26.28},{"city":"Toronto","state_name":"South Dakota","lat":44.56885,"lng":-96.68781,"zip":"57268","miles_from_dt":26.51},{"city":"Ihlen","state_name":"Minnesota","lat":43.90959,"lng":-96.36703,"zip":"56140","miles_from_dt":27.17},{"city":"Garvin","state_name":"Minnesota","lat":44.20196,"lng":-95.75792,"zip":"56132","miles_from_dt":27.97},{"city":"Brandt","state_name":"South Dakota","lat":44.65787,"lng":-96.59624,"zip":"57218","miles_from_dt":28.57},{"city":"Marshall","state_name":"Minnesota","lat":44.44121,"lng":-95.75906,"zip":"56258","miles_from_dt":28.71},{"city":"Egan","state_name":"South Dakota","lat":43.98538,"lng":-96.68146,"zip":"57024","miles_from_dt":28.72},{"city":"Canby","state_name":"Minnesota","lat":44.73125,"lng":-96.29339,"zip":"56220","miles_from_dt":29.74}],"targetCityZipCode":"56149","targetCityState":"Minnesota"},"__N_SSG":true}