{"pageProps":{"stateName":"Minnesota","cityName":"lake-city","nearbyCities":[{"city":"Frontenac","state_name":"Minnesota","lat":44.52179,"lng":-92.3369,"zip":"55026","miles_from_dt":8.77},{"city":"Stockholm","state_name":"Wisconsin","lat":44.50897,"lng":-92.23304,"zip":"54769","miles_from_dt":8.92},{"city":"Millville","state_name":"Minnesota","lat":44.25494,"lng":-92.28373,"zip":"55957","miles_from_dt":9.86},{"city":"Zumbro Falls","state_name":"Minnesota","lat":44.25903,"lng":-92.41986,"zip":"55991","miles_from_dt":10.66},{"city":"Reads Landing","state_name":"Minnesota","lat":44.39793,"lng":-92.0898,"zip":"55968","miles_from_dt":11.36},{"city":"Pepin","state_name":"Wisconsin","lat":44.48936,"lng":-92.1232,"zip":"54759","miles_from_dt":11.67},{"city":"Wabasha","state_name":"Minnesota","lat":44.35375,"lng":-92.06518,"zip":"55981","miles_from_dt":12.91},{"city":"Mazeppa","state_name":"Minnesota","lat":44.28382,"lng":-92.53068,"zip":"55956","miles_from_dt":13.01},{"city":"Red Wing","state_name":"Minnesota","lat":44.51581,"lng":-92.5441,"zip":"55066","miles_from_dt":13.88},{"city":"Goodhue","state_name":"Minnesota","lat":44.40868,"lng":-92.62058,"zip":"55027","miles_from_dt":14.94},{"city":"Maiden Rock","state_name":"Wisconsin","lat":44.62052,"lng":-92.29513,"zip":"54750","miles_from_dt":15.59},{"city":"Kellogg","state_name":"Minnesota","lat":44.26788,"lng":-92.05591,"zip":"55945","miles_from_dt":15.74},{"city":"Bay City","state_name":"Wisconsin","lat":44.61063,"lng":-92.42893,"zip":"54723","miles_from_dt":15.82},{"city":"Plum City","state_name":"Wisconsin","lat":44.62667,"lng":-92.17908,"zip":"54761","miles_from_dt":17.4},{"city":"Elgin","state_name":"Minnesota","lat":44.13804,"lng":-92.30081,"zip":"55932","miles_from_dt":17.8},{"city":"Plainview","state_name":"Minnesota","lat":44.16448,"lng":-92.15483,"zip":"55964","miles_from_dt":17.91},{"city":"Zumbrota","state_name":"Minnesota","lat":44.30557,"lng":-92.6827,"zip":"55992","miles_from_dt":19.05},{"city":"Nelson","state_name":"Wisconsin","lat":44.46153,"lng":-91.94552,"zip":"54756","miles_from_dt":19.05},{"city":"Rochester","state_name":"Minnesota","lat":44.10751,"lng":-92.40142,"zip":"55906","miles_from_dt":20.29},{"city":"Arkansaw","state_name":"Wisconsin","lat":44.6304,"lng":-92.07098,"zip":"54721","miles_from_dt":20.34},{"city":"Oronoco","state_name":"Minnesota","lat":44.14226,"lng":-92.53564,"zip":"55960","miles_from_dt":20.51},{"city":"Hager City","state_name":"Wisconsin","lat":44.64578,"lng":-92.57048,"zip":"54014","miles_from_dt":21.28},{"city":"Pine Island","state_name":"Minnesota","lat":44.18784,"lng":-92.66227,"zip":"55963","miles_from_dt":22.25},{"city":"Ellsworth","state_name":"Wisconsin","lat":44.71648,"lng":-92.46279,"zip":"54011","miles_from_dt":23.27},{"city":"Welch","state_name":"Minnesota","lat":44.59296,"lng":-92.70223,"zip":"55089","miles_from_dt":23.33},{"city":"Rochester","state_name":"Minnesota","lat":44.07679,"lng":-92.5018,"zip":"55901","miles_from_dt":23.79},{"city":"Alma","state_name":"Wisconsin","lat":44.37077,"lng":-91.82549,"zip":"54610","miles_from_dt":24.51},{"city":"Altura","state_name":"Minnesota","lat":44.13285,"lng":-91.97285,"zip":"55910","miles_from_dt":24.98},{"city":"Durand","state_name":"Wisconsin","lat":44.60345,"lng":-91.90455,"zip":"54736","miles_from_dt":25.02},{"city":"Wanamingo","state_name":"Minnesota","lat":44.29344,"lng":-92.80827,"zip":"55983","miles_from_dt":25.23},{"city":"Elmwood","state_name":"Wisconsin","lat":44.74427,"lng":-92.15853,"zip":"54740","miles_from_dt":25.36},{"city":"Rochester","state_name":"Minnesota","lat":44.05595,"lng":-92.52589,"zip":"55905","miles_from_dt":25.59},{"city":"Rochester","state_name":"Minnesota","lat":44.02391,"lng":-92.43657,"zip":"55903","miles_from_dt":26.31},{"city":"Eyota","state_name":"Minnesota","lat":44.00388,"lng":-92.26573,"zip":"55934","miles_from_dt":27.17},{"city":"Eau Galle","state_name":"Wisconsin","lat":44.71593,"lng":-91.98298,"zip":"54737","miles_from_dt":27.66},{"city":"Cannon Falls","state_name":"Minnesota","lat":44.48378,"lng":-92.86686,"zip":"55009","miles_from_dt":27.77},{"city":"Beldenville","state_name":"Wisconsin","lat":44.79019,"lng":-92.44218,"zip":"54003","miles_from_dt":27.92},{"city":"Cochrane","state_name":"Wisconsin","lat":44.26953,"lng":-91.76629,"zip":"54622","miles_from_dt":28.75},{"city":"Mantorville","state_name":"Minnesota","lat":44.09179,"lng":-92.73985,"zip":"55955","miles_from_dt":29.59},{"city":"Spring Valley","state_name":"Wisconsin","lat":44.82645,"lng":-92.25513,"zip":"54767","miles_from_dt":29.93}],"targetCityZipCode":"55041","targetCityState":"Minnesota"},"__N_SSG":true}