{"pageProps":{"stateName":"Minnesota","cityName":"le-center","nearbyCities":[{"city":"Cleveland","state_name":"Minnesota","lat":44.30535,"lng":-93.81915,"zip":"56017","miles_from_dt":7.91},{"city":"Montgomery","state_name":"Minnesota","lat":44.41801,"lng":-93.54988,"zip":"56069","miles_from_dt":8.59},{"city":"Kilkenny","state_name":"Minnesota","lat":44.32158,"lng":-93.5576,"zip":"56052","miles_from_dt":9.54},{"city":"Le Sueur","state_name":"Minnesota","lat":44.44424,"lng":-93.91441,"zip":"56058","miles_from_dt":10.17},{"city":"New Prague","state_name":"Minnesota","lat":44.53459,"lng":-93.58209,"zip":"56071","miles_from_dt":11.8},{"city":"Elysian","state_name":"Minnesota","lat":44.22435,"lng":-93.71052,"zip":"56028","miles_from_dt":11.82},{"city":"Waterville","state_name":"Minnesota","lat":44.24393,"lng":-93.60097,"zip":"56096","miles_from_dt":12.02},{"city":"Madison Lake","state_name":"Minnesota","lat":44.218,"lng":-93.81791,"zip":"56063","miles_from_dt":13.17},{"city":"Kasota","state_name":"Minnesota","lat":44.26006,"lng":-93.94706,"zip":"56050","miles_from_dt":14.61},{"city":"Belle Plaine","state_name":"Minnesota","lat":44.60344,"lng":-93.777,"zip":"56011","miles_from_dt":14.63},{"city":"Lonsdale","state_name":"Minnesota","lat":44.44629,"lng":-93.4162,"zip":"55046","miles_from_dt":15.46},{"city":"Henderson","state_name":"Minnesota","lat":44.56173,"lng":-93.93539,"zip":"56044","miles_from_dt":15.65},{"city":"Saint Peter","state_name":"Minnesota","lat":44.35217,"lng":-94.03329,"zip":"56082","miles_from_dt":15.78},{"city":"Morristown","state_name":"Minnesota","lat":44.23369,"lng":-93.4398,"zip":"55052","miles_from_dt":17.84},{"city":"Eagle Lake","state_name":"Minnesota","lat":44.14768,"lng":-93.84419,"zip":"56024","miles_from_dt":18.17},{"city":"Warsaw","state_name":"Minnesota","lat":44.23894,"lng":-93.40614,"zip":"55087","miles_from_dt":18.96},{"city":"Webster","state_name":"Minnesota","lat":44.52945,"lng":-93.38479,"zip":"55088","miles_from_dt":19},{"city":"Jordan","state_name":"Minnesota","lat":44.65505,"lng":-93.5862,"zip":"55352","miles_from_dt":19.12},{"city":"Janesville","state_name":"Minnesota","lat":44.09478,"lng":-93.71589,"zip":"56048","miles_from_dt":20.76},{"city":"Elko New Market","state_name":"Minnesota","lat":44.57707,"lng":-93.37387,"zip":"55020","miles_from_dt":21.23},{"city":"Mankato","state_name":"Minnesota","lat":44.16146,"lng":-94.00553,"zip":"56002","miles_from_dt":21.47},{"city":"Elko New Market","state_name":"Minnesota","lat":44.57148,"lng":-93.35087,"zip":"55054","miles_from_dt":21.94},{"city":"Mankato","state_name":"Minnesota","lat":44.21273,"lng":-94.08877,"zip":"56003","miles_from_dt":22.19},{"city":"Mankato","state_name":"Minnesota","lat":44.13193,"lng":-93.97789,"zip":"56001","miles_from_dt":22.23},{"city":"Carver","state_name":"Minnesota","lat":44.71731,"lng":-93.68347,"zip":"55315","miles_from_dt":22.3},{"city":"Saint Clair","state_name":"Minnesota","lat":44.08166,"lng":-93.85781,"zip":"56080","miles_from_dt":22.71},{"city":"Faribault","state_name":"Minnesota","lat":44.2973,"lng":-93.27414,"zip":"55021","miles_from_dt":23.13},{"city":"Dundas","state_name":"Minnesota","lat":44.41318,"lng":-93.25016,"zip":"55019","miles_from_dt":23.31},{"city":"Green Isle","state_name":"Minnesota","lat":44.66996,"lng":-93.99688,"zip":"55338","miles_from_dt":23.36},{"city":"Arlington","state_name":"Minnesota","lat":44.59871,"lng":-94.10475,"zip":"55307","miles_from_dt":23.62},{"city":"Nicollet","state_name":"Minnesota","lat":44.32344,"lng":-94.20181,"zip":"56074","miles_from_dt":24.36},{"city":"Prior Lake","state_name":"Minnesota","lat":44.67791,"lng":-93.41237,"zip":"55372","miles_from_dt":24.74},{"city":"Waseca","state_name":"Minnesota","lat":44.06342,"lng":-93.51683,"zip":"56093","miles_from_dt":25.05},{"city":"Norwood Young America","state_name":"Minnesota","lat":44.7458,"lng":-93.89679,"zip":"55368","miles_from_dt":25.71},{"city":"Hamburg","state_name":"Minnesota","lat":44.7289,"lng":-93.95905,"zip":"55339","miles_from_dt":25.87},{"city":"Gaylord","state_name":"Minnesota","lat":44.53578,"lng":-94.20772,"zip":"55334","miles_from_dt":25.97},{"city":"Cologne","state_name":"Minnesota","lat":44.77006,"lng":-93.7861,"zip":"55322","miles_from_dt":26.07},{"city":"Shakopee","state_name":"Minnesota","lat":44.75492,"lng":-93.51713,"zip":"55379","miles_from_dt":26.78},{"city":"Pemberton","state_name":"Minnesota","lat":44.00525,"lng":-93.76757,"zip":"56078","miles_from_dt":27.04},{"city":"Northfield","state_name":"Minnesota","lat":44.47281,"lng":-93.17939,"zip":"55057","miles_from_dt":27.3},{"city":"Lakeville","state_name":"Minnesota","lat":44.64156,"lng":-93.27858,"zip":"55044","miles_from_dt":27.67},{"city":"Norwood","state_name":"Minnesota","lat":44.77109,"lng":-93.92778,"zip":"55554","miles_from_dt":27.89},{"city":"Medford","state_name":"Minnesota","lat":44.17628,"lng":-93.24101,"zip":"55049","miles_from_dt":28.18},{"city":"Chaska","state_name":"Minnesota","lat":44.81169,"lng":-93.63703,"zip":"55318","miles_from_dt":29.04}],"targetCityZipCode":"56057","targetCityState":"Minnesota"},"__N_SSG":true}