{"pageProps":{"stateName":"Minnesota","cityName":"morton","nearbyCities":[{"city":"Franklin","state_name":"Minnesota","lat":44.55987,"lng":-94.86593,"zip":"55333","miles_from_dt":5.61},{"city":"Redwood Falls","state_name":"Minnesota","lat":44.53208,"lng":-95.14225,"zip":"56283","miles_from_dt":8.26},{"city":"Morgan","state_name":"Minnesota","lat":44.41637,"lng":-94.9133,"zip":"56266","miles_from_dt":10.45},{"city":"Clements","state_name":"Minnesota","lat":44.37628,"lng":-95.05854,"zip":"56224","miles_from_dt":13.28},{"city":"Fairfax","state_name":"Minnesota","lat":44.51852,"lng":-94.70761,"zip":"55332","miles_from_dt":13.74},{"city":"Olivia","state_name":"Minnesota","lat":44.76742,"lng":-94.99036,"zip":"56277","miles_from_dt":14.32},{"city":"Bird Island","state_name":"Minnesota","lat":44.75599,"lng":-94.87624,"zip":"55310","miles_from_dt":14.45},{"city":"Danube","state_name":"Minnesota","lat":44.79284,"lng":-95.09288,"zip":"56230","miles_from_dt":17.01},{"city":"Wabasso","state_name":"Minnesota","lat":44.41598,"lng":-95.26559,"zip":"56293","miles_from_dt":17.29},{"city":"Hector","state_name":"Minnesota","lat":44.74152,"lng":-94.72982,"zip":"55342","miles_from_dt":17.56},{"city":"Belview","state_name":"Minnesota","lat":44.60804,"lng":-95.32943,"zip":"56214","miles_from_dt":17.58},{"city":"Seaforth","state_name":"Minnesota","lat":44.47537,"lng":-95.3262,"zip":"56287","miles_from_dt":18.09},{"city":"Renville","state_name":"Minnesota","lat":44.77729,"lng":-95.20204,"zip":"56284","miles_from_dt":18.57},{"city":"Wanda","state_name":"Minnesota","lat":44.31481,"lng":-95.21313,"zip":"56294","miles_from_dt":20.5},{"city":"Gibbon","state_name":"Minnesota","lat":44.52969,"lng":-94.54621,"zip":"55335","miles_from_dt":21.5},{"city":"Sleepy Eye","state_name":"Minnesota","lat":44.29279,"lng":-94.73547,"zip":"56085","miles_from_dt":22.06},{"city":"Springfield","state_name":"Minnesota","lat":44.24012,"lng":-94.97538,"zip":"56087","miles_from_dt":22.1},{"city":"Echo","state_name":"Minnesota","lat":44.61956,"lng":-95.43489,"zip":"56237","miles_from_dt":22.84},{"city":"Vesta","state_name":"Minnesota","lat":44.49734,"lng":-95.44863,"zip":"56292","miles_from_dt":23.57},{"city":"Buffalo Lake","state_name":"Minnesota","lat":44.77214,"lng":-94.6,"zip":"55314","miles_from_dt":23.75},{"city":"Sacred Heart","state_name":"Minnesota","lat":44.78837,"lng":-95.34797,"zip":"56285","miles_from_dt":24.04},{"city":"Lucan","state_name":"Minnesota","lat":44.39426,"lng":-95.41707,"zip":"56255","miles_from_dt":24.47},{"city":"Essig","state_name":"Minnesota","lat":44.32485,"lng":-94.60485,"zip":"56030","miles_from_dt":24.65},{"city":"Sanborn","state_name":"Minnesota","lat":44.20734,"lng":-95.13434,"zip":"56083","miles_from_dt":25.54},{"city":"Blomkest","state_name":"Minnesota","lat":44.93886,"lng":-95.05532,"zip":"56216","miles_from_dt":26.42},{"city":"Stewart","state_name":"Minnesota","lat":44.73732,"lng":-94.49281,"zip":"55385","miles_from_dt":26.93},{"city":"Lamberton","state_name":"Minnesota","lat":44.22702,"lng":-95.2733,"zip":"56152","miles_from_dt":27.21},{"city":"Lake Lillian","state_name":"Minnesota","lat":44.9628,"lng":-94.87889,"zip":"56253","miles_from_dt":28.24},{"city":"Wood Lake","state_name":"Minnesota","lat":44.63005,"lng":-95.54428,"zip":"56297","miles_from_dt":28.27},{"city":"Prinsburg","state_name":"Minnesota","lat":44.94833,"lng":-95.16479,"zip":"56281","miles_from_dt":28.31},{"city":"Milroy","state_name":"Minnesota","lat":44.41577,"lng":-95.54086,"zip":"56263","miles_from_dt":29.48},{"city":"Cosmos","state_name":"Minnesota","lat":44.93619,"lng":-94.67715,"zip":"56228","miles_from_dt":29.93}],"targetCityZipCode":"56270","targetCityState":"Minnesota"},"__N_SSG":true}