{"pageProps":{"stateName":"Minnesota","cityName":"mountain-lake","nearbyCities":[{"city":"Bingham Lake","state_name":"Minnesota","lat":43.93616,"lng":-95.03555,"zip":"56118","miles_from_dt":4.99},{"city":"Butterfield","state_name":"Minnesota","lat":43.96083,"lng":-94.79139,"zip":"56120","miles_from_dt":7.31},{"city":"Darfur","state_name":"Minnesota","lat":44.05264,"lng":-94.83869,"zip":"56022","miles_from_dt":8.95},{"city":"Odin","state_name":"Minnesota","lat":43.83311,"lng":-94.81041,"zip":"56160","miles_from_dt":9.88},{"city":"Windom","state_name":"Minnesota","lat":43.88404,"lng":-95.13991,"zip":"56101","miles_from_dt":10.98},{"city":"Comfrey","state_name":"Minnesota","lat":44.11476,"lng":-94.89016,"zip":"56019","miles_from_dt":12.03},{"city":"Jeffers","state_name":"Minnesota","lat":44.05577,"lng":-95.17384,"zip":"56145","miles_from_dt":14.16},{"city":"Trimont","state_name":"Minnesota","lat":43.78319,"lng":-94.72835,"zip":"56176","miles_from_dt":15.17},{"city":"Ormsby","state_name":"Minnesota","lat":43.84034,"lng":-94.66736,"zip":"56162","miles_from_dt":15.19},{"city":"Saint James","state_name":"Minnesota","lat":43.99345,"lng":-94.63062,"zip":"56081","miles_from_dt":15.61},{"city":"Storden","state_name":"Minnesota","lat":44.01525,"lng":-95.30466,"zip":"56174","miles_from_dt":19.03},{"city":"La Salle","state_name":"Minnesota","lat":44.07278,"lng":-94.57945,"zip":"56056","miles_from_dt":19.88},{"city":"Springfield","state_name":"Minnesota","lat":44.24012,"lng":-94.97538,"zip":"56087","miles_from_dt":20.56},{"city":"Sanborn","state_name":"Minnesota","lat":44.20734,"lng":-95.13434,"zip":"56083","miles_from_dt":20.71},{"city":"Heron Lake","state_name":"Minnesota","lat":43.83246,"lng":-95.32424,"zip":"56137","miles_from_dt":20.85},{"city":"Sherburn","state_name":"Minnesota","lat":43.66902,"lng":-94.75925,"zip":"56171","miles_from_dt":20.92},{"city":"Alpha","state_name":"Minnesota","lat":43.64155,"lng":-94.8799,"zip":"56111","miles_from_dt":21.04},{"city":"Jackson","state_name":"Minnesota","lat":43.62803,"lng":-95.00759,"zip":"56143","miles_from_dt":22.08},{"city":"Welcome","state_name":"Minnesota","lat":43.67951,"lng":-94.61549,"zip":"56181","miles_from_dt":24.27},{"city":"Lewisville","state_name":"Minnesota","lat":43.93221,"lng":-94.43691,"zip":"56060","miles_from_dt":24.91},{"city":"Westbrook","state_name":"Minnesota","lat":44.03404,"lng":-95.42334,"zip":"56183","miles_from_dt":25.08},{"city":"Hanska","state_name":"Minnesota","lat":44.15514,"lng":-94.52238,"zip":"56041","miles_from_dt":25.25},{"city":"Lakefield","state_name":"Minnesota","lat":43.63469,"lng":-95.21266,"zip":"56150","miles_from_dt":25.42},{"city":"Okabena","state_name":"Minnesota","lat":43.70637,"lng":-95.32519,"zip":"56161","miles_from_dt":25.43},{"city":"Truman","state_name":"Minnesota","lat":43.82647,"lng":-94.45031,"zip":"56088","miles_from_dt":25.56},{"city":"Lamberton","state_name":"Minnesota","lat":44.22702,"lng":-95.2733,"zip":"56152","miles_from_dt":25.78},{"city":"Sleepy Eye","state_name":"Minnesota","lat":44.29279,"lng":-94.73547,"zip":"56085","miles_from_dt":26.09},{"city":"Madelia","state_name":"Minnesota","lat":44.0483,"lng":-94.41469,"zip":"56062","miles_from_dt":26.97},{"city":"Revere","state_name":"Minnesota","lat":44.20248,"lng":-95.37401,"zip":"56166","miles_from_dt":28.19},{"city":"Dunnell","state_name":"Minnesota","lat":43.54892,"lng":-94.77261,"zip":"56127","miles_from_dt":28.45},{"city":"Northrop","state_name":"Minnesota","lat":43.73516,"lng":-94.43663,"zip":"56075","miles_from_dt":28.81},{"city":"Wanda","state_name":"Minnesota","lat":44.31481,"lng":-95.21313,"zip":"56294","miles_from_dt":29.1}],"targetCityZipCode":"56159","targetCityState":"Minnesota"},"__N_SSG":true}