{"pageProps":{"stateName":"Minnesota","cityName":"nett-lake","nearbyCities":[{"city":"Orr","state_name":"Minnesota","lat":48.12398,"lng":-92.93101,"zip":"55771","miles_from_dt":7.89},{"city":"Kabetogama","state_name":"Minnesota","lat":48.37718,"lng":-93.22655,"zip":"56669","miles_from_dt":19.35},{"city":"Cook","state_name":"Minnesota","lat":47.83764,"lng":-92.86715,"zip":"55723","miles_from_dt":21.72},{"city":"Effie","state_name":"Minnesota","lat":47.90275,"lng":-93.53399,"zip":"56639","miles_from_dt":24.69},{"city":"Littlefork","state_name":"Minnesota","lat":48.28327,"lng":-93.58558,"zip":"56653","miles_from_dt":25.41},{"city":"Crane Lake","state_name":"Minnesota","lat":48.33849,"lng":-92.5811,"zip":"55725","miles_from_dt":28.7},{"city":"International Falls","state_name":"Minnesota","lat":48.53122,"lng":-93.13224,"zip":"56649","miles_from_dt":29.13},{"city":"Angora","state_name":"Minnesota","lat":47.73932,"lng":-92.78119,"zip":"55703","miles_from_dt":29.6}],"targetCityZipCode":"55772","targetCityState":"Minnesota"},"__N_SSG":true}