{"pageProps":{"stateName":"Minnesota","cityName":"vermillion","nearbyCities":[{"city":"Hampton","state_name":"Minnesota","lat":44.60772,"lng":-92.96647,"zip":"55031","miles_from_dt":4.52},{"city":"Hastings","state_name":"Minnesota","lat":44.71139,"lng":-92.8585,"zip":"55033","miles_from_dt":5.84},{"city":"Rosemount","state_name":"Minnesota","lat":44.73555,"lng":-93.06876,"zip":"55068","miles_from_dt":6.71},{"city":"Farmington","state_name":"Minnesota","lat":44.62738,"lng":-93.13605,"zip":"55024","miles_from_dt":9.03},{"city":"Randolph","state_name":"Minnesota","lat":44.54662,"lng":-93.01835,"zip":"55065","miles_from_dt":9.13},{"city":"Cottage Grove","state_name":"Minnesota","lat":44.8172,"lng":-92.93373,"zip":"55016","miles_from_dt":10.06},{"city":"Saint Paul Park","state_name":"Minnesota","lat":44.82257,"lng":-92.99677,"zip":"55071","miles_from_dt":10.44},{"city":"Castle Rock","state_name":"Minnesota","lat":44.57285,"lng":-93.12407,"zip":"55010","miles_from_dt":10.49},{"city":"Inver Grove Heights","state_name":"Minnesota","lat":44.81989,"lng":-93.07574,"zip":"55077","miles_from_dt":11.52},{"city":"Inver Grove Heights","state_name":"Minnesota","lat":44.83318,"lng":-93.0334,"zip":"55076","miles_from_dt":11.56},{"city":"Saint Paul","state_name":"Minnesota","lat":44.8043,"lng":-93.13699,"zip":"55123","miles_from_dt":12.42},{"city":"Saint Paul","state_name":"Minnesota","lat":44.74566,"lng":-93.20042,"zip":"55124","miles_from_dt":12.66},{"city":"Prescott","state_name":"Wisconsin","lat":44.74048,"lng":-92.71144,"zip":"54021","miles_from_dt":13.29},{"city":"Cannon Falls","state_name":"Minnesota","lat":44.48378,"lng":-92.86686,"zip":"55009","miles_from_dt":13.93},{"city":"Newport","state_name":"Minnesota","lat":44.87437,"lng":-92.99746,"zip":"55055","miles_from_dt":13.99},{"city":"Welch","state_name":"Minnesota","lat":44.59296,"lng":-92.70223,"zip":"55089","miles_from_dt":14.06},{"city":"Saint Paul","state_name":"Minnesota","lat":44.80326,"lng":-93.1962,"zip":"55122","miles_from_dt":14.53},{"city":"Saint Paul","state_name":"Minnesota","lat":44.84591,"lng":-93.15932,"zip":"55121","miles_from_dt":15.31},{"city":"South Saint Paul","state_name":"Minnesota","lat":44.88794,"lng":-93.0411,"zip":"55075","miles_from_dt":15.31},{"city":"Saint Paul","state_name":"Minnesota","lat":44.89422,"lng":-92.90638,"zip":"55129","miles_from_dt":15.53},{"city":"Lakeville","state_name":"Minnesota","lat":44.64156,"lng":-93.27858,"zip":"55044","miles_from_dt":15.64},{"city":"Saint Paul","state_name":"Minnesota","lat":44.87259,"lng":-93.14881,"zip":"55120","miles_from_dt":16.5},{"city":"Burnsville","state_name":"Minnesota","lat":44.73071,"lng":-93.29195,"zip":"55306","miles_from_dt":16.62},{"city":"Burnsville","state_name":"Minnesota","lat":44.77673,"lng":-93.27491,"zip":"55337","miles_from_dt":16.88},{"city":"Saint Paul","state_name":"Minnesota","lat":44.8968,"lng":-93.10365,"zip":"55118","miles_from_dt":16.9},{"city":"Saint Paul","state_name":"Minnesota","lat":44.91998,"lng":-92.94388,"zip":"55125","miles_from_dt":17.08},{"city":"Afton","state_name":"Minnesota","lat":44.90138,"lng":-92.81969,"zip":"55001","miles_from_dt":17.29},{"city":"Northfield","state_name":"Minnesota","lat":44.47281,"lng":-93.17939,"zip":"55057","miles_from_dt":17.43},{"city":"Dennison","state_name":"Minnesota","lat":44.41832,"lng":-92.98822,"zip":"55018","miles_from_dt":17.63},{"city":"Mendota","state_name":"Minnesota","lat":44.88717,"lng":-93.16157,"zip":"55150","miles_from_dt":17.68},{"city":"Minneapolis","state_name":"Minnesota","lat":44.84249,"lng":-93.23601,"zip":"55425","miles_from_dt":17.76},{"city":"Saint Paul","state_name":"Minnesota","lat":44.92512,"lng":-93.04879,"zip":"55144","miles_from_dt":17.89},{"city":"Saint Paul","state_name":"Minnesota","lat":44.885,"lng":-93.19518,"zip":"55111","miles_from_dt":18.52},{"city":"Saint Paul","state_name":"Minnesota","lat":44.93972,"lng":-93.0066,"zip":"55119","miles_from_dt":18.53},{"city":"Saint Paul","state_name":"Minnesota","lat":44.93105,"lng":-93.07945,"zip":"55107","miles_from_dt":18.69},{"city":"Saint Paul","state_name":"Minnesota","lat":44.94452,"lng":-93.0058,"zip":"55133","miles_from_dt":18.85},{"city":"Minneapolis","state_name":"Minnesota","lat":44.83564,"lng":-93.27745,"zip":"55420","miles_from_dt":19.06},{"city":"Minneapolis","state_name":"Minnesota","lat":44.87901,"lng":-93.22549,"zip":"55450","miles_from_dt":19.16},{"city":"Saint Paul","state_name":"Minnesota","lat":44.91001,"lng":-93.17033,"zip":"55116","miles_from_dt":19.24},{"city":"Saint Paul","state_name":"Minnesota","lat":44.94194,"lng":-93.08446,"zip":"55146","miles_from_dt":19.48},{"city":"Saint Paul","state_name":"Minnesota","lat":44.93216,"lng":-93.12149,"zip":"55102","miles_from_dt":19.49},{"city":"Hager City","state_name":"Wisconsin","lat":44.64578,"lng":-92.57048,"zip":"54014","miles_from_dt":19.5},{"city":"Saint Paul","state_name":"Minnesota","lat":44.943,"lng":-93.096,"zip":"55131","miles_from_dt":19.73},{"city":"Saint Paul","state_name":"Minnesota","lat":44.94444,"lng":-93.0924,"zip":"55170","miles_from_dt":19.77},{"city":"Saint Paul","state_name":"Minnesota","lat":44.94533,"lng":-93.09411,"zip":"55145","miles_from_dt":19.85},{"city":"Saint Paul","state_name":"Minnesota","lat":44.95743,"lng":-93.04679,"zip":"55106","miles_from_dt":20.05},{"city":"Minneapolis","state_name":"Minnesota","lat":44.82607,"lng":-93.31195,"zip":"55431","miles_from_dt":20.1},{"city":"Saint Paul","state_name":"Minnesota","lat":44.95111,"lng":-93.08739,"zip":"55101","miles_from_dt":20.13},{"city":"Elko New Market","state_name":"Minnesota","lat":44.57148,"lng":-93.35087,"zip":"55054","miles_from_dt":20.31},{"city":"Savage","state_name":"Minnesota","lat":44.75685,"lng":-93.36209,"zip":"55378","miles_from_dt":20.42},{"city":"Saint Paul","state_name":"Minnesota","lat":44.95419,"lng":-93.09756,"zip":"55155","miles_from_dt":20.48},{"city":"Saint Paul","state_name":"Minnesota","lat":44.93465,"lng":-93.16689,"zip":"55105","miles_from_dt":20.62},{"city":"Lakeland","state_name":"Minnesota","lat":44.94064,"lng":-92.76902,"zip":"55043","miles_from_dt":20.82},{"city":"Minneapolis","state_name":"Minnesota","lat":44.9059,"lng":-93.23534,"zip":"55417","miles_from_dt":20.88},{"city":"Minneapolis","state_name":"Minnesota","lat":44.87663,"lng":-93.28144,"zip":"55423","miles_from_dt":21},{"city":"Saint Paul","state_name":"Minnesota","lat":44.96627,"lng":-93.08445,"zip":"55164","miles_from_dt":21.09},{"city":"River Falls","state_name":"Wisconsin","lat":44.84796,"lng":-92.6096,"zip":"54022","miles_from_dt":21.22},{"city":"Elko New Market","state_name":"Minnesota","lat":44.57707,"lng":-93.37387,"zip":"55020","miles_from_dt":21.26},{"city":"Minneapolis","state_name":"Minnesota","lat":44.82434,"lng":-93.34488,"zip":"55437","miles_from_dt":21.44},{"city":"Saint Paul","state_name":"Minnesota","lat":44.97315,"lng":-93.08241,"zip":"55130","miles_from_dt":21.52},{"city":"Saint Paul","state_name":"Minnesota","lat":44.96399,"lng":-93.12418,"zip":"55103","miles_from_dt":21.57},{"city":"Saint Paul","state_name":"Minnesota","lat":44.95423,"lng":-93.16283,"zip":"55104","miles_from_dt":21.73},{"city":"Saint Paul","state_name":"Minnesota","lat":44.98812,"lng":-92.96405,"zip":"55128","miles_from_dt":21.75},{"city":"Prior Lake","state_name":"Minnesota","lat":44.67791,"lng":-93.41237,"zip":"55372","miles_from_dt":22.08},{"city":"Minneapolis","state_name":"Minnesota","lat":44.93691,"lng":-93.22155,"zip":"55485","miles_from_dt":22.18},{"city":"Minneapolis","state_name":"Minnesota","lat":44.93932,"lng":-93.22071,"zip":"55406","miles_from_dt":22.29},{"city":"Lake Elmo","state_name":"Minnesota","lat":44.99253,"lng":-92.898,"zip":"55042","miles_from_dt":22.3},{"city":"Minneapolis","state_name":"Minnesota","lat":44.90586,"lng":-93.28743,"zip":"55419","miles_from_dt":22.6},{"city":"Dundas","state_name":"Minnesota","lat":44.41318,"lng":-93.25016,"zip":"55019","miles_from_dt":22.83},{"city":"Minneapolis","state_name":"Minnesota","lat":44.87343,"lng":-93.3347,"zip":"55435","miles_from_dt":22.87},{"city":"Nerstrand","state_name":"Minnesota","lat":44.34957,"lng":-93.06579,"zip":"55053","miles_from_dt":22.89},{"city":"Minneapolis","state_name":"Minnesota","lat":44.82489,"lng":-93.37826,"zip":"55438","miles_from_dt":22.91},{"city":"Minneapolis","state_name":"Minnesota","lat":44.93484,"lng":-93.25263,"zip":"55407","miles_from_dt":22.97},{"city":"Webster","state_name":"Minnesota","lat":44.52945,"lng":-93.38479,"zip":"55088","miles_from_dt":22.99},{"city":"Saint Paul","state_name":"Minnesota","lat":44.9662,"lng":-93.19407,"zip":"55114","miles_from_dt":23.18},{"city":"Red Wing","state_name":"Minnesota","lat":44.51581,"lng":-92.5441,"zip":"55066","miles_from_dt":23.41},{"city":"Saint Paul","state_name":"Minnesota","lat":44.99918,"lng":-93.09713,"zip":"55117","miles_from_dt":23.44},{"city":"Minneapolis","state_name":"Minnesota","lat":44.93018,"lng":-93.28146,"zip":"55409","miles_from_dt":23.63},{"city":"Saint Paul","state_name":"Minnesota","lat":44.98095,"lng":-93.1749,"zip":"55108","miles_from_dt":23.64},{"city":"Saint Paul","state_name":"Minnesota","lat":45.0144,"lng":-93.02616,"zip":"55109","miles_from_dt":23.76},{"city":"Minneapolis","state_name":"Minnesota","lat":44.93511,"lng":-93.28374,"zip":"55483","miles_from_dt":23.96},{"city":"Minneapolis","state_name":"Minnesota","lat":44.91364,"lng":-93.31725,"zip":"55410","miles_from_dt":24.02},{"city":"Minneapolis","state_name":"Minnesota","lat":44.90509,"lng":-93.33978,"zip":"55424","miles_from_dt":24.44},{"city":"Minneapolis","state_name":"Minnesota","lat":44.87452,"lng":-93.37475,"zip":"55439","miles_from_dt":24.51},{"city":"Minneapolis","state_name":"Minnesota","lat":44.97453,"lng":-93.23432,"zip":"55455","miles_from_dt":24.68},{"city":"Minneapolis","state_name":"Minnesota","lat":44.9619,"lng":-93.26145,"zip":"55404","miles_from_dt":24.72},{"city":"Minneapolis","state_name":"Minnesota","lat":44.94364,"lng":-93.2937,"zip":"55408","miles_from_dt":24.72},{"city":"Minneapolis","state_name":"Minnesota","lat":44.97075,"lng":-93.24381,"zip":"55454","miles_from_dt":24.72},{"city":"Minneapolis","state_name":"Minnesota","lat":44.97915,"lng":-93.2259,"zip":"55414","miles_from_dt":24.74},{"city":"Ellsworth","state_name":"Wisconsin","lat":44.71648,"lng":-92.46279,"zip":"54011","miles_from_dt":24.88},{"city":"Goodhue","state_name":"Minnesota","lat":44.40868,"lng":-92.62058,"zip":"55027","miles_from_dt":24.93},{"city":"Hudson","state_name":"Wisconsin","lat":44.97949,"lng":-92.69305,"zip":"54016","miles_from_dt":25.01},{"city":"Bayport","state_name":"Minnesota","lat":45.01183,"lng":-92.77883,"zip":"55003","miles_from_dt":25.1},{"city":"Saint Paul","state_name":"Minnesota","lat":45.01295,"lng":-93.15512,"zip":"55113","miles_from_dt":25.27},{"city":"Minneapolis","state_name":"Minnesota","lat":44.97463,"lng":-93.2578,"zip":"55415","miles_from_dt":25.33},{"city":"Minneapolis","state_name":"Minnesota","lat":44.97414,"lng":-93.26771,"zip":"55486","miles_from_dt":25.58},{"city":"Minneapolis","state_name":"Minnesota","lat":44.90345,"lng":-93.37409,"zip":"55436","miles_from_dt":25.67},{"city":"Minneapolis","state_name":"Minnesota","lat":44.97032,"lng":-93.28068,"zip":"55484","miles_from_dt":25.75},{"city":"Minneapolis","state_name":"Minnesota","lat":44.98,"lng":-93.26219,"zip":"55467","miles_from_dt":25.76},{"city":"Minneapolis","state_name":"Minnesota","lat":44.97855,"lng":-93.26592,"zip":"55487","miles_from_dt":25.78},{"city":"Minneapolis","state_name":"Minnesota","lat":44.97608,"lng":-93.27119,"zip":"55402","miles_from_dt":25.79},{"city":"Minneapolis","state_name":"Minnesota","lat":44.98177,"lng":-93.26392,"zip":"55474","miles_from_dt":25.9},{"city":"Minneapolis","state_name":"Minnesota","lat":44.97023,"lng":-93.28588,"zip":"55403","miles_from_dt":25.9},{"city":"Minneapolis","state_name":"Minnesota","lat":44.98018,"lng":-93.26814,"zip":"55472","miles_from_dt":25.93},{"city":"Minneapolis","state_name":"Minnesota","lat":44.98196,"lng":-93.26551,"zip":"55488","miles_from_dt":25.96},{"city":"Minneapolis","state_name":"Minnesota","lat":44.98351,"lng":-93.26492,"zip":"55478","miles_from_dt":26.03},{"city":"Minneapolis","state_name":"Minnesota","lat":44.98474,"lng":-93.26939,"zip":"55480","miles_from_dt":26.23},{"city":"Minneapolis","state_name":"Minnesota","lat":44.98646,"lng":-93.2664,"zip":"55479","miles_from_dt":26.24},{"city":"Minneapolis","state_name":"Minnesota","lat":44.98526,"lng":-93.26984,"zip":"55401","miles_from_dt":26.27},{"city":"Minneapolis","state_name":"Minnesota","lat":44.99826,"lng":-93.24276,"zip":"55413","miles_from_dt":26.29},{"city":"Willernie","state_name":"Minnesota","lat":45.05382,"lng":-92.9573,"zip":"55090","miles_from_dt":26.29},{"city":"Minneapolis","state_name":"Minnesota","lat":44.98431,"lng":-93.27334,"zip":"55458","miles_from_dt":26.31},{"city":"Minneapolis","state_name":"Minnesota","lat":44.98677,"lng":-93.2714,"zip":"55459","miles_from_dt":26.4},{"city":"Minneapolis","state_name":"Minnesota","lat":44.98658,"lng":-93.27187,"zip":"55470","miles_from_dt":26.4},{"city":"Minneapolis","state_name":"Minnesota","lat":44.98743,"lng":-93.27127,"zip":"55440","miles_from_dt":26.43},{"city":"Eden Prairie","state_name":"Minnesota","lat":44.86452,"lng":-93.43037,"zip":"55344","miles_from_dt":26.46},{"city":"Minneapolis","state_name":"Minnesota","lat":44.97034,"lng":-93.30461,"zip":"55405","miles_from_dt":26.48},{"city":"Minneapolis","state_name":"Minnesota","lat":44.94961,"lng":-93.34157,"zip":"55416","miles_from_dt":26.62},{"city":"Bay City","state_name":"Wisconsin","lat":44.61063,"lng":-92.42893,"zip":"54723","miles_from_dt":26.74},{"city":"Beldenville","state_name":"Wisconsin","lat":44.79019,"lng":-92.44218,"zip":"54003","miles_from_dt":26.94},{"city":"Eden Prairie","state_name":"Minnesota","lat":44.82931,"lng":-93.46638,"zip":"55347","miles_from_dt":26.96},{"city":"Saint Paul","state_name":"Minnesota","lat":45.06675,"lng":-92.95087,"zip":"55115","miles_from_dt":27.19},{"city":"Lonsdale","state_name":"Minnesota","lat":44.44629,"lng":-93.4162,"zip":"55046","miles_from_dt":27.26},{"city":"Wanamingo","state_name":"Minnesota","lat":44.29344,"lng":-92.80827,"zip":"55983","miles_from_dt":27.33},{"city":"Stillwater","state_name":"Minnesota","lat":45.0584,"lng":-92.82583,"zip":"55083","miles_from_dt":27.46},{"city":"Minneapolis","state_name":"Minnesota","lat":45.0208,"lng":-93.24244,"zip":"55418","miles_from_dt":27.62},{"city":"Hopkins","state_name":"Minnesota","lat":44.91433,"lng":-93.41568,"zip":"55343","miles_from_dt":27.75},{"city":"Shakopee","state_name":"Minnesota","lat":44.75492,"lng":-93.51713,"zip":"55379","miles_from_dt":27.8},{"city":"Minneapolis","state_name":"Minnesota","lat":44.9993,"lng":-93.2979,"zip":"55411","miles_from_dt":27.86},{"city":"Minneapolis","state_name":"Minnesota","lat":44.95635,"lng":-93.38139,"zip":"55426","miles_from_dt":28.33},{"city":"Stillwater","state_name":"Minnesota","lat":45.07446,"lng":-92.84006,"zip":"55082","miles_from_dt":28.38},{"city":"Kenyon","state_name":"Minnesota","lat":44.26129,"lng":-92.95998,"zip":"55946","miles_from_dt":28.44},{"city":"Saint Paul","state_name":"Minnesota","lat":45.08961,"lng":-93.00418,"zip":"55110","miles_from_dt":28.83},{"city":"Zumbrota","state_name":"Minnesota","lat":44.30557,"lng":-92.6827,"zip":"55992","miles_from_dt":28.94},{"city":"Saint Paul","state_name":"Minnesota","lat":45.08394,"lng":-93.08243,"zip":"55127","miles_from_dt":28.96},{"city":"Eden Prairie","state_name":"Minnesota","lat":44.87882,"lng":-93.48157,"zip":"55346","miles_from_dt":29.14},{"city":"Roberts","state_name":"Wisconsin","lat":44.97708,"lng":-92.55218,"zip":"54023","miles_from_dt":29.17},{"city":"Houlton","state_name":"Wisconsin","lat":45.0696,"lng":-92.75403,"zip":"54082","miles_from_dt":29.26},{"city":"Minneapolis","state_name":"Minnesota","lat":45.02612,"lng":-93.29952,"zip":"55412","miles_from_dt":29.42},{"city":"Minneapolis","state_name":"Minnesota","lat":45.00922,"lng":-93.33941,"zip":"55422","miles_from_dt":29.64},{"city":"Minneapolis","state_name":"Minnesota","lat":45.05083,"lng":-93.25249,"zip":"55421","miles_from_dt":29.68},{"city":"Saint Paul","state_name":"Minnesota","lat":45.08614,"lng":-93.13581,"zip":"55126","miles_from_dt":29.74},{"city":"Saint Paul","state_name":"Minnesota","lat":45.07443,"lng":-93.19169,"zip":"55112","miles_from_dt":29.88}],"targetCityZipCode":"55085","targetCityState":"Minnesota"},"__N_SSG":true}