{"pageProps":{"stateName":"Minnesota","cityName":"waldorf","nearbyCities":[{"city":"Minnesota Lake","state_name":"Minnesota","lat":43.86303,"lng":-93.80601,"zip":"56068","miles_from_dt":7},{"city":"Pemberton","state_name":"Minnesota","lat":44.00525,"lng":-93.76757,"zip":"56078","miles_from_dt":7.2},{"city":"New Richland","state_name":"Minnesota","lat":43.89677,"lng":-93.5125,"zip":"56072","miles_from_dt":8.9},{"city":"Mapleton","state_name":"Minnesota","lat":43.93376,"lng":-93.91799,"zip":"56065","miles_from_dt":11.51},{"city":"Freeborn","state_name":"Minnesota","lat":43.77583,"lng":-93.56078,"zip":"56032","miles_from_dt":11.71},{"city":"Janesville","state_name":"Minnesota","lat":44.09478,"lng":-93.71589,"zip":"56048","miles_from_dt":12.27},{"city":"Hartland","state_name":"Minnesota","lat":43.80408,"lng":-93.48387,"zip":"56042","miles_from_dt":12.9},{"city":"Waseca","state_name":"Minnesota","lat":44.06342,"lng":-93.51683,"zip":"56093","miles_from_dt":13.18},{"city":"Wells","state_name":"Minnesota","lat":43.72261,"lng":-93.71593,"zip":"56097","miles_from_dt":13.57},{"city":"Saint Clair","state_name":"Minnesota","lat":44.08166,"lng":-93.85781,"zip":"56080","miles_from_dt":14.1},{"city":"Easton","state_name":"Minnesota","lat":43.7516,"lng":-93.90877,"zip":"56025","miles_from_dt":15.92},{"city":"Eagle Lake","state_name":"Minnesota","lat":44.14768,"lng":-93.84419,"zip":"56024","miles_from_dt":17.65},{"city":"Alden","state_name":"Minnesota","lat":43.66125,"lng":-93.55904,"zip":"56009","miles_from_dt":18.88},{"city":"Good Thunder","state_name":"Minnesota","lat":44.0172,"lng":-94.0465,"zip":"56037","miles_from_dt":19.13},{"city":"Delavan","state_name":"Minnesota","lat":43.77224,"lng":-94.01402,"zip":"56023","miles_from_dt":19.14},{"city":"Clarks Grove","state_name":"Minnesota","lat":43.76378,"lng":-93.34855,"zip":"56016","miles_from_dt":20.05},{"city":"Ellendale","state_name":"Minnesota","lat":43.87485,"lng":-93.29124,"zip":"56026","miles_from_dt":20.05},{"city":"Mankato","state_name":"Minnesota","lat":44.13193,"lng":-93.97789,"zip":"56001","miles_from_dt":20.64},{"city":"Elysian","state_name":"Minnesota","lat":44.22435,"lng":-93.71052,"zip":"56028","miles_from_dt":21.17},{"city":"Hope","state_name":"Minnesota","lat":43.9678,"lng":-93.26889,"zip":"56046","miles_from_dt":21.2},{"city":"Madison Lake","state_name":"Minnesota","lat":44.218,"lng":-93.81791,"zip":"56063","miles_from_dt":21.69},{"city":"Geneva","state_name":"Minnesota","lat":43.82187,"lng":-93.26875,"zip":"56035","miles_from_dt":21.98},{"city":"Conger","state_name":"Minnesota","lat":43.6146,"lng":-93.53019,"zip":"56020","miles_from_dt":22.4},{"city":"Waterville","state_name":"Minnesota","lat":44.24393,"lng":-93.60097,"zip":"56096","miles_from_dt":22.91},{"city":"Mankato","state_name":"Minnesota","lat":44.16146,"lng":-94.00553,"zip":"56002","miles_from_dt":23.06},{"city":"Bricelyn","state_name":"Minnesota","lat":43.58363,"lng":-93.82568,"zip":"56014","miles_from_dt":24.1},{"city":"Amboy","state_name":"Minnesota","lat":43.89112,"lng":-94.17869,"zip":"56010","miles_from_dt":24.55},{"city":"Owatonna","state_name":"Minnesota","lat":44.05966,"lng":-93.22639,"zip":"55060","miles_from_dt":25.01},{"city":"Morristown","state_name":"Minnesota","lat":44.23369,"lng":-93.4398,"zip":"55052","miles_from_dt":25.05},{"city":"Albert Lea","state_name":"Minnesota","lat":43.66085,"lng":-93.3238,"zip":"56007","miles_from_dt":25.45},{"city":"Garden City","state_name":"Minnesota","lat":44.03036,"lng":-94.18285,"zip":"56034","miles_from_dt":25.85},{"city":"Warsaw","state_name":"Minnesota","lat":44.23894,"lng":-93.40614,"zip":"55087","miles_from_dt":26.23},{"city":"Hollandale","state_name":"Minnesota","lat":43.75977,"lng":-93.20948,"zip":"56045","miles_from_dt":26.31},{"city":"Kiester","state_name":"Minnesota","lat":43.53649,"lng":-93.70868,"zip":"56051","miles_from_dt":26.37},{"city":"Winnebago","state_name":"Minnesota","lat":43.77565,"lng":-94.18528,"zip":"56098","miles_from_dt":26.71},{"city":"Kasota","state_name":"Minnesota","lat":44.26006,"lng":-93.94706,"zip":"56050","miles_from_dt":26.89},{"city":"Vernon Center","state_name":"Minnesota","lat":43.9584,"lng":-94.23303,"zip":"56090","miles_from_dt":27.32},{"city":"Cleveland","state_name":"Minnesota","lat":44.30535,"lng":-93.81915,"zip":"56017","miles_from_dt":27.52},{"city":"Frost","state_name":"Minnesota","lat":43.55926,"lng":-93.93118,"zip":"56033","miles_from_dt":27.6},{"city":"Twin Lakes","state_name":"Minnesota","lat":43.55631,"lng":-93.4508,"zip":"56089","miles_from_dt":27.66},{"city":"Emmons","state_name":"Minnesota","lat":43.52519,"lng":-93.53003,"zip":"56029","miles_from_dt":28.26},{"city":"Mankato","state_name":"Minnesota","lat":44.21273,"lng":-94.08877,"zip":"56003","miles_from_dt":28.48},{"city":"Medford","state_name":"Minnesota","lat":44.17628,"lng":-93.24101,"zip":"55049","miles_from_dt":28.53},{"city":"Huntley","state_name":"Minnesota","lat":43.72276,"lng":-94.19203,"zip":"56047","miles_from_dt":28.56},{"city":"Kilkenny","state_name":"Minnesota","lat":44.32158,"lng":-93.5576,"zip":"56052","miles_from_dt":28.6},{"city":"Blue Earth","state_name":"Minnesota","lat":43.62142,"lng":-94.10734,"zip":"56013","miles_from_dt":29.31},{"city":"Hayward","state_name":"Minnesota","lat":43.65236,"lng":-93.22809,"zip":"56043","miles_from_dt":29.44}],"targetCityZipCode":"56091","targetCityState":"Minnesota"},"__N_SSG":true}