{"pageProps":{"stateName":"Washington","cityName":"benge","nearbyCities":[{"city":"Washtucna","state_name":"Washington","lat":46.79144,"lng":-118.30614,"zip":"99371","miles_from_dt":13.88},{"city":"Endicott","state_name":"Washington","lat":46.95223,"lng":-117.78556,"zip":"99125","miles_from_dt":14.22},{"city":"Lacrosse","state_name":"Washington","lat":46.74627,"lng":-117.85869,"zip":"99143","miles_from_dt":16.09},{"city":"Hooper","state_name":"Washington","lat":46.68112,"lng":-118.15262,"zip":"99333","miles_from_dt":16.92},{"city":"Hay","state_name":"Washington","lat":46.6747,"lng":-117.94889,"zip":"99136","miles_from_dt":18.18},{"city":"Ritzville","state_name":"Washington","lat":47.11875,"lng":-118.37424,"zip":"99169","miles_from_dt":19.39},{"city":"Lamont","state_name":"Washington","lat":47.1829,"lng":-117.87611,"zip":"99017","miles_from_dt":20.53},{"city":"Saint John","state_name":"Washington","lat":47.10485,"lng":-117.6495,"zip":"99171","miles_from_dt":24.07},{"city":"Kahlotus","state_name":"Washington","lat":46.65544,"lng":-118.47686,"zip":"99335","miles_from_dt":26.21},{"city":"Lind","state_name":"Washington","lat":46.90663,"lng":-118.64224,"zip":"99341","miles_from_dt":26.51},{"city":"Starbuck","state_name":"Washington","lat":46.53325,"lng":-118.15697,"zip":"99359","miles_from_dt":27.04},{"city":"Sprague","state_name":"Washington","lat":47.32405,"lng":-118.04613,"zip":"99032","miles_from_dt":27.88}],"targetCityZipCode":"99105","targetCityState":"Washington"},"__N_SSG":true}