{"pageProps":{"stateName":"Washington","cityName":"burbank","nearbyCities":[{"city":"Wallula","state_name":"Washington","lat":46.04821,"lng":-118.89575,"zip":"99363","miles_from_dt":9.81},{"city":"Touchet","state_name":"Washington","lat":46.09044,"lng":-118.66745,"zip":"99360","miles_from_dt":11.03},{"city":"Pasco","state_name":"Washington","lat":46.25642,"lng":-119.07948,"zip":"99302","miles_from_dt":11.98},{"city":"Kennewick","state_name":"Washington","lat":46.06235,"lng":-119.09127,"zip":"99337","miles_from_dt":14.4},{"city":"Pasco","state_name":"Washington","lat":46.39184,"lng":-118.93509,"zip":"99301","miles_from_dt":14.73},{"city":"Kennewick","state_name":"Washington","lat":46.21302,"lng":-119.17954,"zip":"99336","miles_from_dt":15.88},{"city":"Helix","state_name":"Oregon","lat":45.8992,"lng":-118.772,"zip":"97835","miles_from_dt":20.22},{"city":"Kennewick","state_name":"Washington","lat":46.17362,"lng":-119.27403,"zip":"99338","miles_from_dt":20.33},{"city":"Richland","state_name":"Washington","lat":46.24199,"lng":-119.29067,"zip":"99352","miles_from_dt":21.44},{"city":"Eltopia","state_name":"Washington","lat":46.49447,"lng":-119.03021,"zip":"99330","miles_from_dt":22.92},{"city":"Prescott","state_name":"Washington","lat":46.38681,"lng":-118.44731,"zip":"99348","miles_from_dt":23.75},{"city":"Richland","state_name":"Washington","lat":46.33153,"lng":-119.30106,"zip":"99354","miles_from_dt":23.78},{"city":"College Place","state_name":"Washington","lat":46.04376,"lng":-118.38542,"zip":"99324","miles_from_dt":24.43},{"city":"Plymouth","state_name":"Washington","lat":46.02685,"lng":-119.306,"zip":"99346","miles_from_dt":24.51},{"city":"Walla Walla","state_name":"Washington","lat":46.08727,"lng":-118.31269,"zip":"99362","miles_from_dt":26.73},{"city":"West Richland","state_name":"Washington","lat":46.31747,"lng":-119.37942,"zip":"99353","miles_from_dt":26.9},{"city":"Athena","state_name":"Oregon","lat":45.85305,"lng":-118.52802,"zip":"97813","miles_from_dt":27.79},{"city":"Stanfield","state_name":"Oregon","lat":45.81481,"lng":-119.14898,"zip":"97875","miles_from_dt":29.43}],"targetCityZipCode":"99323","targetCityState":"Washington"},"__N_SSG":true}