{"pageProps":{"stateName":"Washington","cityName":"chimacum","nearbyCities":[{"city":"Port Hadlock","state_name":"Washington","lat":48.02991,"lng":-122.74364,"zip":"98339","miles_from_dt":5.04},{"city":"Port Ludlow","state_name":"Washington","lat":47.89545,"lng":-122.70271,"zip":"98365","miles_from_dt":5.75},{"city":"Port Townsend","state_name":"Washington","lat":48.03879,"lng":-122.84406,"zip":"98368","miles_from_dt":6.17},{"city":"Nordland","state_name":"Washington","lat":48.05796,"lng":-122.70008,"zip":"98358","miles_from_dt":7.64},{"city":"Quilcene","state_name":"Washington","lat":47.8455,"lng":-122.85916,"zip":"98376","miles_from_dt":8.8},{"city":"Hansville","state_name":"Washington","lat":47.90622,"lng":-122.56406,"zip":"98340","miles_from_dt":10.68},{"city":"Port Gamble","state_name":"Washington","lat":47.85455,"lng":-122.58638,"zip":"98364","miles_from_dt":11.58},{"city":"Freeland","state_name":"Washington","lat":48.01888,"lng":-122.53947,"zip":"98249","miles_from_dt":11.81},{"city":"Greenbank","state_name":"Washington","lat":48.079,"lng":-122.57568,"zip":"98253","miles_from_dt":12.47},{"city":"Sequim","state_name":"Washington","lat":48.0131,"lng":-123.07437,"zip":"98382","miles_from_dt":14.16},{"city":"Kingston","state_name":"Washington","lat":47.82005,"lng":-122.53399,"zip":"98346","miles_from_dt":14.98},{"city":"Langley","state_name":"Washington","lat":48.03074,"lng":-122.45106,"zip":"98260","miles_from_dt":15.96},{"city":"Poulsbo","state_name":"Washington","lat":47.75114,"lng":-122.62373,"zip":"98370","miles_from_dt":16.2},{"city":"Silverdale","state_name":"Washington","lat":47.72263,"lng":-122.71444,"zip":"98315","miles_from_dt":16.74},{"city":"Coupeville","state_name":"Washington","lat":48.18926,"lng":-122.65756,"zip":"98239","miles_from_dt":16.75},{"city":"Clinton","state_name":"Washington","lat":47.95804,"lng":-122.40468,"zip":"98236","miles_from_dt":17.38},{"city":"Suquamish","state_name":"Washington","lat":47.73425,"lng":-122.5631,"zip":"98392","miles_from_dt":18.61},{"city":"Indianola","state_name":"Washington","lat":47.75475,"lng":-122.51952,"zip":"98342","miles_from_dt":18.67},{"city":"Keyport","state_name":"Washington","lat":47.69972,"lng":-122.62366,"zip":"98345","miles_from_dt":19.44},{"city":"Silverdale","state_name":"Washington","lat":47.66212,"lng":-122.71652,"zip":"98383","miles_from_dt":20.85},{"city":"Carlsborg","state_name":"Washington","lat":48.10692,"lng":-123.17546,"zip":"98324","miles_from_dt":20.95},{"city":"Camano Island","state_name":"Washington","lat":48.18719,"lng":-122.46966,"zip":"98282","miles_from_dt":21.21},{"city":"Brinnon","state_name":"Washington","lat":47.69861,"lng":-123.01742,"zip":"98320","miles_from_dt":21.25},{"city":"Everett","state_name":"Washington","lat":48.01447,"lng":-122.32201,"zip":"98206","miles_from_dt":21.52},{"city":"Edmonds","state_name":"Washington","lat":47.80015,"lng":-122.37267,"zip":"98020","miles_from_dt":21.91},{"city":"Mukilteo","state_name":"Washington","lat":47.90994,"lng":-122.30113,"zip":"98275","miles_from_dt":22.47},{"city":"Edmonds","state_name":"Washington","lat":47.83555,"lng":-122.3316,"zip":"98026","miles_from_dt":22.52},{"city":"Seattle","state_name":"Washington","lat":47.77112,"lng":-122.38237,"zip":"98160","miles_from_dt":22.63},{"city":"Lynnwood","state_name":"Washington","lat":47.83017,"lng":-122.30401,"zip":"98046","miles_from_dt":23.85},{"city":"Rollingbay","state_name":"Washington","lat":47.65218,"lng":-122.54899,"zip":"98061","miles_from_dt":23.87},{"city":"Bremerton","state_name":"Washington","lat":47.62829,"lng":-122.63793,"zip":"98311","miles_from_dt":23.9},{"city":"Seattle","state_name":"Washington","lat":47.74237,"lng":-122.37085,"zip":"98177","miles_from_dt":24.26},{"city":"Tracyton","state_name":"Washington","lat":47.62011,"lng":-122.65127,"zip":"98393","miles_from_dt":24.29},{"city":"Lynnwood","state_name":"Washington","lat":47.83873,"lng":-122.28463,"zip":"98037","miles_from_dt":24.48},{"city":"Bainbridge Island","state_name":"Washington","lat":47.64389,"lng":-122.54335,"zip":"98110","miles_from_dt":24.5},{"city":"Everett","state_name":"Washington","lat":47.90105,"lng":-122.2586,"zip":"98204","miles_from_dt":24.52},{"city":"Lynnwood","state_name":"Washington","lat":47.8624,"lng":-122.2664,"zip":"98087","miles_from_dt":24.77},{"city":"Mountlake Terrace","state_name":"Washington","lat":47.7921,"lng":-122.30758,"zip":"98043","miles_from_dt":24.83},{"city":"Everett","state_name":"Washington","lat":47.94236,"lng":-122.23651,"zip":"98203","miles_from_dt":25.22},{"city":"Lynnwood","state_name":"Washington","lat":47.81094,"lng":-122.28155,"zip":"98036","miles_from_dt":25.34},{"city":"Seattle","state_name":"Washington","lat":47.7399,"lng":-122.34432,"zip":"98133","miles_from_dt":25.34},{"city":"Port Angeles","state_name":"Washington","lat":48.01639,"lng":-123.31951,"zip":"98362","miles_from_dt":25.36},{"city":"Oak Harbor","state_name":"Washington","lat":48.31688,"lng":-122.63152,"zip":"98277","miles_from_dt":25.52},{"city":"Everett","state_name":"Washington","lat":47.98793,"lng":-122.2229,"zip":"98207","miles_from_dt":25.87},{"city":"North Lakewood","state_name":"Washington","lat":48.16499,"lng":-122.2992,"zip":"98259","miles_from_dt":26.32},{"city":"Seattle","state_name":"Washington","lat":47.75609,"lng":-122.30039,"zip":"98155","miles_from_dt":26.38},{"city":"Seattle","state_name":"Washington","lat":47.6882,"lng":-122.38157,"zip":"98117","miles_from_dt":26.4},{"city":"Everett","state_name":"Washington","lat":47.976,"lng":-122.21,"zip":"98213","miles_from_dt":26.43},{"city":"Bremerton","state_name":"Washington","lat":47.58939,"lng":-122.6175,"zip":"98310","miles_from_dt":26.75},{"city":"Marysville","state_name":"Washington","lat":48.09373,"lng":-122.23559,"zip":"98271","miles_from_dt":26.81},{"city":"Mill Creek","state_name":"Washington","lat":47.85524,"lng":-122.22102,"zip":"98082","miles_from_dt":26.93},{"city":"Oak Harbor","state_name":"Washington","lat":48.34388,"lng":-122.66491,"zip":"98278","miles_from_dt":26.98},{"city":"Seabeck","state_name":"Washington","lat":47.5743,"lng":-122.90287,"zip":"98380","miles_from_dt":27.33},{"city":"Bremerton","state_name":"Washington","lat":47.56435,"lng":-122.75706,"zip":"98312","miles_from_dt":27.42},{"city":"Seattle","state_name":"Washington","lat":47.66757,"lng":-122.37789,"zip":"98107","miles_from_dt":27.56},{"city":"Everett","state_name":"Washington","lat":47.99373,"lng":-122.18563,"zip":"98201","miles_from_dt":27.62},{"city":"Seattle","state_name":"Washington","lat":47.65139,"lng":-122.40223,"zip":"98199","miles_from_dt":27.66},{"city":"Everett","state_name":"Washington","lat":47.90072,"lng":-122.18852,"zip":"98208","miles_from_dt":27.74},{"city":"Seattle","state_name":"Washington","lat":47.71706,"lng":-122.29969,"zip":"98125","miles_from_dt":27.95},{"city":"Bothell","state_name":"Washington","lat":47.84205,"lng":-122.19813,"zip":"98012","miles_from_dt":28.21},{"city":"Seattle","state_name":"Washington","lat":47.67513,"lng":-122.34416,"zip":"98113","miles_from_dt":28.28},{"city":"Bremerton","state_name":"Washington","lat":47.56345,"lng":-122.63405,"zip":"98337","miles_from_dt":28.28},{"city":"Bremerton","state_name":"Washington","lat":47.56243,"lng":-122.63893,"zip":"98314","miles_from_dt":28.3},{"city":"Seattle","state_name":"Washington","lat":47.64,"lng":-122.398,"zip":"98139","miles_from_dt":28.4},{"city":"Seattle","state_name":"Washington","lat":47.6732,"lng":-122.34258,"zip":"98103","miles_from_dt":28.42},{"city":"Stanwood","state_name":"Washington","lat":48.22455,"lng":-122.3032,"zip":"98292","miles_from_dt":28.58},{"city":"Kenmore","state_name":"Washington","lat":47.75162,"lng":-122.24892,"zip":"98028","miles_from_dt":28.58},{"city":"Bothell","state_name":"Washington","lat":47.79257,"lng":-122.20846,"zip":"98021","miles_from_dt":28.96},{"city":"Silvana","state_name":"Washington","lat":48.19051,"lng":-122.25032,"zip":"98287","miles_from_dt":29.17},{"city":"Seattle","state_name":"Washington","lat":47.63943,"lng":-122.36932,"zip":"98119","miles_from_dt":29.28},{"city":"Retsil","state_name":"Washington","lat":47.54489,"lng":-122.618,"zip":"98378","miles_from_dt":29.71},{"city":"Bothell","state_name":"Washington","lat":47.75402,"lng":-122.21613,"zip":"98041","miles_from_dt":29.83},{"city":"Seattle","state_name":"Washington","lat":47.68547,"lng":-122.28234,"zip":"98115","miles_from_dt":29.94}],"targetCityZipCode":"98325","targetCityState":"Washington"},"__N_SSG":true}