{"pageProps":{"stateName":"Washington","cityName":"cougar","nearbyCities":[{"city":"Ariel","state_name":"Washington","lat":46.04223,"lng":-122.42001,"zip":"98603","miles_from_dt":13.25},{"city":"Yacolt","state_name":"Washington","lat":45.86349,"lng":-122.33104,"zip":"98675","miles_from_dt":16.37},{"city":"Amboy","state_name":"Washington","lat":45.93439,"lng":-122.43857,"zip":"98601","miles_from_dt":16.62},{"city":"Kalama","state_name":"Washington","lat":46.10871,"lng":-122.56093,"zip":"98625","miles_from_dt":20.2},{"city":"Carson","state_name":"Washington","lat":45.77765,"lng":-122.01401,"zip":"98610","miles_from_dt":20.66},{"city":"Heisson","state_name":"Washington","lat":45.82505,"lng":-122.48582,"zip":"98622","miles_from_dt":23.16},{"city":"Battle Ground","state_name":"Washington","lat":45.80013,"lng":-122.5054,"zip":"98604","miles_from_dt":25.06},{"city":"Toutle","state_name":"Washington","lat":46.31504,"lng":-122.53415,"zip":"98649","miles_from_dt":25.52},{"city":"Woodland","state_name":"Washington","lat":45.94672,"lng":-122.65568,"zip":"98674","miles_from_dt":25.8},{"city":"La Center","state_name":"Washington","lat":45.88109,"lng":-122.6148,"zip":"98629","miles_from_dt":25.81},{"city":"Stevenson","state_name":"Washington","lat":45.70563,"lng":-121.9489,"zip":"98648","miles_from_dt":26.4},{"city":"Brush Prairie","state_name":"Washington","lat":45.72921,"lng":-122.45615,"zip":"98606","miles_from_dt":27.44}],"targetCityZipCode":"98616","targetCityState":"Washington"},"__N_SSG":true}