{"pageProps":{"stateName":"Washington","cityName":"glenwood","nearbyCities":[{"city":"Appleton","state_name":"Washington","lat":45.8693,"lng":-121.27966,"zip":"98602","miles_from_dt":7.46},{"city":"Wahkiacus","state_name":"Washington","lat":45.86372,"lng":-121.14599,"zip":"98670","miles_from_dt":9.72},{"city":"Klickitat","state_name":"Washington","lat":45.85015,"lng":-121.09887,"zip":"98628","miles_from_dt":11.89},{"city":"Trout Lake","state_name":"Washington","lat":45.97117,"lng":-121.52732,"zip":"98650","miles_from_dt":12.61},{"city":"White Salmon","state_name":"Washington","lat":45.81269,"lng":-121.47393,"zip":"98672","miles_from_dt":15.15},{"city":"Lyle","state_name":"Washington","lat":45.74364,"lng":-121.20915,"zip":"98635","miles_from_dt":16.34},{"city":"Husum","state_name":"Washington","lat":45.79956,"lng":-121.49347,"zip":"98623","miles_from_dt":16.45},{"city":"Centerville","state_name":"Washington","lat":45.7542,"lng":-120.97235,"zip":"98613","miles_from_dt":20.9},{"city":"Bingen","state_name":"Washington","lat":45.77846,"lng":-121.6393,"zip":"98605","miles_from_dt":22.64},{"city":"Underwood","state_name":"Washington","lat":45.73419,"lng":-121.58718,"zip":"98651","miles_from_dt":22.84},{"city":"Dallesport","state_name":"Washington","lat":45.64283,"lng":-121.14229,"zip":"98617","miles_from_dt":23.83},{"city":"Goldendale","state_name":"Washington","lat":45.87096,"lng":-120.77846,"zip":"98620","miles_from_dt":24.6},{"city":"Mosier","state_name":"Oregon","lat":45.62648,"lng":-121.38476,"zip":"97040","miles_from_dt":24.88},{"city":"Wishram","state_name":"Washington","lat":45.67367,"lng":-120.98129,"zip":"98673","miles_from_dt":25.04},{"city":"Odell","state_name":"Oregon","lat":45.62531,"lng":-121.53971,"zip":"97044","miles_from_dt":27.66}],"targetCityZipCode":"98619","targetCityState":"Washington"},"__N_SSG":true}