{"pageProps":{"stateName":"Washington","cityName":"greenacres","nearbyCities":[{"city":"Veradale","state_name":"Washington","lat":47.63734,"lng":-117.19756,"zip":"99037","miles_from_dt":2.63},{"city":"Liberty Lake","state_name":"Washington","lat":47.64222,"lng":-117.07688,"zip":"99019","miles_from_dt":3.54},{"city":"Mica","state_name":"Washington","lat":47.56474,"lng":-117.14466,"zip":"99023","miles_from_dt":3.94},{"city":"Spokane","state_name":"Washington","lat":47.68142,"lng":-117.20826,"zip":"99216","miles_from_dt":5.04},{"city":"Spokane","state_name":"Washington","lat":47.62755,"lng":-117.25448,"zip":"99206","miles_from_dt":5.07},{"city":"Spokane","state_name":"Washington","lat":47.69087,"lng":-117.20983,"zip":"99215","miles_from_dt":5.63},{"city":"Otis Orchards","state_name":"Washington","lat":47.71107,"lng":-117.12795,"zip":"99027","miles_from_dt":6.23},{"city":"Spokane","state_name":"Washington","lat":47.71139,"lng":-117.20677,"zip":"99214","miles_from_dt":6.81},{"city":"Spokane","state_name":"Washington","lat":47.65658,"lng":-117.2911,"zip":"99213","miles_from_dt":7.18},{"city":"Spokane","state_name":"Washington","lat":47.66504,"lng":-117.30914,"zip":"99212","miles_from_dt":8.17},{"city":"Spokane","state_name":"Washington","lat":47.6653,"lng":-117.31012,"zip":"99211","miles_from_dt":8.22},{"city":"Spokane","state_name":"Washington","lat":47.58876,"lng":-117.334,"zip":"99223","miles_from_dt":9.06},{"city":"Valleyford","state_name":"Washington","lat":47.52005,"lng":-117.27197,"zip":"99036","miles_from_dt":9.16},{"city":"Spokane","state_name":"Washington","lat":47.7406,"lng":-117.26241,"zip":"99217","miles_from_dt":9.84},{"city":"Rockford","state_name":"Washington","lat":47.47782,"lng":-117.11302,"zip":"99030","miles_from_dt":10.06},{"city":"Post Falls","state_name":"Idaho","lat":47.7267,"lng":-116.97511,"zip":"83854","miles_from_dt":10.79},{"city":"Spokane","state_name":"Washington","lat":47.65726,"lng":-117.37767,"zip":"99252","miles_from_dt":11.08},{"city":"Spokane","state_name":"Washington","lat":47.65709,"lng":-117.37854,"zip":"99202","miles_from_dt":11.12},{"city":"Post Falls","state_name":"Idaho","lat":47.71486,"lng":-116.94554,"zip":"83877","miles_from_dt":11.36},{"city":"Newman Lake","state_name":"Washington","lat":47.78963,"lng":-117.08751,"zip":"99025","miles_from_dt":11.92},{"city":"Spokane","state_name":"Washington","lat":47.62945,"lng":-117.40291,"zip":"99203","miles_from_dt":12},{"city":"Spokane","state_name":"Washington","lat":47.68941,"lng":-117.38911,"zip":"99207","miles_from_dt":12.26},{"city":"Spokane","state_name":"Washington","lat":47.66612,"lng":-117.40246,"zip":"99258","miles_from_dt":12.35},{"city":"Spokane","state_name":"Washington","lat":47.64887,"lng":-117.41245,"zip":"99220","miles_from_dt":12.57},{"city":"Spokane","state_name":"Washington","lat":47.65088,"lng":-117.42189,"zip":"99210","miles_from_dt":13.03},{"city":"Spokane","state_name":"Washington","lat":47.64726,"lng":-117.42665,"zip":"99204","miles_from_dt":13.21},{"city":"Spokane","state_name":"Washington","lat":47.66255,"lng":-117.42316,"zip":"99256","miles_from_dt":13.23},{"city":"Spokane","state_name":"Washington","lat":47.66346,"lng":-117.42294,"zip":"99260","miles_from_dt":13.24},{"city":"Spokane","state_name":"Washington","lat":47.66271,"lng":-117.43609,"zip":"99201","miles_from_dt":13.83},{"city":"Spokane","state_name":"Washington","lat":47.69657,"lng":-117.44609,"zip":"99205","miles_from_dt":14.92},{"city":"Spokane","state_name":"Washington","lat":47.69904,"lng":-117.44508,"zip":"99209","miles_from_dt":14.94},{"city":"Spokane","state_name":"Washington","lat":47.75894,"lng":-117.4087,"zip":"99218","miles_from_dt":15.49},{"city":"Worley","state_name":"Idaho","lat":47.44842,"lng":-116.93161,"zip":"83876","miles_from_dt":15.62},{"city":"Spokane","state_name":"Washington","lat":47.75385,"lng":-117.41797,"zip":"99251","miles_from_dt":15.62},{"city":"Mead","state_name":"Washington","lat":47.84951,"lng":-117.18721,"zip":"99021","miles_from_dt":15.85},{"city":"Spokane","state_name":"Washington","lat":47.79976,"lng":-117.38468,"zip":"99228","miles_from_dt":16.58},{"city":"Fairfield","state_name":"Washington","lat":47.38137,"lng":-117.19145,"zip":"99012","miles_from_dt":16.74},{"city":"Marshall","state_name":"Washington","lat":47.56314,"lng":-117.49702,"zip":"99020","miles_from_dt":16.89},{"city":"Spangle","state_name":"Washington","lat":47.41973,"lng":-117.35991,"zip":"99031","miles_from_dt":17.17},{"city":"Coeur D Alene","state_name":"Idaho","lat":47.66727,"lng":-116.77906,"zip":"83816","miles_from_dt":17.43},{"city":"Coeur D Alene","state_name":"Idaho","lat":47.63717,"lng":-116.75811,"zip":"83814","miles_from_dt":18.16},{"city":"Coeur D Alene","state_name":"Idaho","lat":47.72498,"lng":-116.78732,"zip":"83815","miles_from_dt":18.2},{"city":"Spokane","state_name":"Washington","lat":47.64729,"lng":-117.53552,"zip":"99224","miles_from_dt":18.26},{"city":"Spokane","state_name":"Washington","lat":47.78071,"lng":-117.46135,"zip":"99208","miles_from_dt":18.35},{"city":"Colbert","state_name":"Washington","lat":47.84405,"lng":-117.36346,"zip":"99005","miles_from_dt":18.4},{"city":"Spokane","state_name":"Washington","lat":47.62975,"lng":-117.54236,"zip":"99219","miles_from_dt":18.51},{"city":"Rathdrum","state_name":"Idaho","lat":47.85245,"lng":-116.90173,"zip":"83858","miles_from_dt":19.6},{"city":"Waverly","state_name":"Washington","lat":47.33808,"lng":-117.23131,"zip":"99039","miles_from_dt":19.99},{"city":"Airway Heights","state_name":"Washington","lat":47.63874,"lng":-117.58582,"zip":"99001","miles_from_dt":20.56},{"city":"Harrison","state_name":"Idaho","lat":47.51484,"lng":-116.73284,"zip":"83833","miles_from_dt":20.69},{"city":"Four Lakes","state_name":"Washington","lat":47.56111,"lng":-117.59666,"zip":"99014","miles_from_dt":21.46},{"city":"Chattaroy","state_name":"Washington","lat":47.91997,"lng":-117.27608,"zip":"99003","miles_from_dt":21.48},{"city":"Latah","state_name":"Washington","lat":47.2917,"lng":-117.15212,"zip":"99018","miles_from_dt":22.8},{"city":"Fairchild Air Force Base","state_name":"Washington","lat":47.61867,"lng":-117.64839,"zip":"99011","miles_from_dt":23.46},{"city":"Plummer","state_name":"Idaho","lat":47.29899,"lng":-116.90513,"zip":"83851","miles_from_dt":24.99},{"city":"Hayden","state_name":"Idaho","lat":47.79557,"lng":-116.66843,"zip":"83835","miles_from_dt":25.31},{"city":"Nine Mile Falls","state_name":"Washington","lat":47.80375,"lng":-117.625,"zip":"99026","miles_from_dt":25.62},{"city":"Medical Lake","state_name":"Washington","lat":47.60084,"lng":-117.70869,"zip":"99022","miles_from_dt":26.32},{"city":"Tekoa","state_name":"Washington","lat":47.23061,"lng":-117.09782,"zip":"99033","miles_from_dt":27.11},{"city":"Cheney","state_name":"Washington","lat":47.40869,"lng":-117.63575,"zip":"99004","miles_from_dt":27.23},{"city":"Spirit Lake","state_name":"Idaho","lat":47.98095,"lng":-116.89239,"zip":"83869","miles_from_dt":27.49},{"city":"Rosalia","state_name":"Washington","lat":47.25132,"lng":-117.40203,"zip":"99170","miles_from_dt":28.26},{"city":"Elk","state_name":"Washington","lat":48.0253,"lng":-117.24993,"zip":"99009","miles_from_dt":28.3},{"city":"Deer Park","state_name":"Washington","lat":47.95208,"lng":-117.51016,"zip":"99006","miles_from_dt":28.43},{"city":"Blanchard","state_name":"Idaho","lat":48.03714,"lng":-116.97315,"zip":"83804","miles_from_dt":29.81}],"targetCityZipCode":"99016","targetCityState":"Washington"},"__N_SSG":true}