{"pageProps":{"stateName":"Washington","cityName":"keyport","nearbyCities":[{"city":"Poulsbo","state_name":"Washington","lat":47.75114,"lng":-122.62373,"zip":"98370","miles_from_dt":3.55},{"city":"Suquamish","state_name":"Washington","lat":47.73425,"lng":-122.5631,"zip":"98392","miles_from_dt":3.7},{"city":"Silverdale","state_name":"Washington","lat":47.72263,"lng":-122.71444,"zip":"98315","miles_from_dt":4.52},{"city":"Rollingbay","state_name":"Washington","lat":47.65218,"lng":-122.54899,"zip":"98061","miles_from_dt":4.79},{"city":"Bremerton","state_name":"Washington","lat":47.62829,"lng":-122.63793,"zip":"98311","miles_from_dt":4.98},{"city":"Silverdale","state_name":"Washington","lat":47.66212,"lng":-122.71652,"zip":"98383","miles_from_dt":5.05},{"city":"Bainbridge Island","state_name":"Washington","lat":47.64389,"lng":-122.54335,"zip":"98110","miles_from_dt":5.38},{"city":"Tracyton","state_name":"Washington","lat":47.62011,"lng":-122.65127,"zip":"98393","miles_from_dt":5.65},{"city":"Indianola","state_name":"Washington","lat":47.75475,"lng":-122.51952,"zip":"98342","miles_from_dt":6.17},{"city":"Bremerton","state_name":"Washington","lat":47.58939,"lng":-122.6175,"zip":"98310","miles_from_dt":7.63},{"city":"Kingston","state_name":"Washington","lat":47.82005,"lng":-122.53399,"zip":"98346","miles_from_dt":9.3},{"city":"Bremerton","state_name":"Washington","lat":47.56345,"lng":-122.63405,"zip":"98337","miles_from_dt":9.43},{"city":"Bremerton","state_name":"Washington","lat":47.56243,"lng":-122.63893,"zip":"98314","miles_from_dt":9.51},{"city":"Retsil","state_name":"Washington","lat":47.54489,"lng":-122.618,"zip":"98378","miles_from_dt":10.7},{"city":"Port Gamble","state_name":"Washington","lat":47.85455,"lng":-122.58638,"zip":"98364","miles_from_dt":10.84},{"city":"Seattle","state_name":"Washington","lat":47.65139,"lng":-122.40223,"zip":"98199","miles_from_dt":10.86},{"city":"Bremerton","state_name":"Washington","lat":47.56435,"lng":-122.75706,"zip":"98312","miles_from_dt":11.24},{"city":"Seattle","state_name":"Washington","lat":47.64,"lng":-122.398,"zip":"98139","miles_from_dt":11.31},{"city":"Seattle","state_name":"Washington","lat":47.6882,"lng":-122.38157,"zip":"98117","miles_from_dt":11.32},{"city":"Port Orchard","state_name":"Washington","lat":47.53732,"lng":-122.58647,"zip":"98366","miles_from_dt":11.35},{"city":"Seattle","state_name":"Washington","lat":47.66757,"lng":-122.37789,"zip":"98107","miles_from_dt":11.68},{"city":"Seattle","state_name":"Washington","lat":47.74237,"lng":-122.37085,"zip":"98177","miles_from_dt":12.15},{"city":"Seattle","state_name":"Washington","lat":47.77112,"lng":-122.38237,"zip":"98160","miles_from_dt":12.28},{"city":"Seattle","state_name":"Washington","lat":47.63943,"lng":-122.36932,"zip":"98119","miles_from_dt":12.58},{"city":"Manchester","state_name":"Washington","lat":47.53885,"lng":-122.49294,"zip":"98353","miles_from_dt":12.68},{"city":"South Colby","state_name":"Washington","lat":47.51947,"lng":-122.53895,"zip":"98384","miles_from_dt":13.07},{"city":"Seattle","state_name":"Washington","lat":47.67513,"lng":-122.34416,"zip":"98113","miles_from_dt":13.15},{"city":"Seattle","state_name":"Washington","lat":47.6732,"lng":-122.34258,"zip":"98103","miles_from_dt":13.24},{"city":"Seattle","state_name":"Washington","lat":47.7399,"lng":-122.34432,"zip":"98133","miles_from_dt":13.32},{"city":"Edmonds","state_name":"Washington","lat":47.80015,"lng":-122.37267,"zip":"98020","miles_from_dt":13.6},{"city":"Seattle","state_name":"Washington","lat":47.57399,"lng":-122.39503,"zip":"98116","miles_from_dt":13.76},{"city":"Seattle","state_name":"Washington","lat":47.63128,"lng":-122.34486,"zip":"98109","miles_from_dt":13.84},{"city":"Port Ludlow","state_name":"Washington","lat":47.89545,"lng":-122.70271,"zip":"98365","miles_from_dt":14.01},{"city":"Seattle","state_name":"Washington","lat":47.61548,"lng":-122.34668,"zip":"98121","miles_from_dt":14.18},{"city":"Southworth","state_name":"Washington","lat":47.50945,"lng":-122.50156,"zip":"98386","miles_from_dt":14.33},{"city":"Hansville","state_name":"Washington","lat":47.90622,"lng":-122.56406,"zip":"98340","miles_from_dt":14.53},{"city":"Seattle","state_name":"Washington","lat":47.61073,"lng":-122.3414,"zip":"98181","miles_from_dt":14.54},{"city":"Seattle","state_name":"Washington","lat":47.61511,"lng":-122.33819,"zip":"98129","miles_from_dt":14.55},{"city":"Seattle","state_name":"Washington","lat":47.61,"lng":-122.339,"zip":"98170","miles_from_dt":14.66},{"city":"Seattle","state_name":"Washington","lat":47.63627,"lng":-122.32337,"zip":"98102","miles_from_dt":14.68},{"city":"Seattle","state_name":"Washington","lat":47.60955,"lng":-122.33761,"zip":"98161","miles_from_dt":14.73},{"city":"Seattle","state_name":"Washington","lat":47.61361,"lng":-122.33502,"zip":"98191","miles_from_dt":14.73},{"city":"Seattle","state_name":"Washington","lat":47.609,"lng":-122.337,"zip":"98141","miles_from_dt":14.78},{"city":"Seattle","state_name":"Washington","lat":47.65861,"lng":-122.31248,"zip":"98145","miles_from_dt":14.79},{"city":"Seattle","state_name":"Washington","lat":47.61119,"lng":-122.33454,"zip":"98101","miles_from_dt":14.82},{"city":"Seattle","state_name":"Washington","lat":47.61024,"lng":-122.3347,"zip":"98111","miles_from_dt":14.84},{"city":"Quilcene","state_name":"Washington","lat":47.8455,"lng":-122.85916,"zip":"98376","miles_from_dt":14.89},{"city":"Seattle","state_name":"Washington","lat":47.60477,"lng":-122.33528,"zip":"98174","miles_from_dt":14.97},{"city":"Seattle","state_name":"Washington","lat":47.60621,"lng":-122.33379,"zip":"98154","miles_from_dt":14.99},{"city":"Seattle","state_name":"Washington","lat":47.65466,"lng":-122.30752,"zip":"98195","miles_from_dt":15.08},{"city":"Seattle","state_name":"Washington","lat":47.60596,"lng":-122.33203,"zip":"98164","miles_from_dt":15.08},{"city":"Seattle","state_name":"Washington","lat":47.60639,"lng":-122.33083,"zip":"98127","miles_from_dt":15.11},{"city":"Seattle","state_name":"Washington","lat":47.71706,"lng":-122.29969,"zip":"98125","miles_from_dt":15.15},{"city":"Seattle","state_name":"Washington","lat":47.599,"lng":-122.334,"zip":"98194","miles_from_dt":15.21},{"city":"Seattle","state_name":"Washington","lat":47.60356,"lng":-122.32944,"zip":"98165","miles_from_dt":15.26},{"city":"Seattle","state_name":"Washington","lat":47.60356,"lng":-122.32944,"zip":"98175","miles_from_dt":15.26},{"city":"Seattle","state_name":"Washington","lat":47.60044,"lng":-122.33004,"zip":"98104","miles_from_dt":15.33},{"city":"Seattle","state_name":"Washington","lat":47.75609,"lng":-122.30039,"zip":"98155","miles_from_dt":15.56},{"city":"Seabeck","state_name":"Washington","lat":47.5743,"lng":-122.90287,"zip":"98380","miles_from_dt":15.65},{"city":"Seattle","state_name":"Washington","lat":47.66528,"lng":-122.29198,"zip":"98185","miles_from_dt":15.66},{"city":"Seattle","state_name":"Washington","lat":47.53686,"lng":-122.38992,"zip":"98136","miles_from_dt":15.68},{"city":"Seattle","state_name":"Washington","lat":47.54732,"lng":-122.37454,"zip":"98126","miles_from_dt":15.69},{"city":"Seattle","state_name":"Washington","lat":47.57691,"lng":-122.33686,"zip":"98134","miles_from_dt":15.85},{"city":"Seattle","state_name":"Washington","lat":47.68547,"lng":-122.28234,"zip":"98115","miles_from_dt":15.95},{"city":"Seattle","state_name":"Washington","lat":47.57722,"lng":-122.33354,"zip":"98124","miles_from_dt":15.97},{"city":"Mountlake Terrace","state_name":"Washington","lat":47.7921,"lng":-122.30758,"zip":"98043","miles_from_dt":16.05},{"city":"Seattle","state_name":"Washington","lat":47.66094,"lng":-122.28321,"zip":"98105","miles_from_dt":16.11},{"city":"Seattle","state_name":"Washington","lat":47.63242,"lng":-122.28732,"zip":"98112","miles_from_dt":16.37},{"city":"Seattle","state_name":"Washington","lat":47.60985,"lng":-122.29569,"zip":"98122","miles_from_dt":16.52},{"city":"Edmonds","state_name":"Washington","lat":47.83555,"lng":-122.3316,"zip":"98026","miles_from_dt":16.53},{"city":"Seattle","state_name":"Washington","lat":47.54339,"lng":-122.35366,"zip":"98106","miles_from_dt":16.6},{"city":"Port Orchard","state_name":"Washington","lat":47.46141,"lng":-122.67662,"zip":"98367","miles_from_dt":16.65},{"city":"Seattle","state_name":"Washington","lat":47.58006,"lng":-122.31255,"zip":"98114","miles_from_dt":16.71},{"city":"Seattle","state_name":"Washington","lat":47.58582,"lng":-122.29205,"zip":"98144","miles_from_dt":17.37},{"city":"Lynnwood","state_name":"Washington","lat":47.83017,"lng":-122.30401,"zip":"98046","miles_from_dt":17.4},{"city":"Lynnwood","state_name":"Washington","lat":47.81094,"lng":-122.28155,"zip":"98036","miles_from_dt":17.69},{"city":"Kenmore","state_name":"Washington","lat":47.75162,"lng":-122.24892,"zip":"98028","miles_from_dt":17.83},{"city":"Seattle","state_name":"Washington","lat":47.54113,"lng":-122.3126,"zip":"98108","miles_from_dt":18.2},{"city":"Brinnon","state_name":"Washington","lat":47.69861,"lng":-123.01742,"zip":"98320","miles_from_dt":18.36},{"city":"Lynnwood","state_name":"Washington","lat":47.83873,"lng":-122.28463,"zip":"98037","miles_from_dt":18.48},{"city":"Medina","state_name":"Washington","lat":47.63308,"lng":-122.23963,"zip":"98039","miles_from_dt":18.5},{"city":"Seattle","state_name":"Washington","lat":47.50008,"lng":-122.35768,"zip":"98146","miles_from_dt":18.57},{"city":"Olalla","state_name":"Washington","lat":47.43047,"lng":-122.57631,"zip":"98359","miles_from_dt":18.73},{"city":"Kirkland","state_name":"Washington","lat":47.71612,"lng":-122.21332,"zip":"98034","miles_from_dt":19.17},{"city":"Bothell","state_name":"Washington","lat":47.75402,"lng":-122.21613,"zip":"98041","miles_from_dt":19.36},{"city":"Chimacum","state_name":"Washington","lat":47.96093,"lng":-122.77911,"zip":"98325","miles_from_dt":19.44},{"city":"Seattle","state_name":"Washington","lat":47.54235,"lng":-122.26872,"zip":"98118","miles_from_dt":19.83},{"city":"Burley","state_name":"Washington","lat":47.41229,"lng":-122.62983,"zip":"98322","miles_from_dt":19.86},{"city":"Lynnwood","state_name":"Washington","lat":47.8624,"lng":-122.2664,"zip":"98087","miles_from_dt":20.08},{"city":"Seahurst","state_name":"Washington","lat":47.46914,"lng":-122.36002,"zip":"98062","miles_from_dt":20.14},{"city":"Kirkland","state_name":"Washington","lat":47.67616,"lng":-122.19267,"zip":"98033","miles_from_dt":20.17},{"city":"Bothell","state_name":"Washington","lat":47.75736,"lng":-122.19871,"zip":"98011","miles_from_dt":20.2},{"city":"Kirkland","state_name":"Washington","lat":47.68257,"lng":-122.19107,"zip":"98083","miles_from_dt":20.21},{"city":"Bellevue","state_name":"Washington","lat":47.62002,"lng":-122.20499,"zip":"98015","miles_from_dt":20.3},{"city":"Bellevue","state_name":"Washington","lat":47.61865,"lng":-122.20548,"zip":"98004","miles_from_dt":20.31},{"city":"Bothell","state_name":"Washington","lat":47.79257,"lng":-122.20846,"zip":"98021","miles_from_dt":20.38},{"city":"Seattle","state_name":"Washington","lat":47.50389,"lng":-122.29497,"zip":"98190","miles_from_dt":20.47},{"city":"Bellevue","state_name":"Washington","lat":47.61802,"lng":-122.20183,"zip":"98009","miles_from_dt":20.48},{"city":"Mercer Island","state_name":"Washington","lat":47.56611,"lng":-122.232,"zip":"98040","miles_from_dt":20.49},{"city":"Clinton","state_name":"Washington","lat":47.95804,"lng":-122.40468,"zip":"98236","miles_from_dt":20.55},{"city":"Mukilteo","state_name":"Washington","lat":47.90994,"lng":-122.30113,"zip":"98275","miles_from_dt":20.89},{"city":"Seattle","state_name":"Washington","lat":47.48898,"lng":-122.30175,"zip":"98168","miles_from_dt":20.94},{"city":"Vashon","state_name":"Washington","lat":47.41219,"lng":-122.4726,"zip":"98070","miles_from_dt":21.08},{"city":"Seattle","state_name":"Washington","lat":47.45256,"lng":-122.34978,"zip":"98166","miles_from_dt":21.34},{"city":"Mill Creek","state_name":"Washington","lat":47.85524,"lng":-122.22102,"zip":"98082","miles_from_dt":21.61},{"city":"Belfair","state_name":"Washington","lat":47.44605,"lng":-122.89618,"zip":"98528","miles_from_dt":21.67},{"city":"Everett","state_name":"Washington","lat":47.90105,"lng":-122.2586,"zip":"98204","miles_from_dt":21.96},{"city":"Bellevue","state_name":"Washington","lat":47.61494,"lng":-122.16814,"zip":"98005","miles_from_dt":22.05},{"city":"Bothell","state_name":"Washington","lat":47.84205,"lng":-122.19813,"zip":"98012","miles_from_dt":22.12},{"city":"Seattle","state_name":"Washington","lat":47.46859,"lng":-122.29188,"zip":"98131","miles_from_dt":22.26},{"city":"Seattle","state_name":"Washington","lat":47.49921,"lng":-122.24735,"zip":"98178","miles_from_dt":22.38},{"city":"Freeland","state_name":"Washington","lat":48.01888,"lng":-122.53947,"zip":"98249","miles_from_dt":22.4},{"city":"Seattle","state_name":"Washington","lat":47.44494,"lng":-122.32587,"zip":"98148","miles_from_dt":22.44},{"city":"Seattle","state_name":"Washington","lat":47.45043,"lng":-122.30805,"zip":"98158","miles_from_dt":22.68},{"city":"Gig Harbor","state_name":"Washington","lat":47.37731,"lng":-122.72523,"zip":"98329","miles_from_dt":22.77},{"city":"Burton","state_name":"Washington","lat":47.38908,"lng":-122.4594,"zip":"98013","miles_from_dt":22.79},{"city":"Seattle","state_name":"Washington","lat":47.47417,"lng":-122.25972,"zip":"98138","miles_from_dt":23.07},{"city":"Lilliwaup","state_name":"Washington","lat":47.54634,"lng":-123.06369,"zip":"98555","miles_from_dt":23.12},{"city":"Gig Harbor","state_name":"Washington","lat":47.36514,"lng":-122.59858,"zip":"98332","miles_from_dt":23.14},{"city":"Bellevue","state_name":"Washington","lat":47.61392,"lng":-122.14378,"zip":"98007","miles_from_dt":23.17},{"city":"Woodinville","state_name":"Washington","lat":47.76151,"lng":-122.13153,"zip":"98072","miles_from_dt":23.33},{"city":"Port Hadlock","state_name":"Washington","lat":48.02991,"lng":-122.74364,"zip":"98339","miles_from_dt":23.48},{"city":"Redmond","state_name":"Washington","lat":47.68148,"lng":-122.1203,"zip":"98052","miles_from_dt":23.51},{"city":"Wauna","state_name":"Washington","lat":47.36328,"lng":-122.70006,"zip":"98395","miles_from_dt":23.52},{"city":"Redmond","state_name":"Washington","lat":47.67656,"lng":-122.11487,"zip":"98073","miles_from_dt":23.79},{"city":"Seattle","state_name":"Washington","lat":47.44754,"lng":-122.27398,"zip":"98188","miles_from_dt":23.89},{"city":"Renton","state_name":"Washington","lat":47.51281,"lng":-122.18923,"zip":"98056","miles_from_dt":24.06},{"city":"Bellevue","state_name":"Washington","lat":47.55772,"lng":-122.14957,"zip":"98006","miles_from_dt":24.22},{"city":"Langley","state_name":"Washington","lat":48.03074,"lng":-122.45106,"zip":"98260","miles_from_dt":24.24},{"city":"Everett","state_name":"Washington","lat":47.90072,"lng":-122.18852,"zip":"98208","miles_from_dt":24.56},{"city":"Renton","state_name":"Washington","lat":47.47188,"lng":-122.21961,"zip":"98057","miles_from_dt":24.58},{"city":"Everett","state_name":"Washington","lat":47.94236,"lng":-122.23651,"zip":"98203","miles_from_dt":24.61},{"city":"Bellevue","state_name":"Washington","lat":47.60551,"lng":-122.11219,"zip":"98008","miles_from_dt":24.75},{"city":"Nordland","state_name":"Washington","lat":48.05796,"lng":-122.70008,"zip":"98358","miles_from_dt":25},{"city":"Allyn","state_name":"Washington","lat":47.36703,"lng":-122.84548,"zip":"98524","miles_from_dt":25.22},{"city":"Port Townsend","state_name":"Washington","lat":48.03879,"lng":-122.84406,"zip":"98368","miles_from_dt":25.57},{"city":"Seattle","state_name":"Washington","lat":47.39469,"lng":-122.31111,"zip":"98198","miles_from_dt":25.65},{"city":"Everett","state_name":"Washington","lat":48.01447,"lng":-122.32201,"zip":"98206","miles_from_dt":25.88},{"city":"Tahuya","state_name":"Washington","lat":47.43555,"lng":-123.02261,"zip":"98588","miles_from_dt":26.1},{"city":"Snohomish","state_name":"Washington","lat":47.84266,"lng":-122.10199,"zip":"98296","miles_from_dt":26.23},{"city":"Renton","state_name":"Washington","lat":47.44775,"lng":-122.20205,"zip":"98055","miles_from_dt":26.3},{"city":"Greenbank","state_name":"Washington","lat":48.079,"lng":-122.57568,"zip":"98253","miles_from_dt":26.3},{"city":"Woodinville","state_name":"Washington","lat":47.75263,"lng":-122.05754,"zip":"98077","miles_from_dt":26.64},{"city":"Everett","state_name":"Washington","lat":47.976,"lng":-122.21,"zip":"98213","miles_from_dt":27.1},{"city":"Vaughn","state_name":"Washington","lat":47.32011,"lng":-122.77791,"zip":"98394","miles_from_dt":27.2},{"city":"Renton","state_name":"Washington","lat":47.49563,"lng":-122.12474,"zip":"98059","miles_from_dt":27.25},{"city":"Kent","state_name":"Washington","lat":47.3922,"lng":-122.25819,"zip":"98032","miles_from_dt":27.27},{"city":"Everett","state_name":"Washington","lat":47.98793,"lng":-122.2229,"zip":"98207","miles_from_dt":27.27},{"city":"Sammamish","state_name":"Washington","lat":47.62206,"lng":-122.04437,"zip":"98074","miles_from_dt":27.56},{"city":"Kent","state_name":"Washington","lat":47.3959,"lng":-122.2392,"zip":"98064","miles_from_dt":27.64},{"city":"Gig Harbor","state_name":"Washington","lat":47.29909,"lng":-122.61911,"zip":"98335","miles_from_dt":27.68},{"city":"Redmond","state_name":"Washington","lat":47.66491,"lng":-122.02071,"zip":"98053","miles_from_dt":28.23},{"city":"Sammamish","state_name":"Washington","lat":47.58683,"lng":-122.03796,"zip":"98075","miles_from_dt":28.44},{"city":"Kent","state_name":"Washington","lat":47.4055,"lng":-122.1943,"zip":"98031","miles_from_dt":28.57},{"city":"Everett","state_name":"Washington","lat":47.99373,"lng":-122.18563,"zip":"98201","miles_from_dt":28.77},{"city":"Tacoma","state_name":"Washington","lat":47.28889,"lng":-122.5111,"zip":"98407","miles_from_dt":28.87},{"city":"Snohomish","state_name":"Washington","lat":47.92897,"lng":-122.09989,"zip":"98291","miles_from_dt":29.07},{"city":"Kent","state_name":"Washington","lat":47.38564,"lng":-122.20189,"zip":"98035","miles_from_dt":29.33},{"city":"Kent","state_name":"Washington","lat":47.387,"lng":-122.198,"zip":"98089","miles_from_dt":29.38},{"city":"Renton","state_name":"Washington","lat":47.44082,"lng":-122.12503,"zip":"98058","miles_from_dt":29.38},{"city":"Grapeview","state_name":"Washington","lat":47.32439,"lng":-122.92362,"zip":"98546","miles_from_dt":29.49},{"city":"Federal Way","state_name":"Washington","lat":47.30881,"lng":-122.36198,"zip":"98023","miles_from_dt":29.65}],"targetCityZipCode":"98345","targetCityState":"Washington"},"__N_SSG":true}