{"pageProps":{"stateName":"Washington","cityName":"lacrosse","nearbyCities":[{"city":"Hay","state_name":"Washington","lat":46.6747,"lng":-117.94889,"zip":"99136","miles_from_dt":6.54},{"city":"Endicott","state_name":"Washington","lat":46.95223,"lng":-117.78556,"zip":"99125","miles_from_dt":14.64},{"city":"Hooper","state_name":"Washington","lat":46.68112,"lng":-118.15262,"zip":"99333","miles_from_dt":14.67},{"city":"Benge","state_name":"Washington","lat":46.9213,"lng":-118.08264,"zip":"99105","miles_from_dt":16.09},{"city":"Starbuck","state_name":"Washington","lat":46.53325,"lng":-118.15697,"zip":"99359","miles_from_dt":20.44},{"city":"Colfax","state_name":"Washington","lat":46.86281,"lng":-117.44132,"zip":"99111","miles_from_dt":21.37},{"city":"Washtucna","state_name":"Washington","lat":46.79144,"lng":-118.30614,"zip":"99371","miles_from_dt":21.47},{"city":"Pomeroy","state_name":"Washington","lat":46.42531,"lng":-117.57128,"zip":"99347","miles_from_dt":26.05},{"city":"Saint John","state_name":"Washington","lat":47.10485,"lng":-117.6495,"zip":"99171","miles_from_dt":26.67},{"city":"Albion","state_name":"Washington","lat":46.79218,"lng":-117.25029,"zip":"99102","miles_from_dt":29.05},{"city":"Steptoe","state_name":"Washington","lat":47.00719,"lng":-117.35682,"zip":"99174","miles_from_dt":29.83}],"targetCityZipCode":"99143","targetCityState":"Washington"},"__N_SSG":true}