{"pageProps":{"stateName":"Washington","cityName":"lamont","nearbyCities":[{"city":"Saint John","state_name":"Washington","lat":47.10485,"lng":-117.6495,"zip":"99171","miles_from_dt":11.96},{"city":"Sprague","state_name":"Washington","lat":47.32405,"lng":-118.04613,"zip":"99032","miles_from_dt":12.61},{"city":"Endicott","state_name":"Washington","lat":46.95223,"lng":-117.78556,"zip":"99125","miles_from_dt":16.5},{"city":"Cheney","state_name":"Washington","lat":47.40869,"lng":-117.63575,"zip":"99004","miles_from_dt":19.26},{"city":"Malden","state_name":"Washington","lat":47.225,"lng":-117.46794,"zip":"99149","miles_from_dt":19.43},{"city":"Benge","state_name":"Washington","lat":46.9213,"lng":-118.08264,"zip":"99105","miles_from_dt":20.53},{"city":"Edwall","state_name":"Washington","lat":47.50449,"lng":-117.93533,"zip":"99008","miles_from_dt":22.39},{"city":"Thornton","state_name":"Washington","lat":47.09221,"lng":-117.41224,"zip":"99176","miles_from_dt":22.75},{"city":"Rosalia","state_name":"Washington","lat":47.25132,"lng":-117.40203,"zip":"99170","miles_from_dt":22.81},{"city":"Ritzville","state_name":"Washington","lat":47.11875,"lng":-118.37424,"zip":"99169","miles_from_dt":23.89},{"city":"Mohler","state_name":"Washington","lat":47.39132,"lng":-118.35576,"zip":"99154","miles_from_dt":26.75},{"city":"Steptoe","state_name":"Washington","lat":47.00719,"lng":-117.35682,"zip":"99174","miles_from_dt":27.34},{"city":"Harrington","state_name":"Washington","lat":47.43793,"lng":-118.32347,"zip":"99134","miles_from_dt":27.43},{"city":"Four Lakes","state_name":"Washington","lat":47.56111,"lng":-117.59666,"zip":"99014","miles_from_dt":29.23},{"city":"Spangle","state_name":"Washington","lat":47.41973,"lng":-117.35991,"zip":"99031","miles_from_dt":29.26},{"city":"Medical Lake","state_name":"Washington","lat":47.60084,"lng":-117.70869,"zip":"99022","miles_from_dt":29.92}],"targetCityZipCode":"99017","targetCityState":"Washington"},"__N_SSG":true}