{"pageProps":{"stateName":"Washington","cityName":"lilliwaup","nearbyCities":[{"city":"Seabeck","state_name":"Washington","lat":47.5743,"lng":-122.90287,"zip":"98380","miles_from_dt":7.76},{"city":"Tahuya","state_name":"Washington","lat":47.43555,"lng":-123.02261,"zip":"98588","miles_from_dt":7.89},{"city":"Belfair","state_name":"Washington","lat":47.44605,"lng":-122.89618,"zip":"98528","miles_from_dt":10.46},{"city":"Brinnon","state_name":"Washington","lat":47.69861,"lng":-123.01742,"zip":"98320","miles_from_dt":10.74},{"city":"Hoodsport","state_name":"Washington","lat":47.47064,"lng":-123.29273,"zip":"98548","miles_from_dt":11.93},{"city":"Bremerton","state_name":"Washington","lat":47.56435,"lng":-122.75706,"zip":"98312","miles_from_dt":14.39},{"city":"Union","state_name":"Washington","lat":47.32895,"lng":-123.07907,"zip":"98592","miles_from_dt":15.04},{"city":"Allyn","state_name":"Washington","lat":47.36703,"lng":-122.84548,"zip":"98524","miles_from_dt":16.06},{"city":"Grapeview","state_name":"Washington","lat":47.32439,"lng":-122.92362,"zip":"98546","miles_from_dt":16.68},{"city":"Silverdale","state_name":"Washington","lat":47.66212,"lng":-122.71652,"zip":"98383","miles_from_dt":18.09},{"city":"Port Orchard","state_name":"Washington","lat":47.46141,"lng":-122.67662,"zip":"98367","miles_from_dt":19.05},{"city":"Gig Harbor","state_name":"Washington","lat":47.37731,"lng":-122.72523,"zip":"98329","miles_from_dt":19.69},{"city":"Bremerton","state_name":"Washington","lat":47.56243,"lng":-122.63893,"zip":"98314","miles_from_dt":19.9},{"city":"Tracyton","state_name":"Washington","lat":47.62011,"lng":-122.65127,"zip":"98393","miles_from_dt":19.94},{"city":"Bremerton","state_name":"Washington","lat":47.56345,"lng":-122.63405,"zip":"98337","miles_from_dt":20.13},{"city":"Silverdale","state_name":"Washington","lat":47.72263,"lng":-122.71444,"zip":"98315","miles_from_dt":20.35},{"city":"Vaughn","state_name":"Washington","lat":47.32011,"lng":-122.77791,"zip":"98394","miles_from_dt":20.58},{"city":"Bremerton","state_name":"Washington","lat":47.62829,"lng":-122.63793,"zip":"98311","miles_from_dt":20.69},{"city":"Retsil","state_name":"Washington","lat":47.54489,"lng":-122.618,"zip":"98378","miles_from_dt":20.85},{"city":"Bremerton","state_name":"Washington","lat":47.58939,"lng":-122.6175,"zip":"98310","miles_from_dt":21.07},{"city":"Wauna","state_name":"Washington","lat":47.36328,"lng":-122.70006,"zip":"98395","miles_from_dt":21.22},{"city":"Shelton","state_name":"Washington","lat":47.24608,"lng":-123.16209,"zip":"98584","miles_from_dt":21.25},{"city":"Port Orchard","state_name":"Washington","lat":47.53732,"lng":-122.58647,"zip":"98366","miles_from_dt":22.33},{"city":"Burley","state_name":"Washington","lat":47.41229,"lng":-122.62983,"zip":"98322","miles_from_dt":22.33},{"city":"Quilcene","state_name":"Washington","lat":47.8455,"lng":-122.85916,"zip":"98376","miles_from_dt":22.76},{"city":"Keyport","state_name":"Washington","lat":47.69972,"lng":-122.62366,"zip":"98345","miles_from_dt":23.12},{"city":"Lakebay","state_name":"Washington","lat":47.26583,"lng":-122.77366,"zip":"98349","miles_from_dt":23.68},{"city":"Olalla","state_name":"Washington","lat":47.43047,"lng":-122.57631,"zip":"98359","miles_from_dt":24.19},{"city":"Matlock","state_name":"Washington","lat":47.30577,"lng":-123.43948,"zip":"98560","miles_from_dt":24.22},{"city":"South Colby","state_name":"Washington","lat":47.51947,"lng":-122.53895,"zip":"98384","miles_from_dt":24.62},{"city":"Poulsbo","state_name":"Washington","lat":47.75114,"lng":-122.62373,"zip":"98370","miles_from_dt":24.94},{"city":"Gig Harbor","state_name":"Washington","lat":47.36514,"lng":-122.59858,"zip":"98332","miles_from_dt":25.13},{"city":"Rollingbay","state_name":"Washington","lat":47.65218,"lng":-122.54899,"zip":"98061","miles_from_dt":25.14},{"city":"Bainbridge Island","state_name":"Washington","lat":47.64389,"lng":-122.54335,"zip":"98110","miles_from_dt":25.23},{"city":"Southworth","state_name":"Washington","lat":47.50945,"lng":-122.50156,"zip":"98386","miles_from_dt":26.43},{"city":"Manchester","state_name":"Washington","lat":47.53885,"lng":-122.49294,"zip":"98353","miles_from_dt":26.7},{"city":"Suquamish","state_name":"Washington","lat":47.73425,"lng":-122.5631,"zip":"98392","miles_from_dt":26.74},{"city":"Gig Harbor","state_name":"Washington","lat":47.29909,"lng":-122.61911,"zip":"98335","miles_from_dt":26.95},{"city":"Longbranch","state_name":"Washington","lat":47.20353,"lng":-122.76773,"zip":"98351","miles_from_dt":27.45},{"city":"Fox Island","state_name":"Washington","lat":47.24771,"lng":-122.62561,"zip":"98333","miles_from_dt":29.12},{"city":"Vashon","state_name":"Washington","lat":47.41219,"lng":-122.4726,"zip":"98070","miles_from_dt":29.19},{"city":"Indianola","state_name":"Washington","lat":47.75475,"lng":-122.51952,"zip":"98342","miles_from_dt":29.2},{"city":"Port Ludlow","state_name":"Washington","lat":47.89545,"lng":-122.70271,"zip":"98365","miles_from_dt":29.41}],"targetCityZipCode":"98555","targetCityState":"Washington"},"__N_SSG":true}