{"pageProps":{"stateName":"Washington","cityName":"maple-falls","nearbyCities":[{"city":"Sumas","state_name":"Washington","lat":48.97163,"lng":-122.2213,"zip":"98295","miles_from_dt":7.32},{"city":"Nooksack","state_name":"Washington","lat":48.92765,"lng":-122.32096,"zip":"98276","miles_from_dt":11.97},{"city":"Everson","state_name":"Washington","lat":48.90459,"lng":-122.31732,"zip":"98247","miles_from_dt":12.19},{"city":"Deming","state_name":"Washington","lat":48.79423,"lng":-121.93557,"zip":"98244","miles_from_dt":12.67},{"city":"Lynden","state_name":"Washington","lat":48.94972,"lng":-122.45672,"zip":"98264","miles_from_dt":17.98},{"city":"Bellingham","state_name":"Washington","lat":48.80007,"lng":-122.40786,"zip":"98227","miles_from_dt":19.16},{"city":"Bellingham","state_name":"Washington","lat":48.80064,"lng":-122.42299,"zip":"98226","miles_from_dt":19.71},{"city":"Acme","state_name":"Washington","lat":48.68526,"lng":-122.19678,"zip":"98220","miles_from_dt":19.8},{"city":"Bellingham","state_name":"Washington","lat":48.74372,"lng":-122.46766,"zip":"98228","miles_from_dt":23.68},{"city":"Bellingham","state_name":"Washington","lat":48.69615,"lng":-122.40979,"zip":"98229","miles_from_dt":24.05},{"city":"Bellingham","state_name":"Washington","lat":48.75461,"lng":-122.50307,"zip":"98225","miles_from_dt":24.52},{"city":"Custer","state_name":"Washington","lat":48.94711,"lng":-122.62061,"zip":"98240","miles_from_dt":25.44},{"city":"Ferndale","state_name":"Washington","lat":48.86494,"lng":-122.62211,"zip":"98248","miles_from_dt":26.31},{"city":"Sedro Woolley","state_name":"Washington","lat":48.55211,"lng":-122.11763,"zip":"98284","miles_from_dt":28.13},{"city":"Blaine","state_name":"Washington","lat":48.95688,"lng":-122.7084,"zip":"98230","miles_from_dt":29.42}],"targetCityZipCode":"98266","targetCityState":"Washington"},"__N_SSG":true}