{"pageProps":{"stateName":"Washington","cityName":"matlock","nearbyCities":[{"city":"Montesano","state_name":"Washington","lat":47.2064,"lng":-123.60824,"zip":"98563","miles_from_dt":10.49},{"city":"Hoodsport","state_name":"Washington","lat":47.47064,"lng":-123.29273,"zip":"98548","miles_from_dt":13.31},{"city":"Shelton","state_name":"Washington","lat":47.24608,"lng":-123.16209,"zip":"98584","miles_from_dt":13.68},{"city":"Elma","state_name":"Washington","lat":47.06877,"lng":-123.40459,"zip":"98541","miles_from_dt":16.45},{"city":"Union","state_name":"Washington","lat":47.32895,"lng":-123.07907,"zip":"98592","miles_from_dt":17.01},{"city":"Quinault","state_name":"Washington","lat":47.43607,"lng":-123.79848,"zip":"98575","miles_from_dt":19.1},{"city":"Mccleary","state_name":"Washington","lat":47.04332,"lng":-123.2681,"zip":"98557","miles_from_dt":19.85},{"city":"Satsop","state_name":"Washington","lat":47.00122,"lng":-123.4875,"zip":"98583","miles_from_dt":21.16},{"city":"Tahuya","state_name":"Washington","lat":47.43555,"lng":-123.02261,"zip":"98588","miles_from_dt":21.52},{"city":"Humptulips","state_name":"Washington","lat":47.3136,"lng":-123.9444,"zip":"98552","miles_from_dt":23.73},{"city":"Lilliwaup","state_name":"Washington","lat":47.54634,"lng":-123.06369,"zip":"98555","miles_from_dt":24.22},{"city":"Grapeview","state_name":"Washington","lat":47.32439,"lng":-122.92362,"zip":"98546","miles_from_dt":24.27},{"city":"Hoquiam","state_name":"Washington","lat":47.14081,"lng":-123.90122,"zip":"98550","miles_from_dt":24.54},{"city":"Malone","state_name":"Washington","lat":46.95884,"lng":-123.32749,"zip":"98559","miles_from_dt":24.54},{"city":"Olympia","state_name":"Washington","lat":47.08466,"lng":-123.02958,"zip":"98502","miles_from_dt":24.61},{"city":"Neilton","state_name":"Washington","lat":47.39616,"lng":-123.95976,"zip":"98566","miles_from_dt":25.21},{"city":"Olympia","state_name":"Washington","lat":47.07321,"lng":-122.97358,"zip":"98505","miles_from_dt":27.19},{"city":"Belfair","state_name":"Washington","lat":47.44605,"lng":-122.89618,"zip":"98528","miles_from_dt":27.27},{"city":"Aberdeen","state_name":"Washington","lat":46.99478,"lng":-123.81054,"zip":"98520","miles_from_dt":27.7},{"city":"Allyn","state_name":"Washington","lat":47.36703,"lng":-122.84548,"zip":"98524","miles_from_dt":28.21},{"city":"Amanda Park","state_name":"Washington","lat":47.47749,"lng":-123.99227,"zip":"98526","miles_from_dt":28.52}],"targetCityZipCode":"98560","targetCityState":"Washington"},"__N_SSG":true}