{"pageProps":{"stateName":"Washington","cityName":"naches","nearbyCities":[{"city":"Tieton","state_name":"Washington","lat":46.68759,"lng":-120.80916,"zip":"98947","miles_from_dt":18.54},{"city":"Yakima","state_name":"Washington","lat":46.54807,"lng":-120.90226,"zip":"98903","miles_from_dt":20.45},{"city":"Packwood","state_name":"Washington","lat":46.62786,"lng":-121.56385,"zip":"98361","miles_from_dt":20.97},{"city":"Cowiche","state_name":"Washington","lat":46.66608,"lng":-120.71723,"zip":"98923","miles_from_dt":23.15},{"city":"Selah","state_name":"Washington","lat":46.80322,"lng":-120.67454,"zip":"98942","miles_from_dt":23.97},{"city":"Yakima","state_name":"Washington","lat":46.62345,"lng":-120.70582,"zip":"98908","miles_from_dt":24.77},{"city":"Paradise Inn","state_name":"Washington","lat":46.78268,"lng":-121.74271,"zip":"98398","miles_from_dt":26.8},{"city":"Ashford","state_name":"Washington","lat":46.87036,"lng":-121.73985,"zip":"98304","miles_from_dt":27.43},{"city":"Thorp","state_name":"Washington","lat":47.06515,"lng":-120.76512,"zip":"98946","miles_from_dt":27.98},{"city":"Yakima","state_name":"Washington","lat":46.54758,"lng":-120.64461,"zip":"98909","miles_from_dt":29.85}],"targetCityZipCode":"98937","targetCityState":"Washington"},"__N_SSG":true}