{"pageProps":{"stateName":"Washington","cityName":"pacific-beach","nearbyCities":[{"city":"Moclips","state_name":"Washington","lat":47.23877,"lng":-124.20336,"zip":"98562","miles_from_dt":2.46},{"city":"Copalis Crossing","state_name":"Washington","lat":47.18939,"lng":-124.111,"zip":"98536","miles_from_dt":4.09},{"city":"Copalis Beach","state_name":"Washington","lat":47.0994,"lng":-124.11973,"zip":"98535","miles_from_dt":8.03},{"city":"Taholah","state_name":"Washington","lat":47.32039,"lng":-124.1562,"zip":"98587","miles_from_dt":8.28},{"city":"Humptulips","state_name":"Washington","lat":47.3136,"lng":-123.9444,"zip":"98552","miles_from_dt":14.04},{"city":"Ocean Shores","state_name":"Washington","lat":47.00206,"lng":-124.15479,"zip":"98569","miles_from_dt":14.05},{"city":"Hoquiam","state_name":"Washington","lat":47.14081,"lng":-123.90122,"zip":"98550","miles_from_dt":14.52},{"city":"Neilton","state_name":"Washington","lat":47.39616,"lng":-123.95976,"zip":"98566","miles_from_dt":17.31},{"city":"Amanda Park","state_name":"Washington","lat":47.47749,"lng":-123.99227,"zip":"98526","miles_from_dt":21.19},{"city":"Westport","state_name":"Washington","lat":46.88302,"lng":-124.1088,"zip":"98595","miles_from_dt":22.52},{"city":"Aberdeen","state_name":"Washington","lat":46.99478,"lng":-123.81054,"zip":"98520","miles_from_dt":23.18},{"city":"Quinault","state_name":"Washington","lat":47.43607,"lng":-123.79848,"zip":"98575","miles_from_dt":24.61},{"city":"Montesano","state_name":"Washington","lat":47.2064,"lng":-123.60824,"zip":"98563","miles_from_dt":27.64}],"targetCityZipCode":"98571","targetCityState":"Washington"},"__N_SSG":true}