{"pageProps":{"stateName":"Washington","cityName":"ronald","nearbyCities":[{"city":"Roslyn","state_name":"Washington","lat":47.22464,"lng":-121.00021,"zip":"98941","miles_from_dt":12.3},{"city":"Easton","state_name":"Washington","lat":47.28793,"lng":-121.28089,"zip":"98925","miles_from_dt":12.55},{"city":"Cle Elum","state_name":"Washington","lat":47.25056,"lng":-120.8821,"zip":"98922","miles_from_dt":13.32},{"city":"Snoqualmie Pass","state_name":"Washington","lat":47.45154,"lng":-121.35795,"zip":"98068","miles_from_dt":14.16},{"city":"South Cle Elum","state_name":"Washington","lat":47.18461,"lng":-120.96089,"zip":"98943","miles_from_dt":15.48},{"city":"Peshastin","state_name":"Washington","lat":47.42236,"lng":-120.62152,"zip":"98847","miles_from_dt":20.96},{"city":"Skykomish","state_name":"Washington","lat":47.65204,"lng":-121.3574,"zip":"98288","miles_from_dt":22.27},{"city":"Dryden","state_name":"Washington","lat":47.55199,"lng":-120.56155,"zip":"98821","miles_from_dt":25.98},{"city":"Thorp","state_name":"Washington","lat":47.06515,"lng":-120.76512,"zip":"98946","miles_from_dt":26.95},{"city":"North Bend","state_name":"Washington","lat":47.48276,"lng":-121.65678,"zip":"98045","miles_from_dt":28.28},{"city":"Cashmere","state_name":"Washington","lat":47.52893,"lng":-120.48459,"zip":"98815","miles_from_dt":28.76},{"city":"Leavenworth","state_name":"Washington","lat":47.78772,"lng":-120.85454,"zip":"98826","miles_from_dt":28.77}],"targetCityZipCode":"98940","targetCityState":"Washington"},"__N_SSG":true}