{"pageProps":{"stateName":"Washington","cityName":"twisp","nearbyCities":[{"city":"Carlton","state_name":"Washington","lat":48.21001,"lng":-120.22884,"zip":"98814","miles_from_dt":11.1},{"city":"Winthrop","state_name":"Washington","lat":48.58491,"lng":-120.22792,"zip":"98862","miles_from_dt":14.8},{"city":"Methow","state_name":"Washington","lat":48.11712,"lng":-120.08935,"zip":"98834","miles_from_dt":18.64},{"city":"Stehekin","state_name":"Washington","lat":48.32169,"lng":-120.63881,"zip":"98852","miles_from_dt":19.24},{"city":"Malott","state_name":"Washington","lat":48.31103,"lng":-119.80822,"zip":"98829","miles_from_dt":19.75},{"city":"Conconully","state_name":"Washington","lat":48.59797,"lng":-119.82327,"zip":"98819","miles_from_dt":24.32},{"city":"Chelan","state_name":"Washington","lat":48.0229,"lng":-120.34361,"zip":"98816","miles_from_dt":24.62},{"city":"Brewster","state_name":"Washington","lat":48.13119,"lng":-119.80687,"zip":"98812","miles_from_dt":25.51},{"city":"Pateros","state_name":"Washington","lat":48.03481,"lng":-119.97528,"zip":"98846","miles_from_dt":25.97}],"targetCityZipCode":"98856","targetCityState":"Washington"},"__N_SSG":true}