{"pageProps":{"stateName":"Washington","cityName":"vashon","nearbyCities":[{"city":"Burton","state_name":"Washington","lat":47.38908,"lng":-122.4594,"zip":"98013","miles_from_dt":1.71},{"city":"Olalla","state_name":"Washington","lat":47.43047,"lng":-122.57631,"zip":"98359","miles_from_dt":5.02},{"city":"Seattle","state_name":"Washington","lat":47.45256,"lng":-122.34978,"zip":"98166","miles_from_dt":6.4},{"city":"Seahurst","state_name":"Washington","lat":47.46914,"lng":-122.36002,"zip":"98062","miles_from_dt":6.58},{"city":"Gig Harbor","state_name":"Washington","lat":47.36514,"lng":-122.59858,"zip":"98332","miles_from_dt":6.75},{"city":"Southworth","state_name":"Washington","lat":47.50945,"lng":-122.50156,"zip":"98386","miles_from_dt":6.85},{"city":"Seattle","state_name":"Washington","lat":47.44494,"lng":-122.32587,"zip":"98148","miles_from_dt":7.24},{"city":"Burley","state_name":"Washington","lat":47.41229,"lng":-122.62983,"zip":"98322","miles_from_dt":7.37},{"city":"Seattle","state_name":"Washington","lat":47.39469,"lng":-122.31111,"zip":"98198","miles_from_dt":7.67},{"city":"South Colby","state_name":"Washington","lat":47.51947,"lng":-122.53895,"zip":"98384","miles_from_dt":8.04},{"city":"Seattle","state_name":"Washington","lat":47.50008,"lng":-122.35768,"zip":"98146","miles_from_dt":8.12},{"city":"Seattle","state_name":"Washington","lat":47.45043,"lng":-122.30805,"zip":"98158","miles_from_dt":8.15},{"city":"Tacoma","state_name":"Washington","lat":47.28889,"lng":-122.5111,"zip":"98407","miles_from_dt":8.71},{"city":"Manchester","state_name":"Washington","lat":47.53885,"lng":-122.49294,"zip":"98353","miles_from_dt":8.8},{"city":"Federal Way","state_name":"Washington","lat":47.30881,"lng":-122.36198,"zip":"98023","miles_from_dt":8.83},{"city":"Federal Way","state_name":"Washington","lat":47.30195,"lng":-122.35883,"zip":"98093","miles_from_dt":9.3},{"city":"Seattle","state_name":"Washington","lat":47.46859,"lng":-122.29188,"zip":"98131","miles_from_dt":9.32},{"city":"Tacoma","state_name":"Washington","lat":47.28907,"lng":-122.39123,"zip":"98422","miles_from_dt":9.32},{"city":"Seattle","state_name":"Washington","lat":47.53686,"lng":-122.38992,"zip":"98136","miles_from_dt":9.44},{"city":"Seattle","state_name":"Washington","lat":47.48898,"lng":-122.30175,"zip":"98168","miles_from_dt":9.6},{"city":"Seattle","state_name":"Washington","lat":47.44754,"lng":-122.27398,"zip":"98188","miles_from_dt":9.63},{"city":"Tacoma","state_name":"Washington","lat":47.26581,"lng":-122.45921,"zip":"98403","miles_from_dt":10.13},{"city":"Port Orchard","state_name":"Washington","lat":47.46141,"lng":-122.67662,"zip":"98367","miles_from_dt":10.15},{"city":"Kent","state_name":"Washington","lat":47.3922,"lng":-122.25819,"zip":"98032","miles_from_dt":10.15},{"city":"Port Orchard","state_name":"Washington","lat":47.53732,"lng":-122.58647,"zip":"98366","miles_from_dt":10.16},{"city":"Federal Way","state_name":"Washington","lat":47.30555,"lng":-122.3209,"zip":"98063","miles_from_dt":10.25},{"city":"Tacoma","state_name":"Washington","lat":47.26271,"lng":-122.48196,"zip":"98416","miles_from_dt":10.34},{"city":"Seattle","state_name":"Washington","lat":47.54732,"lng":-122.37454,"zip":"98126","miles_from_dt":10.4},{"city":"Gig Harbor","state_name":"Washington","lat":47.29909,"lng":-122.61911,"zip":"98335","miles_from_dt":10.41},{"city":"Federal Way","state_name":"Washington","lat":47.30596,"lng":-122.31465,"zip":"98003","miles_from_dt":10.43},{"city":"Tacoma","state_name":"Washington","lat":47.26283,"lng":-122.50857,"zip":"98406","miles_from_dt":10.46},{"city":"Seattle","state_name":"Washington","lat":47.50389,"lng":-122.29497,"zip":"98190","miles_from_dt":10.46},{"city":"Seattle","state_name":"Washington","lat":47.54339,"lng":-122.35366,"zip":"98106","miles_from_dt":10.64},{"city":"Seattle","state_name":"Washington","lat":47.47417,"lng":-122.25972,"zip":"98138","miles_from_dt":10.86},{"city":"Tacoma","state_name":"Washington","lat":47.25587,"lng":-122.44165,"zip":"98401","miles_from_dt":10.9},{"city":"Kent","state_name":"Washington","lat":47.3959,"lng":-122.2392,"zip":"98064","miles_from_dt":11},{"city":"Tacoma","state_name":"Washington","lat":47.25251,"lng":-122.47648,"zip":"98471","miles_from_dt":11.03},{"city":"Tacoma","state_name":"Washington","lat":47.25819,"lng":-122.40107,"zip":"98421","miles_from_dt":11.16},{"city":"Wauna","state_name":"Washington","lat":47.36328,"lng":-122.70006,"zip":"98395","miles_from_dt":11.19},{"city":"Tacoma","state_name":"Washington","lat":47.25028,"lng":-122.44876,"zip":"98415","miles_from_dt":11.24},{"city":"Tacoma","state_name":"Washington","lat":47.25021,"lng":-122.44056,"zip":"98402","miles_from_dt":11.29},{"city":"Retsil","state_name":"Washington","lat":47.54489,"lng":-122.618,"zip":"98378","miles_from_dt":11.42},{"city":"Tacoma","state_name":"Washington","lat":47.24599,"lng":-122.47222,"zip":"98405","miles_from_dt":11.48},{"city":"Tacoma","state_name":"Washington","lat":47.24868,"lng":-122.53043,"zip":"98465","miles_from_dt":11.62},{"city":"Seattle","state_name":"Washington","lat":47.54113,"lng":-122.3126,"zip":"98108","miles_from_dt":11.64},{"city":"Seattle","state_name":"Washington","lat":47.57399,"lng":-122.39503,"zip":"98116","miles_from_dt":11.75},{"city":"Auburn","state_name":"Washington","lat":47.30919,"lng":-122.26426,"zip":"98001","miles_from_dt":12.09},{"city":"Gig Harbor","state_name":"Washington","lat":47.37731,"lng":-122.72523,"zip":"98329","miles_from_dt":12.09},{"city":"Seattle","state_name":"Washington","lat":47.49921,"lng":-122.24735,"zip":"98178","miles_from_dt":12.15},{"city":"Renton","state_name":"Washington","lat":47.47188,"lng":-122.21961,"zip":"98057","miles_from_dt":12.55},{"city":"Kent","state_name":"Washington","lat":47.38564,"lng":-122.20189,"zip":"98035","miles_from_dt":12.83},{"city":"Bremerton","state_name":"Washington","lat":47.56345,"lng":-122.63405,"zip":"98337","miles_from_dt":12.9},{"city":"Renton","state_name":"Washington","lat":47.44775,"lng":-122.20205,"zip":"98055","miles_from_dt":12.92},{"city":"Bremerton","state_name":"Washington","lat":47.56243,"lng":-122.63893,"zip":"98314","miles_from_dt":12.98},{"city":"Kent","state_name":"Washington","lat":47.387,"lng":-122.198,"zip":"98089","miles_from_dt":13},{"city":"Seattle","state_name":"Washington","lat":47.57691,"lng":-122.33686,"zip":"98134","miles_from_dt":13.03},{"city":"Tacoma","state_name":"Washington","lat":47.22842,"lng":-122.53479,"zip":"98466","miles_from_dt":13.03},{"city":"Kent","state_name":"Washington","lat":47.4055,"lng":-122.1943,"zip":"98031","miles_from_dt":13.06},{"city":"Tacoma","state_name":"Washington","lat":47.22282,"lng":-122.47211,"zip":"98481","miles_from_dt":13.08},{"city":"Tacoma","state_name":"Washington","lat":47.22325,"lng":-122.44642,"zip":"98418","miles_from_dt":13.11},{"city":"Seattle","state_name":"Washington","lat":47.54235,"lng":-122.26872,"zip":"98118","miles_from_dt":13.12},{"city":"Seattle","state_name":"Washington","lat":47.57722,"lng":-122.33354,"zip":"98124","miles_from_dt":13.13},{"city":"Tacoma","state_name":"Washington","lat":47.221,"lng":-122.474,"zip":"98490","miles_from_dt":13.21},{"city":"Tacoma","state_name":"Washington","lat":47.221,"lng":-122.474,"zip":"98417","miles_from_dt":13.21},{"city":"Tacoma","state_name":"Washington","lat":47.221,"lng":-122.474,"zip":"98448","miles_from_dt":13.21},{"city":"Tacoma","state_name":"Washington","lat":47.221,"lng":-122.474,"zip":"98419","miles_from_dt":13.21},{"city":"Tacoma","state_name":"Washington","lat":47.22545,"lng":-122.53731,"zip":"98464","miles_from_dt":13.25},{"city":"Kent","state_name":"Washington","lat":47.36817,"lng":-122.19749,"zip":"98030","miles_from_dt":13.26},{"city":"Tacoma","state_name":"Washington","lat":47.21956,"lng":-122.47405,"zip":"98411","miles_from_dt":13.31},{"city":"Milton","state_name":"Washington","lat":47.25113,"lng":-122.31557,"zip":"98354","miles_from_dt":13.35},{"city":"Fox Island","state_name":"Washington","lat":47.24771,"lng":-122.62561,"zip":"98333","miles_from_dt":13.44},{"city":"Fife","state_name":"Washington","lat":47.2343,"lng":-122.3523,"zip":"98424","miles_from_dt":13.53},{"city":"Seattle","state_name":"Washington","lat":47.58006,"lng":-122.31255,"zip":"98114","miles_from_dt":13.81},{"city":"Tacoma","state_name":"Washington","lat":47.21084,"lng":-122.48197,"zip":"98409","miles_from_dt":13.92},{"city":"Bremerton","state_name":"Washington","lat":47.58939,"lng":-122.6175,"zip":"98310","miles_from_dt":14},{"city":"Auburn","state_name":"Washington","lat":47.3082,"lng":-122.21567,"zip":"98002","miles_from_dt":14.04},{"city":"Tacoma","state_name":"Washington","lat":47.20848,"lng":-122.48047,"zip":"98413","miles_from_dt":14.08},{"city":"Tacoma","state_name":"Washington","lat":47.20927,"lng":-122.41139,"zip":"98404","miles_from_dt":14.31},{"city":"Seattle","state_name":"Washington","lat":47.599,"lng":-122.334,"zip":"98194","miles_from_dt":14.44},{"city":"Seattle","state_name":"Washington","lat":47.60044,"lng":-122.33004,"zip":"98104","miles_from_dt":14.62},{"city":"Seattle","state_name":"Washington","lat":47.58582,"lng":-122.29205,"zip":"98144","miles_from_dt":14.67},{"city":"Seattle","state_name":"Washington","lat":47.60477,"lng":-122.33528,"zip":"98174","miles_from_dt":14.78},{"city":"University Place","state_name":"Washington","lat":47.2038,"lng":-122.5447,"zip":"98467","miles_from_dt":14.79},{"city":"Seattle","state_name":"Washington","lat":47.60356,"lng":-122.32944,"zip":"98175","miles_from_dt":14.82},{"city":"Seattle","state_name":"Washington","lat":47.60356,"lng":-122.32944,"zip":"98165","miles_from_dt":14.82},{"city":"Tacoma","state_name":"Washington","lat":47.19811,"lng":-122.44638,"zip":"98408","miles_from_dt":14.84},{"city":"Pacific","state_name":"Washington","lat":47.26079,"lng":-122.24822,"zip":"98047","miles_from_dt":14.85},{"city":"Seattle","state_name":"Washington","lat":47.60621,"lng":-122.33379,"zip":"98154","miles_from_dt":14.9},{"city":"Seattle","state_name":"Washington","lat":47.60596,"lng":-122.33203,"zip":"98164","miles_from_dt":14.92},{"city":"Seattle","state_name":"Washington","lat":47.60639,"lng":-122.33083,"zip":"98127","miles_from_dt":14.97},{"city":"Renton","state_name":"Washington","lat":47.51281,"lng":-122.18923,"zip":"98056","miles_from_dt":14.99},{"city":"Tacoma","state_name":"Washington","lat":47.20522,"lng":-122.37592,"zip":"98443","miles_from_dt":15},{"city":"Seattle","state_name":"Washington","lat":47.609,"lng":-122.337,"zip":"98141","miles_from_dt":15},{"city":"Seattle","state_name":"Washington","lat":47.61073,"lng":-122.3414,"zip":"98181","miles_from_dt":15.03},{"city":"Seattle","state_name":"Washington","lat":47.60955,"lng":-122.33761,"zip":"98161","miles_from_dt":15.03},{"city":"Seattle","state_name":"Washington","lat":47.61,"lng":-122.339,"zip":"98170","miles_from_dt":15.03},{"city":"Seattle","state_name":"Washington","lat":47.61024,"lng":-122.3347,"zip":"98111","miles_from_dt":15.13},{"city":"Seattle","state_name":"Washington","lat":47.61119,"lng":-122.33454,"zip":"98101","miles_from_dt":15.19},{"city":"Seattle","state_name":"Washington","lat":47.61548,"lng":-122.34668,"zip":"98121","miles_from_dt":15.23},{"city":"Seattle","state_name":"Washington","lat":47.61361,"lng":-122.33502,"zip":"98191","miles_from_dt":15.33},{"city":"Seattle","state_name":"Washington","lat":47.61511,"lng":-122.33819,"zip":"98129","miles_from_dt":15.37},{"city":"Mercer Island","state_name":"Washington","lat":47.56611,"lng":-122.232,"zip":"98040","miles_from_dt":15.49},{"city":"Vaughn","state_name":"Washington","lat":47.32011,"lng":-122.77791,"zip":"98394","miles_from_dt":15.68},{"city":"Seattle","state_name":"Washington","lat":47.60985,"lng":-122.29569,"zip":"98122","miles_from_dt":15.97},{"city":"Seattle","state_name":"Washington","lat":47.64,"lng":-122.398,"zip":"98139","miles_from_dt":16.12},{"city":"Seattle","state_name":"Washington","lat":47.63128,"lng":-122.34486,"zip":"98109","miles_from_dt":16.27},{"city":"Puyallup","state_name":"Washington","lat":47.19957,"lng":-122.32191,"zip":"98371","miles_from_dt":16.31},{"city":"Bainbridge Island","state_name":"Washington","lat":47.64389,"lng":-122.54335,"zip":"98110","miles_from_dt":16.35},{"city":"Renton","state_name":"Washington","lat":47.44082,"lng":-122.12503,"zip":"98058","miles_from_dt":16.41},{"city":"Seattle","state_name":"Washington","lat":47.63943,"lng":-122.36932,"zip":"98119","miles_from_dt":16.43},{"city":"Tacoma","state_name":"Washington","lat":47.17453,"lng":-122.44152,"zip":"98412","miles_from_dt":16.48},{"city":"Lakewood","state_name":"Washington","lat":47.17794,"lng":-122.54722,"zip":"98497","miles_from_dt":16.56},{"city":"Tracyton","state_name":"Washington","lat":47.62011,"lng":-122.65127,"zip":"98393","miles_from_dt":16.62},{"city":"Bremerton","state_name":"Washington","lat":47.62829,"lng":-122.63793,"zip":"98311","miles_from_dt":16.82},{"city":"Seattle","state_name":"Washington","lat":47.65139,"lng":-122.40223,"zip":"98199","miles_from_dt":16.85},{"city":"Rollingbay","state_name":"Washington","lat":47.65218,"lng":-122.54899,"zip":"98061","miles_from_dt":16.96},{"city":"Bremerton","state_name":"Washington","lat":47.56435,"lng":-122.75706,"zip":"98312","miles_from_dt":16.97},{"city":"Seattle","state_name":"Washington","lat":47.63627,"lng":-122.32337,"zip":"98102","miles_from_dt":16.98},{"city":"Lakewood","state_name":"Washington","lat":47.167,"lng":-122.509,"zip":"98496","miles_from_dt":17.02},{"city":"Kent","state_name":"Washington","lat":47.36508,"lng":-122.11623,"zip":"98042","miles_from_dt":17.03},{"city":"Lakewood","state_name":"Washington","lat":47.16662,"lng":-122.50624,"zip":"98499","miles_from_dt":17.04},{"city":"Puyallup","state_name":"Washington","lat":47.2064,"lng":-122.26689,"zip":"98372","miles_from_dt":17.19},{"city":"Steilacoom","state_name":"Washington","lat":47.19892,"lng":-122.66268,"zip":"98388","miles_from_dt":17.23},{"city":"Renton","state_name":"Washington","lat":47.49563,"lng":-122.12474,"zip":"98059","miles_from_dt":17.29},{"city":"Lakebay","state_name":"Washington","lat":47.26583,"lng":-122.77366,"zip":"98349","miles_from_dt":17.38},{"city":"Seattle","state_name":"Washington","lat":47.63242,"lng":-122.28732,"zip":"98112","miles_from_dt":17.51},{"city":"Allyn","state_name":"Washington","lat":47.36703,"lng":-122.84548,"zip":"98524","miles_from_dt":17.77},{"city":"Lakewood","state_name":"Washington","lat":47.16001,"lng":-122.55971,"zip":"98498","miles_from_dt":17.9},{"city":"Sumner","state_name":"Washington","lat":47.21195,"lng":-122.22894,"zip":"98390","miles_from_dt":17.96},{"city":"Tacoma","state_name":"Washington","lat":47.15228,"lng":-122.44887,"zip":"98444","miles_from_dt":17.99},{"city":"Auburn","state_name":"Washington","lat":47.28851,"lng":-122.13123,"zip":"98092","miles_from_dt":18.16},{"city":"Bellevue","state_name":"Washington","lat":47.55772,"lng":-122.14957,"zip":"98006","miles_from_dt":18.16},{"city":"Seattle","state_name":"Washington","lat":47.66757,"lng":-122.37789,"zip":"98107","miles_from_dt":18.19},{"city":"Seattle","state_name":"Washington","lat":47.65466,"lng":-122.30752,"zip":"98195","miles_from_dt":18.45},{"city":"Tacoma","state_name":"Washington","lat":47.14531,"lng":-122.44392,"zip":"98447","miles_from_dt":18.49},{"city":"Seattle","state_name":"Washington","lat":47.65861,"lng":-122.31248,"zip":"98145","miles_from_dt":18.6},{"city":"Medina","state_name":"Washington","lat":47.63308,"lng":-122.23963,"zip":"98039","miles_from_dt":18.75},{"city":"Bellevue","state_name":"Washington","lat":47.61865,"lng":-122.20548,"zip":"98004","miles_from_dt":18.97},{"city":"Seattle","state_name":"Washington","lat":47.6732,"lng":-122.34258,"zip":"98103","miles_from_dt":19.03},{"city":"Bellevue","state_name":"Washington","lat":47.61802,"lng":-122.20183,"zip":"98009","miles_from_dt":19.05},{"city":"Tacoma","state_name":"Washington","lat":47.13985,"lng":-122.40965,"zip":"98445","miles_from_dt":19.05},{"city":"Bellevue","state_name":"Washington","lat":47.62002,"lng":-122.20499,"zip":"98015","miles_from_dt":19.05},{"city":"Seattle","state_name":"Washington","lat":47.67513,"lng":-122.34416,"zip":"98113","miles_from_dt":19.13},{"city":"Mcchord Afb","state_name":"Washington","lat":47.13514,"lng":-122.49211,"zip":"98438","miles_from_dt":19.16},{"city":"Seattle","state_name":"Washington","lat":47.66094,"lng":-122.28321,"zip":"98105","miles_from_dt":19.33},{"city":"Lakewood","state_name":"Washington","lat":47.13164,"lng":-122.49603,"zip":"98439","miles_from_dt":19.41},{"city":"Seattle","state_name":"Washington","lat":47.66528,"lng":-122.29198,"zip":"98185","miles_from_dt":19.42},{"city":"Seattle","state_name":"Washington","lat":47.6882,"lng":-122.38157,"zip":"98117","miles_from_dt":19.54},{"city":"Puyallup","state_name":"Washington","lat":47.14761,"lng":-122.32506,"zip":"98373","miles_from_dt":19.55},{"city":"Bellevue","state_name":"Washington","lat":47.61494,"lng":-122.16814,"zip":"98005","miles_from_dt":19.98},{"city":"Belfair","state_name":"Washington","lat":47.44605,"lng":-122.89618,"zip":"98528","miles_from_dt":19.99},{"city":"Longbranch","state_name":"Washington","lat":47.20353,"lng":-122.76773,"zip":"98351","miles_from_dt":20},{"city":"Tacoma","state_name":"Washington","lat":47.12935,"lng":-122.37424,"zip":"98446","miles_from_dt":20.08},{"city":"Auburn","state_name":"Washington","lat":47.24877,"lng":-122.11685,"zip":"98071","miles_from_dt":20.16},{"city":"Sumner","state_name":"Washington","lat":47.16432,"lng":-122.24237,"zip":"98352","miles_from_dt":20.26},{"city":"Anderson Island","state_name":"Washington","lat":47.15783,"lng":-122.70387,"zip":"98303","miles_from_dt":20.66},{"city":"Silverdale","state_name":"Washington","lat":47.66212,"lng":-122.71652,"zip":"98383","miles_from_dt":20.7},{"city":"Bellevue","state_name":"Washington","lat":47.61392,"lng":-122.14378,"zip":"98007","miles_from_dt":20.76},{"city":"Seattle","state_name":"Washington","lat":47.68547,"lng":-122.28234,"zip":"98115","miles_from_dt":20.87},{"city":"Camp Murray","state_name":"Washington","lat":47.11733,"lng":-122.56896,"zip":"98430","miles_from_dt":20.87},{"city":"Keyport","state_name":"Washington","lat":47.69972,"lng":-122.62366,"zip":"98345","miles_from_dt":21.08},{"city":"Bonney Lake","state_name":"Washington","lat":47.17654,"lng":-122.17362,"zip":"98391","miles_from_dt":21.5},{"city":"Bellevue","state_name":"Washington","lat":47.60551,"lng":-122.11219,"zip":"98008","miles_from_dt":21.52},{"city":"Puyallup","state_name":"Washington","lat":47.12904,"lng":-122.26156,"zip":"98374","miles_from_dt":21.93},{"city":"Grapeview","state_name":"Washington","lat":47.32439,"lng":-122.92362,"zip":"98546","miles_from_dt":22.02},{"city":"Puyallup","state_name":"Washington","lat":47.10394,"lng":-122.32383,"zip":"98375","miles_from_dt":22.41},{"city":"Kirkland","state_name":"Washington","lat":47.67616,"lng":-122.19267,"zip":"98033","miles_from_dt":22.45},{"city":"Seattle","state_name":"Washington","lat":47.71706,"lng":-122.29969,"zip":"98125","miles_from_dt":22.56},{"city":"Suquamish","state_name":"Washington","lat":47.73425,"lng":-122.5631,"zip":"98392","miles_from_dt":22.65},{"city":"Kirkland","state_name":"Washington","lat":47.68257,"lng":-122.19107,"zip":"98083","miles_from_dt":22.85},{"city":"Issaquah","state_name":"Washington","lat":47.50387,"lng":-122.00176,"zip":"98027","miles_from_dt":22.95},{"city":"Seabeck","state_name":"Washington","lat":47.5743,"lng":-122.90287,"zip":"98380","miles_from_dt":23.05},{"city":"Tacoma","state_name":"Washington","lat":47.09121,"lng":-122.60772,"zip":"98433","miles_from_dt":23.07},{"city":"Black Diamond","state_name":"Washington","lat":47.31173,"lng":-122.00326,"zip":"98010","miles_from_dt":23.1},{"city":"Dupont","state_name":"Washington","lat":47.10203,"lng":-122.66061,"zip":"98327","miles_from_dt":23.18},{"city":"Seattle","state_name":"Washington","lat":47.74237,"lng":-122.37085,"zip":"98177","miles_from_dt":23.3},{"city":"Seattle","state_name":"Washington","lat":47.7399,"lng":-122.34432,"zip":"98133","miles_from_dt":23.42},{"city":"Sammamish","state_name":"Washington","lat":47.58683,"lng":-122.03796,"zip":"98075","miles_from_dt":23.66},{"city":"Indianola","state_name":"Washington","lat":47.75475,"lng":-122.51952,"zip":"98342","miles_from_dt":23.77},{"city":"Issaquah","state_name":"Washington","lat":47.5576,"lng":-122.0091,"zip":"98029","miles_from_dt":23.92},{"city":"Maple Valley","state_name":"Washington","lat":47.41861,"lng":-121.95589,"zip":"98038","miles_from_dt":24.23},{"city":"Kirkland","state_name":"Washington","lat":47.71612,"lng":-122.21332,"zip":"98034","miles_from_dt":24.25},{"city":"Silverdale","state_name":"Washington","lat":47.72263,"lng":-122.71444,"zip":"98315","miles_from_dt":24.25},{"city":"Hobart","state_name":"Washington","lat":47.43441,"lng":-121.9524,"zip":"98025","miles_from_dt":24.44},{"city":"Poulsbo","state_name":"Washington","lat":47.75114,"lng":-122.62373,"zip":"98370","miles_from_dt":24.46},{"city":"Sammamish","state_name":"Washington","lat":47.62206,"lng":-122.04437,"zip":"98074","miles_from_dt":24.74},{"city":"Redmond","state_name":"Washington","lat":47.67656,"lng":-122.11487,"zip":"98073","miles_from_dt":24.77},{"city":"Redmond","state_name":"Washington","lat":47.68148,"lng":-122.1203,"zip":"98052","miles_from_dt":24.85},{"city":"Spanaway","state_name":"Washington","lat":47.0562,"lng":-122.39111,"zip":"98387","miles_from_dt":24.89},{"city":"Tacoma","state_name":"Washington","lat":47.05551,"lng":-122.55208,"zip":"98431","miles_from_dt":24.92},{"city":"Tacoma","state_name":"Washington","lat":47.05336,"lng":-122.55124,"zip":"98493","miles_from_dt":25.06},{"city":"Seattle","state_name":"Washington","lat":47.75609,"lng":-122.30039,"zip":"98155","miles_from_dt":25.08},{"city":"Seattle","state_name":"Washington","lat":47.77112,"lng":-122.38237,"zip":"98160","miles_from_dt":25.15},{"city":"Kenmore","state_name":"Washington","lat":47.75162,"lng":-122.24892,"zip":"98028","miles_from_dt":25.67},{"city":"Tahuya","state_name":"Washington","lat":47.43555,"lng":-123.02261,"zip":"98588","miles_from_dt":25.84},{"city":"South Prairie","state_name":"Washington","lat":47.13791,"lng":-122.09469,"zip":"98385","miles_from_dt":25.98},{"city":"Buckley","state_name":"Washington","lat":47.15564,"lng":-122.06576,"zip":"98321","miles_from_dt":26.07},{"city":"Olympia","state_name":"Washington","lat":47.09647,"lng":-122.78265,"zip":"98516","miles_from_dt":26.24},{"city":"Bothell","state_name":"Washington","lat":47.75402,"lng":-122.21613,"zip":"98041","miles_from_dt":26.48},{"city":"Preston","state_name":"Washington","lat":47.54764,"lng":-121.93663,"zip":"98050","miles_from_dt":26.79},{"city":"Bothell","state_name":"Washington","lat":47.75736,"lng":-122.19871,"zip":"98011","miles_from_dt":27.07},{"city":"Edmonds","state_name":"Washington","lat":47.80015,"lng":-122.37267,"zip":"98020","miles_from_dt":27.21},{"city":"Mountlake Terrace","state_name":"Washington","lat":47.7921,"lng":-122.30758,"zip":"98043","miles_from_dt":27.36},{"city":"Redmond","state_name":"Washington","lat":47.66491,"lng":-122.02071,"zip":"98053","miles_from_dt":27.42},{"city":"Ravensdale","state_name":"Washington","lat":47.3396,"lng":-121.89049,"zip":"98051","miles_from_dt":27.77},{"city":"Kingston","state_name":"Washington","lat":47.82005,"lng":-122.53399,"zip":"98346","miles_from_dt":28.32},{"city":"Olympia","state_name":"Washington","lat":47.10286,"lng":-122.87307,"zip":"98506","miles_from_dt":28.48},{"city":"Graham","state_name":"Washington","lat":47.01927,"lng":-122.28347,"zip":"98338","miles_from_dt":28.57},{"city":"Woodinville","state_name":"Washington","lat":47.76151,"lng":-122.13153,"zip":"98072","miles_from_dt":28.92},{"city":"Fall City","state_name":"Washington","lat":47.57301,"lng":-121.90219,"zip":"98024","miles_from_dt":28.93},{"city":"Lynnwood","state_name":"Washington","lat":47.81094,"lng":-122.28155,"zip":"98036","miles_from_dt":28.96},{"city":"Bothell","state_name":"Washington","lat":47.79257,"lng":-122.20846,"zip":"98021","miles_from_dt":29.03},{"city":"Union","state_name":"Washington","lat":47.32895,"lng":-123.07907,"zip":"98592","miles_from_dt":29.04},{"city":"Roy","state_name":"Washington","lat":46.9918,"lng":-122.50101,"zip":"98580","miles_from_dt":29.07},{"city":"Lilliwaup","state_name":"Washington","lat":47.54634,"lng":-123.06369,"zip":"98555","miles_from_dt":29.19},{"city":"Lynnwood","state_name":"Washington","lat":47.83017,"lng":-122.30401,"zip":"98046","miles_from_dt":29.93},{"city":"Edmonds","state_name":"Washington","lat":47.83555,"lng":-122.3316,"zip":"98026","miles_from_dt":29.98}],"targetCityZipCode":"98070","targetCityState":"Washington"},"__N_SSG":true}