{"pageProps":{"stateName":"Washington","cityName":"wilson-creek","nearbyCities":[{"city":"Stratford","state_name":"Washington","lat":47.44655,"lng":-119.28061,"zip":"98853","miles_from_dt":7.5},{"city":"Marlin","state_name":"Washington","lat":47.34669,"lng":-119.02033,"zip":"98832","miles_from_dt":9.75},{"city":"Hartline","state_name":"Washington","lat":47.65658,"lng":-119.09608,"zip":"99135","miles_from_dt":13.02},{"city":"Soap Lake","state_name":"Washington","lat":47.42002,"lng":-119.43462,"zip":"98851","miles_from_dt":14.95},{"city":"Coulee City","state_name":"Washington","lat":47.67326,"lng":-119.38965,"zip":"99115","miles_from_dt":18.8},{"city":"Almira","state_name":"Washington","lat":47.73041,"lng":-118.93171,"zip":"99103","miles_from_dt":20.17},{"city":"Odessa","state_name":"Washington","lat":47.32872,"lng":-118.74338,"zip":"99159","miles_from_dt":20.31},{"city":"Moses Lake","state_name":"Washington","lat":47.14809,"lng":-119.3163,"zip":"98837","miles_from_dt":23.94},{"city":"Ephrata","state_name":"Washington","lat":47.33853,"lng":-119.63536,"zip":"98823","miles_from_dt":25.63},{"city":"Wilbur","state_name":"Washington","lat":47.74014,"lng":-118.71697,"zip":"99185","miles_from_dt":26.69},{"city":"Electric City","state_name":"Washington","lat":47.89738,"lng":-119.04017,"zip":"99123","miles_from_dt":29.85}],"targetCityZipCode":"98860","targetCityState":"Washington"},"__N_SSG":true}