{"pageProps":{"stateName":"Massachusetts","cityName":"monterey","nearbyCities":[{"city":"Tyringham","state_name":"Massachusetts","lat":42.23997,"lng":-73.19686,"zip":"01264","miles_from_dt":3.55},{"city":"Otis","state_name":"Massachusetts","lat":42.20751,"lng":-73.1118,"zip":"01253","miles_from_dt":5.47},{"city":"South Lee","state_name":"Massachusetts","lat":42.26663,"lng":-73.2712,"zip":"01260","miles_from_dt":5.98},{"city":"Mill River","state_name":"Massachusetts","lat":42.10924,"lng":-73.27475,"zip":"01244","miles_from_dt":6.37},{"city":"Great Barrington","state_name":"Massachusetts","lat":42.18197,"lng":-73.34244,"zip":"01230","miles_from_dt":6.53},{"city":"Sandisfield","state_name":"Massachusetts","lat":42.1068,"lng":-73.12213,"zip":"01255","miles_from_dt":7.51},{"city":"Lee","state_name":"Massachusetts","lat":42.30072,"lng":-73.22553,"zip":"01238","miles_from_dt":7.63},{"city":"Southfield","state_name":"Massachusetts","lat":42.07316,"lng":-73.23282,"zip":"01259","miles_from_dt":8.14},{"city":"East Otis","state_name":"Massachusetts","lat":42.19402,"lng":-73.05067,"zip":"01029","miles_from_dt":8.48},{"city":"Stockbridge","state_name":"Massachusetts","lat":42.28901,"lng":-73.31953,"zip":"01263","miles_from_dt":8.64},{"city":"Stockbridge","state_name":"Massachusetts","lat":42.30433,"lng":-73.32013,"zip":"01262","miles_from_dt":9.51},{"city":"Glendale","state_name":"Massachusetts","lat":42.29411,"lng":-73.35227,"zip":"01229","miles_from_dt":10.01},{"city":"Lenox Dale","state_name":"Massachusetts","lat":42.3334,"lng":-73.24967,"zip":"01242","miles_from_dt":10.02},{"city":"Housatonic","state_name":"Massachusetts","lat":42.26923,"lng":-73.37999,"zip":"01236","miles_from_dt":10.03},{"city":"Becket","state_name":"Massachusetts","lat":42.31118,"lng":-73.09835,"zip":"01223","miles_from_dt":10.28},{"city":"Sheffield","state_name":"Massachusetts","lat":42.0976,"lng":-73.37241,"zip":"01257","miles_from_dt":10.28},{"city":"Ashley Falls","state_name":"Massachusetts","lat":42.06242,"lng":-73.32146,"zip":"01222","miles_from_dt":10.37},{"city":"North Egremont","state_name":"Massachusetts","lat":42.1967,"lng":-73.43628,"zip":"01252","miles_from_dt":11.32},{"city":"Canaan","state_name":"Connecticut","lat":42.02872,"lng":-73.29807,"zip":"06018","miles_from_dt":11.94},{"city":"West Stockbridge","state_name":"Massachusetts","lat":42.30264,"lng":-73.39846,"zip":"01266","miles_from_dt":12.15},{"city":"Lenox","state_name":"Massachusetts","lat":42.37567,"lng":-73.26466,"zip":"01240","miles_from_dt":13.03},{"city":"East Canaan","state_name":"Connecticut","lat":42.00812,"lng":-73.28374,"zip":"06024","miles_from_dt":13.06},{"city":"Blandford","state_name":"Massachusetts","lat":42.18234,"lng":-72.95819,"zip":"01008","miles_from_dt":13.23},{"city":"Taconic","state_name":"Connecticut","lat":42.04174,"lng":-73.39755,"zip":"06079","miles_from_dt":13.88},{"city":"Middlefield","state_name":"Massachusetts","lat":42.34752,"lng":-73.03467,"zip":"01243","miles_from_dt":14.27},{"city":"South Egremont","state_name":"Massachusetts","lat":42.09396,"lng":-73.46616,"zip":"01258","miles_from_dt":14.48},{"city":"Colebrook","state_name":"Connecticut","lat":42.00152,"lng":-73.08078,"zip":"06021","miles_from_dt":14.77},{"city":"Chester","state_name":"Massachusetts","lat":42.30233,"lng":-72.96448,"zip":"01011","miles_from_dt":15.02},{"city":"Austerlitz","state_name":"New York","lat":42.31453,"lng":-73.45682,"zip":"12017","miles_from_dt":15.04},{"city":"Norfolk","state_name":"Connecticut","lat":41.97186,"lng":-73.1958,"zip":"06058","miles_from_dt":15.12},{"city":"Richmond","state_name":"Massachusetts","lat":42.37972,"lng":-73.36608,"zip":"01254","miles_from_dt":15.17},{"city":"Granville","state_name":"Massachusetts","lat":42.0826,"lng":-72.95611,"zip":"01034","miles_from_dt":15.28},{"city":"Copake Falls","state_name":"New York","lat":42.13392,"lng":-73.51103,"zip":"12517","miles_from_dt":15.65},{"city":"Salisbury","state_name":"Connecticut","lat":42.01404,"lng":-73.42121,"zip":"06068","miles_from_dt":16.11},{"city":"Hillsdale","state_name":"New York","lat":42.21335,"lng":-73.53802,"zip":"12529","miles_from_dt":16.61},{"city":"Falls Village","state_name":"Connecticut","lat":41.95788,"lng":-73.31733,"zip":"06031","miles_from_dt":16.88},{"city":"Spencertown","state_name":"New York","lat":42.31518,"lng":-73.50756,"zip":"12165","miles_from_dt":17.26},{"city":"West Hartland","state_name":"Connecticut","lat":42.01419,"lng":-72.97423,"zip":"06091","miles_from_dt":17.38},{"city":"Hinsdale","state_name":"Massachusetts","lat":42.43181,"lng":-73.07336,"zip":"01235","miles_from_dt":18.19},{"city":"Canaan","state_name":"New York","lat":42.40397,"lng":-73.42466,"zip":"12029","miles_from_dt":18.21},{"city":"Copake","state_name":"New York","lat":42.10722,"lng":-73.55343,"zip":"12516","miles_from_dt":18.27},{"city":"Pittsfield","state_name":"Massachusetts","lat":42.45319,"lng":-73.26278,"zip":"01203","miles_from_dt":18.3},{"city":"Riverton","state_name":"Connecticut","lat":41.97795,"lng":-73.00054,"zip":"06065","miles_from_dt":18.37},{"city":"Russell","state_name":"Massachusetts","lat":42.16029,"lng":-72.8598,"zip":"01071","miles_from_dt":18.39},{"city":"Pittsfield","state_name":"Massachusetts","lat":42.45614,"lng":-73.28114,"zip":"01201","miles_from_dt":18.64},{"city":"Huntington","state_name":"Massachusetts","lat":42.29092,"lng":-72.87526,"zip":"01050","miles_from_dt":18.79},{"city":"Pittsfield","state_name":"Massachusetts","lat":42.45789,"lng":-73.32205,"zip":"01202","miles_from_dt":19.25},{"city":"Winsted","state_name":"Connecticut","lat":41.92379,"lng":-73.10003,"zip":"06098","miles_from_dt":19.34},{"city":"Dalton","state_name":"Massachusetts","lat":42.4724,"lng":-73.16202,"zip":"01227","miles_from_dt":19.66},{"city":"Woronoco","state_name":"Massachusetts","lat":42.17722,"lng":-72.83175,"zip":"01097","miles_from_dt":19.73},{"city":"Worthington","state_name":"Massachusetts","lat":42.39551,"lng":-72.94315,"zip":"01098","miles_from_dt":19.89},{"city":"Chatham","state_name":"New York","lat":42.33506,"lng":-73.55714,"zip":"12037","miles_from_dt":20.15},{"city":"Dalton","state_name":"Massachusetts","lat":42.47954,"lng":-73.15329,"zip":"01226","miles_from_dt":20.21},{"city":"East Hartland","state_name":"Connecticut","lat":42.00403,"lng":-72.91112,"zip":"06027","miles_from_dt":20.27},{"city":"Winchester Center","state_name":"Connecticut","lat":41.90188,"lng":-73.1423,"zip":"06094","miles_from_dt":20.27},{"city":"Lakeville","state_name":"Connecticut","lat":41.95001,"lng":-73.44379,"zip":"06039","miles_from_dt":20.32},{"city":"East Chatham","state_name":"New York","lat":42.41325,"lng":-73.49284,"zip":"12060","miles_from_dt":20.93},{"city":"Ancramdale","state_name":"New York","lat":42.03615,"lng":-73.58139,"zip":"12503","miles_from_dt":21.6},{"city":"West Chesterfield","state_name":"Massachusetts","lat":42.38589,"lng":-72.88165,"zip":"01084","miles_from_dt":21.8},{"city":"Berkshire","state_name":"Massachusetts","lat":42.50622,"lng":-73.19841,"zip":"01224","miles_from_dt":21.81},{"city":"Barkhamsted","state_name":"Connecticut","lat":41.93053,"lng":-72.97096,"zip":"06063","miles_from_dt":21.92},{"city":"New Lebanon","state_name":"New York","lat":42.47633,"lng":-73.40394,"zip":"12125","miles_from_dt":21.96},{"city":"Philmont","state_name":"New York","lat":42.24849,"lng":-73.64584,"zip":"12565","miles_from_dt":22.42},{"city":"Craryville","state_name":"New York","lat":42.17071,"lng":-73.65164,"zip":"12521","miles_from_dt":22.42},{"city":"Millerton","state_name":"New York","lat":41.96627,"lng":-73.53313,"zip":"12546","miles_from_dt":22.49},{"city":"West Cornwall","state_name":"Connecticut","lat":41.87595,"lng":-73.33255,"zip":"06796","miles_from_dt":22.52},{"city":"North Granby","state_name":"Connecticut","lat":42.00687,"lng":-72.84594,"zip":"06060","miles_from_dt":22.85},{"city":"Westfield","state_name":"Massachusetts","lat":42.15375,"lng":-72.76961,"zip":"01085","miles_from_dt":23.05},{"city":"Ghent","state_name":"New York","lat":42.30145,"lng":-73.64046,"zip":"12075","miles_from_dt":23.09},{"city":"Chesterfield","state_name":"Massachusetts","lat":42.38495,"lng":-72.84675,"zip":"01012","miles_from_dt":23.19},{"city":"West Lebanon","state_name":"New York","lat":42.47876,"lng":-73.46505,"zip":"12195","miles_from_dt":23.64},{"city":"Ancram","state_name":"New York","lat":42.08324,"lng":-73.65409,"zip":"12502","miles_from_dt":23.7},{"city":"Mellenville","state_name":"New York","lat":42.26129,"lng":-73.66822,"zip":"12544","miles_from_dt":23.72},{"city":"Goshen","state_name":"Connecticut","lat":41.84714,"lng":-73.23715,"zip":"06756","miles_from_dt":23.72},{"city":"Windsor","state_name":"Massachusetts","lat":42.51297,"lng":-73.04859,"zip":"01270","miles_from_dt":23.85},{"city":"Westfield","state_name":"Massachusetts","lat":42.14018,"lng":-72.75607,"zip":"01086","miles_from_dt":23.86},{"city":"Hollowville","state_name":"New York","lat":42.20692,"lng":-73.68413,"zip":"12530","miles_from_dt":24.06},{"city":"Old Chatham","state_name":"New York","lat":42.43249,"lng":-73.56016,"zip":"12136","miles_from_dt":24.3},{"city":"Southwick","state_name":"Massachusetts","lat":42.05441,"lng":-72.77851,"zip":"01077","miles_from_dt":24.35},{"city":"Cummington","state_name":"Massachusetts","lat":42.46858,"lng":-72.92296,"zip":"01026","miles_from_dt":24.36},{"city":"Southampton","state_name":"Massachusetts","lat":42.23084,"lng":-72.73856,"zip":"01073","miles_from_dt":24.65},{"city":"West Granby","state_name":"Connecticut","lat":41.94685,"lng":-72.86403,"zip":"06090","miles_from_dt":24.7},{"city":"Torrington","state_name":"Connecticut","lat":41.83747,"lng":-73.12874,"zip":"06790","miles_from_dt":24.77},{"city":"Lanesborough","state_name":"Massachusetts","lat":42.5529,"lng":-73.25373,"zip":"01237","miles_from_dt":25.09},{"city":"Pine Meadow","state_name":"Connecticut","lat":41.87524,"lng":-72.96716,"zip":"06061","miles_from_dt":25.24},{"city":"Easthampton","state_name":"Massachusetts","lat":42.29506,"lng":-72.74303,"zip":"01027","miles_from_dt":25.3},{"city":"Claverack","state_name":"New York","lat":42.21661,"lng":-73.71639,"zip":"12513","miles_from_dt":25.75},{"city":"Brainard","state_name":"New York","lat":42.48134,"lng":-73.53419,"zip":"12024","miles_from_dt":25.87},{"city":"Cheshire","state_name":"Massachusetts","lat":42.56385,"lng":-73.1512,"zip":"01225","miles_from_dt":25.99},{"city":"Sharon","state_name":"Connecticut","lat":41.85392,"lng":-73.4448,"zip":"06069","miles_from_dt":26.04},{"city":"Cornwall","state_name":"Connecticut","lat":41.82514,"lng":-73.34471,"zip":"06753","miles_from_dt":26.07},{"city":"New Hartford","state_name":"Connecticut","lat":41.84417,"lng":-73.00552,"zip":"06057","miles_from_dt":26.23},{"city":"Granby","state_name":"Connecticut","lat":41.9608,"lng":-72.80179,"zip":"06035","miles_from_dt":26.54},{"city":"Pine Plains","state_name":"New York","lat":41.98206,"lng":-73.65211,"zip":"12567","miles_from_dt":26.65},{"city":"North Canton","state_name":"Connecticut","lat":41.89054,"lng":-72.88833,"zip":"06059","miles_from_dt":26.69},{"city":"Collinsville","state_name":"Connecticut","lat":41.86595,"lng":-72.92749,"zip":"06022","miles_from_dt":26.86},{"city":"Stephentown","state_name":"New York","lat":42.5614,"lng":-73.3751,"zip":"12168","miles_from_dt":26.87},{"city":"Plainfield","state_name":"Massachusetts","lat":42.51958,"lng":-72.92504,"zip":"01070","miles_from_dt":27.16},{"city":"Malden Bridge","state_name":"New York","lat":42.46747,"lng":-73.59338,"zip":"12115","miles_from_dt":27.2},{"city":"Goshen","state_name":"Massachusetts","lat":42.45313,"lng":-72.81965,"zip":"01032","miles_from_dt":27.21},{"city":"Williamsburg","state_name":"Massachusetts","lat":42.40968,"lng":-72.77213,"zip":"01096","miles_from_dt":27.31},{"city":"East Nassau","state_name":"New York","lat":42.52871,"lng":-73.501,"zip":"12062","miles_from_dt":27.54},{"city":"Canton Center","state_name":"Connecticut","lat":41.86283,"lng":-72.90991,"zip":"06020","miles_from_dt":27.55},{"city":"Valatie","state_name":"New York","lat":42.42272,"lng":-73.65387,"zip":"12184","miles_from_dt":27.58},{"city":"Stottville","state_name":"New York","lat":42.28915,"lng":-73.73895,"zip":"12172","miles_from_dt":27.68},{"city":"Hudson","state_name":"New York","lat":42.22434,"lng":-73.75427,"zip":"12534","miles_from_dt":27.73},{"city":"Canton","state_name":"Connecticut","lat":41.8592,"lng":-72.90717,"zip":"06019","miles_from_dt":27.84},{"city":"Leeds","state_name":"Massachusetts","lat":42.35205,"lng":-72.71032,"zip":"01053","miles_from_dt":28.21},{"city":"Florence","state_name":"Massachusetts","lat":42.32146,"lng":-72.69244,"zip":"01062","miles_from_dt":28.32},{"city":"West Suffield","state_name":"Connecticut","lat":42.00265,"lng":-72.72285,"zip":"06093","miles_from_dt":28.46},{"city":"Northampton","state_name":"Massachusetts","lat":42.32334,"lng":-72.69035,"zip":"01061","miles_from_dt":28.46},{"city":"Elizaville","state_name":"New York","lat":42.08627,"lng":-73.75311,"zip":"12523","miles_from_dt":28.52},{"city":"West Simsbury","state_name":"Connecticut","lat":41.87266,"lng":-72.86101,"zip":"06092","miles_from_dt":28.54},{"city":"Niverville","state_name":"New York","lat":42.44156,"lng":-73.65835,"zip":"12130","miles_from_dt":28.54},{"city":"Stuyvesant Falls","state_name":"New York","lat":42.35314,"lng":-73.72802,"zip":"12174","miles_from_dt":28.56},{"city":"Columbiaville","state_name":"New York","lat":42.31504,"lng":-73.74881,"zip":"12050","miles_from_dt":28.65},{"city":"Feeding Hills","state_name":"Massachusetts","lat":42.06869,"lng":-72.67967,"zip":"01030","miles_from_dt":28.8},{"city":"North Chatham","state_name":"New York","lat":42.47102,"lng":-73.63362,"zip":"12132","miles_from_dt":28.86},{"city":"Kinderhook","state_name":"New York","lat":42.38871,"lng":-73.71228,"zip":"12106","miles_from_dt":28.89},{"city":"Amenia","state_name":"New York","lat":41.85664,"lng":-73.55953,"zip":"12501","miles_from_dt":29.05},{"city":"Livingston","state_name":"New York","lat":42.14151,"lng":-73.7782,"zip":"12541","miles_from_dt":29.07},{"city":"West Springfield","state_name":"Massachusetts","lat":42.12128,"lng":-72.65486,"zip":"01090","miles_from_dt":29.2},{"city":"Stephentown","state_name":"New York","lat":42.58249,"lng":-73.43559,"zip":"12169","miles_from_dt":29.3},{"city":"West Springfield","state_name":"Massachusetts","lat":42.12532,"lng":-72.65025,"zip":"01089","miles_from_dt":29.39},{"city":"Holyoke","state_name":"Massachusetts","lat":42.21251,"lng":-72.64109,"zip":"01040","miles_from_dt":29.53},{"city":"Savoy","state_name":"Massachusetts","lat":42.59627,"lng":-73.01958,"zip":"01256","miles_from_dt":29.76},{"city":"East Granby","state_name":"Connecticut","lat":41.94242,"lng":-72.74093,"zip":"06026","miles_from_dt":29.82},{"city":"Simsbury","state_name":"Connecticut","lat":41.87674,"lng":-72.81626,"zip":"06070","miles_from_dt":29.86},{"city":"Litchfield","state_name":"Connecticut","lat":41.75757,"lng":-73.21544,"zip":"06759","miles_from_dt":29.87}],"targetCityZipCode":"01245","targetCityState":"Massachusetts"},"__N_SSG":true}