{"pageProps":{"stateName":"Massachusetts","cityName":"salisbury","nearbyCities":[{"city":"Newburyport","state_name":"Massachusetts","lat":42.81237,"lng":-70.88785,"zip":"01950","miles_from_dt":2.71},{"city":"Seabrook","state_name":"New Hampshire","lat":42.88689,"lng":-70.8607,"zip":"03874","miles_from_dt":2.78},{"city":"Amesbury","state_name":"Massachusetts","lat":42.85297,"lng":-70.94459,"zip":"01913","miles_from_dt":4.24},{"city":"Newbury","state_name":"Massachusetts","lat":42.77742,"lng":-70.85022,"zip":"01951","miles_from_dt":4.81},{"city":"Hampton Falls","state_name":"New Hampshire","lat":42.92693,"lng":-70.88603,"zip":"03844","miles_from_dt":5.69},{"city":"Hampton","state_name":"New Hampshire","lat":42.93941,"lng":-70.83697,"zip":"03842","miles_from_dt":6.53},{"city":"West Newbury","state_name":"Massachusetts","lat":42.7939,"lng":-70.96906,"zip":"01985","miles_from_dt":6.56},{"city":"Byfield","state_name":"Massachusetts","lat":42.75862,"lng":-70.91758,"zip":"01922","miles_from_dt":6.7},{"city":"Hampton","state_name":"New Hampshire","lat":42.94099,"lng":-70.82507,"zip":"03843","miles_from_dt":6.78},{"city":"East Kingston","state_name":"New Hampshire","lat":42.90691,"lng":-70.98774,"zip":"03827","miles_from_dt":7.64},{"city":"Merrimac","state_name":"Massachusetts","lat":42.83858,"lng":-71.01194,"zip":"01860","miles_from_dt":7.65},{"city":"Rowley","state_name":"Massachusetts","lat":42.72235,"lng":-70.88832,"zip":"01969","miles_from_dt":8.68},{"city":"North Hampton","state_name":"New Hampshire","lat":42.97914,"lng":-70.83025,"zip":"03862","miles_from_dt":9.29},{"city":"Newton","state_name":"New Hampshire","lat":42.86839,"lng":-71.04357,"zip":"03858","miles_from_dt":9.36},{"city":"Groveland","state_name":"Massachusetts","lat":42.75198,"lng":-71.01486,"zip":"01834","miles_from_dt":10.16},{"city":"Rye Beach","state_name":"New Hampshire","lat":42.9807,"lng":-70.77358,"zip":"03871","miles_from_dt":10.28},{"city":"Haverhill","state_name":"Massachusetts","lat":42.7959,"lng":-71.05323,"zip":"01830","miles_from_dt":10.34},{"city":"Georgetown","state_name":"Massachusetts","lat":42.72409,"lng":-70.9821,"zip":"01833","miles_from_dt":10.44},{"city":"Newton Junction","state_name":"New Hampshire","lat":42.86721,"lng":-71.06599,"zip":"03859","miles_from_dt":10.48},{"city":"Exeter","state_name":"New Hampshire","lat":42.97464,"lng":-70.98885,"zip":"03833","miles_from_dt":10.95},{"city":"Ipswich","state_name":"Massachusetts","lat":42.68568,"lng":-70.83989,"zip":"01938","miles_from_dt":11.16},{"city":"Kingston","state_name":"New Hampshire","lat":42.91562,"lng":-71.06647,"zip":"03848","miles_from_dt":11.44},{"city":"Stratham","state_name":"New Hampshire","lat":43.01579,"lng":-70.90051,"zip":"03885","miles_from_dt":11.85},{"city":"Plaistow","state_name":"New Hampshire","lat":42.84032,"lng":-71.09603,"zip":"03865","miles_from_dt":11.91},{"city":"Haverhill","state_name":"Massachusetts","lat":42.78576,"lng":-71.08467,"zip":"01831","miles_from_dt":12.09},{"city":"Rye","state_name":"New Hampshire","lat":43.0157,"lng":-70.76052,"zip":"03870","miles_from_dt":12.75},{"city":"Haverhill","state_name":"Massachusetts","lat":42.75292,"lng":-71.08602,"zip":"01835","miles_from_dt":13.11},{"city":"Greenland","state_name":"New Hampshire","lat":43.03853,"lng":-70.84803,"zip":"03840","miles_from_dt":13.27},{"city":"West Boxford","state_name":"Massachusetts","lat":42.70948,"lng":-71.05848,"zip":"01885","miles_from_dt":13.77},{"city":"East Hampstead","state_name":"New Hampshire","lat":42.88878,"lng":-71.12881,"zip":"03826","miles_from_dt":13.88},{"city":"Boxford","state_name":"Massachusetts","lat":42.6815,"lng":-71.01887,"zip":"01921","miles_from_dt":13.92},{"city":"Haverhill","state_name":"Massachusetts","lat":42.79099,"lng":-71.13133,"zip":"01832","miles_from_dt":14.23},{"city":"Newfields","state_name":"New Hampshire","lat":43.03916,"lng":-70.96627,"zip":"03856","miles_from_dt":14.32},{"city":"Hamilton","state_name":"Massachusetts","lat":42.63792,"lng":-70.8594,"zip":"01936","miles_from_dt":14.4},{"city":"Danville","state_name":"New Hampshire","lat":42.93012,"lng":-71.12197,"zip":"03819","miles_from_dt":14.42},{"city":"Topsfield","state_name":"Massachusetts","lat":42.63728,"lng":-70.94251,"zip":"01983","miles_from_dt":15.02},{"city":"South Hamilton","state_name":"Massachusetts","lat":42.62669,"lng":-70.85789,"zip":"01982","miles_from_dt":15.18},{"city":"Atkinson","state_name":"New Hampshire","lat":42.83693,"lng":-71.16042,"zip":"03811","miles_from_dt":15.19},{"city":"Essex","state_name":"Massachusetts","lat":42.63478,"lng":-70.77684,"zip":"01929","miles_from_dt":15.24},{"city":"Portsmouth","state_name":"New Hampshire","lat":43.06776,"lng":-70.80053,"zip":"03803","miles_from_dt":15.58},{"city":"Portsmouth","state_name":"New Hampshire","lat":43.07293,"lng":-70.8052,"zip":"03801","miles_from_dt":15.89},{"city":"Newmarket","state_name":"New Hampshire","lat":43.0691,"lng":-70.95164,"zip":"03857","miles_from_dt":16.03},{"city":"Hampstead","state_name":"New Hampshire","lat":42.88148,"lng":-71.17856,"zip":"03841","miles_from_dt":16.27},{"city":"Fremont","state_name":"New Hampshire","lat":42.98899,"lng":-71.12494,"zip":"03044","miles_from_dt":16.59},{"city":"North Andover","state_name":"Massachusetts","lat":42.67132,"lng":-71.08669,"zip":"01845","miles_from_dt":16.65},{"city":"Portsmouth","state_name":"New Hampshire","lat":43.07594,"lng":-70.75904,"zip":"03804","miles_from_dt":16.67},{"city":"New Castle","state_name":"New Hampshire","lat":43.06558,"lng":-70.72003,"zip":"03854","miles_from_dt":16.74},{"city":"Portsmouth","state_name":"New Hampshire","lat":43.07876,"lng":-70.7577,"zip":"03802","miles_from_dt":16.87},{"city":"Wenham","state_name":"Massachusetts","lat":42.60078,"lng":-70.8826,"zip":"01984","miles_from_dt":17},{"city":"Sandown","state_name":"New Hampshire","lat":42.93321,"lng":-71.1833,"zip":"03873","miles_from_dt":17.39},{"city":"Gloucester","state_name":"Massachusetts","lat":42.6303,"lng":-70.68161,"zip":"01931","miles_from_dt":17.51},{"city":"Gloucester","state_name":"Massachusetts","lat":42.62605,"lng":-70.68966,"zip":"01930","miles_from_dt":17.56},{"city":"Epping","state_name":"New Hampshire","lat":43.05009,"lng":-71.07467,"zip":"03042","miles_from_dt":17.72},{"city":"Lawrence","state_name":"Massachusetts","lat":42.70695,"lng":-71.16014,"zip":"01840","miles_from_dt":17.98},{"city":"Rockport","state_name":"Massachusetts","lat":42.65432,"lng":-70.62227,"zip":"01966","miles_from_dt":18.01},{"city":"Lawrence","state_name":"Massachusetts","lat":42.70548,"lng":-71.15997,"zip":"01842","miles_from_dt":18.03},{"city":"Lawrence","state_name":"Massachusetts","lat":42.71077,"lng":-71.16494,"zip":"01841","miles_from_dt":18.05},{"city":"Methuen","state_name":"Massachusetts","lat":42.73426,"lng":-71.18858,"zip":"01844","miles_from_dt":18.34},{"city":"North Salem","state_name":"New Hampshire","lat":42.83502,"lng":-71.22425,"zip":"03073","miles_from_dt":18.44},{"city":"Middleton","state_name":"Massachusetts","lat":42.6043,"lng":-71.01641,"zip":"01949","miles_from_dt":18.48},{"city":"Salem","state_name":"New Hampshire","lat":42.79023,"lng":-71.22024,"zip":"03079","miles_from_dt":18.63},{"city":"Lawrence","state_name":"Massachusetts","lat":42.68985,"lng":-71.16095,"zip":"01843","miles_from_dt":18.67},{"city":"Kittery Point","state_name":"Maine","lat":43.08481,"lng":-70.68449,"zip":"03905","miles_from_dt":18.74},{"city":"Manchester","state_name":"Massachusetts","lat":42.58154,"lng":-70.76825,"zip":"01944","miles_from_dt":18.9},{"city":"Durham","state_name":"New Hampshire","lat":43.11744,"lng":-70.91937,"zip":"03824","miles_from_dt":18.93},{"city":"Hathorne","state_name":"Massachusetts","lat":42.58579,"lng":-70.98406,"zip":"01937","miles_from_dt":19.05},{"city":"Beverly","state_name":"Massachusetts","lat":42.56841,"lng":-70.8647,"zip":"01915","miles_from_dt":19.2},{"city":"Danvers","state_name":"Massachusetts","lat":42.57398,"lng":-70.94923,"zip":"01923","miles_from_dt":19.34},{"city":"Kittery","state_name":"Maine","lat":43.11025,"lng":-70.73201,"zip":"03904","miles_from_dt":19.35},{"city":"Prides Crossing","state_name":"Massachusetts","lat":42.56294,"lng":-70.82996,"zip":"01965","miles_from_dt":19.64},{"city":"Lee","state_name":"New Hampshire","lat":43.11931,"lng":-71.0068,"zip":"03861","miles_from_dt":20.21},{"city":"Andover","state_name":"Massachusetts","lat":42.64669,"lng":-71.16517,"zip":"01810","miles_from_dt":20.71},{"city":"Andover","state_name":"Massachusetts","lat":42.65227,"lng":-71.1835,"zip":"05501","miles_from_dt":21.17},{"city":"Eliot","state_name":"Maine","lat":43.14885,"lng":-70.786,"zip":"03903","miles_from_dt":21.22},{"city":"Andover","state_name":"Massachusetts","lat":42.64859,"lng":-71.18254,"zip":"01812","miles_from_dt":21.29},{"city":"Andover","state_name":"Massachusetts","lat":42.65037,"lng":-71.18456,"zip":"01899","miles_from_dt":21.29},{"city":"Raymond","state_name":"New Hampshire","lat":43.03219,"lng":-71.19945,"zip":"03077","miles_from_dt":21.4},{"city":"Derry","state_name":"New Hampshire","lat":42.88867,"lng":-71.27932,"zip":"03038","miles_from_dt":21.41},{"city":"Chester","state_name":"New Hampshire","lat":42.96719,"lng":-71.25083,"zip":"03036","miles_from_dt":21.43},{"city":"North Reading","state_name":"Massachusetts","lat":42.58156,"lng":-71.08759,"zip":"01864","miles_from_dt":21.61},{"city":"Salem","state_name":"Massachusetts","lat":42.52757,"lng":-70.86839,"zip":"01971","miles_from_dt":22.02},{"city":"Peabody","state_name":"Massachusetts","lat":42.53456,"lng":-70.96824,"zip":"01961","miles_from_dt":22.21},{"city":"East Derry","state_name":"New Hampshire","lat":42.88964,"lng":-71.29713,"zip":"03041","miles_from_dt":22.31},{"city":"Peabody","state_name":"Massachusetts","lat":42.53374,"lng":-70.97222,"zip":"01960","miles_from_dt":22.31},{"city":"Windham","state_name":"New Hampshire","lat":42.80758,"lng":-71.29945,"zip":"03087","miles_from_dt":22.41},{"city":"North Reading","state_name":"Massachusetts","lat":42.57201,"lng":-71.11123,"zip":"01889","miles_from_dt":22.82},{"city":"York Harbor","state_name":"Maine","lat":43.13424,"lng":-70.63695,"zip":"03911","miles_from_dt":22.89},{"city":"Madbury","state_name":"New Hampshire","lat":43.17488,"lng":-70.94089,"zip":"03823","miles_from_dt":23.02},{"city":"Salem","state_name":"Massachusetts","lat":42.51298,"lng":-70.90266,"zip":"01970","miles_from_dt":23.12},{"city":"Nottingham","state_name":"New Hampshire","lat":43.12391,"lng":-71.12089,"zip":"03290","miles_from_dt":23.22},{"city":"Lynnfield","state_name":"Massachusetts","lat":42.53523,"lng":-71.03695,"zip":"01940","miles_from_dt":23.27},{"city":"Dover","state_name":"New Hampshire","lat":43.18933,"lng":-70.88428,"zip":"03820","miles_from_dt":23.69},{"city":"Dover","state_name":"New Hampshire","lat":43.18875,"lng":-70.90283,"zip":"03821","miles_from_dt":23.71},{"city":"East Candia","state_name":"New Hampshire","lat":43.04548,"lng":-71.24706,"zip":"03040","miles_from_dt":23.89},{"city":"Marblehead","state_name":"Massachusetts","lat":42.49924,"lng":-70.86348,"zip":"01945","miles_from_dt":23.97},{"city":"York","state_name":"Maine","lat":43.16786,"lng":-70.68105,"zip":"03909","miles_from_dt":23.99},{"city":"Tewksbury","state_name":"Massachusetts","lat":42.61206,"lng":-71.22733,"zip":"01876","miles_from_dt":24.66},{"city":"Pelham","state_name":"New Hampshire","lat":42.73354,"lng":-71.324,"zip":"03076","miles_from_dt":24.77},{"city":"Reading","state_name":"Massachusetts","lat":42.53505,"lng":-71.1055,"zip":"01867","miles_from_dt":24.83},{"city":"Dracut","state_name":"Massachusetts","lat":42.68323,"lng":-71.30063,"zip":"01826","miles_from_dt":25.01},{"city":"Wilmington","state_name":"Massachusetts","lat":42.56091,"lng":-71.16541,"zip":"01887","miles_from_dt":25.06},{"city":"Lynn","state_name":"Massachusetts","lat":42.49151,"lng":-70.97166,"zip":"01904","miles_from_dt":25.14},{"city":"Dover","state_name":"New Hampshire","lat":43.21818,"lng":-70.84109,"zip":"03822","miles_from_dt":25.67},{"city":"Swampscott","state_name":"Massachusetts","lat":42.47572,"lng":-70.90684,"zip":"01907","miles_from_dt":25.7},{"city":"Wakefield","state_name":"Massachusetts","lat":42.50348,"lng":-71.06559,"zip":"01880","miles_from_dt":25.86},{"city":"Rollinsford","state_name":"New Hampshire","lat":43.22092,"lng":-70.83995,"zip":"03869","miles_from_dt":25.87},{"city":"York Beach","state_name":"Maine","lat":43.17374,"lng":-70.60842,"zip":"03910","miles_from_dt":25.97},{"city":"Lowell","state_name":"Massachusetts","lat":42.65859,"lng":-71.30522,"zip":"01853","miles_from_dt":26.03},{"city":"Lowell","state_name":"Massachusetts","lat":42.65569,"lng":-71.30292,"zip":"01850","miles_from_dt":26.03},{"city":"Lynn","state_name":"Massachusetts","lat":42.4712,"lng":-70.93983,"zip":"01902","miles_from_dt":26.21},{"city":"Lynn","state_name":"Massachusetts","lat":42.47333,"lng":-70.96131,"zip":"01910","miles_from_dt":26.26},{"city":"Auburn","state_name":"New Hampshire","lat":42.99063,"lng":-71.34383,"zip":"03032","miles_from_dt":26.41},{"city":"Lowell","state_name":"Massachusetts","lat":42.63231,"lng":-71.29538,"zip":"01852","miles_from_dt":26.57},{"city":"Lynn","state_name":"Massachusetts","lat":42.46619,"lng":-70.94973,"zip":"01903","miles_from_dt":26.64},{"city":"Londonderry","state_name":"New Hampshire","lat":42.87927,"lng":-71.38702,"zip":"03053","miles_from_dt":26.77},{"city":"Woburn","state_name":"Massachusetts","lat":42.50824,"lng":-71.1234,"zip":"01813","miles_from_dt":26.89},{"city":"Lynn","state_name":"Massachusetts","lat":42.46125,"lng":-70.94639,"zip":"01901","miles_from_dt":26.94},{"city":"Barrington","state_name":"New Hampshire","lat":43.21366,"lng":-71.04227,"zip":"03825","miles_from_dt":26.94},{"city":"West Nottingham","state_name":"New Hampshire","lat":43.17976,"lng":-71.14205,"zip":"03291","miles_from_dt":27.03},{"city":"Lynn","state_name":"Massachusetts","lat":42.46355,"lng":-70.9733,"zip":"01905","miles_from_dt":27.04},{"city":"Woburn","state_name":"Massachusetts","lat":42.50588,"lng":-71.12715,"zip":"01815","miles_from_dt":27.13},{"city":"Saugus","state_name":"Massachusetts","lat":42.46922,"lng":-71.01299,"zip":"01906","miles_from_dt":27.16},{"city":"Candia","state_name":"New Hampshire","lat":43.06269,"lng":-71.31106,"zip":"03034","miles_from_dt":27.24},{"city":"South Berwick","state_name":"Maine","lat":43.23838,"lng":-70.74795,"zip":"03908","miles_from_dt":27.65},{"city":"Somersworth","state_name":"New Hampshire","lat":43.25335,"lng":-70.88555,"zip":"03878","miles_from_dt":28.11},{"city":"Lowell","state_name":"Massachusetts","lat":42.64939,"lng":-71.34827,"zip":"01854","miles_from_dt":28.25},{"city":"Hudson","state_name":"New Hampshire","lat":42.76394,"lng":-71.40716,"zip":"03051","miles_from_dt":28.31},{"city":"Cape Neddick","state_name":"Maine","lat":43.22246,"lng":-70.63788,"zip":"03902","miles_from_dt":28.31},{"city":"Deerfield","state_name":"New Hampshire","lat":43.1395,"lng":-71.2535,"zip":"03037","miles_from_dt":28.34},{"city":"Stoneham","state_name":"Massachusetts","lat":42.47396,"lng":-71.09705,"zip":"02180","miles_from_dt":28.38},{"city":"Lowell","state_name":"Massachusetts","lat":42.62915,"lng":-71.33674,"zip":"01851","miles_from_dt":28.45},{"city":"Billerica","state_name":"Massachusetts","lat":42.54999,"lng":-71.25206,"zip":"01821","miles_from_dt":28.53},{"city":"Manchester","state_name":"New Hampshire","lat":42.96594,"lng":-71.40167,"zip":"03109","miles_from_dt":28.62},{"city":"Melrose","state_name":"Massachusetts","lat":42.45561,"lng":-71.05901,"zip":"02176","miles_from_dt":28.8},{"city":"Woburn","state_name":"Massachusetts","lat":42.48694,"lng":-71.15415,"zip":"01801","miles_from_dt":28.95},{"city":"North Billerica","state_name":"Massachusetts","lat":42.57427,"lng":-71.29437,"zip":"01862","miles_from_dt":28.96},{"city":"Pinehurst","state_name":"Massachusetts","lat":42.52539,"lng":-71.22794,"zip":"01866","miles_from_dt":28.97},{"city":"Nahant","state_name":"Massachusetts","lat":42.42856,"lng":-70.92614,"zip":"01908","miles_from_dt":29.04},{"city":"Burlington","state_name":"Massachusetts","lat":42.50635,"lng":-71.19824,"zip":"01805","miles_from_dt":29.08},{"city":"Woburn","state_name":"Massachusetts","lat":42.48616,"lng":-71.15808,"zip":"01888","miles_from_dt":29.1},{"city":"Billerica","state_name":"Massachusetts","lat":42.54127,"lng":-71.26288,"zip":"01822","miles_from_dt":29.35},{"city":"Rochester","state_name":"New Hampshire","lat":43.26256,"lng":-70.98254,"zip":"03839","miles_from_dt":29.36},{"city":"Burlington","state_name":"Massachusetts","lat":42.5028,"lng":-71.20147,"zip":"01803","miles_from_dt":29.37},{"city":"Manchester","state_name":"New Hampshire","lat":42.96766,"lng":-71.41748,"zip":"03105","miles_from_dt":29.42},{"city":"Nutting Lake","state_name":"Massachusetts","lat":42.53471,"lng":-71.26916,"zip":"01865","miles_from_dt":29.9}],"targetCityZipCode":"01952","targetCityState":"Massachusetts"},"__N_SSG":true}