{"pageProps":{"stateName":"Tennessee","cityName":"ardmore","nearbyCities":[{"city":"Elkton","state_name":"Tennessee","lat":35.06199,"lng":-86.89366,"zip":"38455","miles_from_dt":3.7},{"city":"Dellrose","state_name":"Tennessee","lat":35.11923,"lng":-86.81472,"zip":"38453","miles_from_dt":4.69},{"city":"Ardmore","state_name":"Alabama","lat":34.96914,"lng":-86.79501,"zip":"35739","miles_from_dt":6.06},{"city":"Taft","state_name":"Tennessee","lat":35.03906,"lng":-86.68569,"zip":"38488","miles_from_dt":8.21},{"city":"Frankewing","state_name":"Tennessee","lat":35.19135,"lng":-86.80219,"zip":"38459","miles_from_dt":9.71},{"city":"Prospect","state_name":"Tennessee","lat":35.05075,"lng":-87.00932,"zip":"38477","miles_from_dt":10.19},{"city":"Elkmont","state_name":"Alabama","lat":34.93141,"lng":-86.99086,"zip":"35620","miles_from_dt":12.38},{"city":"Toney","state_name":"Alabama","lat":34.89431,"lng":-86.71282,"zip":"35773","miles_from_dt":12.75},{"city":"Hazel Green","state_name":"Alabama","lat":34.95407,"lng":-86.5951,"zip":"35750","miles_from_dt":14.92},{"city":"Pulaski","state_name":"Tennessee","lat":35.21565,"lng":-87.01329,"zip":"38478","miles_from_dt":15.33},{"city":"Athens","state_name":"Alabama","lat":34.82336,"lng":-86.88001,"zip":"35613","miles_from_dt":16.04},{"city":"Fayetteville","state_name":"Tennessee","lat":35.16532,"lng":-86.57966,"zip":"37334","miles_from_dt":16.16},{"city":"Harvest","state_name":"Alabama","lat":34.82314,"lng":-86.75662,"zip":"35749","miles_from_dt":16.33},{"city":"Capshaw","state_name":"Alabama","lat":34.80485,"lng":-86.78195,"zip":"35742","miles_from_dt":17.27},{"city":"Lester","state_name":"Alabama","lat":34.96539,"lng":-87.11933,"zip":"35647","miles_from_dt":17.49},{"city":"Cornersville","state_name":"Tennessee","lat":35.31291,"lng":-86.83191,"zip":"37047","miles_from_dt":17.97},{"city":"Goodspring","state_name":"Tennessee","lat":35.10116,"lng":-87.15937,"zip":"38460","miles_from_dt":18.99},{"city":"Madison","state_name":"Alabama","lat":34.78426,"lng":-86.74419,"zip":"35757","miles_from_dt":19.1},{"city":"Minor Hill","state_name":"Tennessee","lat":35.02775,"lng":-87.17057,"zip":"38473","miles_from_dt":19.41},{"city":"Athens","state_name":"Alabama","lat":34.86433,"lng":-87.08457,"zip":"35614","miles_from_dt":19.43},{"city":"Petersburg","state_name":"Tennessee","lat":35.30516,"lng":-86.65585,"zip":"37144","miles_from_dt":20.01},{"city":"Meridianville","state_name":"Alabama","lat":34.86856,"lng":-86.55262,"zip":"35759","miles_from_dt":20.18},{"city":"Athens","state_name":"Alabama","lat":34.79532,"lng":-87.00861,"zip":"35612","miles_from_dt":20.43},{"city":"Huntsville","state_name":"Alabama","lat":34.76615,"lng":-86.68324,"zip":"35806","miles_from_dt":21.4},{"city":"Huntsville","state_name":"Alabama","lat":34.80183,"lng":-86.60264,"zip":"35810","miles_from_dt":21.54},{"city":"Kelso","state_name":"Tennessee","lat":35.11935,"lng":-86.44222,"zip":"37348","miles_from_dt":22.43},{"city":"Huntsville","state_name":"Alabama","lat":34.75318,"lng":-86.65213,"zip":"35896","miles_from_dt":22.95},{"city":"Normal","state_name":"Alabama","lat":34.79291,"lng":-86.569,"zip":"35762","miles_from_dt":23.21},{"city":"Madison","state_name":"Alabama","lat":34.71417,"lng":-86.74707,"zip":"35758","miles_from_dt":23.78},{"city":"Flintville","state_name":"Tennessee","lat":35.06584,"lng":-86.40548,"zip":"37335","miles_from_dt":24.06},{"city":"Anderson","state_name":"Alabama","lat":34.95361,"lng":-87.23714,"zip":"35610","miles_from_dt":24.1},{"city":"Belfast","state_name":"Tennessee","lat":35.39094,"lng":-86.70943,"zip":"37019","miles_from_dt":24.31},{"city":"Huntsville","state_name":"Alabama","lat":34.74054,"lng":-86.62928,"zip":"35899","miles_from_dt":24.32},{"city":"Huntsville","state_name":"Alabama","lat":34.73923,"lng":-86.62985,"zip":"35816","miles_from_dt":24.38},{"city":"Athens","state_name":"Alabama","lat":34.76554,"lng":-87.08418,"zip":"35611","miles_from_dt":24.49},{"city":"Lynnville","state_name":"Tennessee","lat":35.3773,"lng":-87.03873,"zip":"38472","miles_from_dt":25.34},{"city":"Huntsville","state_name":"Alabama","lat":34.71411,"lng":-86.65353,"zip":"35807","miles_from_dt":25.37},{"city":"Huntsville","state_name":"Alabama","lat":34.79925,"lng":-86.50386,"zip":"35811","miles_from_dt":25.42},{"city":"New Market","state_name":"Alabama","lat":34.914,"lng":-86.41001,"zip":"35761","miles_from_dt":25.64},{"city":"Mulberry","state_name":"Tennessee","lat":35.19776,"lng":-86.4119,"zip":"37359","miles_from_dt":25.69},{"city":"Huntsville","state_name":"Alabama","lat":34.71674,"lng":-86.63118,"zip":"35897","miles_from_dt":25.73},{"city":"Five Points","state_name":"Tennessee","lat":35.0297,"lng":-87.28482,"zip":"38457","miles_from_dt":25.86},{"city":"Huntsville","state_name":"Alabama","lat":34.73141,"lng":-86.58977,"zip":"35895","miles_from_dt":25.98},{"city":"Huntsville","state_name":"Alabama","lat":34.73244,"lng":-86.58459,"zip":"35893","miles_from_dt":26.07},{"city":"Huntsville","state_name":"Alabama","lat":34.73028,"lng":-86.58611,"zip":"35809","miles_from_dt":26.15},{"city":"Elora","state_name":"Tennessee","lat":35.02825,"lng":-86.36876,"zip":"37328","miles_from_dt":26.18},{"city":"Huntsville","state_name":"Alabama","lat":34.72998,"lng":-86.5859,"zip":"35804","miles_from_dt":26.18},{"city":"Huntsville","state_name":"Alabama","lat":34.70875,"lng":-86.6219,"zip":"35805","miles_from_dt":26.46},{"city":"Huntsville","state_name":"Alabama","lat":34.7084,"lng":-86.61731,"zip":"35814","miles_from_dt":26.6},{"city":"Leoma","state_name":"Tennessee","lat":35.13083,"lng":-87.29072,"zip":"38468","miles_from_dt":26.69},{"city":"Belle Mina","state_name":"Alabama","lat":34.66229,"lng":-86.87596,"zip":"35615","miles_from_dt":27.01},{"city":"Huntsville","state_name":"Alabama","lat":34.72497,"lng":-86.56304,"zip":"35801","miles_from_dt":27.17},{"city":"Tanner","state_name":"Alabama","lat":34.66607,"lng":-86.95191,"zip":"35671","miles_from_dt":27.52},{"city":"Ryland","state_name":"Alabama","lat":34.7704,"lng":-86.48172,"zip":"35767","miles_from_dt":27.71},{"city":"Madison","state_name":"Alabama","lat":34.64287,"lng":-86.82114,"zip":"35756","miles_from_dt":28.23},{"city":"Huntsville","state_name":"Alabama","lat":34.6467,"lng":-86.7545,"zip":"35894","miles_from_dt":28.28},{"city":"Huntsville","state_name":"Alabama","lat":34.64561,"lng":-86.75053,"zip":"35813","miles_from_dt":28.39},{"city":"Huntsville","state_name":"Alabama","lat":34.64458,"lng":-86.75193,"zip":"35824","miles_from_dt":28.45},{"city":"Mooresville","state_name":"Alabama","lat":34.62091,"lng":-86.87965,"zip":"35649","miles_from_dt":29.87}],"targetCityZipCode":"38449","targetCityState":"Tennessee"},"__N_SSG":true}