{"pageProps":{"stateName":"Tennessee","cityName":"collinwood","nearbyCities":[{"city":"Cypress Inn","state_name":"Tennessee","lat":35.07898,"lng":-87.79239,"zip":"38452","miles_from_dt":7.34},{"city":"Lutts","state_name":"Tennessee","lat":35.0771,"lng":-87.92134,"zip":"38471","miles_from_dt":10.08},{"city":"Waynesboro","state_name":"Tennessee","lat":35.33281,"lng":-87.77659,"zip":"38485","miles_from_dt":10.27},{"city":"Iron City","state_name":"Tennessee","lat":35.06802,"lng":-87.64494,"zip":"38463","miles_from_dt":11.99},{"city":"Olivehill","state_name":"Tennessee","lat":35.2624,"lng":-88.02336,"zip":"38475","miles_from_dt":13.63},{"city":"Westpoint","state_name":"Tennessee","lat":35.17306,"lng":-87.54029,"zip":"38486","miles_from_dt":14.8},{"city":"Cloverdale","state_name":"Alabama","lat":34.93688,"lng":-87.7717,"zip":"35617","miles_from_dt":17.2},{"city":"Clifton","state_name":"Tennessee","lat":35.40706,"lng":-87.96588,"zip":"38425","miles_from_dt":17.9},{"city":"Savannah","state_name":"Tennessee","lat":35.16516,"lng":-88.14523,"zip":"38372","miles_from_dt":19.51},{"city":"Waterloo","state_name":"Alabama","lat":34.95367,"lng":-88.02529,"zip":"35677","miles_from_dt":20.39},{"city":"Saint Joseph","state_name":"Tennessee","lat":35.02813,"lng":-87.48863,"zip":"38481","miles_from_dt":20.77},{"city":"Florence","state_name":"Alabama","lat":34.92306,"lng":-87.60738,"zip":"35634","miles_from_dt":21.16},{"city":"Florence","state_name":"Alabama","lat":34.87586,"lng":-87.79645,"zip":"35633","miles_from_dt":21.33},{"city":"Lawrenceburg","state_name":"Tennessee","lat":35.29035,"lng":-87.42845,"zip":"38464","miles_from_dt":22.31},{"city":"Loretto","state_name":"Tennessee","lat":35.0741,"lng":-87.42765,"zip":"38469","miles_from_dt":22.51},{"city":"Bath Springs","state_name":"Tennessee","lat":35.43842,"lng":-88.09737,"zip":"38311","miles_from_dt":24.17},{"city":"Florence","state_name":"Alabama","lat":34.82526,"lng":-87.66018,"zip":"35630","miles_from_dt":26.08},{"city":"Pickwick Dam","state_name":"Tennessee","lat":35.05383,"lng":-88.23627,"zip":"38365","miles_from_dt":26.24},{"city":"Killen","state_name":"Alabama","lat":34.89605,"lng":-87.4936,"zip":"35645","miles_from_dt":26.5},{"city":"Florence","state_name":"Alabama","lat":34.80763,"lng":-87.68043,"zip":"35632","miles_from_dt":26.92},{"city":"Florence","state_name":"Alabama","lat":34.81056,"lng":-87.65325,"zip":"35631","miles_from_dt":27.16},{"city":"Hohenwald","state_name":"Tennessee","lat":35.53142,"lng":-87.54869,"zip":"38462","miles_from_dt":27.81},{"city":"Crump","state_name":"Tennessee","lat":35.22348,"lng":-88.30085,"zip":"38327","miles_from_dt":28.38},{"city":"Lexington","state_name":"Alabama","lat":34.95857,"lng":-87.38022,"zip":"35648","miles_from_dt":28.53},{"city":"Counce","state_name":"Tennessee","lat":35.04419,"lng":-88.27514,"zip":"38326","miles_from_dt":28.54},{"city":"Saltillo","state_name":"Tennessee","lat":35.38942,"lng":-88.2465,"zip":"38370","miles_from_dt":28.83},{"city":"Linden","state_name":"Tennessee","lat":35.60487,"lng":-87.86054,"zip":"37096","miles_from_dt":29.12},{"city":"Leoma","state_name":"Tennessee","lat":35.13083,"lng":-87.29072,"zip":"38468","miles_from_dt":29.16},{"city":"Morris Chapel","state_name":"Tennessee","lat":35.31897,"lng":-88.29232,"zip":"38361","miles_from_dt":29.25}],"targetCityZipCode":"38450","targetCityState":"Tennessee"},"__N_SSG":true}