{"pageProps":{"stateName":"Tennessee","cityName":"gordonsville","nearbyCities":[{"city":"Brush Creek","state_name":"Tennessee","lat":36.14954,"lng":-86.00833,"zip":"38547","miles_from_dt":3.26},{"city":"Carthage","state_name":"Tennessee","lat":36.27374,"lng":-85.95035,"zip":"37030","miles_from_dt":6.42},{"city":"Hickman","state_name":"Tennessee","lat":36.13392,"lng":-85.91518,"zip":"38567","miles_from_dt":7.04},{"city":"Riddleton","state_name":"Tennessee","lat":36.31288,"lng":-86.04536,"zip":"37151","miles_from_dt":8.2},{"city":"Elmwood","state_name":"Tennessee","lat":36.23458,"lng":-85.8713,"zip":"38560","miles_from_dt":8.43},{"city":"Alexandria","state_name":"Tennessee","lat":36.07112,"lng":-86.00563,"zip":"37012","miles_from_dt":8.67},{"city":"Watertown","state_name":"Tennessee","lat":36.08682,"lng":-86.14524,"zip":"37184","miles_from_dt":10.52},{"city":"Lancaster","state_name":"Tennessee","lat":36.10887,"lng":-85.85647,"zip":"38569","miles_from_dt":10.72},{"city":"Chestnut Mound","state_name":"Tennessee","lat":36.2166,"lng":-85.81195,"zip":"38552","miles_from_dt":11.41},{"city":"Buffalo Valley","state_name":"Tennessee","lat":36.17252,"lng":-85.79197,"zip":"38548","miles_from_dt":12.56},{"city":"Pleasant Shade","state_name":"Tennessee","lat":36.38179,"lng":-85.91203,"zip":"37145","miles_from_dt":14},{"city":"Dixon Springs","state_name":"Tennessee","lat":36.40466,"lng":-86.02726,"zip":"37057","miles_from_dt":14.36},{"city":"Norene","state_name":"Tennessee","lat":36.19554,"lng":-86.27806,"zip":"37136","miles_from_dt":14.72},{"city":"Gladeville","state_name":"Tennessee","lat":36.1938,"lng":-86.27952,"zip":"37071","miles_from_dt":14.8},{"city":"Liberty","state_name":"Tennessee","lat":35.98295,"lng":-85.95919,"zip":"37095","miles_from_dt":15.05},{"city":"Lebanon","state_name":"Tennessee","lat":36.2733,"lng":-86.27224,"zip":"37087","miles_from_dt":15.33},{"city":"Lebanon","state_name":"Tennessee","lat":36.20811,"lng":-86.28926,"zip":"37088","miles_from_dt":15.36},{"city":"Granville","state_name":"Tennessee","lat":36.27144,"lng":-85.75364,"zip":"38564","miles_from_dt":15.47},{"city":"Dowelltown","state_name":"Tennessee","lat":35.98611,"lng":-85.90798,"zip":"37059","miles_from_dt":15.69},{"city":"Silver Point","state_name":"Tennessee","lat":36.09431,"lng":-85.75382,"zip":"38582","miles_from_dt":16.2},{"city":"Lebanon","state_name":"Tennessee","lat":36.12439,"lng":-86.29707,"zip":"37090","miles_from_dt":16.55},{"city":"Hartsville","state_name":"Tennessee","lat":36.41552,"lng":-86.14724,"zip":"37074","miles_from_dt":16.81},{"city":"Auburntown","state_name":"Tennessee","lat":35.96355,"lng":-86.11364,"zip":"37016","miles_from_dt":16.99},{"city":"Bloomington Springs","state_name":"Tennessee","lat":36.23133,"lng":-85.65964,"zip":"38545","miles_from_dt":19.98},{"city":"Castalian Springs","state_name":"Tennessee","lat":36.3721,"lng":-86.30328,"zip":"37031","miles_from_dt":20.15},{"city":"Baxter","state_name":"Tennessee","lat":36.11605,"lng":-85.66238,"zip":"38544","miles_from_dt":20.47},{"city":"Milton","state_name":"Tennessee","lat":35.92569,"lng":-86.18903,"zip":"37118","miles_from_dt":21.07},{"city":"Lascassas","state_name":"Tennessee","lat":35.95308,"lng":-86.27912,"zip":"37085","miles_from_dt":22.38},{"city":"Gainesboro","state_name":"Tennessee","lat":36.35173,"lng":-85.65932,"zip":"38562","miles_from_dt":22.54},{"city":"Smithville","state_name":"Tennessee","lat":35.92444,"lng":-85.78978,"zip":"37166","miles_from_dt":22.6},{"city":"Lafayette","state_name":"Tennessee","lat":36.54357,"lng":-86.00149,"zip":"37083","miles_from_dt":23.94},{"city":"Whitleyville","state_name":"Tennessee","lat":36.45613,"lng":-85.7189,"zip":"38588","miles_from_dt":24.34},{"city":"Woodbury","state_name":"Tennessee","lat":35.82599,"lng":-86.0424,"zip":"37190","miles_from_dt":25.6},{"city":"Mount Juliet","state_name":"Tennessee","lat":36.17791,"lng":-86.48872,"zip":"37122","miles_from_dt":26.53},{"city":"Red Boiling Springs","state_name":"Tennessee","lat":36.54437,"lng":-85.81082,"zip":"37150","miles_from_dt":26.54},{"city":"Bethpage","state_name":"Tennessee","lat":36.4997,"lng":-86.31017,"zip":"37022","miles_from_dt":26.62},{"city":"Cookeville","state_name":"Tennessee","lat":36.22682,"lng":-85.53841,"zip":"38501","miles_from_dt":26.69},{"city":"Murfreesboro","state_name":"Tennessee","lat":35.8809,"lng":-86.33003,"zip":"37130","miles_from_dt":28.03},{"city":"Mount Juliet","state_name":"Tennessee","lat":36.20506,"lng":-86.52066,"zip":"37121","miles_from_dt":28.28},{"city":"Gallatin","state_name":"Tennessee","lat":36.39871,"lng":-86.45594,"zip":"37066","miles_from_dt":28.3},{"city":"Cookeville","state_name":"Tennessee","lat":36.17316,"lng":-85.50559,"zip":"38505","miles_from_dt":28.5},{"city":"Cookeville","state_name":"Tennessee","lat":36.16333,"lng":-85.50588,"zip":"38503","miles_from_dt":28.53},{"city":"Readyville","state_name":"Tennessee","lat":35.80876,"lng":-86.19311,"zip":"37149","miles_from_dt":28.55},{"city":"Cookeville","state_name":"Tennessee","lat":36.16105,"lng":-85.49944,"zip":"38502","miles_from_dt":28.91},{"city":"Westmoreland","state_name":"Tennessee","lat":36.58644,"lng":-86.22868,"zip":"37186","miles_from_dt":29.41}],"targetCityZipCode":"38563","targetCityState":"Tennessee"},"__N_SSG":true}