{"pageProps":{"stateName":"Tennessee","cityName":"indian-mound","nearbyCities":[{"city":"Woodlawn","state_name":"Tennessee","lat":36.50726,"lng":-87.52392,"zip":"37191","miles_from_dt":7.73},{"city":"Cumberland City","state_name":"Tennessee","lat":36.3713,"lng":-87.63586,"zip":"37050","miles_from_dt":7.79},{"city":"Big Rock","state_name":"Tennessee","lat":36.58409,"lng":-87.78302,"zip":"37023","miles_from_dt":9.81},{"city":"Palmyra","state_name":"Tennessee","lat":36.41164,"lng":-87.50112,"zip":"37142","miles_from_dt":10.08},{"city":"Dover","state_name":"Tennessee","lat":36.47872,"lng":-87.8807,"zip":"37058","miles_from_dt":12.33},{"city":"La Fayette","state_name":"Kentucky","lat":36.66435,"lng":-87.63852,"zip":"42254","miles_from_dt":12.59},{"city":"Tennessee Ridge","state_name":"Tennessee","lat":36.3195,"lng":-87.78694,"zip":"37178","miles_from_dt":13.3},{"city":"Erin","state_name":"Tennessee","lat":36.28918,"lng":-87.66528,"zip":"37061","miles_from_dt":13.34},{"city":"Bumpus Mills","state_name":"Tennessee","lat":36.62793,"lng":-87.85723,"zip":"37028","miles_from_dt":14.88},{"city":"Fort Campbell","state_name":"Kentucky","lat":36.6381,"lng":-87.47258,"zip":"42223","miles_from_dt":14.93},{"city":"Clarksville","state_name":"Tennessee","lat":36.56894,"lng":-87.41225,"zip":"37042","miles_from_dt":14.99},{"city":"Cunningham","state_name":"Tennessee","lat":36.37534,"lng":-87.40095,"zip":"37052","miles_from_dt":16.19},{"city":"Herndon","state_name":"Kentucky","lat":36.7196,"lng":-87.61225,"zip":"42236","miles_from_dt":16.55},{"city":"Slayden","state_name":"Tennessee","lat":36.29005,"lng":-87.46943,"zip":"37165","miles_from_dt":16.98},{"city":"Stewart","state_name":"Tennessee","lat":36.32349,"lng":-87.89678,"zip":"37175","miles_from_dt":17.19},{"city":"Clarksville","state_name":"Tennessee","lat":36.5612,"lng":-87.34874,"zip":"37041","miles_from_dt":18.12},{"city":"Clarksville","state_name":"Tennessee","lat":36.52938,"lng":-87.33763,"zip":"37044","miles_from_dt":18.2},{"city":"Oak Grove","state_name":"Kentucky","lat":36.68386,"lng":-87.44714,"zip":"42262","miles_from_dt":18.22},{"city":"Cumberland Furnace","state_name":"Tennessee","lat":36.30426,"lng":-87.41405,"zip":"37051","miles_from_dt":18.39},{"city":"Clarksville","state_name":"Tennessee","lat":36.52408,"lng":-87.33287,"zip":"37040","miles_from_dt":18.4},{"city":"Vanleer","state_name":"Tennessee","lat":36.241,"lng":-87.49706,"zip":"37181","miles_from_dt":18.96},{"city":"Southside","state_name":"Tennessee","lat":36.36442,"lng":-87.30365,"zip":"37171","miles_from_dt":21.43},{"city":"Clarksville","state_name":"Tennessee","lat":36.49842,"lng":-87.23197,"zip":"37043","miles_from_dt":23.82},{"city":"New Concord","state_name":"Kentucky","lat":36.55906,"lng":-88.09473,"zip":"42076","miles_from_dt":24.8},{"city":"Cadiz","state_name":"Kentucky","lat":36.82016,"lng":-87.83709,"zip":"42211","miles_from_dt":25.28},{"city":"Pembroke","state_name":"Kentucky","lat":36.76562,"lng":-87.3601,"zip":"42266","miles_from_dt":25.64},{"city":"Gracey","state_name":"Kentucky","lat":36.86665,"lng":-87.66167,"zip":"42232","miles_from_dt":26.48},{"city":"Big Sandy","state_name":"Tennessee","lat":36.24552,"lng":-88.03685,"zip":"38221","miles_from_dt":26.65},{"city":"Charlotte","state_name":"Tennessee","lat":36.23979,"lng":-87.27182,"zip":"37036","miles_from_dt":27.34},{"city":"Trenton","state_name":"Kentucky","lat":36.72749,"lng":-87.26959,"zip":"42286","miles_from_dt":27.47},{"city":"Hopkinsville","state_name":"Kentucky","lat":36.86709,"lng":-87.48976,"zip":"42241","miles_from_dt":28.14},{"city":"Buchanan","state_name":"Tennessee","lat":36.44512,"lng":-88.16288,"zip":"38222","miles_from_dt":28.16},{"city":"Springville","state_name":"Tennessee","lat":36.31388,"lng":-88.12539,"zip":"38256","miles_from_dt":28.46},{"city":"McEwen","state_name":"Tennessee","lat":36.06625,"lng":-87.63741,"zip":"37101","miles_from_dt":28.73},{"city":"Hopkinsville","state_name":"Kentucky","lat":36.88388,"lng":-87.46024,"zip":"42240","miles_from_dt":29.8}],"targetCityZipCode":"37079","targetCityState":"Tennessee"},"__N_SSG":true}