{"pageProps":{"stateName":"Tennessee","cityName":"luttrell","nearbyCities":[{"city":"Powder Springs","state_name":"Tennessee","lat":36.23701,"lng":-83.68179,"zip":"37848","miles_from_dt":4.62},{"city":"Maynardville","state_name":"Tennessee","lat":36.25955,"lng":-83.82702,"zip":"37807","miles_from_dt":5.11},{"city":"Blaine","state_name":"Tennessee","lat":36.16798,"lng":-83.66479,"zip":"37709","miles_from_dt":5.99},{"city":"Corryton","state_name":"Tennessee","lat":36.13155,"lng":-83.80829,"zip":"37721","miles_from_dt":6.15},{"city":"Mascot","state_name":"Tennessee","lat":36.08645,"lng":-83.72368,"zip":"37806","miles_from_dt":8.79},{"city":"Washburn","state_name":"Tennessee","lat":36.31063,"lng":-83.61266,"zip":"37888","miles_from_dt":10.63},{"city":"Sharps Chapel","state_name":"Tennessee","lat":36.35017,"lng":-83.8517,"zip":"37866","miles_from_dt":10.94},{"city":"Knoxville","state_name":"Tennessee","lat":36.12499,"lng":-83.93815,"zip":"37938","miles_from_dt":11.69},{"city":"Strawberry Plains","state_name":"Tennessee","lat":36.04693,"lng":-83.67932,"zip":"37871","miles_from_dt":12.13},{"city":"Knoxville","state_name":"Tennessee","lat":36.03554,"lng":-83.80211,"zip":"37924","miles_from_dt":12.34},{"city":"Knoxville","state_name":"Tennessee","lat":36.0599,"lng":-83.91082,"zip":"37918","miles_from_dt":13.47},{"city":"Knoxville","state_name":"Tennessee","lat":36.06009,"lng":-83.91134,"zip":"37928","miles_from_dt":13.48},{"city":"New Market","state_name":"Tennessee","lat":36.08364,"lng":-83.56715,"zip":"37820","miles_from_dt":13.81},{"city":"Rutledge","state_name":"Tennessee","lat":36.24516,"lng":-83.51421,"zip":"37861","miles_from_dt":13.82},{"city":"Andersonville","state_name":"Tennessee","lat":36.22862,"lng":-84.00947,"zip":"37705","miles_from_dt":14.11},{"city":"Knoxville","state_name":"Tennessee","lat":36.02928,"lng":-83.88633,"zip":"37901","miles_from_dt":14.44},{"city":"New Tazewell","state_name":"Tennessee","lat":36.41221,"lng":-83.68196,"zip":"37825","miles_from_dt":14.51},{"city":"Lone Mountain","state_name":"Tennessee","lat":36.39204,"lng":-83.58463,"zip":"37773","miles_from_dt":15.8},{"city":"Knoxville","state_name":"Tennessee","lat":35.97988,"lng":-83.79937,"zip":"37914","miles_from_dt":16.1},{"city":"Heiskell","state_name":"Tennessee","lat":36.13059,"lng":-84.03305,"zip":"37754","miles_from_dt":16.35},{"city":"Knoxville","state_name":"Tennessee","lat":36.00156,"lng":-83.91265,"zip":"37917","miles_from_dt":16.83},{"city":"Knoxville","state_name":"Tennessee","lat":35.99924,"lng":-83.91077,"zip":"37927","miles_from_dt":16.92},{"city":"Norris","state_name":"Tennessee","lat":36.19788,"lng":-84.06889,"zip":"37828","miles_from_dt":17.4},{"city":"New Tazewell","state_name":"Tennessee","lat":36.43414,"lng":-83.60662,"zip":"37824","miles_from_dt":17.55},{"city":"Jefferson City","state_name":"Tennessee","lat":36.10773,"lng":-83.46443,"zip":"37760","miles_from_dt":17.89},{"city":"Speedwell","state_name":"Tennessee","lat":36.46319,"lng":-83.83562,"zip":"37870","miles_from_dt":17.93},{"city":"Kodak","state_name":"Tennessee","lat":35.97074,"lng":-83.61585,"zip":"37764","miles_from_dt":18.37},{"city":"Knoxville","state_name":"Tennessee","lat":35.97057,"lng":-83.90002,"zip":"37915","miles_from_dt":18.38},{"city":"Arthur","state_name":"Tennessee","lat":36.42538,"lng":-83.55804,"zip":"37707","miles_from_dt":18.52},{"city":"Knoxville","state_name":"Tennessee","lat":35.93758,"lng":-83.75048,"zip":"37998","miles_from_dt":18.85},{"city":"Knoxville","state_name":"Tennessee","lat":36.00849,"lng":-83.98465,"zip":"37912","miles_from_dt":18.86},{"city":"Knoxville","state_name":"Tennessee","lat":35.96541,"lng":-83.90951,"zip":"37997","miles_from_dt":18.93},{"city":"Powell","state_name":"Tennessee","lat":36.0578,"lng":-84.04476,"zip":"37849","miles_from_dt":19.2},{"city":"Knoxville","state_name":"Tennessee","lat":35.96347,"lng":-83.91558,"zip":"37995","miles_from_dt":19.21},{"city":"Knoxville","state_name":"Tennessee","lat":35.96241,"lng":-83.91597,"zip":"37929","miles_from_dt":19.28},{"city":"Knoxville","state_name":"Tennessee","lat":35.96203,"lng":-83.92039,"zip":"37902","miles_from_dt":19.42},{"city":"Talbott","state_name":"Tennessee","lat":36.15176,"lng":-83.40503,"zip":"37877","miles_from_dt":20.14},{"city":"Knoxville","state_name":"Tennessee","lat":35.95603,"lng":-83.93704,"zip":"37996","miles_from_dt":20.23},{"city":"Knoxville","state_name":"Tennessee","lat":35.95309,"lng":-83.9335,"zip":"37916","miles_from_dt":20.31},{"city":"Knoxville","state_name":"Tennessee","lat":35.97877,"lng":-84.00028,"zip":"37921","miles_from_dt":20.98},{"city":"Knoxville","state_name":"Tennessee","lat":35.91084,"lng":-83.85909,"zip":"37920","miles_from_dt":21.45},{"city":"Morristown","state_name":"Tennessee","lat":36.19212,"lng":-83.37253,"zip":"37816","miles_from_dt":21.58},{"city":"La Follette","state_name":"Tennessee","lat":36.39958,"lng":-84.07275,"zip":"37766","miles_from_dt":21.86},{"city":"Knoxville","state_name":"Tennessee","lat":35.89962,"lng":-83.85519,"zip":"37940","miles_from_dt":22.14},{"city":"Rocky Top","state_name":"Tennessee","lat":36.21799,"lng":-84.15532,"zip":"37769","miles_from_dt":22.21},{"city":"Jacksboro","state_name":"Tennessee","lat":36.30182,"lng":-84.14371,"zip":"37757","miles_from_dt":22.44},{"city":"Clinton","state_name":"Tennessee","lat":36.09103,"lng":-84.13209,"zip":"37717","miles_from_dt":22.5},{"city":"Cumberland Gap","state_name":"Tennessee","lat":36.54457,"lng":-83.69328,"zip":"37724","miles_from_dt":23.29},{"city":"Knoxville","state_name":"Tennessee","lat":35.94716,"lng":-84.02275,"zip":"37909","miles_from_dt":23.46},{"city":"Knoxville","state_name":"Tennessee","lat":35.94469,"lng":-84.02266,"zip":"37950","miles_from_dt":23.59},{"city":"Morristown","state_name":"Tennessee","lat":36.23604,"lng":-83.3317,"zip":"37814","miles_from_dt":23.87},{"city":"Tazewell","state_name":"Tennessee","lat":36.48403,"lng":-83.48705,"zip":"37879","miles_from_dt":24.14},{"city":"Clinton","state_name":"Tennessee","lat":36.09919,"lng":-84.16822,"zip":"37716","miles_from_dt":24.2},{"city":"Pruden","state_name":"Tennessee","lat":36.56558,"lng":-83.79244,"zip":"37851","miles_from_dt":24.53},{"city":"Knoxville","state_name":"Tennessee","lat":35.91429,"lng":-84.00106,"zip":"37919","miles_from_dt":24.57},{"city":"Knoxville","state_name":"Tennessee","lat":35.91586,"lng":-84.00428,"zip":"37939","miles_from_dt":24.58},{"city":"Bean Station","state_name":"Tennessee","lat":36.32312,"lng":-83.33588,"zip":"37708","miles_from_dt":24.8},{"city":"Dandridge","state_name":"Tennessee","lat":35.99778,"lng":-83.39678,"zip":"37725","miles_from_dt":24.99},{"city":"Seymour","state_name":"Tennessee","lat":35.84609,"lng":-83.73974,"zip":"37865","miles_from_dt":25.18},{"city":"Duff","state_name":"Tennessee","lat":36.51412,"lng":-84.03276,"zip":"37729","miles_from_dt":25.92},{"city":"Morristown","state_name":"Tennessee","lat":36.21365,"lng":-83.29375,"zip":"37815","miles_from_dt":25.94},{"city":"Clairfield","state_name":"Tennessee","lat":36.55323,"lng":-83.95894,"zip":"37715","miles_from_dt":26.13},{"city":"Knoxville","state_name":"Tennessee","lat":35.97611,"lng":-84.12496,"zip":"37931","miles_from_dt":26.15},{"city":"Shawanee","state_name":"Tennessee","lat":36.57992,"lng":-83.63951,"zip":"37867","miles_from_dt":26.28},{"city":"Knoxville","state_name":"Tennessee","lat":35.93017,"lng":-84.07751,"zip":"37930","miles_from_dt":26.36},{"city":"Sevierville","state_name":"Tennessee","lat":35.85686,"lng":-83.57732,"zip":"37864","miles_from_dt":26.42},{"city":"Thorn Hill","state_name":"Tennessee","lat":36.39861,"lng":-83.34393,"zip":"37881","miles_from_dt":26.48},{"city":"Knoxville","state_name":"Tennessee","lat":35.92697,"lng":-84.08076,"zip":"37923","miles_from_dt":26.64},{"city":"Harrogate","state_name":"Tennessee","lat":36.56735,"lng":-83.55422,"zip":"37752","miles_from_dt":27.07},{"city":"Rockford","state_name":"Tennessee","lat":35.83723,"lng":-83.90854,"zip":"37853","miles_from_dt":27.11},{"city":"Eagan","state_name":"Tennessee","lat":36.56837,"lng":-83.97357,"zip":"37730","miles_from_dt":27.42},{"city":"White Pine","state_name":"Tennessee","lat":36.08144,"lng":-83.29299,"zip":"37890","miles_from_dt":27.49},{"city":"Morristown","state_name":"Tennessee","lat":36.17644,"lng":-83.26542,"zip":"37813","miles_from_dt":27.63},{"city":"Caryville","state_name":"Tennessee","lat":36.26656,"lng":-84.25277,"zip":"37714","miles_from_dt":27.9},{"city":"Sevierville","state_name":"Tennessee","lat":35.8645,"lng":-83.47876,"zip":"37876","miles_from_dt":28.55},{"city":"Middlesboro","state_name":"Kentucky","lat":36.62469,"lng":-83.73461,"zip":"40965","miles_from_dt":28.56},{"city":"Lowland","state_name":"Tennessee","lat":36.16205,"lng":-83.24906,"zip":"37778","miles_from_dt":28.64},{"city":"Frakes","state_name":"Kentucky","lat":36.60991,"lng":-83.92988,"zip":"40940","miles_from_dt":29.13},{"city":"Maryville","state_name":"Tennessee","lat":35.79228,"lng":-83.89311,"zip":"37804","miles_from_dt":29.84}],"targetCityZipCode":"37779","targetCityState":"Tennessee"},"__N_SSG":true}