{"pageProps":{"stateName":"Tennessee","cityName":"martin","nearbyCities":[{"city":"Martin","state_name":"Tennessee","lat":36.34433,"lng":-88.85826,"zip":"38238","miles_from_dt":2.01},{"city":"South Fulton","state_name":"Tennessee","lat":36.46386,"lng":-88.88397,"zip":"38257","miles_from_dt":7.47},{"city":"Sharon","state_name":"Tennessee","lat":36.23954,"lng":-88.86483,"zip":"38255","miles_from_dt":8.78},{"city":"Dresden","state_name":"Tennessee","lat":36.31764,"lng":-88.67937,"zip":"38225","miles_from_dt":9.08},{"city":"Dukedom","state_name":"Tennessee","lat":36.47722,"lng":-88.66382,"zip":"38226","miles_from_dt":12.18},{"city":"Fulton","state_name":"Kentucky","lat":36.54593,"lng":-88.87456,"zip":"42041","miles_from_dt":12.77},{"city":"Union City","state_name":"Tennessee","lat":36.42585,"lng":-89.04984,"zip":"38281","miles_from_dt":12.89},{"city":"Rives","state_name":"Tennessee","lat":36.29821,"lng":-89.05822,"zip":"38253","miles_from_dt":13.43},{"city":"Palmersville","state_name":"Tennessee","lat":36.42852,"lng":-88.58964,"zip":"38241","miles_from_dt":14.2},{"city":"Water Valley","state_name":"Kentucky","lat":36.56942,"lng":-88.80044,"zip":"42085","miles_from_dt":14.27},{"city":"Greenfield","state_name":"Tennessee","lat":36.15592,"lng":-88.77154,"zip":"38230","miles_from_dt":14.74},{"city":"Gleason","state_name":"Tennessee","lat":36.22108,"lng":-88.60939,"zip":"38229","miles_from_dt":15.84},{"city":"Kenton","state_name":"Tennessee","lat":36.20411,"lng":-89.04622,"zip":"38233","miles_from_dt":16.28},{"city":"Union City","state_name":"Tennessee","lat":36.43214,"lng":-89.11583,"zip":"38261","miles_from_dt":16.52},{"city":"Woodland Mills","state_name":"Tennessee","lat":36.43031,"lng":-89.123,"zip":"38271","miles_from_dt":16.87},{"city":"Rutherford","state_name":"Tennessee","lat":36.13253,"lng":-88.9652,"zip":"38369","miles_from_dt":17.62},{"city":"Wingo","state_name":"Kentucky","lat":36.61808,"lng":-88.75409,"zip":"42088","miles_from_dt":18.04},{"city":"Cottage Grove","state_name":"Tennessee","lat":36.39172,"lng":-88.48774,"zip":"38224","miles_from_dt":19.27},{"city":"Sedalia","state_name":"Kentucky","lat":36.55978,"lng":-88.57611,"zip":"42079","miles_from_dt":19.61},{"city":"Lynnville","state_name":"Kentucky","lat":36.55928,"lng":-88.56838,"zip":"42063","miles_from_dt":19.9},{"city":"Bradford","state_name":"Tennessee","lat":36.06873,"lng":-88.81547,"zip":"38316","miles_from_dt":20.38},{"city":"Como","state_name":"Tennessee","lat":36.35779,"lng":-88.4638,"zip":"38223","miles_from_dt":20.52},{"city":"Troy","state_name":"Tennessee","lat":36.36961,"lng":-89.21128,"zip":"38260","miles_from_dt":21.17},{"city":"Trimble","state_name":"Tennessee","lat":36.20204,"lng":-89.18439,"zip":"38259","miles_from_dt":22.64},{"city":"Idlewild","state_name":"Tennessee","lat":36.02863,"lng":-88.8013,"zip":"38346","miles_from_dt":23.19},{"city":"Dyer","state_name":"Tennessee","lat":36.0675,"lng":-89.03316,"zip":"38330","miles_from_dt":23.34},{"city":"McKenzie","state_name":"Tennessee","lat":36.12335,"lng":-88.53131,"zip":"38201","miles_from_dt":23.6},{"city":"Clinton","state_name":"Kentucky","lat":36.68741,"lng":-88.98864,"zip":"42031","miles_from_dt":23.95},{"city":"Yorkville","state_name":"Tennessee","lat":36.10315,"lng":-89.12134,"zip":"38389","miles_from_dt":24.2},{"city":"Hickman","state_name":"Kentucky","lat":36.54675,"lng":-89.20347,"zip":"42050","miles_from_dt":24.24},{"city":"Henry","state_name":"Tennessee","lat":36.21277,"lng":-88.42442,"zip":"38231","miles_from_dt":25.01},{"city":"Farmington","state_name":"Kentucky","lat":36.62454,"lng":-88.50371,"zip":"42040","miles_from_dt":25.61},{"city":"Trezevant","state_name":"Tennessee","lat":36.02094,"lng":-88.61188,"zip":"38258","miles_from_dt":26.66},{"city":"Puryear","state_name":"Tennessee","lat":36.44636,"lng":-88.3539,"zip":"38251","miles_from_dt":27.22},{"city":"Atwood","state_name":"Tennessee","lat":35.98836,"lng":-88.673,"zip":"38220","miles_from_dt":27.38},{"city":"Hornbeak","state_name":"Tennessee","lat":36.34828,"lng":-89.32295,"zip":"38232","miles_from_dt":27.42},{"city":"Mayfield","state_name":"Kentucky","lat":36.73328,"lng":-88.6403,"zip":"42066","miles_from_dt":27.59},{"city":"Paris","state_name":"Tennessee","lat":36.3076,"lng":-88.33244,"zip":"38242","miles_from_dt":28.12},{"city":"Obion","state_name":"Tennessee","lat":36.25091,"lng":-89.32045,"zip":"38240","miles_from_dt":28.37},{"city":"Trenton","state_name":"Tennessee","lat":35.96925,"lng":-88.99186,"zip":"38382","miles_from_dt":28.66},{"city":"Samburg","state_name":"Tennessee","lat":36.37444,"lng":-89.34662,"zip":"38254","miles_from_dt":28.73},{"city":"Newbern","state_name":"Tennessee","lat":36.11132,"lng":-89.24113,"zip":"38059","miles_from_dt":28.76},{"city":"Fancy Farm","state_name":"Kentucky","lat":36.78535,"lng":-88.82809,"zip":"42039","miles_from_dt":29.05},{"city":"McLemoresville","state_name":"Tennessee","lat":35.99116,"lng":-88.58109,"zip":"38235","miles_from_dt":29.28}],"targetCityZipCode":"38237","targetCityState":"Tennessee"},"__N_SSG":true}