{"pageProps":{"stateName":"Tennessee","cityName":"mooresburg","nearbyCities":[{"city":"Whitesburg","state_name":"Tennessee","lat":36.29172,"lng":-83.13992,"zip":"37891","miles_from_dt":6.05},{"city":"Bean Station","state_name":"Tennessee","lat":36.32312,"lng":-83.33588,"zip":"37708","miles_from_dt":7.14},{"city":"Russellville","state_name":"Tennessee","lat":36.24492,"lng":-83.18441,"zip":"37860","miles_from_dt":7.81},{"city":"Thorn Hill","state_name":"Tennessee","lat":36.39861,"lng":-83.34393,"zip":"37881","miles_from_dt":7.81},{"city":"Morristown","state_name":"Tennessee","lat":36.23604,"lng":-83.3317,"zip":"37814","miles_from_dt":10.53},{"city":"Morristown","state_name":"Tennessee","lat":36.21365,"lng":-83.29375,"zip":"37815","miles_from_dt":10.74},{"city":"Bulls Gap","state_name":"Tennessee","lat":36.28102,"lng":-83.03885,"zip":"37711","miles_from_dt":11.06},{"city":"Sneedville","state_name":"Tennessee","lat":36.51555,"lng":-83.24579,"zip":"37869","miles_from_dt":11.17},{"city":"Morristown","state_name":"Tennessee","lat":36.17644,"lng":-83.26542,"zip":"37813","miles_from_dt":12.68},{"city":"Lowland","state_name":"Tennessee","lat":36.16205,"lng":-83.24906,"zip":"37778","miles_from_dt":13.48},{"city":"Mohawk","state_name":"Tennessee","lat":36.17984,"lng":-83.10296,"zip":"37810","miles_from_dt":13.62},{"city":"Morristown","state_name":"Tennessee","lat":36.19212,"lng":-83.37253,"zip":"37816","miles_from_dt":14.32},{"city":"Rogersville","state_name":"Tennessee","lat":36.42145,"lng":-82.94269,"zip":"37857","miles_from_dt":15.81},{"city":"Midway","state_name":"Tennessee","lat":36.15431,"lng":-83.03611,"zip":"37809","miles_from_dt":17.08},{"city":"Kyles Ford","state_name":"Tennessee","lat":36.57219,"lng":-83.06534,"zip":"37765","miles_from_dt":17.09},{"city":"Eidson","state_name":"Tennessee","lat":36.54383,"lng":-83.00873,"zip":"37731","miles_from_dt":17.31},{"city":"Tazewell","state_name":"Tennessee","lat":36.48403,"lng":-83.48705,"zip":"37879","miles_from_dt":17.59},{"city":"Talbott","state_name":"Tennessee","lat":36.15176,"lng":-83.40503,"zip":"37877","miles_from_dt":17.63},{"city":"Mosheim","state_name":"Tennessee","lat":36.18581,"lng":-82.97233,"zip":"37818","miles_from_dt":17.88},{"city":"Rutledge","state_name":"Tennessee","lat":36.24516,"lng":-83.51421,"zip":"37861","miles_from_dt":18.38},{"city":"Bybee","state_name":"Tennessee","lat":36.09073,"lng":-83.13373,"zip":"37713","miles_from_dt":18.81},{"city":"White Pine","state_name":"Tennessee","lat":36.08144,"lng":-83.29299,"zip":"37890","miles_from_dt":19.41},{"city":"Arthur","state_name":"Tennessee","lat":36.42538,"lng":-83.55804,"zip":"37707","miles_from_dt":19.75},{"city":"Lone Mountain","state_name":"Tennessee","lat":36.39204,"lng":-83.58463,"zip":"37773","miles_from_dt":20.8},{"city":"Rose Hill","state_name":"Virginia","lat":36.65051,"lng":-83.3295,"zip":"24281","miles_from_dt":21.32},{"city":"Jefferson City","state_name":"Tennessee","lat":36.10773,"lng":-83.46443,"zip":"37760","miles_from_dt":22.07},{"city":"Jonesville","state_name":"Virginia","lat":36.67164,"lng":-83.15079,"zip":"24263","miles_from_dt":22.08},{"city":"Greeneville","state_name":"Tennessee","lat":36.2784,"lng":-82.82631,"zip":"37745","miles_from_dt":22.3},{"city":"Washburn","state_name":"Tennessee","lat":36.31063,"lng":-83.61266,"zip":"37888","miles_from_dt":22.43},{"city":"New Tazewell","state_name":"Tennessee","lat":36.43414,"lng":-83.60662,"zip":"37824","miles_from_dt":22.53},{"city":"Blackwater","state_name":"Virginia","lat":36.63398,"lng":-82.9943,"zip":"24221","miles_from_dt":22.77},{"city":"Surgoinsville","state_name":"Tennessee","lat":36.52446,"lng":-82.84754,"zip":"37873","miles_from_dt":23.52},{"city":"Harrogate","state_name":"Tennessee","lat":36.56735,"lng":-83.55422,"zip":"37752","miles_from_dt":23.9},{"city":"Ewing","state_name":"Virginia","lat":36.62708,"lng":-83.50767,"zip":"24248","miles_from_dt":24.84},{"city":"Parrottsville","state_name":"Tennessee","lat":36.01137,"lng":-83.04979,"zip":"37843","miles_from_dt":25.45},{"city":"Greeneville","state_name":"Tennessee","lat":36.16334,"lng":-82.81243,"zip":"37744","miles_from_dt":26.07},{"city":"Newport","state_name":"Tennessee","lat":35.97688,"lng":-83.19506,"zip":"37821","miles_from_dt":26.13},{"city":"New Tazewell","state_name":"Tennessee","lat":36.41221,"lng":-83.68196,"zip":"37825","miles_from_dt":26.36},{"city":"Dandridge","state_name":"Tennessee","lat":35.99778,"lng":-83.39678,"zip":"37725","miles_from_dt":26.69},{"city":"New Market","state_name":"Tennessee","lat":36.08364,"lng":-83.56715,"zip":"37820","miles_from_dt":27.2},{"city":"Powder Springs","state_name":"Tennessee","lat":36.23701,"lng":-83.68179,"zip":"37848","miles_from_dt":27.34},{"city":"Afton","state_name":"Tennessee","lat":36.22619,"lng":-82.7498,"zip":"37616","miles_from_dt":27.42},{"city":"Newport","state_name":"Tennessee","lat":35.95712,"lng":-83.19098,"zip":"37822","miles_from_dt":27.5},{"city":"Greeneville","state_name":"Tennessee","lat":36.06663,"lng":-82.85659,"zip":"37743","miles_from_dt":28.22},{"city":"Shawanee","state_name":"Tennessee","lat":36.57992,"lng":-83.63951,"zip":"37867","miles_from_dt":28.28},{"city":"Blaine","state_name":"Tennessee","lat":36.16798,"lng":-83.66479,"zip":"37709","miles_from_dt":28.28},{"city":"Harlan","state_name":"Kentucky","lat":36.76457,"lng":-83.33454,"zip":"40831","miles_from_dt":28.98},{"city":"Pennington Gap","state_name":"Virginia","lat":36.74948,"lng":-83.03037,"zip":"24277","miles_from_dt":29.03},{"city":"Cranks","state_name":"Kentucky","lat":36.77552,"lng":-83.16515,"zip":"40820","miles_from_dt":29.09},{"city":"Ben Hur","state_name":"Virginia","lat":36.75338,"lng":-83.03614,"zip":"24218","miles_from_dt":29.17},{"city":"Pathfork","state_name":"Kentucky","lat":36.74048,"lng":-83.44567,"zip":"40863","miles_from_dt":29.49},{"city":"Cumberland Gap","state_name":"Tennessee","lat":36.54457,"lng":-83.69328,"zip":"37724","miles_from_dt":29.69},{"city":"Gulston","state_name":"Kentucky","lat":36.77644,"lng":-83.33114,"zip":"40830","miles_from_dt":29.74},{"city":"Church Hill","state_name":"Tennessee","lat":36.53261,"lng":-82.7267,"zip":"37642","miles_from_dt":29.79},{"city":"Cawood","state_name":"Kentucky","lat":36.7876,"lng":-83.22876,"zip":"40815","miles_from_dt":29.8},{"city":"Miracle","state_name":"Kentucky","lat":36.70574,"lng":-83.52939,"zip":"40856","miles_from_dt":29.84}],"targetCityZipCode":"37811","targetCityState":"Tennessee"},"__N_SSG":true}