{"pageProps":{"stateName":"Tennessee","cityName":"olivehill","nearbyCities":[{"city":"Savannah","state_name":"Tennessee","lat":35.16516,"lng":-88.14523,"zip":"38372","miles_from_dt":9.62},{"city":"Clifton","state_name":"Tennessee","lat":35.40706,"lng":-87.96588,"zip":"38425","miles_from_dt":10.49},{"city":"Bath Springs","state_name":"Tennessee","lat":35.43842,"lng":-88.09737,"zip":"38311","miles_from_dt":12.83},{"city":"Collinwood","state_name":"Tennessee","lat":35.18523,"lng":-87.80143,"zip":"38450","miles_from_dt":13.63},{"city":"Lutts","state_name":"Tennessee","lat":35.0771,"lng":-87.92134,"zip":"38471","miles_from_dt":14.02},{"city":"Waynesboro","state_name":"Tennessee","lat":35.33281,"lng":-87.77659,"zip":"38485","miles_from_dt":14.77},{"city":"Saltillo","state_name":"Tennessee","lat":35.38942,"lng":-88.2465,"zip":"38370","miles_from_dt":15.35},{"city":"Morris Chapel","state_name":"Tennessee","lat":35.31897,"lng":-88.29232,"zip":"38361","miles_from_dt":15.69},{"city":"Crump","state_name":"Tennessee","lat":35.22348,"lng":-88.30085,"zip":"38327","miles_from_dt":15.92},{"city":"Cypress Inn","state_name":"Tennessee","lat":35.07898,"lng":-87.79239,"zip":"38452","miles_from_dt":18.19},{"city":"Pickwick Dam","state_name":"Tennessee","lat":35.05383,"lng":-88.23627,"zip":"38365","miles_from_dt":18.76},{"city":"Sardis","state_name":"Tennessee","lat":35.42346,"lng":-88.2967,"zip":"38371","miles_from_dt":19.02},{"city":"Milledgeville","state_name":"Tennessee","lat":35.37222,"lng":-88.35109,"zip":"38359","miles_from_dt":20.01},{"city":"Decaturville","state_name":"Tennessee","lat":35.54541,"lng":-88.11283,"zip":"38329","miles_from_dt":20.15},{"city":"Shiloh","state_name":"Tennessee","lat":35.12974,"lng":-88.34447,"zip":"38376","miles_from_dt":20.34},{"city":"Counce","state_name":"Tennessee","lat":35.04419,"lng":-88.27514,"zip":"38326","miles_from_dt":20.72},{"city":"Scotts Hill","state_name":"Tennessee","lat":35.51192,"lng":-88.23469,"zip":"38374","miles_from_dt":20.93},{"city":"Adamsville","state_name":"Tennessee","lat":35.26175,"lng":-88.39832,"zip":"38310","miles_from_dt":21.2},{"city":"Waterloo","state_name":"Alabama","lat":34.95367,"lng":-88.02529,"zip":"35677","miles_from_dt":21.28},{"city":"Stantonville","state_name":"Tennessee","lat":35.16388,"lng":-88.42825,"zip":"38379","miles_from_dt":23.89},{"city":"Reagan","state_name":"Tennessee","lat":35.50191,"lng":-88.35659,"zip":"38368","miles_from_dt":25.03},{"city":"Iron City","state_name":"Tennessee","lat":35.06802,"lng":-87.64494,"zip":"38463","miles_from_dt":25.27},{"city":"Linden","state_name":"Tennessee","lat":35.60487,"lng":-87.86054,"zip":"37096","miles_from_dt":25.33},{"city":"Enville","state_name":"Tennessee","lat":35.41978,"lng":-88.42934,"zip":"38332","miles_from_dt":25.37},{"city":"Michie","state_name":"Tennessee","lat":35.04888,"lng":-88.4112,"zip":"38357","miles_from_dt":26.44},{"city":"Cloverdale","state_name":"Alabama","lat":34.93688,"lng":-87.7717,"zip":"35617","miles_from_dt":26.59},{"city":"Westpoint","state_name":"Tennessee","lat":35.17306,"lng":-87.54029,"zip":"38486","miles_from_dt":28.01},{"city":"Florence","state_name":"Alabama","lat":34.87586,"lng":-87.79645,"zip":"35633","miles_from_dt":29.59},{"city":"Parsons","state_name":"Tennessee","lat":35.68625,"lng":-88.11051,"zip":"38363","miles_from_dt":29.63}],"targetCityZipCode":"38475","targetCityState":"Tennessee"},"__N_SSG":true}