{"pageProps":{"stateName":"Tennessee","cityName":"palmyra","nearbyCities":[{"city":"Cunningham","state_name":"Tennessee","lat":36.37534,"lng":-87.40095,"zip":"37052","miles_from_dt":6.12},{"city":"Woodlawn","state_name":"Tennessee","lat":36.50726,"lng":-87.52392,"zip":"37191","miles_from_dt":6.71},{"city":"Cumberland City","state_name":"Tennessee","lat":36.3713,"lng":-87.63586,"zip":"37050","miles_from_dt":8.01},{"city":"Slayden","state_name":"Tennessee","lat":36.29005,"lng":-87.46943,"zip":"37165","miles_from_dt":8.57},{"city":"Cumberland Furnace","state_name":"Tennessee","lat":36.30426,"lng":-87.41405,"zip":"37051","miles_from_dt":8.85},{"city":"Indian Mound","state_name":"Tennessee","lat":36.4826,"lng":-87.65939,"zip":"37079","miles_from_dt":10.08},{"city":"Southside","state_name":"Tennessee","lat":36.36442,"lng":-87.30365,"zip":"37171","miles_from_dt":11.48},{"city":"Vanleer","state_name":"Tennessee","lat":36.241,"lng":-87.49706,"zip":"37181","miles_from_dt":11.77},{"city":"Clarksville","state_name":"Tennessee","lat":36.56894,"lng":-87.41225,"zip":"37042","miles_from_dt":11.92},{"city":"Clarksville","state_name":"Tennessee","lat":36.52408,"lng":-87.33287,"zip":"37040","miles_from_dt":12.16},{"city":"Clarksville","state_name":"Tennessee","lat":36.52938,"lng":-87.33763,"zip":"37044","miles_from_dt":12.2},{"city":"Erin","state_name":"Tennessee","lat":36.28918,"lng":-87.66528,"zip":"37061","miles_from_dt":12.46},{"city":"Clarksville","state_name":"Tennessee","lat":36.5612,"lng":-87.34874,"zip":"37041","miles_from_dt":13.35},{"city":"Fort Campbell","state_name":"Kentucky","lat":36.6381,"lng":-87.47258,"zip":"42223","miles_from_dt":15.7},{"city":"Clarksville","state_name":"Tennessee","lat":36.49842,"lng":-87.23197,"zip":"37043","miles_from_dt":16.14},{"city":"Tennessee Ridge","state_name":"Tennessee","lat":36.3195,"lng":-87.78694,"zip":"37178","miles_from_dt":17.16},{"city":"Charlotte","state_name":"Tennessee","lat":36.23979,"lng":-87.27182,"zip":"37036","miles_from_dt":17.44},{"city":"Oak Grove","state_name":"Kentucky","lat":36.68386,"lng":-87.44714,"zip":"42262","miles_from_dt":19.01},{"city":"La Fayette","state_name":"Kentucky","lat":36.66435,"lng":-87.63852,"zip":"42254","miles_from_dt":19.03},{"city":"Big Rock","state_name":"Tennessee","lat":36.58409,"lng":-87.78302,"zip":"37023","miles_from_dt":19.69},{"city":"Chapmansboro","state_name":"Tennessee","lat":36.3849,"lng":-87.12602,"zip":"37035","miles_from_dt":20.99},{"city":"Dover","state_name":"Tennessee","lat":36.47872,"lng":-87.8807,"zip":"37058","miles_from_dt":21.65},{"city":"Herndon","state_name":"Kentucky","lat":36.7196,"lng":-87.61225,"zip":"42236","miles_from_dt":22.12},{"city":"Stewart","state_name":"Tennessee","lat":36.32349,"lng":-87.89678,"zip":"37175","miles_from_dt":22.89},{"city":"Dickson","state_name":"Tennessee","lat":36.07921,"lng":-87.44238,"zip":"37055","miles_from_dt":23.15},{"city":"Dickson","state_name":"Tennessee","lat":36.0768,"lng":-87.37717,"zip":"37056","miles_from_dt":24.1},{"city":"Adams","state_name":"Tennessee","lat":36.5675,"lng":-87.10894,"zip":"37010","miles_from_dt":24.34},{"city":"Bumpus Mills","state_name":"Tennessee","lat":36.62793,"lng":-87.85723,"zip":"37028","miles_from_dt":24.8},{"city":"White Bluff","state_name":"Tennessee","lat":36.1471,"lng":-87.19885,"zip":"37187","miles_from_dt":24.85},{"city":"Ashland City","state_name":"Tennessee","lat":36.28798,"lng":-87.08113,"zip":"37015","miles_from_dt":24.93},{"city":"McEwen","state_name":"Tennessee","lat":36.06625,"lng":-87.63741,"zip":"37101","miles_from_dt":25},{"city":"Trenton","state_name":"Kentucky","lat":36.72749,"lng":-87.26959,"zip":"42286","miles_from_dt":25.3},{"city":"Pembroke","state_name":"Kentucky","lat":36.76562,"lng":-87.3601,"zip":"42266","miles_from_dt":25.64},{"city":"Pleasant View","state_name":"Tennessee","lat":36.4047,"lng":-87.03123,"zip":"37146","miles_from_dt":26.19},{"city":"Guthrie","state_name":"Kentucky","lat":36.70656,"lng":-87.17598,"zip":"42234","miles_from_dt":27.22},{"city":"Cedar Hill","state_name":"Tennessee","lat":36.52518,"lng":-87.01647,"zip":"37032","miles_from_dt":28.1},{"city":"Burns","state_name":"Tennessee","lat":36.04253,"lng":-87.2678,"zip":"37029","miles_from_dt":28.59}],"targetCityZipCode":"37142","targetCityState":"Tennessee"},"__N_SSG":true}