{"pageProps":{"stateName":"Tennessee","cityName":"palmer","nearbyCities":[{"city":"Gruetli Laager","state_name":"Tennessee","lat":35.37386,"lng":-85.63222,"zip":"37339","miles_from_dt":5.2},{"city":"Dunlap","state_name":"Tennessee","lat":35.42251,"lng":-85.39993,"zip":"37327","miles_from_dt":8.62},{"city":"Coalmont","state_name":"Tennessee","lat":35.37703,"lng":-85.70245,"zip":"37313","miles_from_dt":9.17},{"city":"Beersheba Springs","state_name":"Tennessee","lat":35.45795,"lng":-85.70195,"zip":"37305","miles_from_dt":10.85},{"city":"Whitwell","state_name":"Tennessee","lat":35.21046,"lng":-85.51819,"zip":"37397","miles_from_dt":11.26},{"city":"Tracy City","state_name":"Tennessee","lat":35.27745,"lng":-85.71427,"zip":"37387","miles_from_dt":11.84},{"city":"Altamont","state_name":"Tennessee","lat":35.42765,"lng":-85.80295,"zip":"37301","miles_from_dt":15.31},{"city":"Signal Mountain","state_name":"Tennessee","lat":35.21243,"lng":-85.3389,"zip":"37377","miles_from_dt":15.86},{"city":"Sequatchie","state_name":"Tennessee","lat":35.16404,"lng":-85.65818,"zip":"37374","miles_from_dt":15.87},{"city":"Pelham","state_name":"Tennessee","lat":35.32054,"lng":-85.84224,"zip":"37366","miles_from_dt":17.44},{"city":"Monteagle","state_name":"Tennessee","lat":35.22952,"lng":-85.82393,"zip":"37356","miles_from_dt":18.84},{"city":"Graysville","state_name":"Tennessee","lat":35.42356,"lng":-85.20942,"zip":"37338","miles_from_dt":18.99},{"city":"Chattanooga","state_name":"Tennessee","lat":35.11757,"lng":-85.40429,"zip":"37405","miles_from_dt":19.2},{"city":"Chattanooga","state_name":"Tennessee","lat":35.14105,"lng":-85.34866,"zip":"37422","miles_from_dt":19.3},{"city":"Soddy Daisy","state_name":"Tennessee","lat":35.29407,"lng":-85.17429,"zip":"37379","miles_from_dt":21.37},{"city":"Viola","state_name":"Tennessee","lat":35.53918,"lng":-85.86047,"zip":"37394","miles_from_dt":21.4},{"city":"Mcminnville","state_name":"Tennessee","lat":35.6436,"lng":-85.74314,"zip":"37110","miles_from_dt":21.89},{"city":"Jasper","state_name":"Tennessee","lat":35.06088,"lng":-85.61894,"zip":"37347","miles_from_dt":21.97},{"city":"Soddy Daisy","state_name":"Tennessee","lat":35.27505,"lng":-85.16771,"zip":"37384","miles_from_dt":22.1},{"city":"Chattanooga","state_name":"Tennessee","lat":35.12735,"lng":-85.27932,"zip":"37415","miles_from_dt":22.45},{"city":"Spencer","state_name":"Tennessee","lat":35.68995,"lng":-85.42274,"zip":"38585","miles_from_dt":22.84},{"city":"Hillsboro","state_name":"Tennessee","lat":35.38175,"lng":-85.94937,"zip":"37342","miles_from_dt":23.11},{"city":"Hixson","state_name":"Tennessee","lat":35.16904,"lng":-85.20899,"zip":"37343","miles_from_dt":23.41},{"city":"Sewanee","state_name":"Tennessee","lat":35.20984,"lng":-85.91373,"zip":"37383","miles_from_dt":23.92},{"city":"Chattanooga","state_name":"Tennessee","lat":35.04052,"lng":-85.41734,"zip":"37419","miles_from_dt":23.94},{"city":"South Pittsburg","state_name":"Tennessee","lat":35.07265,"lng":-85.75754,"zip":"37380","miles_from_dt":24.07},{"city":"Guild","state_name":"Tennessee","lat":35.02085,"lng":-85.53179,"zip":"37340","miles_from_dt":24.27},{"city":"Bakewell","state_name":"Tennessee","lat":35.38222,"lng":-85.10889,"zip":"37304","miles_from_dt":24.36},{"city":"Lupton City","state_name":"Tennessee","lat":35.10073,"lng":-85.26135,"zip":"37351","miles_from_dt":24.51},{"city":"Sewanee","state_name":"Tennessee","lat":35.15355,"lng":-85.88173,"zip":"37375","miles_from_dt":24.53},{"city":"Sale Creek","state_name":"Tennessee","lat":35.39476,"lng":-85.10373,"zip":"37373","miles_from_dt":24.68},{"city":"Smartt","state_name":"Tennessee","lat":35.64737,"lng":-85.83397,"zip":"37378","miles_from_dt":25.15},{"city":"Pikeville","state_name":"Tennessee","lat":35.62959,"lng":-85.21832,"zip":"37367","miles_from_dt":25.35},{"city":"Mcminnville","state_name":"Tennessee","lat":35.68775,"lng":-85.77551,"zip":"37111","miles_from_dt":25.44},{"city":"Rock Island","state_name":"Tennessee","lat":35.73834,"lng":-85.62141,"zip":"38581","miles_from_dt":25.61},{"city":"Whiteside","state_name":"Tennessee","lat":35.00198,"lng":-85.50353,"zip":"37396","miles_from_dt":25.65},{"city":"Chattanooga","state_name":"Tennessee","lat":35.04897,"lng":-85.31217,"zip":"37450","miles_from_dt":25.79},{"city":"Chattanooga","state_name":"Tennessee","lat":35.04672,"lng":-85.31553,"zip":"37402","miles_from_dt":25.83},{"city":"Morrison","state_name":"Tennessee","lat":35.59454,"lng":-85.92003,"zip":"37357","miles_from_dt":26.31},{"city":"Chattanooga","state_name":"Tennessee","lat":35.0476,"lng":-85.29448,"zip":"37403","miles_from_dt":26.38},{"city":"Chattanooga","state_name":"Tennessee","lat":35.03852,"lng":-85.30885,"zip":"37401","miles_from_dt":26.51},{"city":"Chattanooga","state_name":"Tennessee","lat":35.07246,"lng":-85.24541,"zip":"37406","miles_from_dt":26.59},{"city":"Chattanooga","state_name":"Tennessee","lat":35.03048,"lng":-85.31237,"zip":"37408","miles_from_dt":26.89},{"city":"Decherd","state_name":"Tennessee","lat":35.25251,"lng":-86.00044,"zip":"37324","miles_from_dt":27.3},{"city":"Campaign","state_name":"Tennessee","lat":35.76982,"lng":-85.63268,"zip":"38550","miles_from_dt":27.86},{"city":"Chattanooga","state_name":"Tennessee","lat":35.0012,"lng":-85.34466,"zip":"37409","miles_from_dt":27.91},{"city":"Harrison","state_name":"Tennessee","lat":35.21386,"lng":-85.0834,"zip":"37341","miles_from_dt":28.05},{"city":"Chattanooga","state_name":"Tennessee","lat":35.02827,"lng":-85.27331,"zip":"37404","miles_from_dt":28.15},{"city":"Lookout Mountain","state_name":"Tennessee","lat":34.99445,"lng":-85.3516,"zip":"37350","miles_from_dt":28.19},{"city":"Cowan","state_name":"Tennessee","lat":35.17879,"lng":-85.97994,"zip":"37318","miles_from_dt":28.23},{"city":"Summitville","state_name":"Tennessee","lat":35.55777,"lng":-85.99317,"zip":"37382","miles_from_dt":28.55},{"city":"Chattanooga","state_name":"Tennessee","lat":35.002,"lng":-85.31366,"zip":"37410","miles_from_dt":28.6},{"city":"Chattanooga","state_name":"Tennessee","lat":35.09856,"lng":-85.15751,"zip":"37416","miles_from_dt":28.74},{"city":"Chattanooga","state_name":"Tennessee","lat":35.002,"lng":-85.28941,"zip":"37407","miles_from_dt":29.24},{"city":"Chattanooga","state_name":"Tennessee","lat":35.02655,"lng":-85.23026,"zip":"37411","miles_from_dt":29.62},{"city":"Chattanooga","state_name":"Tennessee","lat":35.0262,"lng":-85.23041,"zip":"37414","miles_from_dt":29.64},{"city":"Doyle","state_name":"Tennessee","lat":35.80692,"lng":-85.51334,"zip":"38559","miles_from_dt":29.96}],"targetCityZipCode":"37365","targetCityState":"Tennessee"},"__N_SSG":true}