{"pageProps":{"stateName":"Tennessee","cityName":"sewanee","nearbyCities":[{"city":"Sewanee","state_name":"Tennessee","lat":35.20984,"lng":-85.91373,"zip":"37383","miles_from_dt":4.28},{"city":"Cowan","state_name":"Tennessee","lat":35.17879,"lng":-85.97994,"zip":"37318","miles_from_dt":5.83},{"city":"Monteagle","state_name":"Tennessee","lat":35.22952,"lng":-85.82393,"zip":"37356","miles_from_dt":6.17},{"city":"Sherwood","state_name":"Tennessee","lat":35.04748,"lng":-85.95834,"zip":"37376","miles_from_dt":8.5},{"city":"South Pittsburg","state_name":"Tennessee","lat":35.07265,"lng":-85.75754,"zip":"37380","miles_from_dt":8.98},{"city":"Decherd","state_name":"Tennessee","lat":35.25251,"lng":-86.00044,"zip":"37324","miles_from_dt":9.57},{"city":"Pelham","state_name":"Tennessee","lat":35.32054,"lng":-85.84224,"zip":"37366","miles_from_dt":11.73},{"city":"Sequatchie","state_name":"Tennessee","lat":35.16404,"lng":-85.65818,"zip":"37374","miles_from_dt":12.68},{"city":"Tracy City","state_name":"Tennessee","lat":35.27745,"lng":-85.71427,"zip":"37387","miles_from_dt":12.76},{"city":"Winchester","state_name":"Tennessee","lat":35.18182,"lng":-86.13808,"zip":"37398","miles_from_dt":14.64},{"city":"Arnold Afb","state_name":"Tennessee","lat":35.32018,"lng":-86.06745,"zip":"37389","miles_from_dt":15.57},{"city":"Bridgeport","state_name":"Alabama","lat":34.95009,"lng":-85.75855,"zip":"35740","miles_from_dt":15.67},{"city":"Hillsboro","state_name":"Tennessee","lat":35.38175,"lng":-85.94937,"zip":"37342","miles_from_dt":16.19},{"city":"Jasper","state_name":"Tennessee","lat":35.06088,"lng":-85.61894,"zip":"37347","miles_from_dt":16.2},{"city":"Estill Springs","state_name":"Tennessee","lat":35.28411,"lng":-86.12967,"zip":"37330","miles_from_dt":16.67},{"city":"Belvidere","state_name":"Tennessee","lat":35.09776,"lng":-86.18928,"zip":"37306","miles_from_dt":17.84},{"city":"Stevenson","state_name":"Alabama","lat":34.89152,"lng":-85.88614,"zip":"35772","miles_from_dt":18.06},{"city":"Coalmont","state_name":"Tennessee","lat":35.37703,"lng":-85.70245,"zip":"37313","miles_from_dt":18.44},{"city":"Altamont","state_name":"Tennessee","lat":35.42765,"lng":-85.80295,"zip":"37301","miles_from_dt":19.41},{"city":"Gruetli Laager","state_name":"Tennessee","lat":35.37386,"lng":-85.63222,"zip":"37339","miles_from_dt":20.73},{"city":"Whitwell","state_name":"Tennessee","lat":35.21046,"lng":-85.51819,"zip":"37397","miles_from_dt":20.95},{"city":"Bryant","state_name":"Alabama","lat":34.91796,"lng":-85.64731,"zip":"35958","miles_from_dt":20.99},{"city":"Guild","state_name":"Tennessee","lat":35.02085,"lng":-85.53179,"zip":"37340","miles_from_dt":21.84},{"city":"Huntland","state_name":"Tennessee","lat":35.0366,"lng":-86.24299,"zip":"37345","miles_from_dt":22},{"city":"Tullahoma","state_name":"Tennessee","lat":35.35141,"lng":-86.19747,"zip":"37388","miles_from_dt":22.47},{"city":"Estillfork","state_name":"Alabama","lat":34.94101,"lng":-86.20002,"zip":"35745","miles_from_dt":23.24},{"city":"Beersheba Springs","state_name":"Tennessee","lat":35.45795,"lng":-85.70195,"zip":"37305","miles_from_dt":23.31},{"city":"Fackler","state_name":"Alabama","lat":34.8287,"lng":-85.99868,"zip":"35746","miles_from_dt":23.36},{"city":"Whiteside","state_name":"Tennessee","lat":35.00198,"lng":-85.50353,"zip":"37396","miles_from_dt":23.84},{"city":"Manchester","state_name":"Tennessee","lat":35.4676,"lng":-86.08333,"zip":"37349","miles_from_dt":24.46},{"city":"Palmer","state_name":"Tennessee","lat":35.37287,"lng":-85.54013,"zip":"37365","miles_from_dt":24.53},{"city":"Trenton","state_name":"Georgia","lat":34.91136,"lng":-85.53079,"zip":"30752","miles_from_dt":25.98},{"city":"Viola","state_name":"Tennessee","lat":35.53918,"lng":-85.86047,"zip":"37394","miles_from_dt":26.61},{"city":"Manchester","state_name":"Tennessee","lat":35.50843,"lng":-86.07866,"zip":"37355","miles_from_dt":26.88},{"city":"Flat Rock","state_name":"Alabama","lat":34.79696,"lng":-85.68833,"zip":"35966","miles_from_dt":26.92},{"city":"Higdon","state_name":"Alabama","lat":34.82994,"lng":-85.6125,"zip":"35979","miles_from_dt":27.04},{"city":"Chattanooga","state_name":"Tennessee","lat":35.11757,"lng":-85.40429,"zip":"37405","miles_from_dt":27.15},{"city":"Chattanooga","state_name":"Tennessee","lat":35.04052,"lng":-85.41734,"zip":"37419","miles_from_dt":27.44},{"city":"Hollywood","state_name":"Alabama","lat":34.75593,"lng":-85.95119,"zip":"35752","miles_from_dt":27.69},{"city":"Lynchburg","state_name":"Tennessee","lat":35.27981,"lng":-86.35417,"zip":"37352","miles_from_dt":28.11},{"city":"Summitville","state_name":"Tennessee","lat":35.55777,"lng":-85.99317,"zip":"37382","miles_from_dt":28.57},{"city":"Scottsboro","state_name":"Alabama","lat":34.77852,"lng":-86.10383,"zip":"35768","miles_from_dt":28.76},{"city":"Elora","state_name":"Tennessee","lat":35.02825,"lng":-86.36876,"zip":"37328","miles_from_dt":28.92},{"city":"Normandy","state_name":"Tennessee","lat":35.44702,"lng":-86.25586,"zip":"37360","miles_from_dt":29.26},{"city":"Wildwood","state_name":"Georgia","lat":34.94164,"lng":-85.4324,"zip":"30757","miles_from_dt":29.36},{"city":"Princeton","state_name":"Alabama","lat":34.87342,"lng":-86.27661,"zip":"35766","miles_from_dt":29.57}],"targetCityZipCode":"37375","targetCityState":"Tennessee"},"__N_SSG":true}