{"pageProps":{"stateName":"Tennessee","cityName":"speedwell","nearbyCities":[{"city":"Pruden","state_name":"Tennessee","lat":36.56558,"lng":-83.79244,"zip":"37851","miles_from_dt":7.46},{"city":"Sharps Chapel","state_name":"Tennessee","lat":36.35017,"lng":-83.8517,"zip":"37866","miles_from_dt":7.84},{"city":"New Tazewell","state_name":"Tennessee","lat":36.41221,"lng":-83.68196,"zip":"37825","miles_from_dt":9.25},{"city":"Clairfield","state_name":"Tennessee","lat":36.55323,"lng":-83.95894,"zip":"37715","miles_from_dt":9.26},{"city":"Cumberland Gap","state_name":"Tennessee","lat":36.54457,"lng":-83.69328,"zip":"37724","miles_from_dt":9.71},{"city":"Eagan","state_name":"Tennessee","lat":36.56837,"lng":-83.97357,"zip":"37730","miles_from_dt":10.56},{"city":"Frakes","state_name":"Kentucky","lat":36.60991,"lng":-83.92988,"zip":"40940","miles_from_dt":11.4},{"city":"Duff","state_name":"Tennessee","lat":36.51412,"lng":-84.03276,"zip":"37729","miles_from_dt":11.52},{"city":"Middlesboro","state_name":"Kentucky","lat":36.62469,"lng":-83.73461,"zip":"40965","miles_from_dt":12.47},{"city":"New Tazewell","state_name":"Tennessee","lat":36.43414,"lng":-83.60662,"zip":"37824","miles_from_dt":12.91},{"city":"Shawanee","state_name":"Tennessee","lat":36.57992,"lng":-83.63951,"zip":"37867","miles_from_dt":13.56},{"city":"La Follette","state_name":"Tennessee","lat":36.39958,"lng":-84.07275,"zip":"37766","miles_from_dt":13.92},{"city":"Maynardville","state_name":"Tennessee","lat":36.25955,"lng":-83.82702,"zip":"37807","miles_from_dt":14.05},{"city":"Lone Mountain","state_name":"Tennessee","lat":36.39204,"lng":-83.58463,"zip":"37773","miles_from_dt":14.82},{"city":"Arthur","state_name":"Tennessee","lat":36.42538,"lng":-83.55804,"zip":"37707","miles_from_dt":15.68},{"city":"Washburn","state_name":"Tennessee","lat":36.31063,"lng":-83.61266,"zip":"37888","miles_from_dt":16.28},{"city":"Siler","state_name":"Kentucky","lat":36.68848,"lng":-83.94403,"zip":"40763","miles_from_dt":16.66},{"city":"Harrogate","state_name":"Tennessee","lat":36.56735,"lng":-83.55422,"zip":"37752","miles_from_dt":17.23},{"city":"Powder Springs","state_name":"Tennessee","lat":36.23701,"lng":-83.68179,"zip":"37848","miles_from_dt":17.8},{"city":"Jellico","state_name":"Tennessee","lat":36.57657,"lng":-84.12323,"zip":"37762","miles_from_dt":17.81},{"city":"Luttrell","state_name":"Tennessee","lat":36.21093,"lng":-83.75793,"zip":"37779","miles_from_dt":17.93},{"city":"Ingram","state_name":"Kentucky","lat":36.72855,"lng":-83.80052,"zip":"40955","miles_from_dt":18.4},{"city":"Andersonville","state_name":"Tennessee","lat":36.22862,"lng":-84.00947,"zip":"37705","miles_from_dt":18.86},{"city":"Pineville","state_name":"Kentucky","lat":36.72332,"lng":-83.72867,"zip":"40977","miles_from_dt":18.9},{"city":"Tazewell","state_name":"Tennessee","lat":36.48403,"lng":-83.48705,"zip":"37879","miles_from_dt":19.46},{"city":"Trosper","state_name":"Kentucky","lat":36.75268,"lng":-83.82322,"zip":"40995","miles_from_dt":19.97},{"city":"Jacksboro","state_name":"Tennessee","lat":36.30182,"lng":-84.14371,"zip":"37757","miles_from_dt":20.47},{"city":"Ewing","state_name":"Virginia","lat":36.62708,"lng":-83.50767,"zip":"24248","miles_from_dt":21.46},{"city":"Calvin","state_name":"Kentucky","lat":36.71526,"lng":-83.59838,"zip":"40813","miles_from_dt":21.82},{"city":"Newcomb","state_name":"Tennessee","lat":36.55649,"lng":-84.21169,"zip":"37819","miles_from_dt":21.9},{"city":"Bryants Store","state_name":"Kentucky","lat":36.78195,"lng":-83.90185,"zip":"40921","miles_from_dt":22.29},{"city":"Norris","state_name":"Tennessee","lat":36.19788,"lng":-84.06889,"zip":"37828","miles_from_dt":22.45},{"city":"Blaine","state_name":"Tennessee","lat":36.16798,"lng":-83.66479,"zip":"37709","miles_from_dt":22.48},{"city":"Corryton","state_name":"Tennessee","lat":36.13155,"lng":-83.80829,"zip":"37721","miles_from_dt":22.92},{"city":"Rutledge","state_name":"Tennessee","lat":36.24516,"lng":-83.51421,"zip":"37861","miles_from_dt":23.4},{"city":"Miracle","state_name":"Kentucky","lat":36.70574,"lng":-83.52939,"zip":"40856","miles_from_dt":23.87},{"city":"Artemus","state_name":"Kentucky","lat":36.80973,"lng":-83.83163,"zip":"40903","miles_from_dt":23.9},{"city":"Knoxville","state_name":"Tennessee","lat":36.12499,"lng":-83.93815,"zip":"37938","miles_from_dt":24.01},{"city":"Emlyn","state_name":"Kentucky","lat":36.70642,"lng":-84.14605,"zip":"40730","miles_from_dt":24.07},{"city":"Pioneer","state_name":"Tennessee","lat":36.43156,"lng":-84.27346,"zip":"37847","miles_from_dt":24.49},{"city":"Rocky Top","state_name":"Tennessee","lat":36.21799,"lng":-84.15532,"zip":"37769","miles_from_dt":24.57},{"city":"Fourmile","state_name":"Kentucky","lat":36.81217,"lng":-83.71152,"zip":"40939","miles_from_dt":25.03},{"city":"Williamsburg","state_name":"Kentucky","lat":36.7116,"lng":-84.17284,"zip":"40769","miles_from_dt":25.4},{"city":"Heiskell","state_name":"Tennessee","lat":36.13059,"lng":-84.03305,"zip":"37754","miles_from_dt":25.44},{"city":"Mascot","state_name":"Tennessee","lat":36.08645,"lng":-83.72368,"zip":"37806","miles_from_dt":26.72},{"city":"Caryville","state_name":"Tennessee","lat":36.26656,"lng":-84.25277,"zip":"37714","miles_from_dt":26.93},{"city":"Kettle Island","state_name":"Kentucky","lat":36.8088,"lng":-83.5878,"zip":"40958","miles_from_dt":27.52},{"city":"Rockholds","state_name":"Kentucky","lat":36.82034,"lng":-84.0571,"zip":"40759","miles_from_dt":27.53},{"city":"Thorn Hill","state_name":"Tennessee","lat":36.39861,"lng":-83.34393,"zip":"37881","miles_from_dt":27.76},{"city":"Knoxville","state_name":"Tennessee","lat":36.06009,"lng":-83.91134,"zip":"37928","miles_from_dt":28.11},{"city":"Knoxville","state_name":"Tennessee","lat":36.0599,"lng":-83.91082,"zip":"37918","miles_from_dt":28.12},{"city":"Dewitt","state_name":"Kentucky","lat":36.87096,"lng":-83.72905,"zip":"40930","miles_from_dt":28.73},{"city":"Pathfork","state_name":"Kentucky","lat":36.74048,"lng":-83.44567,"zip":"40863","miles_from_dt":28.91},{"city":"Arjay","state_name":"Kentucky","lat":36.84824,"lng":-83.62435,"zip":"40902","miles_from_dt":29.03},{"city":"Hulen","state_name":"Kentucky","lat":36.79899,"lng":-83.51755,"zip":"40845","miles_from_dt":29.13},{"city":"Barbourville","state_name":"Kentucky","lat":36.88828,"lng":-83.87546,"zip":"40906","miles_from_dt":29.4},{"city":"Woodbine","state_name":"Kentucky","lat":36.85942,"lng":-84.03459,"zip":"40771","miles_from_dt":29.47},{"city":"Bean Station","state_name":"Tennessee","lat":36.32312,"lng":-83.33588,"zip":"37708","miles_from_dt":29.48},{"city":"Knoxville","state_name":"Tennessee","lat":36.03554,"lng":-83.80211,"zip":"37924","miles_from_dt":29.55},{"city":"Bimble","state_name":"Kentucky","lat":36.89235,"lng":-83.82025,"zip":"40915","miles_from_dt":29.6},{"city":"Strawberry Plains","state_name":"Tennessee","lat":36.04693,"lng":-83.67932,"zip":"37871","miles_from_dt":30}],"targetCityZipCode":"37870","targetCityState":"Tennessee"},"__N_SSG":true}