{"pageProps":{"stateName":"Tennessee","cityName":"surgoinsville","nearbyCities":[{"city":"Church Hill","state_name":"Tennessee","lat":36.53261,"lng":-82.7267,"zip":"37642","miles_from_dt":6.75},{"city":"Rogersville","state_name":"Tennessee","lat":36.42145,"lng":-82.94269,"zip":"37857","miles_from_dt":8.86},{"city":"Eidson","state_name":"Tennessee","lat":36.54383,"lng":-83.00873,"zip":"37731","miles_from_dt":9.07},{"city":"Mount Carmel","state_name":"Tennessee","lat":36.56275,"lng":-82.66243,"zip":"37645","miles_from_dt":10.63},{"city":"Blackwater","state_name":"Virginia","lat":36.63398,"lng":-82.9943,"zip":"24221","miles_from_dt":11.12},{"city":"Kyles Ford","state_name":"Tennessee","lat":36.57219,"lng":-83.06534,"zip":"37765","miles_from_dt":12.56},{"city":"Duffield","state_name":"Virginia","lat":36.71075,"lng":-82.79785,"zip":"24244","miles_from_dt":13.14},{"city":"Fall Branch","state_name":"Tennessee","lat":36.39997,"lng":-82.63075,"zip":"37656","miles_from_dt":14.81},{"city":"Kingsport","state_name":"Tennessee","lat":36.52938,"lng":-82.57339,"zip":"37660","miles_from_dt":15.26},{"city":"Kingsport","state_name":"Tennessee","lat":36.57951,"lng":-82.57304,"zip":"37665","miles_from_dt":15.74},{"city":"Kingsport","state_name":"Tennessee","lat":36.54645,"lng":-82.56383,"zip":"37662","miles_from_dt":15.86},{"city":"Kingsport","state_name":"Tennessee","lat":36.52912,"lng":-82.55612,"zip":"37669","miles_from_dt":16.22},{"city":"Gate City","state_name":"Virginia","lat":36.65807,"lng":-82.60582,"zip":"24251","miles_from_dt":16.29},{"city":"Weber City","state_name":"Virginia","lat":36.61186,"lng":-82.56688,"zip":"24290","miles_from_dt":16.73},{"city":"Greeneville","state_name":"Tennessee","lat":36.2784,"lng":-82.82631,"zip":"37745","miles_from_dt":17.01},{"city":"Dryden","state_name":"Virginia","lat":36.78174,"lng":-82.92083,"zip":"24243","miles_from_dt":18.2},{"city":"Pennington Gap","state_name":"Virginia","lat":36.74948,"lng":-83.03037,"zip":"24277","miles_from_dt":18.55},{"city":"Ben Hur","state_name":"Virginia","lat":36.75338,"lng":-83.03614,"zip":"24218","miles_from_dt":18.95},{"city":"Kingsport","state_name":"Tennessee","lat":36.51163,"lng":-82.50729,"zip":"37664","miles_from_dt":18.96},{"city":"Jonesville","state_name":"Virginia","lat":36.67164,"lng":-83.15079,"zip":"24263","miles_from_dt":19.68},{"city":"Bulls Gap","state_name":"Tennessee","lat":36.28102,"lng":-83.03885,"zip":"37711","miles_from_dt":19.89},{"city":"Kingsport","state_name":"Tennessee","lat":36.46466,"lng":-82.48525,"zip":"37663","miles_from_dt":20.59},{"city":"Afton","state_name":"Tennessee","lat":36.22619,"lng":-82.7498,"zip":"37616","miles_from_dt":21.28},{"city":"Fort Blackmore","state_name":"Virginia","lat":36.75752,"lng":-82.58705,"zip":"24250","miles_from_dt":21.63},{"city":"Sneedville","state_name":"Tennessee","lat":36.51555,"lng":-83.24579,"zip":"37869","miles_from_dt":22.17},{"city":"Keokee","state_name":"Virginia","lat":36.83811,"lng":-82.93904,"zip":"24265","miles_from_dt":22.22},{"city":"Limestone","state_name":"Tennessee","lat":36.25465,"lng":-82.62672,"zip":"37681","miles_from_dt":22.31},{"city":"Whitesburg","state_name":"Tennessee","lat":36.29172,"lng":-83.13992,"zip":"37891","miles_from_dt":22.87},{"city":"Big Stone Gap","state_name":"Virginia","lat":36.84831,"lng":-82.74645,"zip":"24219","miles_from_dt":23.03},{"city":"Saint Charles","state_name":"Virginia","lat":36.82159,"lng":-83.05533,"zip":"24282","miles_from_dt":23.52},{"city":"Mooresburg","state_name":"Tennessee","lat":36.35558,"lng":-83.2144,"zip":"37811","miles_from_dt":23.52},{"city":"Johnson City","state_name":"Tennessee","lat":36.39771,"lng":-82.45246,"zip":"37615","miles_from_dt":23.68},{"city":"East Stone Gap","state_name":"Virginia","lat":36.86609,"lng":-82.74395,"zip":"24246","miles_from_dt":24.25},{"city":"Mosheim","state_name":"Tennessee","lat":36.18581,"lng":-82.97233,"zip":"37818","miles_from_dt":24.37},{"city":"Chuckey","state_name":"Tennessee","lat":36.20015,"lng":-82.66306,"zip":"37641","miles_from_dt":24.61},{"city":"Cranks","state_name":"Kentucky","lat":36.77552,"lng":-83.16515,"zip":"40820","miles_from_dt":24.72},{"city":"Telford","state_name":"Tennessee","lat":36.25124,"lng":-82.55895,"zip":"37690","miles_from_dt":24.77},{"city":"Greeneville","state_name":"Tennessee","lat":36.16334,"lng":-82.81243,"zip":"37744","miles_from_dt":24.98},{"city":"Holmes Mill","state_name":"Kentucky","lat":36.88826,"lng":-82.93666,"zip":"40843","miles_from_dt":25.57},{"city":"Hiltons","state_name":"Virginia","lat":36.6517,"lng":-82.41199,"zip":"24258","miles_from_dt":25.76},{"city":"Jonesborough","state_name":"Tennessee","lat":36.28074,"lng":-82.4938,"zip":"37659","miles_from_dt":25.91},{"city":"Blountville","state_name":"Tennessee","lat":36.53155,"lng":-82.37248,"zip":"37617","miles_from_dt":26.44},{"city":"Russellville","state_name":"Tennessee","lat":36.24492,"lng":-83.18441,"zip":"37860","miles_from_dt":26.91},{"city":"Closplint","state_name":"Kentucky","lat":36.89081,"lng":-83.03445,"zip":"40927","miles_from_dt":27.31},{"city":"Midway","state_name":"Tennessee","lat":36.15431,"lng":-83.03611,"zip":"37809","miles_from_dt":27.6},{"city":"Mohawk","state_name":"Tennessee","lat":36.17984,"lng":-83.10296,"zip":"37810","miles_from_dt":27.71},{"city":"Cawood","state_name":"Kentucky","lat":36.7876,"lng":-83.22876,"zip":"40815","miles_from_dt":27.89},{"city":"Rose Hill","state_name":"Virginia","lat":36.65051,"lng":-83.3295,"zip":"24281","miles_from_dt":28.17},{"city":"Nickelsville","state_name":"Virginia","lat":36.74712,"lng":-82.41714,"zip":"24271","miles_from_dt":28.42},{"city":"Kenvir","state_name":"Kentucky","lat":36.85281,"lng":-83.15798,"zip":"40847","miles_from_dt":28.46},{"city":"Piney Flats","state_name":"Tennessee","lat":36.44175,"lng":-82.34639,"zip":"37686","miles_from_dt":28.48},{"city":"Dungannon","state_name":"Virginia","lat":36.84045,"lng":-82.51598,"zip":"24245","miles_from_dt":28.53},{"city":"Appalachia","state_name":"Virginia","lat":36.94237,"lng":-82.79571,"zip":"24216","miles_from_dt":28.96},{"city":"Thorn Hill","state_name":"Tennessee","lat":36.39861,"lng":-83.34393,"zip":"37881","miles_from_dt":28.98},{"city":"Evarts","state_name":"Kentucky","lat":36.87107,"lng":-83.14868,"zip":"40828","miles_from_dt":29.17},{"city":"Lynch","state_name":"Kentucky","lat":36.94931,"lng":-82.89836,"zip":"40855","miles_from_dt":29.43},{"city":"Johnson City","state_name":"Tennessee","lat":36.30567,"lng":-82.38327,"zip":"37602","miles_from_dt":29.95}],"targetCityZipCode":"37873","targetCityState":"Tennessee"},"__N_SSG":true}