{"pageProps":{"stateName":"Tennessee","cityName":"westmoreland","nearbyCities":[{"city":"Adolphus","state_name":"Kentucky","lat":36.67196,"lng":-86.27465,"zip":"42120","miles_from_dt":6.43},{"city":"Bethpage","state_name":"Tennessee","lat":36.4997,"lng":-86.31017,"zip":"37022","miles_from_dt":7.51},{"city":"Holland","state_name":"Kentucky","lat":36.68006,"lng":-86.04234,"zip":"42153","miles_from_dt":12.2},{"city":"Hartsville","state_name":"Tennessee","lat":36.41552,"lng":-86.14724,"zip":"37074","miles_from_dt":12.63},{"city":"Scottsville","state_name":"Kentucky","lat":36.7704,"lng":-86.18096,"zip":"42164","miles_from_dt":12.96},{"city":"Lafayette","state_name":"Tennessee","lat":36.54357,"lng":-86.00149,"zip":"37083","miles_from_dt":12.98},{"city":"Portland","state_name":"Tennessee","lat":36.57694,"lng":-86.50224,"zip":"37148","miles_from_dt":15.23},{"city":"Castalian Springs","state_name":"Tennessee","lat":36.3721,"lng":-86.30328,"zip":"37031","miles_from_dt":15.35},{"city":"Dixon Springs","state_name":"Tennessee","lat":36.40466,"lng":-86.02726,"zip":"37057","miles_from_dt":16.82},{"city":"Mitchellville","state_name":"Tennessee","lat":36.63259,"lng":-86.5371,"zip":"37119","miles_from_dt":17.44},{"city":"Fountain Run","state_name":"Kentucky","lat":36.72248,"lng":-85.95468,"zip":"42133","miles_from_dt":17.88},{"city":"Gallatin","state_name":"Tennessee","lat":36.39871,"lng":-86.45594,"zip":"37066","miles_from_dt":18.1},{"city":"Bowling Green","state_name":"Kentucky","lat":36.83432,"lng":-86.40639,"zip":"42128","miles_from_dt":19.74},{"city":"Alvaton","state_name":"Kentucky","lat":36.85885,"lng":-86.35718,"zip":"42122","miles_from_dt":20.09},{"city":"Austin","state_name":"Kentucky","lat":36.82039,"lng":-85.99573,"zip":"42123","miles_from_dt":20.68},{"city":"Franklin","state_name":"Kentucky","lat":36.72626,"lng":-86.56433,"zip":"42134","miles_from_dt":20.99},{"city":"Cottontown","state_name":"Tennessee","lat":36.4904,"lng":-86.59112,"zip":"37048","miles_from_dt":21.23},{"city":"Lucas","state_name":"Kentucky","lat":36.85947,"lng":-86.04952,"zip":"42156","miles_from_dt":21.29},{"city":"Franklin","state_name":"Kentucky","lat":36.71649,"lng":-86.57733,"zip":"42135","miles_from_dt":21.35},{"city":"Riddleton","state_name":"Tennessee","lat":36.31288,"lng":-86.04536,"zip":"37151","miles_from_dt":21.45},{"city":"Lebanon","state_name":"Tennessee","lat":36.2733,"lng":-86.27224,"zip":"37087","miles_from_dt":21.73},{"city":"Pleasant Shade","state_name":"Tennessee","lat":36.38179,"lng":-85.91203,"zip":"37145","miles_from_dt":22.58},{"city":"Gamaliel","state_name":"Kentucky","lat":36.65549,"lng":-85.83108,"zip":"42140","miles_from_dt":22.61},{"city":"Red Boiling Springs","state_name":"Tennessee","lat":36.54437,"lng":-85.81082,"zip":"37150","miles_from_dt":23.42},{"city":"Bowling Green","state_name":"Kentucky","lat":36.87718,"lng":-86.45233,"zip":"42104","miles_from_dt":23.58},{"city":"Etoile","state_name":"Kentucky","lat":36.82734,"lng":-85.90915,"zip":"42131","miles_from_dt":24.3},{"city":"Cross Plains","state_name":"Tennessee","lat":36.55985,"lng":-86.67887,"zip":"37049","miles_from_dt":25.11},{"city":"Bowling Green","state_name":"Kentucky","lat":36.94802,"lng":-86.33396,"zip":"42103","miles_from_dt":25.61},{"city":"White House","state_name":"Tennessee","lat":36.48048,"lng":-86.68101,"zip":"37188","miles_from_dt":26.21},{"city":"Orlinda","state_name":"Tennessee","lat":36.6145,"lng":-86.69894,"zip":"37141","miles_from_dt":26.22},{"city":"Woodburn","state_name":"Kentucky","lat":36.84678,"lng":-86.57459,"zip":"42170","miles_from_dt":26.29},{"city":"Lebanon","state_name":"Tennessee","lat":36.20811,"lng":-86.28926,"zip":"37088","miles_from_dt":26.3},{"city":"Carthage","state_name":"Tennessee","lat":36.27374,"lng":-85.95035,"zip":"37030","miles_from_dt":26.56},{"city":"Mount Hermon","state_name":"Kentucky","lat":36.78872,"lng":-85.8187,"zip":"42157","miles_from_dt":26.7},{"city":"Bowling Green","state_name":"Kentucky","lat":36.95269,"lng":-86.40192,"zip":"42102","miles_from_dt":27.02},{"city":"Norene","state_name":"Tennessee","lat":36.19554,"lng":-86.27806,"zip":"37136","miles_from_dt":27.09},{"city":"Hendersonville","state_name":"Tennessee","lat":36.34085,"lng":-86.60845,"zip":"37075","miles_from_dt":27.09},{"city":"Gladeville","state_name":"Tennessee","lat":36.1938,"lng":-86.27952,"zip":"37071","miles_from_dt":27.22},{"city":"Oakland","state_name":"Kentucky","lat":36.99594,"lng":-86.24771,"zip":"42159","miles_from_dt":28.26},{"city":"Hendersonville","state_name":"Tennessee","lat":36.304,"lng":-86.61916,"zip":"37077","miles_from_dt":29.2},{"city":"Gordonsville","state_name":"Tennessee","lat":36.19658,"lng":-86.0147,"zip":"38563","miles_from_dt":29.41},{"city":"Whitleyville","state_name":"Tennessee","lat":36.45613,"lng":-85.7189,"zip":"38588","miles_from_dt":29.76}],"targetCityZipCode":"37186","targetCityState":"Tennessee"},"__N_SSG":true}