{"pageProps":{"stateName":"Tennessee","cityName":"white-bluff","nearbyCities":[{"city":"Kingston Springs","state_name":"Tennessee","lat":36.09717,"lng":-87.11484,"zip":"37082","miles_from_dt":5.83},{"city":"Charlotte","state_name":"Tennessee","lat":36.23979,"lng":-87.27182,"zip":"37036","miles_from_dt":7.58},{"city":"Burns","state_name":"Tennessee","lat":36.04253,"lng":-87.2678,"zip":"37029","miles_from_dt":8.18},{"city":"Pegram","state_name":"Tennessee","lat":36.13137,"lng":-87.03038,"zip":"37143","miles_from_dt":9.48},{"city":"Dickson","state_name":"Tennessee","lat":36.0768,"lng":-87.37717,"zip":"37056","miles_from_dt":11.09},{"city":"Fairview","state_name":"Tennessee","lat":35.98833,"lng":-87.13483,"zip":"37062","miles_from_dt":11.52},{"city":"Ashland City","state_name":"Tennessee","lat":36.28798,"lng":-87.08113,"zip":"37015","miles_from_dt":11.73},{"city":"Nashville","state_name":"Tennessee","lat":36.05991,"lng":-86.97189,"zip":"37221","miles_from_dt":14.05},{"city":"Dickson","state_name":"Tennessee","lat":36.07921,"lng":-87.44238,"zip":"37055","miles_from_dt":14.41},{"city":"Bon Aqua","state_name":"Tennessee","lat":35.95263,"lng":-87.30855,"zip":"37025","miles_from_dt":14.75},{"city":"Nashville","state_name":"Tennessee","lat":36.15591,"lng":-86.91638,"zip":"37209","miles_from_dt":15.81},{"city":"Southside","state_name":"Tennessee","lat":36.36442,"lng":-87.30365,"zip":"37171","miles_from_dt":16.09},{"city":"Cumberland Furnace","state_name":"Tennessee","lat":36.30426,"lng":-87.41405,"zip":"37051","miles_from_dt":16.18},{"city":"Chapmansboro","state_name":"Tennessee","lat":36.3849,"lng":-87.12602,"zip":"37035","miles_from_dt":16.89},{"city":"Nashville","state_name":"Tennessee","lat":36.20814,"lng":-86.89158,"zip":"37218","miles_from_dt":17.68},{"city":"Antioch","state_name":"Tennessee","lat":36.17252,"lng":-86.88084,"zip":"37011","miles_from_dt":17.87},{"city":"Vanleer","state_name":"Tennessee","lat":36.241,"lng":-87.49706,"zip":"37181","miles_from_dt":17.88},{"city":"Slayden","state_name":"Tennessee","lat":36.29005,"lng":-87.46943,"zip":"37165","miles_from_dt":18.05},{"city":"Nashville","state_name":"Tennessee","lat":36.11075,"lng":-86.87274,"zip":"37205","miles_from_dt":18.41},{"city":"Cunningham","state_name":"Tennessee","lat":36.37534,"lng":-87.40095,"zip":"37052","miles_from_dt":19.37},{"city":"Franklin","state_name":"Tennessee","lat":35.98753,"lng":-86.90664,"zip":"37069","miles_from_dt":19.71},{"city":"Lyles","state_name":"Tennessee","lat":35.87142,"lng":-87.31075,"zip":"37098","miles_from_dt":20.01},{"city":"Pleasant View","state_name":"Tennessee","lat":36.4047,"lng":-87.03123,"zip":"37146","miles_from_dt":20.08},{"city":"Joelton","state_name":"Tennessee","lat":36.32901,"lng":-86.91633,"zip":"37080","miles_from_dt":20.16},{"city":"Nashville","state_name":"Tennessee","lat":36.08197,"lng":-86.83492,"zip":"37215","miles_from_dt":20.85},{"city":"Primm Springs","state_name":"Tennessee","lat":35.84341,"lng":-87.20984,"zip":"38476","miles_from_dt":20.95},{"city":"Nashville","state_name":"Tennessee","lat":36.17691,"lng":-86.80901,"zip":"37208","miles_from_dt":21.89},{"city":"Nashville","state_name":"Tennessee","lat":36.1481,"lng":-86.80545,"zip":"37235","miles_from_dt":22},{"city":"Nashville","state_name":"Tennessee","lat":36.14338,"lng":-86.80336,"zip":"37240","miles_from_dt":22.12},{"city":"Nashville","state_name":"Tennessee","lat":36.1411,"lng":-86.8029,"zip":"37232","miles_from_dt":22.15},{"city":"Nashville","state_name":"Tennessee","lat":36.15028,"lng":-86.80247,"zip":"37236","miles_from_dt":22.17},{"city":"Franklin","state_name":"Tennessee","lat":35.88966,"lng":-86.96112,"zip":"37064","miles_from_dt":22.19},{"city":"Nashville","state_name":"Tennessee","lat":36.13376,"lng":-86.80167,"zip":"37212","miles_from_dt":22.23},{"city":"Nashville","state_name":"Tennessee","lat":36.19513,"lng":-86.80418,"zip":"37228","miles_from_dt":22.31},{"city":"Whites Creek","state_name":"Tennessee","lat":36.27875,"lng":-86.82983,"zip":"37189","miles_from_dt":22.53},{"city":"Nashville","state_name":"Tennessee","lat":36.15111,"lng":-86.79558,"zip":"37224","miles_from_dt":22.55},{"city":"Nashville","state_name":"Tennessee","lat":36.14925,"lng":-86.79283,"zip":"37202","miles_from_dt":22.71},{"city":"Nashville","state_name":"Tennessee","lat":36.15033,"lng":-86.79093,"zip":"37234","miles_from_dt":22.81},{"city":"Nashville","state_name":"Tennessee","lat":36.14937,"lng":-86.78986,"zip":"37203","miles_from_dt":22.87},{"city":"Nashville","state_name":"Tennessee","lat":36.14871,"lng":-86.7853,"zip":"37230","miles_from_dt":23.13},{"city":"Nashville","state_name":"Tennessee","lat":36.16289,"lng":-86.78573,"zip":"37243","miles_from_dt":23.13},{"city":"Nashville","state_name":"Tennessee","lat":36.16622,"lng":-86.78588,"zip":"37244","miles_from_dt":23.13},{"city":"Nashville","state_name":"Tennessee","lat":36.16127,"lng":-86.78368,"zip":"37250","miles_from_dt":23.24},{"city":"Nashville","state_name":"Tennessee","lat":36.16628,"lng":-86.78373,"zip":"37246","miles_from_dt":23.25},{"city":"Nashville","state_name":"Tennessee","lat":36.16312,"lng":-86.78334,"zip":"37242","miles_from_dt":23.26},{"city":"Nashville","state_name":"Tennessee","lat":36.1663,"lng":-86.78299,"zip":"37219","miles_from_dt":23.29},{"city":"Nashville","state_name":"Tennessee","lat":36.1657,"lng":-86.77946,"zip":"37238","miles_from_dt":23.48},{"city":"Nashville","state_name":"Tennessee","lat":36.16662,"lng":-86.77799,"zip":"37201","miles_from_dt":23.57},{"city":"Nashville","state_name":"Tennessee","lat":36.10669,"lng":-86.77463,"zip":"37204","miles_from_dt":23.89},{"city":"Nashville","state_name":"Tennessee","lat":36.06759,"lng":-86.78127,"zip":"37220","miles_from_dt":24},{"city":"Franklin","state_name":"Tennessee","lat":35.92314,"lng":-86.8698,"zip":"37065","miles_from_dt":24.04},{"city":"Nashville","state_name":"Tennessee","lat":36.16654,"lng":-86.76731,"zip":"37213","miles_from_dt":24.17},{"city":"Nashville","state_name":"Tennessee","lat":36.23278,"lng":-86.77765,"zip":"37207","miles_from_dt":24.27},{"city":"Clarksville","state_name":"Tennessee","lat":36.49842,"lng":-87.23197,"zip":"37043","miles_from_dt":24.29},{"city":"Palmyra","state_name":"Tennessee","lat":36.41164,"lng":-87.50112,"zip":"37142","miles_from_dt":24.85},{"city":"Franklin","state_name":"Tennessee","lat":35.9278,"lng":-86.84365,"zip":"37068","miles_from_dt":24.99},{"city":"Nunnelly","state_name":"Tennessee","lat":35.87912,"lng":-87.50276,"zip":"37137","miles_from_dt":25.12},{"city":"McEwen","state_name":"Tennessee","lat":36.06625,"lng":-87.63741,"zip":"37101","miles_from_dt":25.16},{"city":"Brentwood","state_name":"Tennessee","lat":35.99776,"lng":-86.78583,"zip":"37024","miles_from_dt":25.31},{"city":"Brentwood","state_name":"Tennessee","lat":35.99978,"lng":-86.78439,"zip":"37027","miles_from_dt":25.32},{"city":"Madison","state_name":"Tennessee","lat":36.19351,"lng":-86.74341,"zip":"37116","miles_from_dt":25.66},{"city":"Nashville","state_name":"Tennessee","lat":36.1442,"lng":-86.73374,"zip":"37210","miles_from_dt":26.01},{"city":"Nashville","state_name":"Tennessee","lat":36.18085,"lng":-86.73117,"zip":"37206","miles_from_dt":26.25},{"city":"Santa Fe","state_name":"Tennessee","lat":35.76792,"lng":-87.14574,"zip":"38482","miles_from_dt":26.31},{"city":"Nashville","state_name":"Tennessee","lat":36.21589,"lng":-86.72676,"zip":"37216","miles_from_dt":26.81},{"city":"Nashville","state_name":"Tennessee","lat":36.06888,"lng":-86.72625,"zip":"37222","miles_from_dt":26.99},{"city":"Clarksville","state_name":"Tennessee","lat":36.52408,"lng":-87.33287,"zip":"37040","miles_from_dt":27.05},{"city":"Nashville","state_name":"Tennessee","lat":36.06704,"lng":-86.72345,"zip":"37211","miles_from_dt":27.17},{"city":"Clarksville","state_name":"Tennessee","lat":36.52938,"lng":-87.33763,"zip":"37044","miles_from_dt":27.47},{"city":"Erin","state_name":"Tennessee","lat":36.28918,"lng":-87.66528,"zip":"37061","miles_from_dt":27.84},{"city":"Cedar Hill","state_name":"Tennessee","lat":36.52518,"lng":-87.01647,"zip":"37032","miles_from_dt":27.98},{"city":"Thompsons Station","state_name":"Tennessee","lat":35.8073,"lng":-86.91517,"zip":"37179","miles_from_dt":28.31},{"city":"Franklin","state_name":"Tennessee","lat":35.91314,"lng":-86.77461,"zip":"37067","miles_from_dt":28.72},{"city":"Cumberland City","state_name":"Tennessee","lat":36.3713,"lng":-87.63586,"zip":"37050","miles_from_dt":28.89},{"city":"Greenbrier","state_name":"Tennessee","lat":36.42834,"lng":-86.81414,"zip":"37073","miles_from_dt":28.93},{"city":"Madison","state_name":"Tennessee","lat":36.25444,"lng":-86.69636,"zip":"37115","miles_from_dt":29.04},{"city":"Goodlettsville","state_name":"Tennessee","lat":36.35686,"lng":-86.74494,"zip":"37072","miles_from_dt":29.18},{"city":"Williamsport","state_name":"Tennessee","lat":35.72163,"lng":-87.23589,"zip":"38487","miles_from_dt":29.41},{"city":"Adams","state_name":"Tennessee","lat":36.5675,"lng":-87.10894,"zip":"37010","miles_from_dt":29.42},{"city":"Nashville","state_name":"Tennessee","lat":36.10812,"lng":-86.67472,"zip":"37241","miles_from_dt":29.44},{"city":"Goodlettsville","state_name":"Tennessee","lat":36.32371,"lng":-86.71582,"zip":"37070","miles_from_dt":29.6},{"city":"Nashville","state_name":"Tennessee","lat":36.13254,"lng":-86.66944,"zip":"37227","miles_from_dt":29.62},{"city":"Ridgetop","state_name":"Tennessee","lat":36.40182,"lng":-86.77129,"zip":"37152","miles_from_dt":29.64},{"city":"Clarksville","state_name":"Tennessee","lat":36.5612,"lng":-87.34874,"zip":"37041","miles_from_dt":29.75},{"city":"Nashville","state_name":"Tennessee","lat":36.16253,"lng":-86.6637,"zip":"37229","miles_from_dt":29.94},{"city":"Nashville","state_name":"Tennessee","lat":36.16789,"lng":-86.66296,"zip":"37214","miles_from_dt":30}],"targetCityZipCode":"37187","targetCityState":"Tennessee"},"__N_SSG":true}