{"pageProps":{"stateName":"West-virginia","cityName":"cabin-creek","nearbyCities":[{"city":"Winifrede","state_name":"West Virginia","lat":38.18947,"lng":-81.55127,"zip":"25214","miles_from_dt":2.33},{"city":"Miami","state_name":"West Virginia","lat":38.13596,"lng":-81.48553,"zip":"25134","miles_from_dt":2.82},{"city":"Comfort","state_name":"West Virginia","lat":38.11954,"lng":-81.57315,"zip":"25049","miles_from_dt":4.04},{"city":"Charleston","state_name":"West Virginia","lat":38.21032,"lng":-81.57992,"zip":"25315","miles_from_dt":4.44},{"city":"Dawes","state_name":"West Virginia","lat":38.12226,"lng":-81.45044,"zip":"25054","miles_from_dt":4.91},{"city":"Drybranch","state_name":"West Virginia","lat":38.1751,"lng":-81.43342,"zip":"25061","miles_from_dt":5},{"city":"East Bank","state_name":"West Virginia","lat":38.20963,"lng":-81.44018,"zip":"25067","miles_from_dt":5.57},{"city":"Charleston","state_name":"West Virginia","lat":38.23427,"lng":-81.57375,"zip":"25365","miles_from_dt":5.59},{"city":"Bloomingrose","state_name":"West Virginia","lat":38.15744,"lng":-81.6266,"zip":"25024","miles_from_dt":5.6},{"city":"Belle","state_name":"West Virginia","lat":38.24293,"lng":-81.49226,"zip":"25015","miles_from_dt":5.75},{"city":"Glasgow","state_name":"West Virginia","lat":38.21326,"lng":-81.41238,"zip":"25086","miles_from_dt":6.98},{"city":"Racine","state_name":"West Virginia","lat":38.14907,"lng":-81.65308,"zip":"25165","miles_from_dt":7.1},{"city":"Hernshaw","state_name":"West Virginia","lat":38.22427,"lng":-81.64493,"zip":"25107","miles_from_dt":7.81},{"city":"Hansford","state_name":"West Virginia","lat":38.18207,"lng":-81.38225,"zip":"25103","miles_from_dt":7.82},{"city":"Pratt","state_name":"West Virginia","lat":38.20712,"lng":-81.38435,"zip":"25162","miles_from_dt":8.18},{"city":"Orgas","state_name":"West Virginia","lat":38.03511,"lng":-81.53695,"zip":"25148","miles_from_dt":8.88},{"city":"Eskdale","state_name":"West Virginia","lat":38.0526,"lng":-81.42915,"zip":"25075","miles_from_dt":9.23},{"city":"Handley","state_name":"West Virginia","lat":38.16735,"lng":-81.35192,"zip":"25102","miles_from_dt":9.37},{"city":"London","state_name":"West Virginia","lat":38.19058,"lng":-81.35382,"zip":"25126","miles_from_dt":9.45},{"city":"Seth","state_name":"West Virginia","lat":38.04962,"lng":-81.63476,"zip":"25181","miles_from_dt":9.9},{"city":"Costa","state_name":"West Virginia","lat":38.15885,"lng":-81.70929,"zip":"25051","miles_from_dt":10.1},{"city":"Sylvester","state_name":"West Virginia","lat":38.01672,"lng":-81.55089,"zip":"25193","miles_from_dt":10.22},{"city":"Peytona","state_name":"West Virginia","lat":38.11572,"lng":-81.70249,"zip":"25154","miles_from_dt":10.26},{"city":"Charleston","state_name":"West Virginia","lat":38.31071,"lng":-81.49087,"zip":"25306","miles_from_dt":10.32},{"city":"Cedar Grove","state_name":"West Virginia","lat":38.24642,"lng":-81.36524,"zip":"25039","miles_from_dt":10.37},{"city":"Charleston","state_name":"West Virginia","lat":38.30521,"lng":-81.59044,"zip":"25304","miles_from_dt":10.43},{"city":"Ashford","state_name":"West Virginia","lat":38.19237,"lng":-81.71301,"zip":"25009","miles_from_dt":10.48},{"city":"Gallagher","state_name":"West Virginia","lat":38.06809,"lng":-81.36118,"zip":"25083","miles_from_dt":11.04},{"city":"Montgomery","state_name":"West Virginia","lat":38.15864,"lng":-81.31977,"zip":"25136","miles_from_dt":11.13},{"city":"Blount","state_name":"West Virginia","lat":38.29378,"lng":-81.4018,"zip":"25025","miles_from_dt":11.18},{"city":"Hugheston","state_name":"West Virginia","lat":38.21324,"lng":-81.3264,"zip":"25110","miles_from_dt":11.29},{"city":"Nellis","state_name":"West Virginia","lat":38.15001,"lng":-81.73066,"zip":"25142","miles_from_dt":11.29},{"city":"Kimberly","state_name":"West Virginia","lat":38.11882,"lng":-81.32294,"zip":"25118","miles_from_dt":11.37},{"city":"Charleston","state_name":"West Virginia","lat":38.29705,"lng":-81.65463,"zip":"25314","miles_from_dt":11.64},{"city":"Charleston","state_name":"West Virginia","lat":38.32264,"lng":-81.60265,"zip":"25364","miles_from_dt":11.79},{"city":"Smithers","state_name":"West Virginia","lat":38.17113,"lng":-81.29811,"zip":"25186","miles_from_dt":12.31},{"city":"Charleston","state_name":"West Virginia","lat":38.33313,"lng":-81.59841,"zip":"25326","miles_from_dt":12.39},{"city":"Charleston","state_name":"West Virginia","lat":38.33682,"lng":-81.61313,"zip":"25305","miles_from_dt":12.91},{"city":"Tad","state_name":"West Virginia","lat":38.3489,"lng":-81.48645,"zip":"25201","miles_from_dt":12.96},{"city":"Powellton","state_name":"West Virginia","lat":38.06123,"lng":-81.3189,"zip":"25161","miles_from_dt":13.21},{"city":"Ridgeview","state_name":"West Virginia","lat":38.12788,"lng":-81.76288,"zip":"25169","miles_from_dt":13.24},{"city":"Boomer","state_name":"West Virginia","lat":38.14615,"lng":-81.2801,"zip":"25031","miles_from_dt":13.34},{"city":"Mount Carbon","state_name":"West Virginia","lat":38.11038,"lng":-81.2874,"zip":"25139","miles_from_dt":13.4},{"city":"Dorothy","state_name":"West Virginia","lat":37.97058,"lng":-81.47286,"zip":"25060","miles_from_dt":13.59},{"city":"Mammoth","state_name":"West Virginia","lat":38.29328,"lng":-81.33441,"zip":"25132","miles_from_dt":13.66},{"city":"Charleston","state_name":"West Virginia","lat":38.36006,"lng":-81.57073,"zip":"25317","miles_from_dt":13.8},{"city":"Whitesville","state_name":"West Virginia","lat":37.96271,"lng":-81.52861,"zip":"25209","miles_from_dt":13.84},{"city":"Charleston","state_name":"West Virginia","lat":38.36308,"lng":-81.55357,"zip":"25311","miles_from_dt":13.87},{"city":"Charleston","state_name":"West Virginia","lat":38.34892,"lng":-81.62452,"zip":"25337","miles_from_dt":13.92},{"city":"Charleston","state_name":"West Virginia","lat":38.36396,"lng":-81.55201,"zip":"25361","miles_from_dt":13.92},{"city":"Charleston","state_name":"West Virginia","lat":38.34774,"lng":-81.63052,"zip":"25330","miles_from_dt":13.97},{"city":"Charleston","state_name":"West Virginia","lat":38.34949,"lng":-81.62731,"zip":"25334","miles_from_dt":14.01},{"city":"Charleston","state_name":"West Virginia","lat":38.34892,"lng":-81.63037,"zip":"25322","miles_from_dt":14.04},{"city":"Charleston","state_name":"West Virginia","lat":38.35,"lng":-81.62905,"zip":"25335","miles_from_dt":14.08},{"city":"Charleston","state_name":"West Virginia","lat":38.35001,"lng":-81.62932,"zip":"25331","miles_from_dt":14.09},{"city":"Charleston","state_name":"West Virginia","lat":38.34928,"lng":-81.63173,"zip":"25375","miles_from_dt":14.1},{"city":"Charleston","state_name":"West Virginia","lat":38.35053,"lng":-81.62821,"zip":"25336","miles_from_dt":14.1},{"city":"Charleston","state_name":"West Virginia","lat":38.34992,"lng":-81.63045,"zip":"25338","miles_from_dt":14.11},{"city":"Charleston","state_name":"West Virginia","lat":38.35036,"lng":-81.62982,"zip":"25328","miles_from_dt":14.12},{"city":"Charleston","state_name":"West Virginia","lat":38.35123,"lng":-81.62761,"zip":"25301","miles_from_dt":14.13},{"city":"Charleston","state_name":"West Virginia","lat":38.35103,"lng":-81.62941,"zip":"25396","miles_from_dt":14.16},{"city":"Charleston","state_name":"West Virginia","lat":38.35123,"lng":-81.62918,"zip":"25329","miles_from_dt":14.16},{"city":"Charleston","state_name":"West Virginia","lat":38.35113,"lng":-81.62913,"zip":"25339","miles_from_dt":14.16},{"city":"Charleston","state_name":"West Virginia","lat":38.35085,"lng":-81.63064,"zip":"25321","miles_from_dt":14.17},{"city":"Charleston","state_name":"West Virginia","lat":38.35198,"lng":-81.62843,"zip":"25392","miles_from_dt":14.19},{"city":"Charleston","state_name":"West Virginia","lat":38.3519,"lng":-81.63015,"zip":"25324","miles_from_dt":14.23},{"city":"Cannelton","state_name":"West Virginia","lat":38.19168,"lng":-81.26438,"zip":"25036","miles_from_dt":14.27},{"city":"Charleston","state_name":"West Virginia","lat":38.35283,"lng":-81.62996,"zip":"25350","miles_from_dt":14.28},{"city":"Charleston","state_name":"West Virginia","lat":38.35379,"lng":-81.62809,"zip":"25332","miles_from_dt":14.3},{"city":"Charleston","state_name":"West Virginia","lat":38.35277,"lng":-81.63177,"zip":"25323","miles_from_dt":14.32},{"city":"Charleston","state_name":"West Virginia","lat":38.35448,"lng":-81.62729,"zip":"25325","miles_from_dt":14.33},{"city":"Charleston","state_name":"West Virginia","lat":38.35311,"lng":-81.63244,"zip":"25327","miles_from_dt":14.35},{"city":"Charleston","state_name":"West Virginia","lat":38.35294,"lng":-81.6331,"zip":"25333","miles_from_dt":14.36},{"city":"Foster","state_name":"West Virginia","lat":38.08235,"lng":-81.76875,"zip":"25081","miles_from_dt":14.46},{"city":"Alloy","state_name":"West Virginia","lat":38.13087,"lng":-81.25466,"zip":"25002","miles_from_dt":14.84},{"city":"Colcord","state_name":"West Virginia","lat":37.95442,"lng":-81.44656,"zip":"25048","miles_from_dt":15.02},{"city":"Gordon","state_name":"West Virginia","lat":37.9653,"lng":-81.64137,"zip":"25093","miles_from_dt":15.09},{"city":"Alum Creek","state_name":"West Virginia","lat":38.25101,"lng":-81.77925,"zip":"25003","miles_from_dt":15.15},{"city":"Madison","state_name":"West Virginia","lat":38.02776,"lng":-81.7455,"zip":"25130","miles_from_dt":15.27},{"city":"Charlton Heights","state_name":"West Virginia","lat":38.13673,"lng":-81.24385,"zip":"25040","miles_from_dt":15.37},{"city":"Deep Water","state_name":"West Virginia","lat":38.1078,"lng":-81.23783,"zip":"25057","miles_from_dt":16.05},{"city":"Charleston","state_name":"West Virginia","lat":38.39053,"lng":-81.59879,"zip":"25302","miles_from_dt":16.19},{"city":"Mount Olive","state_name":"West Virginia","lat":38.22149,"lng":-81.23587,"zip":"25185","miles_from_dt":16.19},{"city":"South Charleston","state_name":"West Virginia","lat":38.36033,"lng":-81.68679,"zip":"25303","miles_from_dt":16.21},{"city":"Kincaid","state_name":"West Virginia","lat":38.03362,"lng":-81.27494,"zip":"25119","miles_from_dt":16.26},{"city":"South Charleston","state_name":"West Virginia","lat":38.31177,"lng":-81.75715,"zip":"25309","miles_from_dt":16.3},{"city":"Charleston","state_name":"West Virginia","lat":38.36828,"lng":-81.67332,"zip":"25389","miles_from_dt":16.3},{"city":"Julian","state_name":"West Virginia","lat":38.15573,"lng":-81.8245,"zip":"25529","miles_from_dt":16.37},{"city":"Charleston","state_name":"West Virginia","lat":38.39695,"lng":-81.58675,"zip":"25362","miles_from_dt":16.47},{"city":"Pond Gap","state_name":"West Virginia","lat":38.29884,"lng":-81.27314,"zip":"25160","miles_from_dt":16.54},{"city":"Glen Ferris","state_name":"West Virginia","lat":38.15544,"lng":-81.21655,"zip":"25090","miles_from_dt":16.75},{"city":"Van","state_name":"West Virginia","lat":37.9596,"lng":-81.69296,"zip":"25206","miles_from_dt":16.81},{"city":"Charleston","state_name":"West Virginia","lat":38.33395,"lng":-81.74594,"zip":"25358","miles_from_dt":16.86},{"city":"Charleston","state_name":"West Virginia","lat":38.38523,"lng":-81.6642,"zip":"25387","miles_from_dt":17.1},{"city":"Artie","state_name":"West Virginia","lat":37.95044,"lng":-81.35766,"zip":"25008","miles_from_dt":17.26},{"city":"Pinch","state_name":"West Virginia","lat":38.41181,"lng":-81.48217,"zip":"25156","miles_from_dt":17.28},{"city":"Uneeda","state_name":"West Virginia","lat":38.01841,"lng":-81.78926,"zip":"25205","miles_from_dt":17.58},{"city":"Page","state_name":"West Virginia","lat":38.0411,"lng":-81.24004,"zip":"25152","miles_from_dt":17.62},{"city":"Robson","state_name":"West Virginia","lat":38.07519,"lng":-81.21898,"zip":"25173","miles_from_dt":17.7},{"city":"Twilight","state_name":"West Virginia","lat":37.91546,"lng":-81.60914,"zip":"25204","miles_from_dt":17.72},{"city":"Dixie","state_name":"West Virginia","lat":38.25422,"lng":-81.2153,"zip":"25059","miles_from_dt":17.93},{"city":"Bob White","state_name":"West Virginia","lat":37.95598,"lng":-81.72535,"zip":"25028","miles_from_dt":18.03},{"city":"Gauley Bridge","state_name":"West Virginia","lat":38.16762,"lng":-81.18867,"zip":"25085","miles_from_dt":18.26},{"city":"Kanawha Falls","state_name":"West Virginia","lat":38.13065,"lng":-81.18997,"zip":"25115","miles_from_dt":18.33},{"city":"Dunbar","state_name":"West Virginia","lat":38.37631,"lng":-81.74764,"zip":"25064","miles_from_dt":19.07},{"city":"Bim","state_name":"West Virginia","lat":37.91587,"lng":-81.68482,"zip":"25021","miles_from_dt":19.19},{"city":"Blue Creek","state_name":"West Virginia","lat":38.43937,"lng":-81.46029,"zip":"25026","miles_from_dt":19.35},{"city":"Sumerco","state_name":"West Virginia","lat":38.21971,"lng":-81.87294,"zip":"25567","miles_from_dt":19.39},{"city":"Belva","state_name":"West Virginia","lat":38.24358,"lng":-81.18082,"zip":"26656","miles_from_dt":19.48},{"city":"Jeffrey","state_name":"West Virginia","lat":37.98199,"lng":-81.7986,"zip":"25114","miles_from_dt":19.51},{"city":"Scarbro","state_name":"West Virginia","lat":37.97944,"lng":-81.25021,"zip":"25917","miles_from_dt":19.59},{"city":"Ottawa","state_name":"West Virginia","lat":37.9558,"lng":-81.7745,"zip":"25149","miles_from_dt":19.79},{"city":"Charleston","state_name":"West Virginia","lat":38.42168,"lng":-81.68972,"zip":"25357","miles_from_dt":19.96},{"city":"Institute","state_name":"West Virginia","lat":38.38103,"lng":-81.76633,"zip":"25112","miles_from_dt":19.97},{"city":"Woodville","state_name":"West Virginia","lat":38.16074,"lng":-81.89338,"zip":"25572","miles_from_dt":20.12},{"city":"Dry Creek","state_name":"West Virginia","lat":37.87549,"lng":-81.44411,"zip":"25062","miles_from_dt":20.33},{"city":"Naoma","state_name":"West Virginia","lat":37.86738,"lng":-81.49733,"zip":"25140","miles_from_dt":20.47},{"city":"Clear Creek","state_name":"West Virginia","lat":37.91139,"lng":-81.32118,"zip":"25044","miles_from_dt":20.6},{"city":"Dothan","state_name":"West Virginia","lat":37.98955,"lng":-81.21248,"zip":"25833","miles_from_dt":20.79},{"city":"Tornado","state_name":"West Virginia","lat":38.31593,"lng":-81.85372,"zip":"25202","miles_from_dt":20.79},{"city":"Danville","state_name":"West Virginia","lat":38.04725,"lng":-81.87633,"zip":"25053","miles_from_dt":20.81},{"city":"Lizemores","state_name":"West Virginia","lat":38.31554,"lng":-81.19074,"zip":"25125","miles_from_dt":20.95},{"city":"Sod","state_name":"West Virginia","lat":38.26302,"lng":-81.88835,"zip":"25564","miles_from_dt":20.98},{"city":"Clothier","state_name":"West Virginia","lat":37.9219,"lng":-81.76027,"zip":"25047","miles_from_dt":21.06},{"city":"Charleston","state_name":"West Virginia","lat":38.45324,"lng":-81.66948,"zip":"25360","miles_from_dt":21.5},{"city":"Charleston","state_name":"West Virginia","lat":38.41547,"lng":-81.75704,"zip":"25313","miles_from_dt":21.51},{"city":"Rock Creek","state_name":"West Virginia","lat":37.86115,"lng":-81.41376,"zip":"25174","miles_from_dt":21.7},{"city":"Charleston","state_name":"West Virginia","lat":38.46156,"lng":-81.656,"zip":"25312","miles_from_dt":21.78},{"city":"Turtle Creek","state_name":"West Virginia","lat":38.02125,"lng":-81.88162,"zip":"25203","miles_from_dt":21.82},{"city":"Elkview","state_name":"West Virginia","lat":38.47732,"lng":-81.46756,"zip":"25071","miles_from_dt":21.87},{"city":"Swiss","state_name":"West Virginia","lat":38.21757,"lng":-81.12069,"zip":"26690","miles_from_dt":22.27},{"city":"Ansted","state_name":"West Virginia","lat":38.14048,"lng":-81.11512,"zip":"25812","miles_from_dt":22.32},{"city":"Glen","state_name":"West Virginia","lat":38.37963,"lng":-81.21551,"zip":"25088","miles_from_dt":22.45},{"city":"Lochgelly","state_name":"West Virginia","lat":38.00883,"lng":-81.15738,"zip":"25866","miles_from_dt":22.65},{"city":"Falling Rock","state_name":"West Virginia","lat":38.47512,"lng":-81.38895,"zip":"25079","miles_from_dt":22.72},{"city":"Saint Albans","state_name":"West Virginia","lat":38.36928,"lng":-81.85021,"zip":"25177","miles_from_dt":22.72},{"city":"Pax","state_name":"West Virginia","lat":37.9128,"lng":-81.25213,"zip":"25904","miles_from_dt":22.77},{"city":"Wharton","state_name":"West Virginia","lat":37.84579,"lng":-81.64282,"zip":"25208","miles_from_dt":22.84},{"city":"Clendenin","state_name":"West Virginia","lat":38.45603,"lng":-81.32474,"zip":"25045","miles_from_dt":22.91},{"city":"Sharples","state_name":"West Virginia","lat":37.9074,"lng":-81.79745,"zip":"25183","miles_from_dt":23.11},{"city":"Charleston","state_name":"West Virginia","lat":38.44681,"lng":-81.75401,"zip":"25356","miles_from_dt":23.2},{"city":"Yawkey","state_name":"West Virginia","lat":38.22725,"lng":-81.94549,"zip":"25573","miles_from_dt":23.36},{"city":"Hewett","state_name":"West Virginia","lat":37.9655,"lng":-81.87289,"zip":"25108","miles_from_dt":23.41},{"city":"Alkol","state_name":"West Virginia","lat":38.16035,"lng":-81.95582,"zip":"25501","miles_from_dt":23.52},{"city":"Fayetteville","state_name":"West Virginia","lat":38.04001,"lng":-81.11442,"zip":"25840","miles_from_dt":23.89},{"city":"Arnett","state_name":"West Virginia","lat":37.8252,"lng":-81.42766,"zip":"25007","miles_from_dt":23.91},{"city":"Nitro","state_name":"West Virginia","lat":38.42001,"lng":-81.82414,"zip":"25143","miles_from_dt":24.07},{"city":"Spurlockville","state_name":"West Virginia","lat":38.10998,"lng":-81.96631,"zip":"25565","miles_from_dt":24.38},{"city":"Indore","state_name":"West Virginia","lat":38.34841,"lng":-81.12591,"zip":"25111","miles_from_dt":25.13},{"city":"Hilltop","state_name":"West Virginia","lat":37.94052,"lng":-81.15296,"zip":"25855","miles_from_dt":25.41},{"city":"Glen Jean","state_name":"West Virginia","lat":37.92476,"lng":-81.16628,"zip":"25846","miles_from_dt":25.53},{"city":"Bomont","state_name":"West Virginia","lat":38.45028,"lng":-81.22599,"zip":"25030","miles_from_dt":25.57},{"city":"Griffithsville","state_name":"West Virginia","lat":38.22915,"lng":-81.98641,"zip":"25521","miles_from_dt":25.58},{"city":"Mount Hope","state_name":"West Virginia","lat":37.90059,"lng":-81.18946,"zip":"25888","miles_from_dt":25.72},{"city":"Glen Daniel","state_name":"West Virginia","lat":37.81056,"lng":-81.37022,"zip":"25844","miles_from_dt":25.74},{"city":"Lake","state_name":"West Virginia","lat":37.91167,"lng":-81.87787,"zip":"25121","miles_from_dt":25.96},{"city":"Minden","state_name":"West Virginia","lat":37.98048,"lng":-81.10453,"zip":"25879","miles_from_dt":26.12},{"city":"Saxon","state_name":"West Virginia","lat":37.78961,"lng":-81.43316,"zip":"25180","miles_from_dt":26.25},{"city":"Lansing","state_name":"West Virginia","lat":38.08448,"lng":-81.05192,"zip":"25862","miles_from_dt":26.29},{"city":"Beckley","state_name":"West Virginia","lat":37.83805,"lng":-81.27017,"zip":"25801","miles_from_dt":26.37},{"city":"Mount Hope","state_name":"West Virginia","lat":37.87672,"lng":-81.20095,"zip":"25880","miles_from_dt":26.49},{"city":"Blair","state_name":"West Virginia","lat":37.84157,"lng":-81.79241,"zip":"25022","miles_from_dt":26.59},{"city":"Lorado","state_name":"West Virginia","lat":37.79821,"lng":-81.6816,"zip":"25630","miles_from_dt":26.62},{"city":"Charleston","state_name":"West Virginia","lat":38.54124,"lng":-81.62706,"zip":"25320","miles_from_dt":26.66},{"city":"Victor","state_name":"West Virginia","lat":38.15993,"lng":-81.03447,"zip":"25938","miles_from_dt":26.66},{"city":"Poca","state_name":"West Virginia","lat":38.50186,"lng":-81.7806,"zip":"25159","miles_from_dt":27.19},{"city":"Oak Hill","state_name":"West Virginia","lat":37.93575,"lng":-81.11242,"zip":"25901","miles_from_dt":27.39},{"city":"Edmond","state_name":"West Virginia","lat":38.06041,"lng":-81.0383,"zip":"25837","miles_from_dt":27.4},{"city":"Fairdale","state_name":"West Virginia","lat":37.78091,"lng":-81.38228,"zip":"25839","miles_from_dt":27.49},{"city":"Bradley","state_name":"West Virginia","lat":37.8608,"lng":-81.19252,"zip":"25818","miles_from_dt":27.62},{"city":"Bickmore","state_name":"West Virginia","lat":38.37663,"lng":-81.08955,"zip":"25019","miles_from_dt":27.83},{"city":"Bolt","state_name":"West Virginia","lat":37.76393,"lng":-81.42191,"zip":"25817","miles_from_dt":28.11},{"city":"Scott Depot","state_name":"West Virginia","lat":38.44736,"lng":-81.89908,"zip":"25560","miles_from_dt":28.27},{"city":"Prosperity","state_name":"West Virginia","lat":37.83687,"lng":-81.20192,"zip":"25909","miles_from_dt":28.57},{"city":"Pecks Mill","state_name":"West Virginia","lat":37.92627,"lng":-81.9537,"zip":"25547","miles_from_dt":28.58},{"city":"Harper","state_name":"West Virginia","lat":37.80177,"lng":-81.26154,"zip":"25851","miles_from_dt":28.76},{"city":"Drennen","state_name":"West Virginia","lat":38.2384,"lng":-80.99908,"zip":"26667","miles_from_dt":29.03},{"city":"Eccles","state_name":"West Virginia","lat":37.78693,"lng":-81.27804,"zip":"25836","miles_from_dt":29.23},{"city":"Cyclone","state_name":"West Virginia","lat":37.75186,"lng":-81.65997,"zip":"24827","miles_from_dt":29.34},{"city":"Big Creek","state_name":"West Virginia","lat":38.01967,"lng":-82.03075,"zip":"25505","miles_from_dt":29.35},{"city":"Oceana","state_name":"West Virginia","lat":37.73784,"lng":-81.53203,"zip":"24870","miles_from_dt":29.35},{"city":"Kopperston","state_name":"West Virginia","lat":37.73997,"lng":-81.5789,"zip":"24854","miles_from_dt":29.36},{"city":"Bancroft","state_name":"West Virginia","lat":38.51169,"lng":-81.8363,"zip":"25011","miles_from_dt":29.41},{"city":"Procious","state_name":"West Virginia","lat":38.50406,"lng":-81.19373,"zip":"25164","miles_from_dt":29.56},{"city":"Amherstdale","state_name":"West Virginia","lat":37.78125,"lng":-81.77081,"zip":"25607","miles_from_dt":29.6},{"city":"Hurricane","state_name":"West Virginia","lat":38.3984,"lng":-81.98279,"zip":"25526","miles_from_dt":29.75},{"city":"Hico","state_name":"West Virginia","lat":38.12629,"lng":-80.97537,"zip":"25854","miles_from_dt":29.99}],"targetCityZipCode":"25035","targetCityState":"West Virginia"},"__N_SSG":true}