{"pageProps":{"stateName":"West-virginia","cityName":"harrisville","nearbyCities":[{"city":"Berea","state_name":"West Virginia","lat":39.12283,"lng":-80.9406,"zip":"26327","miles_from_dt":6.63},{"city":"Smithville","state_name":"West Virginia","lat":39.06001,"lng":-81.02888,"zip":"26178","miles_from_dt":6.7},{"city":"Pullman","state_name":"West Virginia","lat":39.18412,"lng":-80.91607,"zip":"26421","miles_from_dt":7.84},{"city":"Cairo","state_name":"West Virginia","lat":39.23856,"lng":-81.16388,"zip":"26337","miles_from_dt":8.15},{"city":"Macfarlan","state_name":"West Virginia","lat":39.07122,"lng":-81.18088,"zip":"26148","miles_from_dt":8.79},{"city":"Ellenboro","state_name":"West Virginia","lat":39.29247,"lng":-81.06294,"zip":"26346","miles_from_dt":9.52},{"city":"Auburn","state_name":"West Virginia","lat":39.09749,"lng":-80.882,"zip":"26325","miles_from_dt":10.2},{"city":"Big Springs","state_name":"West Virginia","lat":39.00647,"lng":-81.0385,"zip":"26137","miles_from_dt":10.26},{"city":"Petroleum","state_name":"West Virginia","lat":39.16789,"lng":-81.2526,"zip":"26161","miles_from_dt":10.54},{"city":"Brohard","state_name":"West Virginia","lat":39.02114,"lng":-81.18155,"zip":"26138","miles_from_dt":11.38},{"city":"Pennsboro","state_name":"West Virginia","lat":39.29808,"lng":-80.93499,"zip":"26415","miles_from_dt":11.87},{"city":"Big Bend","state_name":"West Virginia","lat":38.96553,"lng":-81.11478,"zip":"26136","miles_from_dt":13.4},{"city":"Munday","state_name":"West Virginia","lat":38.98355,"lng":-81.19308,"zip":"26152","miles_from_dt":13.88},{"city":"Coxs Mills","state_name":"West Virginia","lat":39.0248,"lng":-80.84698,"zip":"26342","miles_from_dt":14.41},{"city":"Saint Marys","state_name":"West Virginia","lat":39.36136,"lng":-81.17136,"zip":"26170","miles_from_dt":15.53},{"city":"Grantsville","state_name":"West Virginia","lat":38.91368,"lng":-81.07629,"zip":"26147","miles_from_dt":16.65},{"city":"Walker","state_name":"West Virginia","lat":39.20016,"lng":-81.36699,"zip":"26180","miles_from_dt":16.94},{"city":"Troy","state_name":"West Virginia","lat":39.06814,"lng":-80.7554,"zip":"26443","miles_from_dt":17.27},{"city":"West Union","state_name":"West Virginia","lat":39.28078,"lng":-80.77354,"zip":"26456","miles_from_dt":17.53},{"city":"Elizabeth","state_name":"West Virginia","lat":39.06338,"lng":-81.3764,"zip":"26143","miles_from_dt":18.28},{"city":"Waverly","state_name":"West Virginia","lat":39.29739,"lng":-81.35086,"zip":"26184","miles_from_dt":18.59},{"city":"New Milton","state_name":"West Virginia","lat":39.18078,"lng":-80.70723,"zip":"26411","miles_from_dt":18.87},{"city":"Mount Zion","state_name":"West Virginia","lat":38.89493,"lng":-81.17503,"zip":"26151","miles_from_dt":19},{"city":"Creston","state_name":"West Virginia","lat":38.92925,"lng":-81.26059,"zip":"26141","miles_from_dt":19.01},{"city":"Belmont","state_name":"West Virginia","lat":39.37686,"lng":-81.27544,"zip":"26134","miles_from_dt":19.3},{"city":"Glenville","state_name":"West Virginia","lat":38.92846,"lng":-80.84479,"zip":"26351","miles_from_dt":19.33},{"city":"Friendly","state_name":"West Virginia","lat":39.45053,"lng":-81.03601,"zip":"26146","miles_from_dt":20.45},{"city":"Smithburg","state_name":"West Virginia","lat":39.2965,"lng":-80.71683,"zip":"26436","miles_from_dt":20.71},{"city":"Alum Bridge","state_name":"West Virginia","lat":39.05461,"lng":-80.68732,"zip":"26321","miles_from_dt":21.03},{"city":"Newport","state_name":"Ohio","lat":39.4149,"lng":-81.26468,"zip":"45768","miles_from_dt":21.13},{"city":"Normantown","state_name":"West Virginia","lat":38.85778,"lng":-80.94187,"zip":"25267","miles_from_dt":21.39},{"city":"Davisville","state_name":"West Virginia","lat":39.21488,"lng":-81.45431,"zip":"26142","miles_from_dt":21.73},{"city":"Alma","state_name":"West Virginia","lat":39.41514,"lng":-80.82614,"zip":"26320","miles_from_dt":21.83},{"city":"Linn","state_name":"West Virginia","lat":38.97467,"lng":-80.7178,"zip":"26384","miles_from_dt":22.06},{"city":"Millstone","state_name":"West Virginia","lat":38.83027,"lng":-81.08886,"zip":"25261","miles_from_dt":22.44},{"city":"Palestine","state_name":"West Virginia","lat":38.98066,"lng":-81.41368,"zip":"26160","miles_from_dt":22.62},{"city":"Shirley","state_name":"West Virginia","lat":39.39706,"lng":-80.76641,"zip":"26434","miles_from_dt":22.86},{"city":"Mineral Wells","state_name":"West Virginia","lat":39.16866,"lng":-81.49021,"zip":"26120","miles_from_dt":23.28},{"city":"Mineral Wells","state_name":"West Virginia","lat":39.17214,"lng":-81.49489,"zip":"26121","miles_from_dt":23.54},{"city":"Arnoldsburg","state_name":"West Virginia","lat":38.81291,"lng":-81.12343,"zip":"25234","miles_from_dt":23.84},{"city":"Middlebourne","state_name":"West Virginia","lat":39.47429,"lng":-80.88269,"zip":"26149","miles_from_dt":23.95},{"city":"Camden","state_name":"West Virginia","lat":39.08503,"lng":-80.61941,"zip":"26338","miles_from_dt":24},{"city":"Parkersburg","state_name":"West Virginia","lat":39.27413,"lng":-81.47779,"zip":"26104","miles_from_dt":24.04},{"city":"Reno","state_name":"Ohio","lat":39.45525,"lng":-81.28656,"zip":"45773","miles_from_dt":24.12},{"city":"Cedarville","state_name":"West Virginia","lat":38.84639,"lng":-80.83339,"zip":"26611","miles_from_dt":24.43},{"city":"Sand Fork","state_name":"West Virginia","lat":38.88475,"lng":-80.7598,"zip":"26430","miles_from_dt":24.54},{"city":"Parkersburg","state_name":"West Virginia","lat":39.23975,"lng":-81.5164,"zip":"26102","miles_from_dt":25.35},{"city":"Williamstown","state_name":"West Virginia","lat":39.36711,"lng":-81.44894,"zip":"26187","miles_from_dt":25.63},{"city":"Mineral Wells","state_name":"West Virginia","lat":39.1566,"lng":-81.53697,"zip":"26150","miles_from_dt":25.78},{"city":"Shock","state_name":"West Virginia","lat":38.77265,"lng":-80.99878,"zip":"26638","miles_from_dt":26.53},{"city":"Parkersburg","state_name":"West Virginia","lat":39.32468,"lng":-81.501,"zip":"26106","miles_from_dt":26.55},{"city":"Sistersville","state_name":"West Virginia","lat":39.53899,"lng":-80.96577,"zip":"26175","miles_from_dt":26.97},{"city":"New Matamoras","state_name":"Ohio","lat":39.54367,"lng":-81.1312,"zip":"45767","miles_from_dt":27.13},{"city":"Marietta","state_name":"Ohio","lat":39.4301,"lng":-81.42947,"zip":"45750","miles_from_dt":27.56},{"city":"Parkersburg","state_name":"West Virginia","lat":39.24827,"lng":-81.5572,"zip":"26103","miles_from_dt":27.61},{"city":"Reedy","state_name":"West Virginia","lat":38.88174,"lng":-81.43395,"zip":"25270","miles_from_dt":27.67},{"city":"Vienna","state_name":"West Virginia","lat":39.32949,"lng":-81.52267,"zip":"26105","miles_from_dt":27.74},{"city":"Salem","state_name":"West Virginia","lat":39.28758,"lng":-80.56313,"zip":"26426","miles_from_dt":28.05},{"city":"Rockport","state_name":"West Virginia","lat":39.07291,"lng":-81.57121,"zip":"26169","miles_from_dt":28.2},{"city":"Copen","state_name":"West Virginia","lat":38.83242,"lng":-80.73136,"zip":"26615","miles_from_dt":28.31},{"city":"Parkersburg","state_name":"West Virginia","lat":39.23394,"lng":-81.57483,"zip":"26101","miles_from_dt":28.33},{"city":"Orma","state_name":"West Virginia","lat":38.73969,"lng":-81.107,"zip":"25268","miles_from_dt":28.75},{"city":"Burnsville","state_name":"West Virginia","lat":38.85364,"lng":-80.67683,"zip":"26335","miles_from_dt":29.15},{"city":"Spencer","state_name":"West Virginia","lat":38.78803,"lng":-81.33203,"zip":"25276","miles_from_dt":29.3},{"city":"Wingett Run","state_name":"Ohio","lat":39.5514,"lng":-81.25592,"zip":"45789","miles_from_dt":29.37},{"city":"Rosedale","state_name":"West Virginia","lat":38.73386,"lng":-80.96599,"zip":"26636","miles_from_dt":29.43},{"city":"Whipple","state_name":"Ohio","lat":39.51349,"lng":-81.37016,"zip":"45788","miles_from_dt":29.91}],"targetCityZipCode":"26362","targetCityState":"West Virginia"},"__N_SSG":true}