{"pageProps":{"stateName":"West-virginia","cityName":"purgitsville","nearbyCities":[{"city":"Burlington","state_name":"West Virginia","lat":39.30996,"lng":-78.94544,"zip":"26710","miles_from_dt":4.58},{"city":"Old Fields","state_name":"West Virginia","lat":39.16734,"lng":-78.96193,"zip":"26845","miles_from_dt":6.07},{"city":"New Creek","state_name":"West Virginia","lat":39.28873,"lng":-79.07998,"zip":"26743","miles_from_dt":9.24},{"city":"Romney","state_name":"West Virginia","lat":39.31652,"lng":-78.75001,"zip":"26757","miles_from_dt":10.09},{"city":"Lahmansville","state_name":"West Virginia","lat":39.15243,"lng":-79.06859,"zip":"26731","miles_from_dt":10.5},{"city":"Keyser","state_name":"West Virginia","lat":39.40508,"lng":-78.98222,"zip":"26726","miles_from_dt":11.42},{"city":"Rio","state_name":"West Virginia","lat":39.15856,"lng":-78.73534,"zip":"26755","miles_from_dt":11.48},{"city":"Shanks","state_name":"West Virginia","lat":39.27303,"lng":-78.6997,"zip":"26761","miles_from_dt":11.73},{"city":"Fisher","state_name":"West Virginia","lat":39.07662,"lng":-79.02238,"zip":"26818","miles_from_dt":13.11},{"city":"Baker","state_name":"West Virginia","lat":39.05694,"lng":-78.79374,"zip":"26801","miles_from_dt":14.71},{"city":"Elk Garden","state_name":"West Virginia","lat":39.34583,"lng":-79.17597,"zip":"26717","miles_from_dt":15.49},{"city":"Delray","state_name":"West Virginia","lat":39.17634,"lng":-78.64177,"zip":"26714","miles_from_dt":15.52},{"city":"Moorefield","state_name":"West Virginia","lat":39.00693,"lng":-78.96366,"zip":"26836","miles_from_dt":16.81},{"city":"Piedmont","state_name":"West Virginia","lat":39.47764,"lng":-79.04627,"zip":"26750","miles_from_dt":17.33},{"city":"Augusta","state_name":"West Virginia","lat":39.28619,"lng":-78.59471,"zip":"26704","miles_from_dt":17.43},{"city":"Luke","state_name":"Maryland","lat":39.47659,"lng":-79.05929,"zip":"21540","miles_from_dt":17.56},{"city":"Bloomington","state_name":"Maryland","lat":39.47956,"lng":-79.07925,"zip":"21523","miles_from_dt":18.23},{"city":"Rawlings","state_name":"Maryland","lat":39.5191,"lng":-78.92353,"zip":"21557","miles_from_dt":18.73},{"city":"Mount Storm","state_name":"West Virginia","lat":39.21508,"lng":-79.2647,"zip":"26739","miles_from_dt":18.84},{"city":"Fort Ashby","state_name":"West Virginia","lat":39.49778,"lng":-78.7678,"zip":"26719","miles_from_dt":18.99},{"city":"Westernport","state_name":"Maryland","lat":39.50326,"lng":-79.05046,"zip":"21562","miles_from_dt":19.04},{"city":"Maysville","state_name":"West Virginia","lat":39.08119,"lng":-79.2083,"zip":"26833","miles_from_dt":19.45},{"city":"Kitzmiller","state_name":"Maryland","lat":39.40133,"lng":-79.22109,"zip":"21538","miles_from_dt":19.48},{"city":"Springfield","state_name":"West Virginia","lat":39.4789,"lng":-78.69316,"zip":"26763","miles_from_dt":19.92},{"city":"Wardensville","state_name":"West Virginia","lat":39.04801,"lng":-78.62878,"zip":"26851","miles_from_dt":20.68},{"city":"Lost City","state_name":"West Virginia","lat":38.97721,"lng":-78.74853,"zip":"26810","miles_from_dt":20.72},{"city":"Yellow Spring","state_name":"West Virginia","lat":39.19053,"lng":-78.51932,"zip":"26865","miles_from_dt":21.65},{"city":"Points","state_name":"West Virginia","lat":39.4225,"lng":-78.57623,"zip":"25437","miles_from_dt":21.83},{"city":"Barton","state_name":"Maryland","lat":39.55042,"lng":-79.04836,"zip":"21521","miles_from_dt":22.05},{"city":"Gormania","state_name":"West Virginia","lat":39.27761,"lng":-79.33126,"zip":"26720","miles_from_dt":22.37},{"city":"Pinto","state_name":"Maryland","lat":39.56932,"lng":-78.84283,"zip":"21556","miles_from_dt":22.53},{"city":"Ridgeley","state_name":"West Virginia","lat":39.56017,"lng":-78.79026,"zip":"26753","miles_from_dt":22.58},{"city":"Green Spring","state_name":"West Virginia","lat":39.49774,"lng":-78.63463,"zip":"26722","miles_from_dt":22.9},{"city":"Capon Springs","state_name":"West Virginia","lat":39.13033,"lng":-78.51139,"zip":"26823","miles_from_dt":23.18},{"city":"Swanton","state_name":"Maryland","lat":39.49976,"lng":-79.20482,"zip":"21561","miles_from_dt":23.27},{"city":"Petersburg","state_name":"West Virginia","lat":38.95809,"lng":-79.15189,"zip":"26847","miles_from_dt":23.66},{"city":"Midland","state_name":"Maryland","lat":39.59114,"lng":-78.95087,"zip":"21542","miles_from_dt":23.77},{"city":"Capon Bridge","state_name":"West Virginia","lat":39.30301,"lng":-78.47073,"zip":"26711","miles_from_dt":24.18},{"city":"Spring Gap","state_name":"Maryland","lat":39.56508,"lng":-78.70632,"zip":"21560","miles_from_dt":24.6},{"city":"Levels","state_name":"West Virginia","lat":39.48682,"lng":-78.57279,"zip":"25431","miles_from_dt":24.7},{"city":"Lonaconing","state_name":"Maryland","lat":39.59828,"lng":-79.01074,"zip":"21539","miles_from_dt":24.71},{"city":"Slanesville","state_name":"West Virginia","lat":39.43543,"lng":-78.52081,"zip":"25444","miles_from_dt":24.82},{"city":"Mathias","state_name":"West Virginia","lat":38.88184,"lng":-78.87688,"zip":"26812","miles_from_dt":25.33},{"city":"High View","state_name":"West Virginia","lat":39.19563,"lng":-78.44416,"zip":"26808","miles_from_dt":25.57},{"city":"Bayard","state_name":"West Virginia","lat":39.22275,"lng":-79.39418,"zip":"26707","miles_from_dt":25.71},{"city":"Cabins","state_name":"West Virginia","lat":38.96933,"lng":-79.25935,"zip":"26855","miles_from_dt":26.63},{"city":"Wiley Ford","state_name":"West Virginia","lat":39.61581,"lng":-78.75674,"zip":"26767","miles_from_dt":26.79},{"city":"Midlothian","state_name":"Maryland","lat":39.64157,"lng":-78.96231,"zip":"21543","miles_from_dt":27.28},{"city":"Oakland","state_name":"Maryland","lat":39.39107,"lng":-79.39085,"zip":"21550","miles_from_dt":27.3},{"city":"Star Tannery","state_name":"Virginia","lat":39.06863,"lng":-78.4586,"zip":"22654","miles_from_dt":27.5},{"city":"Eckhart Mines","state_name":"Maryland","lat":39.65022,"lng":-78.90548,"zip":"21528","miles_from_dt":27.77},{"city":"Bittinger","state_name":"Maryland","lat":39.58811,"lng":-79.20277,"zip":"21522","miles_from_dt":28.05},{"city":"Frostburg","state_name":"Maryland","lat":39.65559,"lng":-78.96025,"zip":"21532","miles_from_dt":28.24},{"city":"Cumberland","state_name":"Maryland","lat":39.64143,"lng":-78.75609,"zip":"21502","miles_from_dt":28.48},{"city":"Maurertown","state_name":"Virginia","lat":38.96362,"lng":-78.5314,"zip":"22644","miles_from_dt":28.48},{"city":"Basye","state_name":"Virginia","lat":38.84466,"lng":-78.78554,"zip":"22810","miles_from_dt":28.67},{"city":"Davis","state_name":"West Virginia","lat":39.08923,"lng":-79.41147,"zip":"26260","miles_from_dt":28.77},{"city":"Cumberland","state_name":"Maryland","lat":39.64708,"lng":-78.75968,"zip":"21503","miles_from_dt":28.79},{"city":"Paw Paw","state_name":"West Virginia","lat":39.45797,"lng":-78.45038,"zip":"25434","miles_from_dt":28.85},{"city":"Cumberland","state_name":"Maryland","lat":39.64968,"lng":-78.75776,"zip":"21501","miles_from_dt":28.99},{"city":"Bloomery","state_name":"West Virginia","lat":39.35957,"lng":-78.39067,"zip":"26817","miles_from_dt":29.19},{"city":"Cumberland","state_name":"Maryland","lat":39.65805,"lng":-78.74626,"zip":"21505","miles_from_dt":29.73},{"city":"Gore","state_name":"Virginia","lat":39.25057,"lng":-78.3605,"zip":"22637","miles_from_dt":29.8},{"city":"Cumberland","state_name":"Maryland","lat":39.66077,"lng":-78.74317,"zip":"21504","miles_from_dt":29.96}],"targetCityZipCode":"26852","targetCityState":"West Virginia"},"__N_SSG":true}