{"pageProps":{"stateName":"West-virginia","cityName":"ronceverte","nearbyCities":[{"city":"Fairlea","state_name":"West Virginia","lat":37.77799,"lng":-80.45392,"zip":"24902","miles_from_dt":3.36},{"city":"Caldwell","state_name":"West Virginia","lat":37.72919,"lng":-80.38348,"zip":"24925","miles_from_dt":5.06},{"city":"Sinks Grove","state_name":"West Virginia","lat":37.66513,"lng":-80.52273,"zip":"24976","miles_from_dt":5.3},{"city":"Secondcreek","state_name":"West Virginia","lat":37.65395,"lng":-80.44693,"zip":"24974","miles_from_dt":5.63},{"city":"Lewisburg","state_name":"West Virginia","lat":37.85298,"lng":-80.47598,"zip":"24901","miles_from_dt":8.32},{"city":"Asbury","state_name":"West Virginia","lat":37.82735,"lng":-80.57735,"zip":"24916","miles_from_dt":8.59},{"city":"Union","state_name":"West Virginia","lat":37.59165,"lng":-80.51672,"zip":"24983","miles_from_dt":9.96},{"city":"Wolfcreek","state_name":"West Virginia","lat":37.66095,"lng":-80.63512,"zip":"24993","miles_from_dt":10.03},{"city":"Alderson","state_name":"West Virginia","lat":37.74173,"lng":-80.66835,"zip":"24910","miles_from_dt":10.57},{"city":"Maxwelton","state_name":"West Virginia","lat":37.88729,"lng":-80.40827,"zip":"24957","miles_from_dt":11.3},{"city":"Gap Mills","state_name":"West Virginia","lat":37.58824,"lng":-80.3577,"zip":"24941","miles_from_dt":11.86},{"city":"Crawley","state_name":"West Virginia","lat":37.91471,"lng":-80.59355,"zip":"24931","miles_from_dt":14.13},{"city":"Frankford","state_name":"West Virginia","lat":37.92516,"lng":-80.38083,"zip":"24938","miles_from_dt":14.27},{"city":"Pence Springs","state_name":"West Virginia","lat":37.66029,"lng":-80.72041,"zip":"24962","miles_from_dt":14.3},{"city":"Wayside","state_name":"West Virginia","lat":37.59989,"lng":-80.68948,"zip":"24985","miles_from_dt":14.86},{"city":"Grassy Meadows","state_name":"West Virginia","lat":37.83632,"lng":-80.72709,"zip":"24943","miles_from_dt":15.51},{"city":"Talcott","state_name":"West Virginia","lat":37.63256,"lng":-80.73968,"zip":"24981","miles_from_dt":16.02},{"city":"Smoot","state_name":"West Virginia","lat":37.90823,"lng":-80.67527,"zip":"24977","miles_from_dt":16.32},{"city":"Green Sulphur Springs","state_name":"West Virginia","lat":37.7975,"lng":-80.76729,"zip":"25966","miles_from_dt":16.58},{"city":"Waiteville","state_name":"West Virginia","lat":37.48942,"lng":-80.41749,"zip":"24984","miles_from_dt":17.06},{"city":"Greenville","state_name":"West Virginia","lat":37.54113,"lng":-80.68795,"zip":"24945","miles_from_dt":17.59},{"city":"Paint Bank","state_name":"Virginia","lat":37.56836,"lng":-80.22894,"zip":"24131","miles_from_dt":17.64},{"city":"Williamsburg","state_name":"West Virginia","lat":38.00702,"lng":-80.48972,"zip":"24991","miles_from_dt":18.96},{"city":"Lindside","state_name":"West Virginia","lat":37.48358,"lng":-80.63103,"zip":"24951","miles_from_dt":19.16},{"city":"Sandstone","state_name":"West Virginia","lat":37.75752,"lng":-80.83044,"zip":"25985","miles_from_dt":19.5},{"city":"White Sulphur Springs","state_name":"West Virginia","lat":37.91189,"lng":-80.19455,"zip":"24986","miles_from_dt":19.75},{"city":"Rupert","state_name":"West Virginia","lat":38.01409,"lng":-80.6026,"zip":"25984","miles_from_dt":20.63},{"city":"Ballard","state_name":"West Virginia","lat":37.51793,"lng":-80.75461,"zip":"24918","miles_from_dt":21.28},{"city":"Forest Hill","state_name":"West Virginia","lat":37.56362,"lng":-80.80344,"zip":"24935","miles_from_dt":21.41},{"city":"Spring Dale","state_name":"West Virginia","lat":37.89395,"lng":-80.81741,"zip":"25986","miles_from_dt":21.76},{"city":"Renick","state_name":"West Virginia","lat":38.03345,"lng":-80.35283,"zip":"24966","miles_from_dt":21.82},{"city":"Hinton","state_name":"West Virginia","lat":37.65535,"lng":-80.87197,"zip":"25951","miles_from_dt":22.35},{"city":"Covington","state_name":"Virginia","lat":37.76589,"lng":-80.06927,"zip":"24426","miles_from_dt":22.38},{"city":"Meadow Bridge","state_name":"West Virginia","lat":37.84372,"lng":-80.86221,"zip":"25976","miles_from_dt":22.5},{"city":"New Castle","state_name":"Virginia","lat":37.47949,"lng":-80.19468,"zip":"24127","miles_from_dt":23.28},{"city":"Ripplemead","state_name":"Virginia","lat":37.40229,"lng":-80.59694,"zip":"24150","miles_from_dt":23.72},{"city":"Meadow Creek","state_name":"West Virginia","lat":37.80819,"lng":-80.90571,"zip":"25977","miles_from_dt":24.11},{"city":"Rainelle","state_name":"West Virginia","lat":37.97044,"lng":-80.8098,"zip":"25962","miles_from_dt":24.56},{"city":"Leslie","state_name":"West Virginia","lat":38.03576,"lng":-80.7222,"zip":"25972","miles_from_dt":24.89},{"city":"Charmco","state_name":"West Virginia","lat":38.02156,"lng":-80.76077,"zip":"25958","miles_from_dt":25.31},{"city":"Peterstown","state_name":"West Virginia","lat":37.43743,"lng":-80.77617,"zip":"24963","miles_from_dt":26.18},{"city":"Nimitz","state_name":"West Virginia","lat":37.62861,"lng":-80.94138,"zip":"25978","miles_from_dt":26.51},{"city":"Newport","state_name":"Virginia","lat":37.3426,"lng":-80.47196,"zip":"24128","miles_from_dt":26.88},{"city":"Quinwood","state_name":"West Virginia","lat":38.08321,"lng":-80.70274,"zip":"25981","miles_from_dt":27.19},{"city":"Pipestem","state_name":"West Virginia","lat":37.5126,"lng":-80.91736,"zip":"25979","miles_from_dt":28.58},{"city":"Catawba","state_name":"Virginia","lat":37.37316,"lng":-80.21238,"zip":"24070","miles_from_dt":28.68},{"city":"Shady Spring","state_name":"West Virginia","lat":37.74575,"lng":-81.00993,"zip":"25918","miles_from_dt":29.27},{"city":"Pembroke","state_name":"Virginia","lat":37.31927,"lng":-80.60686,"zip":"24136","miles_from_dt":29.39},{"city":"Danese","state_name":"West Virginia","lat":37.95645,"lng":-80.94037,"zip":"25831","miles_from_dt":29.74},{"city":"Rich Creek","state_name":"Virginia","lat":37.40178,"lng":-80.82815,"zip":"24147","miles_from_dt":29.9}],"targetCityZipCode":"24970","targetCityState":"West Virginia"},"__N_SSG":true}