{"pageProps":{"stateName":"West-virginia","cityName":"shanks","nearbyCities":[{"city":"Romney","state_name":"West Virginia","lat":39.31652,"lng":-78.75001,"zip":"26757","miles_from_dt":4.03},{"city":"Augusta","state_name":"West Virginia","lat":39.28619,"lng":-78.59471,"zip":"26704","miles_from_dt":5.7},{"city":"Delray","state_name":"West Virginia","lat":39.17634,"lng":-78.64177,"zip":"26714","miles_from_dt":7.36},{"city":"Rio","state_name":"West Virginia","lat":39.15856,"lng":-78.73534,"zip":"26755","miles_from_dt":8.12},{"city":"Yellow Spring","state_name":"West Virginia","lat":39.19053,"lng":-78.51932,"zip":"26865","miles_from_dt":11.23},{"city":"Purgitsville","state_name":"West Virginia","lat":39.2477,"lng":-78.91599,"zip":"26852","miles_from_dt":11.73},{"city":"Points","state_name":"West Virginia","lat":39.4225,"lng":-78.57623,"zip":"25437","miles_from_dt":12.25},{"city":"Capon Bridge","state_name":"West Virginia","lat":39.30301,"lng":-78.47073,"zip":"26711","miles_from_dt":12.45},{"city":"Burlington","state_name":"West Virginia","lat":39.30996,"lng":-78.94544,"zip":"26710","miles_from_dt":13.42},{"city":"Capon Springs","state_name":"West Virginia","lat":39.13033,"lng":-78.51139,"zip":"26823","miles_from_dt":14.11},{"city":"Springfield","state_name":"West Virginia","lat":39.4789,"lng":-78.69316,"zip":"26763","miles_from_dt":14.21},{"city":"High View","state_name":"West Virginia","lat":39.19563,"lng":-78.44416,"zip":"26808","miles_from_dt":14.71},{"city":"Slanesville","state_name":"West Virginia","lat":39.43543,"lng":-78.52081,"zip":"25444","miles_from_dt":14.74},{"city":"Baker","state_name":"West Virginia","lat":39.05694,"lng":-78.79374,"zip":"26801","miles_from_dt":15.74},{"city":"Old Fields","state_name":"West Virginia","lat":39.16734,"lng":-78.96193,"zip":"26845","miles_from_dt":15.85},{"city":"Green Spring","state_name":"West Virginia","lat":39.49774,"lng":-78.63463,"zip":"26722","miles_from_dt":15.89},{"city":"Fort Ashby","state_name":"West Virginia","lat":39.49778,"lng":-78.7678,"zip":"26719","miles_from_dt":15.93},{"city":"Wardensville","state_name":"West Virginia","lat":39.04801,"lng":-78.62878,"zip":"26851","miles_from_dt":15.98},{"city":"Levels","state_name":"West Virginia","lat":39.48682,"lng":-78.57279,"zip":"25431","miles_from_dt":16.24},{"city":"Bloomery","state_name":"West Virginia","lat":39.35957,"lng":-78.39067,"zip":"26817","miles_from_dt":17.6},{"city":"Keyser","state_name":"West Virginia","lat":39.40508,"lng":-78.98222,"zip":"26726","miles_from_dt":17.66},{"city":"Gore","state_name":"Virginia","lat":39.25057,"lng":-78.3605,"zip":"22637","miles_from_dt":18.26},{"city":"Paw Paw","state_name":"West Virginia","lat":39.45797,"lng":-78.45038,"zip":"25434","miles_from_dt":18.47},{"city":"Star Tannery","state_name":"Virginia","lat":39.06863,"lng":-78.4586,"zip":"22654","miles_from_dt":19.14},{"city":"Spring Gap","state_name":"Maryland","lat":39.56508,"lng":-78.70632,"zip":"21560","miles_from_dt":20.15},{"city":"Ridgeley","state_name":"West Virginia","lat":39.56017,"lng":-78.79026,"zip":"26753","miles_from_dt":20.39},{"city":"New Creek","state_name":"West Virginia","lat":39.28873,"lng":-79.07998,"zip":"26743","miles_from_dt":20.42},{"city":"Lost City","state_name":"West Virginia","lat":38.97721,"lng":-78.74853,"zip":"26810","miles_from_dt":20.57},{"city":"Rawlings","state_name":"Maryland","lat":39.5191,"lng":-78.92353,"zip":"21557","miles_from_dt":20.78},{"city":"Lahmansville","state_name":"West Virginia","lat":39.15243,"lng":-79.06859,"zip":"26731","miles_from_dt":21.47},{"city":"Strasburg","state_name":"Virginia","lat":39.07795,"lng":-78.38588,"zip":"22641","miles_from_dt":21.56},{"city":"Pinto","state_name":"Maryland","lat":39.56932,"lng":-78.84283,"zip":"21556","miles_from_dt":21.83},{"city":"Cross Junction","state_name":"Virginia","lat":39.37397,"lng":-78.31172,"zip":"22625","miles_from_dt":21.92},{"city":"Fisher","state_name":"West Virginia","lat":39.07662,"lng":-79.02238,"zip":"26818","miles_from_dt":21.99},{"city":"Oldtown","state_name":"Maryland","lat":39.58777,"lng":-78.55685,"zip":"21555","miles_from_dt":23.02},{"city":"Maurertown","state_name":"Virginia","lat":38.96362,"lng":-78.5314,"zip":"22644","miles_from_dt":23.18},{"city":"Moorefield","state_name":"West Virginia","lat":39.00693,"lng":-78.96366,"zip":"26836","miles_from_dt":23.2},{"city":"Piedmont","state_name":"West Virginia","lat":39.47764,"lng":-79.04627,"zip":"26750","miles_from_dt":23.31},{"city":"Luke","state_name":"Maryland","lat":39.47659,"lng":-79.05929,"zip":"21540","miles_from_dt":23.83},{"city":"Wiley Ford","state_name":"West Virginia","lat":39.61581,"lng":-78.75674,"zip":"26767","miles_from_dt":23.84},{"city":"Westernport","state_name":"Maryland","lat":39.50326,"lng":-79.05046,"zip":"21562","miles_from_dt":24.59},{"city":"Winchester","state_name":"Virginia","lat":39.1508,"lng":-78.26555,"zip":"22602","miles_from_dt":24.78},{"city":"Bloomington","state_name":"Maryland","lat":39.47956,"lng":-79.07925,"zip":"21523","miles_from_dt":24.82},{"city":"Cumberland","state_name":"Maryland","lat":39.64143,"lng":-78.75609,"zip":"21502","miles_from_dt":25.59},{"city":"Fishers Hill","state_name":"Virginia","lat":38.97919,"lng":-78.40502,"zip":"22626","miles_from_dt":25.72},{"city":"Midland","state_name":"Maryland","lat":39.59114,"lng":-78.95087,"zip":"21542","miles_from_dt":25.73},{"city":"Strasburg","state_name":"Virginia","lat":39.00155,"lng":-78.36755,"zip":"22657","miles_from_dt":25.87},{"city":"Toms Brook","state_name":"Virginia","lat":38.95628,"lng":-78.4383,"zip":"22660","miles_from_dt":25.98},{"city":"Cumberland","state_name":"Maryland","lat":39.64708,"lng":-78.75968,"zip":"21503","miles_from_dt":26},{"city":"Elk Garden","state_name":"West Virginia","lat":39.34583,"lng":-79.17597,"zip":"26717","miles_from_dt":26.01},{"city":"Cumberland","state_name":"Maryland","lat":39.64968,"lng":-78.75776,"zip":"21501","miles_from_dt":26.17},{"city":"Winchester","state_name":"Virginia","lat":39.28153,"lng":-78.2056,"zip":"22603","miles_from_dt":26.5},{"city":"Cumberland","state_name":"Maryland","lat":39.65805,"lng":-78.74626,"zip":"21505","miles_from_dt":26.68},{"city":"Barton","state_name":"Maryland","lat":39.55042,"lng":-79.04836,"zip":"21521","miles_from_dt":26.73},{"city":"Great Cacapon","state_name":"West Virginia","lat":39.55812,"lng":-78.35887,"zip":"25422","miles_from_dt":26.82},{"city":"Cumberland","state_name":"Maryland","lat":39.66077,"lng":-78.74317,"zip":"21504","miles_from_dt":26.85},{"city":"Woodstock","state_name":"Virginia","lat":38.8944,"lng":-78.53119,"zip":"22664","miles_from_dt":27.65},{"city":"Lonaconing","state_name":"Maryland","lat":39.59828,"lng":-79.01074,"zip":"21539","miles_from_dt":27.93},{"city":"Eckhart Mines","state_name":"Maryland","lat":39.65022,"lng":-78.90548,"zip":"21528","miles_from_dt":28.25},{"city":"Mathias","state_name":"West Virginia","lat":38.88184,"lng":-78.87688,"zip":"26812","miles_from_dt":28.62},{"city":"Middletown","state_name":"Virginia","lat":39.02152,"lng":-78.27457,"zip":"22645","miles_from_dt":28.68},{"city":"Winchester","state_name":"Virginia","lat":39.1743,"lng":-78.1743,"zip":"22601","miles_from_dt":29},{"city":"Midlothian","state_name":"Maryland","lat":39.64157,"lng":-78.96231,"zip":"21543","miles_from_dt":29.05},{"city":"Kitzmiller","state_name":"Maryland","lat":39.40133,"lng":-79.22109,"zip":"21538","miles_from_dt":29.3},{"city":"Edinburg","state_name":"Virginia","lat":38.84743,"lng":-78.6278,"zip":"22824","miles_from_dt":29.61},{"city":"Glengary","state_name":"West Virginia","lat":39.37821,"lng":-78.16384,"zip":"25421","miles_from_dt":29.61},{"city":"Stephens City","state_name":"Virginia","lat":39.06443,"lng":-78.21425,"zip":"22655","miles_from_dt":29.78},{"city":"Frostburg","state_name":"Maryland","lat":39.65559,"lng":-78.96025,"zip":"21532","miles_from_dt":29.84},{"city":"Winchester","state_name":"Virginia","lat":39.18715,"lng":-78.15463,"zip":"22604","miles_from_dt":29.84},{"city":"Flintstone","state_name":"Maryland","lat":39.68878,"lng":-78.54138,"zip":"21530","miles_from_dt":29.9},{"city":"Basye","state_name":"Virginia","lat":38.84466,"lng":-78.78554,"zip":"22810","miles_from_dt":29.91}],"targetCityZipCode":"26761","targetCityState":"West Virginia"},"__N_SSG":true}