{"pageProps":{"stateName":"West-virginia","cityName":"yawkey","nearbyCities":[{"city":"Griffithsville","state_name":"West Virginia","lat":38.22915,"lng":-81.98641,"zip":"25521","miles_from_dt":2.23},{"city":"Sod","state_name":"West Virginia","lat":38.26302,"lng":-81.88835,"zip":"25564","miles_from_dt":3.97},{"city":"Sumerco","state_name":"West Virginia","lat":38.21971,"lng":-81.87294,"zip":"25567","miles_from_dt":3.98},{"city":"Alkol","state_name":"West Virginia","lat":38.16035,"lng":-81.95582,"zip":"25501","miles_from_dt":4.65},{"city":"Woodville","state_name":"West Virginia","lat":38.16074,"lng":-81.89338,"zip":"25572","miles_from_dt":5.39},{"city":"Hamlin","state_name":"West Virginia","lat":38.27934,"lng":-82.06754,"zip":"25523","miles_from_dt":7.55},{"city":"Tornado","state_name":"West Virginia","lat":38.31593,"lng":-81.85372,"zip":"25202","miles_from_dt":7.89},{"city":"Spurlockville","state_name":"West Virginia","lat":38.10998,"lng":-81.96631,"zip":"25565","miles_from_dt":8.17},{"city":"Julian","state_name":"West Virginia","lat":38.15573,"lng":-81.8245,"zip":"25529","miles_from_dt":8.23},{"city":"Myra","state_name":"West Virginia","lat":38.23078,"lng":-82.11017,"zip":"25544","miles_from_dt":8.96},{"city":"Alum Creek","state_name":"West Virginia","lat":38.25101,"lng":-81.77925,"zip":"25003","miles_from_dt":9.19},{"city":"Saint Albans","state_name":"West Virginia","lat":38.36928,"lng":-81.85021,"zip":"25177","miles_from_dt":11.08},{"city":"Midkiff","state_name":"West Virginia","lat":38.15709,"lng":-82.13914,"zip":"25540","miles_from_dt":11.6},{"city":"South Charleston","state_name":"West Virginia","lat":38.31177,"lng":-81.75715,"zip":"25309","miles_from_dt":11.78},{"city":"Hurricane","state_name":"West Virginia","lat":38.3984,"lng":-81.98279,"zip":"25526","miles_from_dt":11.98},{"city":"Ridgeview","state_name":"West Virginia","lat":38.12788,"lng":-81.76288,"zip":"25169","miles_from_dt":12.08},{"city":"West Hamlin","state_name":"West Virginia","lat":38.2947,"lng":-82.15632,"zip":"25571","miles_from_dt":12.37},{"city":"Nellis","state_name":"West Virginia","lat":38.15001,"lng":-81.73066,"zip":"25142","miles_from_dt":12.85},{"city":"Ashford","state_name":"West Virginia","lat":38.19237,"lng":-81.71301,"zip":"25009","miles_from_dt":12.88},{"city":"Culloden","state_name":"West Virginia","lat":38.38832,"lng":-82.06599,"zip":"25510","miles_from_dt":12.9},{"city":"Danville","state_name":"West Virginia","lat":38.04725,"lng":-81.87633,"zip":"25053","miles_from_dt":12.97},{"city":"Charleston","state_name":"West Virginia","lat":38.33395,"lng":-81.74594,"zip":"25358","miles_from_dt":13.11},{"city":"Branchland","state_name":"West Virginia","lat":38.20826,"lng":-82.18665,"zip":"25506","miles_from_dt":13.19},{"city":"Costa","state_name":"West Virginia","lat":38.15885,"lng":-81.70929,"zip":"25051","miles_from_dt":13.7},{"city":"Foster","state_name":"West Virginia","lat":38.08235,"lng":-81.76875,"zip":"25081","miles_from_dt":13.88},{"city":"Institute","state_name":"West Virginia","lat":38.38103,"lng":-81.76633,"zip":"25112","miles_from_dt":14.4},{"city":"Turtle Creek","state_name":"West Virginia","lat":38.02125,"lng":-81.88162,"zip":"25203","miles_from_dt":14.63},{"city":"Ranger","state_name":"West Virginia","lat":38.09923,"lng":-82.16262,"zip":"25557","miles_from_dt":14.76},{"city":"Nitro","state_name":"West Virginia","lat":38.42001,"lng":-81.82414,"zip":"25143","miles_from_dt":14.84},{"city":"Teays","state_name":"West Virginia","lat":38.44254,"lng":-81.95203,"zip":"25569","miles_from_dt":14.85},{"city":"Dunbar","state_name":"West Virginia","lat":38.37631,"lng":-81.74764,"zip":"25064","miles_from_dt":14.88},{"city":"Big Creek","state_name":"West Virginia","lat":38.01967,"lng":-82.03075,"zip":"25505","miles_from_dt":15.05},{"city":"Peytona","state_name":"West Virginia","lat":38.11572,"lng":-81.70249,"zip":"25154","miles_from_dt":15.3},{"city":"Scott Depot","state_name":"West Virginia","lat":38.44736,"lng":-81.89908,"zip":"25560","miles_from_dt":15.39},{"city":"Hernshaw","state_name":"West Virginia","lat":38.22427,"lng":-81.64493,"zip":"25107","miles_from_dt":16.35},{"city":"Charleston","state_name":"West Virginia","lat":38.41547,"lng":-81.75704,"zip":"25313","miles_from_dt":16.53},{"city":"Charleston","state_name":"West Virginia","lat":38.29705,"lng":-81.65463,"zip":"25314","miles_from_dt":16.53},{"city":"Uneeda","state_name":"West Virginia","lat":38.01841,"lng":-81.78926,"zip":"25205","miles_from_dt":16.73},{"city":"South Charleston","state_name":"West Virginia","lat":38.36033,"lng":-81.68679,"zip":"25303","miles_from_dt":16.79},{"city":"Racine","state_name":"West Virginia","lat":38.14907,"lng":-81.65308,"zip":"25165","miles_from_dt":16.81},{"city":"Salt Rock","state_name":"West Virginia","lat":38.32753,"lng":-82.23181,"zip":"25559","miles_from_dt":17.03},{"city":"Harts","state_name":"West Virginia","lat":38.01309,"lng":-82.11712,"zip":"25524","miles_from_dt":17.48},{"city":"Madison","state_name":"West Virginia","lat":38.02776,"lng":-81.7455,"zip":"25130","miles_from_dt":17.55},{"city":"Charleston","state_name":"West Virginia","lat":38.36828,"lng":-81.67332,"zip":"25389","miles_from_dt":17.71},{"city":"Bloomingrose","state_name":"West Virginia","lat":38.15744,"lng":-81.6266,"zip":"25024","miles_from_dt":18.01},{"city":"Charleston","state_name":"West Virginia","lat":38.44681,"lng":-81.75401,"zip":"25356","miles_from_dt":18.37},{"city":"Hewett","state_name":"West Virginia","lat":37.9655,"lng":-81.87289,"zip":"25108","miles_from_dt":18.48},{"city":"Chapmanville","state_name":"West Virginia","lat":37.96388,"lng":-82.01394,"zip":"25508","miles_from_dt":18.54},{"city":"Jeffrey","state_name":"West Virginia","lat":37.98199,"lng":-81.7986,"zip":"25114","miles_from_dt":18.71},{"city":"Milton","state_name":"West Virginia","lat":38.45884,"lng":-82.12707,"zip":"25541","miles_from_dt":18.77},{"city":"Charleston","state_name":"West Virginia","lat":38.38523,"lng":-81.6642,"zip":"25387","miles_from_dt":18.77},{"city":"Charleston","state_name":"West Virginia","lat":38.34928,"lng":-81.63173,"zip":"25375","miles_from_dt":19.02},{"city":"Charleston","state_name":"West Virginia","lat":38.34774,"lng":-81.63052,"zip":"25330","miles_from_dt":19.03},{"city":"Charleston","state_name":"West Virginia","lat":38.35294,"lng":-81.6331,"zip":"25333","miles_from_dt":19.07},{"city":"Charleston","state_name":"West Virginia","lat":38.34892,"lng":-81.63037,"zip":"25322","miles_from_dt":19.08},{"city":"Charleston","state_name":"West Virginia","lat":38.34992,"lng":-81.63045,"zip":"25338","miles_from_dt":19.1},{"city":"Charleston","state_name":"West Virginia","lat":38.35311,"lng":-81.63244,"zip":"25327","miles_from_dt":19.1},{"city":"Charleston","state_name":"West Virginia","lat":38.35085,"lng":-81.63064,"zip":"25321","miles_from_dt":19.12},{"city":"Charleston","state_name":"West Virginia","lat":38.35277,"lng":-81.63177,"zip":"25323","miles_from_dt":19.13},{"city":"Charleston","state_name":"West Virginia","lat":38.35036,"lng":-81.62982,"zip":"25328","miles_from_dt":19.15},{"city":"Charleston","state_name":"West Virginia","lat":38.35001,"lng":-81.62932,"zip":"25331","miles_from_dt":19.16},{"city":"Charleston","state_name":"West Virginia","lat":38.35,"lng":-81.62905,"zip":"25335","miles_from_dt":19.17},{"city":"Charleston","state_name":"West Virginia","lat":38.3519,"lng":-81.63015,"zip":"25324","miles_from_dt":19.18},{"city":"Charleston","state_name":"West Virginia","lat":38.35103,"lng":-81.62941,"zip":"25396","miles_from_dt":19.19},{"city":"Charleston","state_name":"West Virginia","lat":38.35123,"lng":-81.62918,"zip":"25329","miles_from_dt":19.2},{"city":"Charleston","state_name":"West Virginia","lat":38.35113,"lng":-81.62913,"zip":"25339","miles_from_dt":19.2},{"city":"Charleston","state_name":"West Virginia","lat":38.35283,"lng":-81.62996,"zip":"25350","miles_from_dt":19.22},{"city":"Charleston","state_name":"West Virginia","lat":38.35053,"lng":-81.62821,"zip":"25336","miles_from_dt":19.23},{"city":"Charleston","state_name":"West Virginia","lat":38.34949,"lng":-81.62731,"zip":"25334","miles_from_dt":19.24},{"city":"Charleston","state_name":"West Virginia","lat":38.35198,"lng":-81.62843,"zip":"25392","miles_from_dt":19.26},{"city":"Charleston","state_name":"West Virginia","lat":38.35123,"lng":-81.62761,"zip":"25301","miles_from_dt":19.28},{"city":"Charleston","state_name":"West Virginia","lat":38.42168,"lng":-81.68972,"zip":"25357","miles_from_dt":19.31},{"city":"Charleston","state_name":"West Virginia","lat":38.35379,"lng":-81.62809,"zip":"25332","miles_from_dt":19.34},{"city":"Charleston","state_name":"West Virginia","lat":38.34892,"lng":-81.62452,"zip":"25337","miles_from_dt":19.36},{"city":"Charleston","state_name":"West Virginia","lat":38.35448,"lng":-81.62729,"zip":"25325","miles_from_dt":19.4},{"city":"Winfield","state_name":"West Virginia","lat":38.50776,"lng":-81.91796,"zip":"25213","miles_from_dt":19.41},{"city":"Charleston","state_name":"West Virginia","lat":38.33682,"lng":-81.61313,"zip":"25305","miles_from_dt":19.59},{"city":"Charleston","state_name":"West Virginia","lat":38.32264,"lng":-81.60265,"zip":"25364","miles_from_dt":19.77},{"city":"Charleston","state_name":"West Virginia","lat":38.21032,"lng":-81.57992,"zip":"25315","miles_from_dt":19.93},{"city":"Charleston","state_name":"West Virginia","lat":38.30521,"lng":-81.59044,"zip":"25304","miles_from_dt":20.04},{"city":"Barboursville","state_name":"West Virginia","lat":38.37297,"lng":-82.26674,"zip":"25504","miles_from_dt":20.15},{"city":"Charleston","state_name":"West Virginia","lat":38.33313,"lng":-81.59841,"zip":"25326","miles_from_dt":20.23},{"city":"Charleston","state_name":"West Virginia","lat":38.23427,"lng":-81.57375,"zip":"25365","miles_from_dt":20.23},{"city":"Bancroft","state_name":"West Virginia","lat":38.51169,"lng":-81.8363,"zip":"25011","miles_from_dt":20.5},{"city":"East Lynn","state_name":"West Virginia","lat":38.17784,"lng":-82.32056,"zip":"25512","miles_from_dt":20.7},{"city":"Kiahsville","state_name":"West Virginia","lat":38.08065,"lng":-82.27781,"zip":"25534","miles_from_dt":20.73},{"city":"Pecks Mill","state_name":"West Virginia","lat":37.92627,"lng":-81.9537,"zip":"25547","miles_from_dt":20.76},{"city":"Seth","state_name":"West Virginia","lat":38.04962,"lng":-81.63476,"zip":"25181","miles_from_dt":20.9},{"city":"Ottawa","state_name":"West Virginia","lat":37.9558,"lng":-81.7745,"zip":"25149","miles_from_dt":20.91},{"city":"Poca","state_name":"West Virginia","lat":38.50186,"lng":-81.7806,"zip":"25159","miles_from_dt":20.95},{"city":"Hometown","state_name":"West Virginia","lat":38.53097,"lng":-81.86062,"zip":"25109","miles_from_dt":21.45},{"city":"Comfort","state_name":"West Virginia","lat":38.11954,"lng":-81.57315,"zip":"25049","miles_from_dt":21.59},{"city":"Winifrede","state_name":"West Virginia","lat":38.18947,"lng":-81.55127,"zip":"25214","miles_from_dt":21.61},{"city":"Charleston","state_name":"West Virginia","lat":38.45324,"lng":-81.66948,"zip":"25360","miles_from_dt":21.63},{"city":"Charleston","state_name":"West Virginia","lat":38.39053,"lng":-81.59879,"zip":"25302","miles_from_dt":21.95},{"city":"Ona","state_name":"West Virginia","lat":38.45847,"lng":-82.22456,"zip":"25545","miles_from_dt":22},{"city":"Eleanor","state_name":"West Virginia","lat":38.54667,"lng":-81.93179,"zip":"25070","miles_from_dt":22.04},{"city":"Lake","state_name":"West Virginia","lat":37.91167,"lng":-81.87787,"zip":"25121","miles_from_dt":22.08},{"city":"Bob White","state_name":"West Virginia","lat":37.95598,"lng":-81.72535,"zip":"25028","miles_from_dt":22.23},{"city":"Charleston","state_name":"West Virginia","lat":38.36006,"lng":-81.57073,"zip":"25317","miles_from_dt":22.34},{"city":"Henlawson","state_name":"West Virginia","lat":37.90393,"lng":-81.97162,"zip":"25624","miles_from_dt":22.35},{"city":"Charleston","state_name":"West Virginia","lat":38.46156,"lng":-81.656,"zip":"25312","miles_from_dt":22.55},{"city":"Charleston","state_name":"West Virginia","lat":38.39695,"lng":-81.58675,"zip":"25362","miles_from_dt":22.74},{"city":"Van","state_name":"West Virginia","lat":37.9596,"lng":-81.69296,"zip":"25206","miles_from_dt":23.03},{"city":"Charleston","state_name":"West Virginia","lat":38.36308,"lng":-81.55357,"zip":"25311","miles_from_dt":23.27},{"city":"Clothier","state_name":"West Virginia","lat":37.9219,"lng":-81.76027,"zip":"25047","miles_from_dt":23.36},{"city":"Cabin Creek","state_name":"West Virginia","lat":38.16339,"lng":-81.52399,"zip":"25035","miles_from_dt":23.36},{"city":"Charleston","state_name":"West Virginia","lat":38.36396,"lng":-81.55201,"zip":"25361","miles_from_dt":23.37},{"city":"Sharples","state_name":"West Virginia","lat":37.9074,"lng":-81.79745,"zip":"25183","miles_from_dt":23.49},{"city":"Peach Creek","state_name":"West Virginia","lat":37.88674,"lng":-81.95905,"zip":"25639","miles_from_dt":23.5},{"city":"Red House","state_name":"West Virginia","lat":38.56394,"lng":-81.87733,"zip":"25168","miles_from_dt":23.52},{"city":"Gordon","state_name":"West Virginia","lat":37.9653,"lng":-81.64137,"zip":"25093","miles_from_dt":24.52},{"city":"Belle","state_name":"West Virginia","lat":38.24293,"lng":-81.49226,"zip":"25015","miles_from_dt":24.68},{"city":"Ethel","state_name":"West Virginia","lat":37.86889,"lng":-81.937,"zip":"25076","miles_from_dt":24.72},{"city":"Logan","state_name":"West Virginia","lat":37.86255,"lng":-82.0026,"zip":"25601","miles_from_dt":25.35},{"city":"Charleston","state_name":"West Virginia","lat":38.31071,"lng":-81.49087,"zip":"25306","miles_from_dt":25.38},{"city":"Huntington","state_name":"West Virginia","lat":38.43825,"lng":-82.33344,"zip":"25702","miles_from_dt":25.61},{"city":"Verdunville","state_name":"West Virginia","lat":37.87166,"lng":-82.08489,"zip":"25649","miles_from_dt":25.68},{"city":"Bim","state_name":"West Virginia","lat":37.91587,"lng":-81.68482,"zip":"25021","miles_from_dt":25.75},{"city":"Wayne","state_name":"West Virginia","lat":38.23508,"lng":-82.41927,"zip":"25570","miles_from_dt":25.78},{"city":"Huntington","state_name":"West Virginia","lat":38.40636,"lng":-82.36276,"zip":"25705","miles_from_dt":25.82},{"city":"Miami","state_name":"West Virginia","lat":38.13596,"lng":-81.48553,"zip":"25134","miles_from_dt":25.82},{"city":"Orgas","state_name":"West Virginia","lat":38.03511,"lng":-81.53695,"zip":"25148","miles_from_dt":25.9},{"city":"Sylvester","state_name":"West Virginia","lat":38.01672,"lng":-81.55089,"zip":"25193","miles_from_dt":25.94},{"city":"Cora","state_name":"West Virginia","lat":37.85103,"lng":-81.98783,"zip":"25614","miles_from_dt":26.05},{"city":"Glenwood","state_name":"West Virginia","lat":38.55773,"lng":-82.17899,"zip":"25520","miles_from_dt":26.08},{"city":"Dunlow","state_name":"West Virginia","lat":38.03194,"lng":-82.35637,"zip":"25511","miles_from_dt":26.13},{"city":"Tad","state_name":"West Virginia","lat":38.3489,"lng":-81.48645,"zip":"25201","miles_from_dt":26.33},{"city":"Dingess","state_name":"West Virginia","lat":37.90411,"lng":-82.20283,"zip":"25671","miles_from_dt":26.34},{"city":"Mount Gay","state_name":"West Virginia","lat":37.85086,"lng":-82.02805,"zip":"25637","miles_from_dt":26.35},{"city":"Buffalo","state_name":"West Virginia","lat":38.61095,"lng":-81.92511,"zip":"25033","miles_from_dt":26.49},{"city":"Fraziers Bottom","state_name":"West Virginia","lat":38.60861,"lng":-82.02879,"zip":"25082","miles_from_dt":26.69},{"city":"Huntington","state_name":"West Virginia","lat":38.36809,"lng":-82.41127,"zip":"25701","miles_from_dt":27.12},{"city":"Lavalette","state_name":"West Virginia","lat":38.30772,"lng":-82.43405,"zip":"25535","miles_from_dt":27.14},{"city":"Wilsondale","state_name":"West Virginia","lat":37.96297,"lng":-82.31493,"zip":"25699","miles_from_dt":27.16},{"city":"Stollings","state_name":"West Virginia","lat":37.83187,"lng":-81.89349,"zip":"25646","miles_from_dt":27.42},{"city":"Lesage","state_name":"West Virginia","lat":38.53399,"lng":-82.26926,"zip":"25537","miles_from_dt":27.51},{"city":"East Bank","state_name":"West Virginia","lat":38.20963,"lng":-81.44018,"zip":"25067","miles_from_dt":27.52},{"city":"Wilkinson","state_name":"West Virginia","lat":37.8287,"lng":-81.9944,"zip":"25653","miles_from_dt":27.62},{"city":"Charleston","state_name":"West Virginia","lat":38.54124,"lng":-81.62706,"zip":"25320","miles_from_dt":27.71},{"city":"Ashton","state_name":"West Virginia","lat":38.60835,"lng":-82.11666,"zip":"25503","miles_from_dt":27.88},{"city":"Blair","state_name":"West Virginia","lat":37.84157,"lng":-81.79241,"zip":"25022","miles_from_dt":27.88},{"city":"Dawes","state_name":"West Virginia","lat":38.12226,"lng":-81.45044,"zip":"25054","miles_from_dt":27.91},{"city":"Drybranch","state_name":"West Virginia","lat":38.1751,"lng":-81.43342,"zip":"25061","miles_from_dt":28.1},{"city":"Pinch","state_name":"West Virginia","lat":38.41181,"lng":-81.48217,"zip":"25156","miles_from_dt":28.21},{"city":"Twilight","state_name":"West Virginia","lat":37.91546,"lng":-81.60914,"zip":"25204","miles_from_dt":28.26},{"city":"Breeden","state_name":"West Virginia","lat":37.9203,"lng":-82.29432,"zip":"25666","miles_from_dt":28.46},{"city":"Liberty","state_name":"West Virginia","lat":38.62006,"lng":-81.76536,"zip":"25124","miles_from_dt":28.8},{"city":"Genoa","state_name":"West Virginia","lat":38.10989,"lng":-82.45368,"zip":"25517","miles_from_dt":28.83},{"city":"Huntington","state_name":"West Virginia","lat":38.42201,"lng":-82.41827,"zip":"25703","miles_from_dt":28.99},{"city":"Proctorville","state_name":"Ohio","lat":38.4935,"lng":-82.35857,"zip":"45669","miles_from_dt":28.99},{"city":"Glasgow","state_name":"West Virginia","lat":38.21326,"lng":-81.41238,"zip":"25086","miles_from_dt":29.02},{"city":"Holden","state_name":"West Virginia","lat":37.82237,"lng":-82.09206,"zip":"25625","miles_from_dt":29.05},{"city":"Whitesville","state_name":"West Virginia","lat":37.96271,"lng":-81.52861,"zip":"25209","miles_from_dt":29.14},{"city":"Shoals","state_name":"West Virginia","lat":38.32627,"lng":-82.47241,"zip":"25562","miles_from_dt":29.45},{"city":"Huntington","state_name":"West Virginia","lat":38.42359,"lng":-82.42796,"zip":"25755","miles_from_dt":29.51},{"city":"Yolyn","state_name":"West Virginia","lat":37.80302,"lng":-81.87401,"zip":"25654","miles_from_dt":29.52},{"city":"Huntington","state_name":"West Virginia","lat":38.39566,"lng":-82.44617,"zip":"25713","miles_from_dt":29.59},{"city":"Huntington","state_name":"West Virginia","lat":38.39813,"lng":-82.4468,"zip":"25725","miles_from_dt":29.68},{"city":"Huntington","state_name":"West Virginia","lat":38.39594,"lng":-82.44895,"zip":"25707","miles_from_dt":29.73},{"city":"Huntington","state_name":"West Virginia","lat":38.39751,"lng":-82.44855,"zip":"25712","miles_from_dt":29.75},{"city":"Huntington","state_name":"West Virginia","lat":38.39829,"lng":-82.44834,"zip":"25716","miles_from_dt":29.76},{"city":"Huntington","state_name":"West Virginia","lat":38.39738,"lng":-82.44872,"zip":"25706","miles_from_dt":29.76},{"city":"Huntington","state_name":"West Virginia","lat":38.39866,"lng":-82.44826,"zip":"25720","miles_from_dt":29.77},{"city":"Huntington","state_name":"West Virginia","lat":38.39917,"lng":-82.44869,"zip":"25729","miles_from_dt":29.81},{"city":"Huntington","state_name":"West Virginia","lat":38.39812,"lng":-82.45004,"zip":"25714","miles_from_dt":29.84},{"city":"Huntington","state_name":"West Virginia","lat":38.39511,"lng":-82.45178,"zip":"25715","miles_from_dt":29.85},{"city":"Huntington","state_name":"West Virginia","lat":38.39933,"lng":-82.4495,"zip":"25711","miles_from_dt":29.85},{"city":"Blount","state_name":"West Virginia","lat":38.29378,"lng":-81.4018,"zip":"25025","miles_from_dt":29.92},{"city":"Huntington","state_name":"West Virginia","lat":38.39867,"lng":-82.45188,"zip":"25728","miles_from_dt":29.95}],"targetCityZipCode":"25573","targetCityState":"West Virginia"},"__N_SSG":true}