{"pageProps":{"stateName":"New-jersey","cityName":"egg-harbor-township","nearbyCities":[{"city":"Linwood","state_name":"New Jersey","lat":39.33879,"lng":-74.5652,"zip":"08221","miles_from_dt":4.55},{"city":"Northfield","state_name":"New Jersey","lat":39.36167,"lng":-74.53963,"zip":"08225","miles_from_dt":4.82},{"city":"Somers Point","state_name":"New Jersey","lat":39.31503,"lng":-74.59808,"zip":"08244","miles_from_dt":5.13},{"city":"Pleasantville","state_name":"New Jersey","lat":39.38771,"lng":-74.51489,"zip":"08232","miles_from_dt":5.82},{"city":"Longport","state_name":"New Jersey","lat":39.31915,"lng":-74.53535,"zip":"08403","miles_from_dt":6.64},{"city":"Absecon","state_name":"New Jersey","lat":39.42257,"lng":-74.49511,"zip":"08201","miles_from_dt":7.31},{"city":"Margate City","state_name":"New Jersey","lat":39.33069,"lng":-74.50706,"zip":"08402","miles_from_dt":7.34},{"city":"Mays Landing","state_name":"New Jersey","lat":39.4566,"lng":-74.73814,"zip":"08330","miles_from_dt":7.8},{"city":"Cologne","state_name":"New Jersey","lat":39.49921,"lng":-74.60825,"zip":"08213","miles_from_dt":7.81},{"city":"Ventnor City","state_name":"New Jersey","lat":39.34565,"lng":-74.48603,"zip":"08406","miles_from_dt":7.89},{"city":"Marmora","state_name":"New Jersey","lat":39.27021,"lng":-74.6571,"zip":"08223","miles_from_dt":8.23},{"city":"Ocean City","state_name":"New Jersey","lat":39.26812,"lng":-74.60196,"zip":"08226","miles_from_dt":8.26},{"city":"Pomona","state_name":"New Jersey","lat":39.48676,"lng":-74.53633,"zip":"08240","miles_from_dt":8.34},{"city":"Atlantic City","state_name":"New Jersey","lat":39.37964,"lng":-74.45284,"zip":"08401","miles_from_dt":9.16},{"city":"Tuckahoe","state_name":"New Jersey","lat":39.29001,"lng":-74.75905,"zip":"08250","miles_from_dt":9.85},{"city":"Oceanville","state_name":"New Jersey","lat":39.4648,"lng":-74.46038,"zip":"08231","miles_from_dt":10.27},{"city":"Estell Manor","state_name":"New Jersey","lat":39.3645,"lng":-74.81753,"zip":"08319","miles_from_dt":10.49},{"city":"Atlantic City","state_name":"New Jersey","lat":39.36265,"lng":-74.42594,"zip":"08404","miles_from_dt":10.72},{"city":"Absecon","state_name":"New Jersey","lat":39.47455,"lng":-74.45698,"zip":"08205","miles_from_dt":10.79},{"city":"Atlantic City","state_name":"New Jersey","lat":39.36605,"lng":-74.42241,"zip":"08405","miles_from_dt":10.87},{"city":"Dorothy","state_name":"New Jersey","lat":39.40398,"lng":-74.82696,"zip":"08317","miles_from_dt":10.95},{"city":"Port Republic","state_name":"New Jersey","lat":39.53278,"lng":-74.48523,"zip":"08241","miles_from_dt":12.51},{"city":"Leeds Point","state_name":"New Jersey","lat":39.49915,"lng":-74.43253,"zip":"08220","miles_from_dt":12.84},{"city":"Woodbine","state_name":"New Jersey","lat":39.26437,"lng":-74.80861,"zip":"08270","miles_from_dt":13.01},{"city":"Brigantine","state_name":"New Jersey","lat":39.41281,"lng":-74.38006,"zip":"08203","miles_from_dt":13.16},{"city":"Mizpah","state_name":"New Jersey","lat":39.48808,"lng":-74.83431,"zip":"08342","miles_from_dt":13.26},{"city":"Ocean View","state_name":"New Jersey","lat":39.20381,"lng":-74.70342,"zip":"08230","miles_from_dt":13.32},{"city":"Strathmere","state_name":"New Jersey","lat":39.1944,"lng":-74.66175,"zip":"08248","miles_from_dt":13.42},{"city":"Milmay","state_name":"New Jersey","lat":39.40087,"lng":-74.88407,"zip":"08340","miles_from_dt":13.97},{"city":"Elwood","state_name":"New Jersey","lat":39.57702,"lng":-74.71879,"zip":"08217","miles_from_dt":14.08},{"city":"Egg Harbor City","state_name":"New Jersey","lat":39.58962,"lng":-74.58716,"zip":"08215","miles_from_dt":14.14},{"city":"Richland","state_name":"New Jersey","lat":39.49134,"lng":-74.87413,"zip":"08350","miles_from_dt":15.22},{"city":"South Seaville","state_name":"New Jersey","lat":39.18098,"lng":-74.76583,"zip":"08246","miles_from_dt":16.1},{"city":"Sea Isle City","state_name":"New Jersey","lat":39.15235,"lng":-74.69758,"zip":"08243","miles_from_dt":16.64},{"city":"New Gretna","state_name":"New Jersey","lat":39.59548,"lng":-74.46352,"zip":"08224","miles_from_dt":16.76},{"city":"Dennisville","state_name":"New Jersey","lat":39.19133,"lng":-74.8241,"zip":"08214","miles_from_dt":17.23},{"city":"Buena","state_name":"New Jersey","lat":39.52723,"lng":-74.89769,"zip":"08310","miles_from_dt":17.57},{"city":"Newtonville","state_name":"New Jersey","lat":39.56926,"lng":-74.85827,"zip":"08346","miles_from_dt":17.78},{"city":"South Dennis","state_name":"New Jersey","lat":39.1765,"lng":-74.81902,"zip":"08245","miles_from_dt":17.88},{"city":"Dorchester","state_name":"New Jersey","lat":39.28009,"lng":-74.93186,"zip":"08316","miles_from_dt":18.07},{"city":"Vineland","state_name":"New Jersey","lat":39.44843,"lng":-74.95943,"zip":"08361","miles_from_dt":18.46},{"city":"Hammonton","state_name":"New Jersey","lat":39.63272,"lng":-74.77226,"zip":"08037","miles_from_dt":18.74},{"city":"Port Elizabeth","state_name":"New Jersey","lat":39.31381,"lng":-74.96594,"zip":"08348","miles_from_dt":19.01},{"city":"Landisville","state_name":"New Jersey","lat":39.53847,"lng":-74.92761,"zip":"08326","miles_from_dt":19.34},{"city":"Leesburg","state_name":"New Jersey","lat":39.25458,"lng":-74.94657,"zip":"08327","miles_from_dt":19.55},{"city":"Minotola","state_name":"New Jersey","lat":39.52002,"lng":-74.9524,"zip":"08341","miles_from_dt":19.84},{"city":"Tuckerton","state_name":"New Jersey","lat":39.60751,"lng":-74.37994,"zip":"08087","miles_from_dt":20.05},{"city":"Delmont","state_name":"New Jersey","lat":39.21683,"lng":-74.94113,"zip":"08314","miles_from_dt":20.66},{"city":"Vineland","state_name":"New Jersey","lat":39.46556,"lng":-74.9992,"zip":"08362","miles_from_dt":20.82},{"city":"Goshen","state_name":"New Jersey","lat":39.14374,"lng":-74.862,"zip":"08218","miles_from_dt":21.07},{"city":"Avalon","state_name":"New Jersey","lat":39.09659,"lng":-74.74806,"zip":"08202","miles_from_dt":21.09},{"city":"Cape May Court House","state_name":"New Jersey","lat":39.11974,"lng":-74.82248,"zip":"08210","miles_from_dt":21.28},{"city":"Mauricetown","state_name":"New Jersey","lat":39.2857,"lng":-75.00338,"zip":"08329","miles_from_dt":21.5},{"city":"Vineland","state_name":"New Jersey","lat":39.49374,"lng":-75.00352,"zip":"08360","miles_from_dt":21.62},{"city":"Winslow","state_name":"New Jersey","lat":39.64514,"lng":-74.85576,"zip":"08095","miles_from_dt":21.72},{"city":"Millville","state_name":"New Jersey","lat":39.3705,"lng":-75.0293,"zip":"08332","miles_from_dt":21.74},{"city":"Heislerville","state_name":"New Jersey","lat":39.21859,"lng":-74.99999,"zip":"08324","miles_from_dt":23.26},{"city":"Newfield","state_name":"New Jersey","lat":39.56707,"lng":-74.99185,"zip":"08344","miles_from_dt":23.29},{"city":"Stone Harbor","state_name":"New Jersey","lat":39.05279,"lng":-74.78508,"zip":"08247","miles_from_dt":24.6},{"city":"Port Norris","state_name":"New Jersey","lat":39.266,"lng":-75.06337,"zip":"08349","miles_from_dt":24.98},{"city":"Waterford Works","state_name":"New Jersey","lat":39.71591,"lng":-74.82686,"zip":"08089","miles_from_dt":25.18},{"city":"Williamstown","state_name":"New Jersey","lat":39.65096,"lng":-74.96529,"zip":"08094","miles_from_dt":25.8},{"city":"West Creek","state_name":"New Jersey","lat":39.65438,"lng":-74.28428,"zip":"08092","miles_from_dt":25.89},{"city":"Norma","state_name":"New Jersey","lat":39.49378,"lng":-75.08778,"zip":"08347","miles_from_dt":25.9},{"city":"Chatsworth","state_name":"New Jersey","lat":39.76733,"lng":-74.52781,"zip":"08019","miles_from_dt":26.76},{"city":"Beach Haven","state_name":"New Jersey","lat":39.62188,"lng":-74.22421,"zip":"08008","miles_from_dt":26.82},{"city":"Cedar Brook","state_name":"New Jersey","lat":39.71074,"lng":-74.9013,"zip":"08018","miles_from_dt":26.83},{"city":"Malaga","state_name":"New Jersey","lat":39.5797,"lng":-75.06015,"zip":"08328","miles_from_dt":26.87},{"city":"Franklinville","state_name":"New Jersey","lat":39.61463,"lng":-75.03385,"zip":"08322","miles_from_dt":26.98},{"city":"Dividing Creek","state_name":"New Jersey","lat":39.26969,"lng":-75.10486,"zip":"08315","miles_from_dt":27.01},{"city":"Whitesboro","state_name":"New Jersey","lat":39.03699,"lng":-74.86342,"zip":"08252","miles_from_dt":27.34},{"city":"Rosenhayn","state_name":"New Jersey","lat":39.47545,"lng":-75.12724,"zip":"08352","miles_from_dt":27.63},{"city":"Atco","state_name":"New Jersey","lat":39.75494,"lng":-74.83007,"zip":"08004","miles_from_dt":27.7},{"city":"Green Creek","state_name":"New Jersey","lat":39.03821,"lng":-74.89703,"zip":"08219","miles_from_dt":28.16},{"city":"Fairton","state_name":"New Jersey","lat":39.3851,"lng":-75.16059,"zip":"08320","miles_from_dt":28.74},{"city":"Newport","state_name":"New Jersey","lat":39.28816,"lng":-75.14668,"zip":"08345","miles_from_dt":28.83},{"city":"Rio Grande","state_name":"New Jersey","lat":39.01786,"lng":-74.88627,"zip":"08242","miles_from_dt":29.08},{"city":"Wildwood","state_name":"New Jersey","lat":38.99555,"lng":-74.84088,"zip":"08260","miles_from_dt":29.39},{"city":"Villas","state_name":"New Jersey","lat":39.02766,"lng":-74.92573,"zip":"08251","miles_from_dt":29.6},{"city":"Manahawkin","state_name":"New Jersey","lat":39.70291,"lng":-74.24576,"zip":"08050","miles_from_dt":29.73}],"targetCityZipCode":"08234","targetCityState":"New Jersey"},"__N_SSG":true}