{"pageProps":{"stateName":"New-jersey","cityName":"greenwich","nearbyCities":[{"city":"Shiloh","state_name":"New Jersey","lat":39.45954,"lng":-75.29695,"zip":"08353","miles_from_dt":5.76},{"city":"Bridgeton","state_name":"New Jersey","lat":39.4397,"lng":-75.2616,"zip":"08302","miles_from_dt":6.36},{"city":"Hancocks Bridge","state_name":"New Jersey","lat":39.47391,"lng":-75.48852,"zip":"08038","miles_from_dt":8.49},{"city":"Cedarville","state_name":"New Jersey","lat":39.32685,"lng":-75.20804,"zip":"08311","miles_from_dt":9.7},{"city":"Quinton","state_name":"New Jersey","lat":39.54495,"lng":-75.41258,"zip":"08072","miles_from_dt":10.6},{"city":"Salem","state_name":"New Jersey","lat":39.54284,"lng":-75.43184,"zip":"08079","miles_from_dt":10.75},{"city":"Alloway","state_name":"New Jersey","lat":39.55423,"lng":-75.35683,"zip":"08001","miles_from_dt":10.96},{"city":"Fairton","state_name":"New Jersey","lat":39.3851,"lng":-75.16059,"zip":"08320","miles_from_dt":11.02},{"city":"Deerfield Street","state_name":"New Jersey","lat":39.53065,"lng":-75.23101,"zip":"08313","miles_from_dt":11.79},{"city":"Smyrna","state_name":"Delaware","lat":39.29653,"lng":-75.55132,"zip":"19977","miles_from_dt":12.05},{"city":"Newport","state_name":"New Jersey","lat":39.28816,"lng":-75.14668,"zip":"08345","miles_from_dt":13.89},{"city":"Rosenhayn","state_name":"New Jersey","lat":39.47545,"lng":-75.12724,"zip":"08352","miles_from_dt":13.91},{"city":"Port Penn","state_name":"Delaware","lat":39.5102,"lng":-75.59616,"zip":"19731","miles_from_dt":14.63},{"city":"Elmer","state_name":"New Jersey","lat":39.55657,"lng":-75.17776,"zip":"08318","miles_from_dt":14.99},{"city":"Townsend","state_name":"Delaware","lat":39.38377,"lng":-75.65026,"zip":"19734","miles_from_dt":15.24},{"city":"Odessa","state_name":"Delaware","lat":39.45443,"lng":-75.66077,"zip":"19730","miles_from_dt":16.28},{"city":"Norma","state_name":"New Jersey","lat":39.49378,"lng":-75.08778,"zip":"08347","miles_from_dt":16.35},{"city":"Dover","state_name":"Delaware","lat":39.17335,"lng":-75.47758,"zip":"19901","miles_from_dt":16.45},{"city":"Dividing Creek","state_name":"New Jersey","lat":39.26969,"lng":-75.10486,"zip":"08315","miles_from_dt":16.47},{"city":"Little Creek","state_name":"Delaware","lat":39.16489,"lng":-75.45205,"zip":"19961","miles_from_dt":16.57},{"city":"Dover","state_name":"Delaware","lat":39.20946,"lng":-75.57012,"zip":"19903","miles_from_dt":16.87},{"city":"Woodstown","state_name":"New Jersey","lat":39.63934,"lng":-75.3316,"zip":"08098","miles_from_dt":16.92},{"city":"Cheswold","state_name":"Delaware","lat":39.21846,"lng":-75.58498,"zip":"19936","miles_from_dt":16.94},{"city":"Delaware City","state_name":"Delaware","lat":39.5715,"lng":-75.5905,"zip":"19706","miles_from_dt":17.07},{"city":"Fortescue","state_name":"New Jersey","lat":39.21961,"lng":-75.14107,"zip":"08321","miles_from_dt":17.11},{"city":"Pennsville","state_name":"New Jersey","lat":39.62494,"lng":-75.50902,"zip":"08070","miles_from_dt":17.57},{"city":"Millville","state_name":"New Jersey","lat":39.3705,"lng":-75.0293,"zip":"08332","miles_from_dt":18.11},{"city":"Middletown","state_name":"Delaware","lat":39.48923,"lng":-75.68314,"zip":"19709","miles_from_dt":18.15},{"city":"Dover","state_name":"Delaware","lat":39.15899,"lng":-75.52043,"zip":"19905","miles_from_dt":18.3},{"city":"Kirkwood","state_name":"Delaware","lat":39.49842,"lng":-75.68489,"zip":"19708","miles_from_dt":18.47},{"city":"Port Norris","state_name":"New Jersey","lat":39.266,"lng":-75.06337,"zip":"08349","miles_from_dt":18.52},{"city":"Saint Georges","state_name":"Delaware","lat":39.55928,"lng":-75.65143,"zip":"19733","miles_from_dt":18.98},{"city":"Dover Afb","state_name":"Delaware","lat":39.12765,"lng":-75.46694,"zip":"19902","miles_from_dt":19.26},{"city":"Dover","state_name":"Delaware","lat":39.15,"lng":-75.54219,"zip":"19906","miles_from_dt":19.4},{"city":"Dover","state_name":"Delaware","lat":39.17289,"lng":-75.59517,"zip":"19904","miles_from_dt":19.67},{"city":"Kenton","state_name":"Delaware","lat":39.22652,"lng":-75.6654,"zip":"19955","miles_from_dt":19.83},{"city":"Monroeville","state_name":"New Jersey","lat":39.64057,"lng":-75.1699,"zip":"08343","miles_from_dt":19.89},{"city":"Vineland","state_name":"New Jersey","lat":39.46556,"lng":-74.9992,"zip":"08362","miles_from_dt":20.21},{"city":"Clayton","state_name":"Delaware","lat":39.25646,"lng":-75.69884,"zip":"19938","miles_from_dt":20.25},{"city":"Vineland","state_name":"New Jersey","lat":39.49374,"lng":-75.00352,"zip":"08360","miles_from_dt":20.54},{"city":"Harrisonville","state_name":"New Jersey","lat":39.68662,"lng":-75.27661,"zip":"08039","miles_from_dt":20.64},{"city":"Malaga","state_name":"New Jersey","lat":39.5797,"lng":-75.06015,"zip":"08328","miles_from_dt":20.71},{"city":"Mauricetown","state_name":"New Jersey","lat":39.2857,"lng":-75.00338,"zip":"08329","miles_from_dt":20.85},{"city":"Deepwater","state_name":"New Jersey","lat":39.68825,"lng":-75.49761,"zip":"08023","miles_from_dt":21.38},{"city":"New Castle","state_name":"Delaware","lat":39.66366,"lng":-75.5682,"zip":"19721","miles_from_dt":21.42},{"city":"New Castle","state_name":"Delaware","lat":39.645,"lng":-75.60678,"zip":"19720","miles_from_dt":21.48},{"city":"Penns Grove","state_name":"New Jersey","lat":39.70209,"lng":-75.4501,"zip":"08069","miles_from_dt":21.62},{"city":"Vineland","state_name":"New Jersey","lat":39.44843,"lng":-74.95943,"zip":"08361","miles_from_dt":22.06},{"city":"Bear","state_name":"Delaware","lat":39.58427,"lng":-75.69914,"zip":"19701","miles_from_dt":22.06},{"city":"Port Elizabeth","state_name":"New Jersey","lat":39.31381,"lng":-74.96594,"zip":"08348","miles_from_dt":22.16},{"city":"Ewan","state_name":"New Jersey","lat":39.69757,"lng":-75.18274,"zip":"08025","miles_from_dt":23.02},{"city":"Heislerville","state_name":"New Jersey","lat":39.21859,"lng":-74.99999,"zip":"08324","miles_from_dt":23.11},{"city":"Newfield","state_name":"New Jersey","lat":39.56707,"lng":-74.99185,"zip":"08344","miles_from_dt":23.24},{"city":"Franklinville","state_name":"New Jersey","lat":39.61463,"lng":-75.03385,"zip":"08322","miles_from_dt":23.31},{"city":"Mullica Hill","state_name":"New Jersey","lat":39.71465,"lng":-75.22124,"zip":"08062","miles_from_dt":23.33},{"city":"Magnolia","state_name":"Delaware","lat":39.07005,"lng":-75.49753,"zip":"19962","miles_from_dt":23.54},{"city":"Minotola","state_name":"New Jersey","lat":39.52002,"lng":-74.9524,"zip":"08341","miles_from_dt":23.73},{"city":"Clayton","state_name":"New Jersey","lat":39.66143,"lng":-75.08375,"zip":"08312","miles_from_dt":23.75},{"city":"Pedricktown","state_name":"New Jersey","lat":39.7388,"lng":-75.41281,"zip":"08067","miles_from_dt":23.81},{"city":"Wilmington","state_name":"Delaware","lat":39.6836,"lng":-75.61307,"zip":"19892","miles_from_dt":23.85},{"city":"Warwick","state_name":"Maryland","lat":39.42486,"lng":-75.81607,"zip":"21912","miles_from_dt":24.17},{"city":"Massey","state_name":"Maryland","lat":39.31286,"lng":-75.80795,"zip":"21650","miles_from_dt":24.35},{"city":"Glassboro","state_name":"New Jersey","lat":39.69336,"lng":-75.11949,"zip":"08028","miles_from_dt":24.4},{"city":"Richwood","state_name":"New Jersey","lat":39.71289,"lng":-75.16379,"zip":"08074","miles_from_dt":24.41},{"city":"Hartly","state_name":"Delaware","lat":39.15145,"lng":-75.69695,"zip":"19953","miles_from_dt":24.46},{"city":"Leesburg","state_name":"New Jersey","lat":39.25458,"lng":-74.94657,"zip":"08327","miles_from_dt":24.49},{"city":"Dorchester","state_name":"New Jersey","lat":39.28009,"lng":-74.93186,"zip":"08316","miles_from_dt":24.59},{"city":"Wilmington","state_name":"Delaware","lat":39.72894,"lng":-75.53734,"zip":"19850","miles_from_dt":24.75},{"city":"Woodside","state_name":"Delaware","lat":39.07349,"lng":-75.57008,"zip":"19980","miles_from_dt":24.77},{"city":"Newark","state_name":"Delaware","lat":39.62199,"lng":-75.72803,"zip":"19702","miles_from_dt":24.86},{"city":"Wilmington","state_name":"Delaware","lat":39.73018,"lng":-75.53862,"zip":"19880","miles_from_dt":24.86},{"city":"Wilmington","state_name":"Delaware","lat":39.72782,"lng":-75.54615,"zip":"19801","miles_from_dt":24.86},{"city":"Swedesboro","state_name":"New Jersey","lat":39.75579,"lng":-75.33017,"zip":"08085","miles_from_dt":24.92},{"city":"Wilmington","state_name":"Delaware","lat":39.73563,"lng":-75.54766,"zip":"19899","miles_from_dt":25.39},{"city":"Landisville","state_name":"New Jersey","lat":39.53847,"lng":-74.92761,"zip":"08326","miles_from_dt":25.43},{"city":"Frederica","state_name":"Delaware","lat":39.03224,"lng":-75.45297,"zip":"19946","miles_from_dt":25.49},{"city":"Galena","state_name":"Maryland","lat":39.34006,"lng":-75.83826,"zip":"21635","miles_from_dt":25.57},{"city":"Wilmington","state_name":"Delaware","lat":39.73822,"lng":-75.55029,"zip":"19890","miles_from_dt":25.6},{"city":"Milmay","state_name":"New Jersey","lat":39.40087,"lng":-74.88407,"zip":"08340","miles_from_dt":25.8},{"city":"Wilmington","state_name":"Delaware","lat":39.74325,"lng":-75.54538,"zip":"19884","miles_from_dt":25.83},{"city":"Wilmington","state_name":"Delaware","lat":39.74328,"lng":-75.54713,"zip":"19885","miles_from_dt":25.86},{"city":"Wilmington","state_name":"Delaware","lat":39.74245,"lng":-75.54941,"zip":"19898","miles_from_dt":25.86},{"city":"Delmont","state_name":"New Jersey","lat":39.21683,"lng":-74.94113,"zip":"08314","miles_from_dt":25.9},{"city":"Camden Wyoming","state_name":"Delaware","lat":39.08135,"lng":-75.63113,"zip":"19934","miles_from_dt":25.92},{"city":"Wilmington","state_name":"Delaware","lat":39.74384,"lng":-75.54947,"zip":"19895","miles_from_dt":25.95},{"city":"Wilmington","state_name":"Delaware","lat":39.7166,"lng":-75.62094,"zip":"19804","miles_from_dt":26},{"city":"Wilmington","state_name":"Delaware","lat":39.75801,"lng":-75.50218,"zip":"19809","miles_from_dt":26.04},{"city":"Newark","state_name":"Delaware","lat":39.6665,"lng":-75.70752,"zip":"19718","miles_from_dt":26.12},{"city":"Wilmington","state_name":"Delaware","lat":39.74852,"lng":-75.54409,"zip":"19894","miles_from_dt":26.14},{"city":"Wilmington","state_name":"Delaware","lat":39.74827,"lng":-75.54565,"zip":"19886","miles_from_dt":26.15},{"city":"Pitman","state_name":"New Jersey","lat":39.73227,"lng":-75.13457,"zip":"08071","miles_from_dt":26.31},{"city":"Viola","state_name":"Delaware","lat":39.05041,"lng":-75.57642,"zip":"19979","miles_from_dt":26.35},{"city":"Wilmington","state_name":"Delaware","lat":39.74769,"lng":-75.55791,"zip":"19893","miles_from_dt":26.36},{"city":"Wilmington","state_name":"Delaware","lat":39.68227,"lng":-75.69312,"zip":"19891","miles_from_dt":26.39},{"city":"Wilmington","state_name":"Delaware","lat":39.75715,"lng":-75.52873,"zip":"19802","miles_from_dt":26.41},{"city":"Newark","state_name":"Delaware","lat":39.67097,"lng":-75.70972,"zip":"19713","miles_from_dt":26.42},{"city":"Wilmington","state_name":"Delaware","lat":39.75842,"lng":-75.52771,"zip":"19896","miles_from_dt":26.48},{"city":"Buena","state_name":"New Jersey","lat":39.52723,"lng":-74.89769,"zip":"08310","miles_from_dt":26.64},{"city":"Chesapeake City","state_name":"Maryland","lat":39.50095,"lng":-75.84764,"zip":"21915","miles_from_dt":26.76},{"city":"Wilmington","state_name":"Delaware","lat":39.74523,"lng":-75.59373,"zip":"19805","miles_from_dt":27.01},{"city":"Cecilton","state_name":"Maryland","lat":39.40973,"lng":-75.87073,"zip":"21913","miles_from_dt":27.03},{"city":"Richland","state_name":"New Jersey","lat":39.49134,"lng":-74.87413,"zip":"08350","miles_from_dt":27.13},{"city":"Newark","state_name":"Delaware","lat":39.68293,"lng":-75.71918,"zip":"19712","miles_from_dt":27.36},{"city":"Wilmington","state_name":"Delaware","lat":39.762,"lng":-75.56336,"zip":"19806","miles_from_dt":27.39},{"city":"Mickleton","state_name":"New Jersey","lat":39.78355,"lng":-75.25155,"zip":"08056","miles_from_dt":27.46},{"city":"Newark","state_name":"Delaware","lat":39.66779,"lng":-75.74595,"zip":"19716","miles_from_dt":27.65},{"city":"Williamstown","state_name":"New Jersey","lat":39.65096,"lng":-74.96529,"zip":"08094","miles_from_dt":27.73},{"city":"Millington","state_name":"Maryland","lat":39.25821,"lng":-75.85802,"zip":"21651","miles_from_dt":28.01},{"city":"Templeville","state_name":"Maryland","lat":39.13545,"lng":-75.76789,"zip":"21670","miles_from_dt":28.04},{"city":"New Castle","state_name":"Delaware","lat":39.68458,"lng":-75.73524,"zip":"19726","miles_from_dt":28.04},{"city":"Georgetown","state_name":"Maryland","lat":39.37198,"lng":-75.89115,"zip":"21930","miles_from_dt":28.16},{"city":"Newark","state_name":"Delaware","lat":39.68567,"lng":-75.73728,"zip":"19725","miles_from_dt":28.17},{"city":"Sewell","state_name":"New Jersey","lat":39.75714,"lng":-75.11801,"zip":"08080","miles_from_dt":28.24},{"city":"Marydel","state_name":"Maryland","lat":39.1366,"lng":-75.77453,"zip":"21649","miles_from_dt":28.27},{"city":"Marydel","state_name":"Delaware","lat":39.09436,"lng":-75.72439,"zip":"19964","miles_from_dt":28.31},{"city":"Wilmington","state_name":"Delaware","lat":39.73777,"lng":-75.66596,"zip":"19808","miles_from_dt":28.53},{"city":"Newark","state_name":"Delaware","lat":39.68121,"lng":-75.75343,"zip":"19717","miles_from_dt":28.57},{"city":"Claymont","state_name":"Delaware","lat":39.8043,"lng":-75.45794,"zip":"19703","miles_from_dt":28.62},{"city":"Mantua","state_name":"New Jersey","lat":39.78583,"lng":-75.17903,"zip":"08051","miles_from_dt":28.71},{"city":"Clarksboro","state_name":"New Jersey","lat":39.79674,"lng":-75.22271,"zip":"08020","miles_from_dt":28.71},{"city":"Bridgeport","state_name":"New Jersey","lat":39.81186,"lng":-75.36286,"zip":"08014","miles_from_dt":28.72},{"city":"Dorothy","state_name":"New Jersey","lat":39.40398,"lng":-74.82696,"zip":"08317","miles_from_dt":28.86},{"city":"Elkton","state_name":"Maryland","lat":39.60804,"lng":-75.83567,"zip":"21922","miles_from_dt":29.07},{"city":"Mizpah","state_name":"New Jersey","lat":39.48808,"lng":-74.83431,"zip":"08342","miles_from_dt":29.15},{"city":"Wilmington","state_name":"Delaware","lat":39.79805,"lng":-75.54565,"zip":"19897","miles_from_dt":29.37},{"city":"Wilmington","state_name":"Delaware","lat":39.79912,"lng":-75.5422,"zip":"19803","miles_from_dt":29.38},{"city":"Estell Manor","state_name":"New Jersey","lat":39.3645,"lng":-74.81753,"zip":"08319","miles_from_dt":29.44},{"city":"Mount Royal","state_name":"New Jersey","lat":39.80459,"lng":-75.207,"zip":"08061","miles_from_dt":29.47},{"city":"Montchanin","state_name":"Delaware","lat":39.78964,"lng":-75.58458,"zip":"19710","miles_from_dt":29.58},{"city":"Newark","state_name":"Delaware","lat":39.71404,"lng":-75.73776,"zip":"19715","miles_from_dt":29.61},{"city":"Sudlersville","state_name":"Maryland","lat":39.18967,"lng":-75.85139,"zip":"21668","miles_from_dt":29.64},{"city":"Newtonville","state_name":"New Jersey","lat":39.56926,"lng":-74.85827,"zip":"08346","miles_from_dt":29.67},{"city":"Newark","state_name":"Delaware","lat":39.71379,"lng":-75.74033,"zip":"19711","miles_from_dt":29.69},{"city":"Newark","state_name":"Delaware","lat":39.71416,"lng":-75.74145,"zip":"19714","miles_from_dt":29.75},{"city":"Felton","state_name":"Delaware","lat":39.00562,"lng":-75.60756,"zip":"19943","miles_from_dt":29.86},{"city":"Marcus Hook","state_name":"Pennsylvania","lat":39.82741,"lng":-75.432,"zip":"19061","miles_from_dt":30}],"targetCityZipCode":"08323","targetCityState":"New Jersey"},"__N_SSG":true}