{"pageProps":{"stateName":"New-jersey","cityName":"tuckerton","nearbyCities":[{"city":"New Gretna","state_name":"New Jersey","lat":39.59548,"lng":-74.46352,"zip":"08224","miles_from_dt":4.54},{"city":"West Creek","state_name":"New Jersey","lat":39.65438,"lng":-74.28428,"zip":"08092","miles_from_dt":6.04},{"city":"Port Republic","state_name":"New Jersey","lat":39.53278,"lng":-74.48523,"zip":"08241","miles_from_dt":7.63},{"city":"Leeds Point","state_name":"New Jersey","lat":39.49915,"lng":-74.43253,"zip":"08220","miles_from_dt":7.99},{"city":"Beach Haven","state_name":"New Jersey","lat":39.62188,"lng":-74.22421,"zip":"08008","miles_from_dt":8.37},{"city":"Manahawkin","state_name":"New Jersey","lat":39.70291,"lng":-74.24576,"zip":"08050","miles_from_dt":9.72},{"city":"Absecon","state_name":"New Jersey","lat":39.47455,"lng":-74.45698,"zip":"08205","miles_from_dt":10.05},{"city":"Oceanville","state_name":"New Jersey","lat":39.4648,"lng":-74.46038,"zip":"08231","miles_from_dt":10.74},{"city":"Barnegat","state_name":"New Jersey","lat":39.75503,"lng":-74.30626,"zip":"08005","miles_from_dt":10.91},{"city":"Egg Harbor City","state_name":"New Jersey","lat":39.58962,"lng":-74.58716,"zip":"08215","miles_from_dt":11.13},{"city":"Pomona","state_name":"New Jersey","lat":39.48676,"lng":-74.53633,"zip":"08240","miles_from_dt":11.8},{"city":"Brigantine","state_name":"New Jersey","lat":39.41281,"lng":-74.38006,"zip":"08203","miles_from_dt":13.43},{"city":"Chatsworth","state_name":"New Jersey","lat":39.76733,"lng":-74.52781,"zip":"08019","miles_from_dt":13.55},{"city":"Absecon","state_name":"New Jersey","lat":39.42257,"lng":-74.49511,"zip":"08201","miles_from_dt":14.17},{"city":"Cologne","state_name":"New Jersey","lat":39.49921,"lng":-74.60825,"zip":"08213","miles_from_dt":14.3},{"city":"Waretown","state_name":"New Jersey","lat":39.79529,"lng":-74.25296,"zip":"08758","miles_from_dt":14.62},{"city":"Atlantic City","state_name":"New Jersey","lat":39.37964,"lng":-74.45284,"zip":"08401","miles_from_dt":16.2},{"city":"Pleasantville","state_name":"New Jersey","lat":39.38771,"lng":-74.51489,"zip":"08232","miles_from_dt":16.79},{"city":"Atlantic City","state_name":"New Jersey","lat":39.36605,"lng":-74.42241,"zip":"08405","miles_from_dt":16.81},{"city":"Atlantic City","state_name":"New Jersey","lat":39.36265,"lng":-74.42594,"zip":"08404","miles_from_dt":17.07},{"city":"Barnegat Light","state_name":"New Jersey","lat":39.75299,"lng":-74.10953,"zip":"08006","miles_from_dt":17.56},{"city":"Forked River","state_name":"New Jersey","lat":39.85946,"lng":-74.29363,"zip":"08731","miles_from_dt":17.98},{"city":"Elwood","state_name":"New Jersey","lat":39.57702,"lng":-74.71879,"zip":"08217","miles_from_dt":18.21},{"city":"Ventnor City","state_name":"New Jersey","lat":39.34565,"lng":-74.48603,"zip":"08406","miles_from_dt":18.93},{"city":"Northfield","state_name":"New Jersey","lat":39.36167,"lng":-74.53963,"zip":"08225","miles_from_dt":18.99},{"city":"Egg Harbor Township","state_name":"New Jersey","lat":39.38662,"lng":-74.62369,"zip":"08234","miles_from_dt":20.05},{"city":"Margate City","state_name":"New Jersey","lat":39.33069,"lng":-74.50706,"zip":"08402","miles_from_dt":20.27},{"city":"Lanoka Harbor","state_name":"New Jersey","lat":39.86331,"lng":-74.16608,"zip":"08734","miles_from_dt":21},{"city":"Hammonton","state_name":"New Jersey","lat":39.63272,"lng":-74.77226,"zip":"08037","miles_from_dt":21},{"city":"Linwood","state_name":"New Jersey","lat":39.33879,"lng":-74.5652,"zip":"08221","miles_from_dt":21.02},{"city":"Longport","state_name":"New Jersey","lat":39.31915,"lng":-74.53535,"zip":"08403","miles_from_dt":21.56},{"city":"Mays Landing","state_name":"New Jersey","lat":39.4566,"lng":-74.73814,"zip":"08330","miles_from_dt":21.78},{"city":"Seaside Park","state_name":"New Jersey","lat":39.85233,"lng":-74.0963,"zip":"08752","miles_from_dt":22.66},{"city":"Bayville","state_name":"New Jersey","lat":39.9071,"lng":-74.1846,"zip":"08721","miles_from_dt":23.14},{"city":"Vincentown","state_name":"New Jersey","lat":39.84196,"lng":-74.69075,"zip":"08088","miles_from_dt":23.15},{"city":"Somers Point","state_name":"New Jersey","lat":39.31503,"lng":-74.59808,"zip":"08244","miles_from_dt":23.31},{"city":"Browns Mills","state_name":"New Jersey","lat":39.92981,"lng":-74.53966,"zip":"08015","miles_from_dt":23.81},{"city":"Beachwood","state_name":"New Jersey","lat":39.92863,"lng":-74.20224,"zip":"08722","miles_from_dt":24.09},{"city":"Toms River","state_name":"New Jersey","lat":39.94625,"lng":-74.25247,"zip":"08756","miles_from_dt":24.34},{"city":"Baptistown","state_name":"New Jersey","lat":39.94625,"lng":-74.25247,"zip":"08803","miles_from_dt":24.34},{"city":"Manchester Township","state_name":"New Jersey","lat":39.96239,"lng":-74.35902,"zip":"08759","miles_from_dt":24.51},{"city":"Waterford Works","state_name":"New Jersey","lat":39.71591,"lng":-74.82686,"zip":"08089","miles_from_dt":24.98},{"city":"Toms River","state_name":"New Jersey","lat":39.96061,"lng":-74.25884,"zip":"08757","miles_from_dt":25.2},{"city":"Pine Beach","state_name":"New Jersey","lat":39.93632,"lng":-74.16779,"zip":"08741","miles_from_dt":25.34},{"city":"Winslow","state_name":"New Jersey","lat":39.64514,"lng":-74.85576,"zip":"08095","miles_from_dt":25.52},{"city":"Mizpah","state_name":"New Jersey","lat":39.48808,"lng":-74.83431,"zip":"08342","miles_from_dt":25.63},{"city":"Newtonville","state_name":"New Jersey","lat":39.56926,"lng":-74.85827,"zip":"08346","miles_from_dt":25.67},{"city":"New Lisbon","state_name":"New Jersey","lat":39.93657,"lng":-74.61095,"zip":"08064","miles_from_dt":25.82},{"city":"Ocean Gate","state_name":"New Jersey","lat":39.93006,"lng":-74.12811,"zip":"08740","miles_from_dt":25.98},{"city":"Atco","state_name":"New Jersey","lat":39.75494,"lng":-74.83007,"zip":"08004","miles_from_dt":26.06},{"city":"Island Heights","state_name":"New Jersey","lat":39.94177,"lng":-74.14497,"zip":"08732","miles_from_dt":26.23},{"city":"Ocean City","state_name":"New Jersey","lat":39.26812,"lng":-74.60196,"zip":"08226","miles_from_dt":26.25},{"city":"Richland","state_name":"New Jersey","lat":39.49134,"lng":-74.87413,"zip":"08350","miles_from_dt":27.58},{"city":"Marmora","state_name":"New Jersey","lat":39.27021,"lng":-74.6571,"zip":"08223","miles_from_dt":27.59},{"city":"Dorothy","state_name":"New Jersey","lat":39.40398,"lng":-74.82696,"zip":"08317","miles_from_dt":27.71},{"city":"Buena","state_name":"New Jersey","lat":39.52723,"lng":-74.89769,"zip":"08310","miles_from_dt":28.19},{"city":"Toms River","state_name":"New Jersey","lat":39.98198,"lng":-74.15887,"zip":"08754","miles_from_dt":28.39},{"city":"New Egypt","state_name":"New Jersey","lat":40.01293,"lng":-74.47138,"zip":"08533","miles_from_dt":28.39},{"city":"Seaside Heights","state_name":"New Jersey","lat":39.95012,"lng":-74.08147,"zip":"08751","miles_from_dt":28.48},{"city":"Toms River","state_name":"New Jersey","lat":39.98091,"lng":-74.15055,"zip":"08753","miles_from_dt":28.51},{"city":"Cedar Brook","state_name":"New Jersey","lat":39.71074,"lng":-74.9013,"zip":"08018","miles_from_dt":28.7},{"city":"Estell Manor","state_name":"New Jersey","lat":39.3645,"lng":-74.81753,"zip":"08319","miles_from_dt":28.78},{"city":"Pemberton","state_name":"New Jersey","lat":39.9617,"lng":-74.667,"zip":"08068","miles_from_dt":28.82},{"city":"Lakehurst","state_name":"New Jersey","lat":40.0262,"lng":-74.3713,"zip":"08733","miles_from_dt":28.89},{"city":"Toms River","state_name":"New Jersey","lat":40.00968,"lng":-74.22457,"zip":"08755","miles_from_dt":28.95},{"city":"Medford","state_name":"New Jersey","lat":39.86373,"lng":-74.82249,"zip":"08055","miles_from_dt":29.46},{"city":"Landisville","state_name":"New Jersey","lat":39.53847,"lng":-74.92761,"zip":"08326","miles_from_dt":29.63},{"city":"Joint Base Mdl","state_name":"New Jersey","lat":40.0093,"lng":-74.58424,"zip":"08640","miles_from_dt":29.78},{"city":"Tuckahoe","state_name":"New Jersey","lat":39.29001,"lng":-74.75905,"zip":"08250","miles_from_dt":29.85}],"targetCityZipCode":"08087","targetCityState":"New Jersey"},"__N_SSG":true}