{"pageProps":{"stateName":"New-jersey","cityName":"winslow","nearbyCities":[{"city":"Hammonton","state_name":"New Jersey","lat":39.63272,"lng":-74.77226,"zip":"08037","miles_from_dt":4.54},{"city":"Waterford Works","state_name":"New Jersey","lat":39.71591,"lng":-74.82686,"zip":"08089","miles_from_dt":5.12},{"city":"Cedar Brook","state_name":"New Jersey","lat":39.71074,"lng":-74.9013,"zip":"08018","miles_from_dt":5.14},{"city":"Newtonville","state_name":"New Jersey","lat":39.56926,"lng":-74.85827,"zip":"08346","miles_from_dt":5.24},{"city":"Williamstown","state_name":"New Jersey","lat":39.65096,"lng":-74.96529,"zip":"08094","miles_from_dt":5.86},{"city":"Atco","state_name":"New Jersey","lat":39.75494,"lng":-74.83007,"zip":"08004","miles_from_dt":7.7},{"city":"Landisville","state_name":"New Jersey","lat":39.53847,"lng":-74.92761,"zip":"08326","miles_from_dt":8.3},{"city":"Buena","state_name":"New Jersey","lat":39.52723,"lng":-74.89769,"zip":"08310","miles_from_dt":8.44},{"city":"Elwood","state_name":"New Jersey","lat":39.57702,"lng":-74.71879,"zip":"08217","miles_from_dt":8.69},{"city":"Sicklerville","state_name":"New Jersey","lat":39.73421,"lng":-74.97564,"zip":"08081","miles_from_dt":8.87},{"city":"Berlin","state_name":"New Jersey","lat":39.76154,"lng":-74.93279,"zip":"08009","miles_from_dt":9.02},{"city":"Newfield","state_name":"New Jersey","lat":39.56707,"lng":-74.99185,"zip":"08344","miles_from_dt":9.04},{"city":"Franklinville","state_name":"New Jersey","lat":39.61463,"lng":-75.03385,"zip":"08322","miles_from_dt":9.73},{"city":"Minotola","state_name":"New Jersey","lat":39.52002,"lng":-74.9524,"zip":"08341","miles_from_dt":10.06},{"city":"Richland","state_name":"New Jersey","lat":39.49134,"lng":-74.87413,"zip":"08350","miles_from_dt":10.66},{"city":"Mizpah","state_name":"New Jersey","lat":39.48808,"lng":-74.83431,"zip":"08342","miles_from_dt":10.9},{"city":"West Berlin","state_name":"New Jersey","lat":39.80545,"lng":-74.92558,"zip":"08091","miles_from_dt":11.67},{"city":"Malaga","state_name":"New Jersey","lat":39.5797,"lng":-75.06015,"zip":"08328","miles_from_dt":11.8},{"city":"Clayton","state_name":"New Jersey","lat":39.66143,"lng":-75.08375,"zip":"08312","miles_from_dt":12.21},{"city":"Vineland","state_name":"New Jersey","lat":39.49374,"lng":-75.00352,"zip":"08360","miles_from_dt":13.09},{"city":"Clementon","state_name":"New Jersey","lat":39.80604,"lng":-75.00025,"zip":"08021","miles_from_dt":13.51},{"city":"Gibbsboro","state_name":"New Jersey","lat":39.83329,"lng":-74.9657,"zip":"08026","miles_from_dt":14.24},{"city":"Grenloch","state_name":"New Jersey","lat":39.78048,"lng":-75.05952,"zip":"08032","miles_from_dt":14.32},{"city":"Blackwood","state_name":"New Jersey","lat":39.78409,"lng":-75.05586,"zip":"08012","miles_from_dt":14.34},{"city":"Mays Landing","state_name":"New Jersey","lat":39.4566,"lng":-74.73814,"zip":"08330","miles_from_dt":14.44},{"city":"Glassboro","state_name":"New Jersey","lat":39.69336,"lng":-75.11949,"zip":"08028","miles_from_dt":14.45},{"city":"Vineland","state_name":"New Jersey","lat":39.46556,"lng":-74.9992,"zip":"08362","miles_from_dt":14.57},{"city":"Vineland","state_name":"New Jersey","lat":39.44843,"lng":-74.95943,"zip":"08361","miles_from_dt":14.66},{"city":"Voorhees","state_name":"New Jersey","lat":39.84502,"lng":-74.95492,"zip":"08043","miles_from_dt":14.77},{"city":"Egg Harbor City","state_name":"New Jersey","lat":39.58962,"lng":-74.58716,"zip":"08215","miles_from_dt":14.83},{"city":"Marlton","state_name":"New Jersey","lat":39.86051,"lng":-74.89469,"zip":"08053","miles_from_dt":15},{"city":"Medford","state_name":"New Jersey","lat":39.86373,"lng":-74.82249,"zip":"08055","miles_from_dt":15.18},{"city":"Stratford","state_name":"New Jersey","lat":39.82905,"lng":-75.01557,"zip":"08084","miles_from_dt":15.28},{"city":"Sewell","state_name":"New Jersey","lat":39.75714,"lng":-75.11801,"zip":"08080","miles_from_dt":15.97},{"city":"Pitman","state_name":"New Jersey","lat":39.73227,"lng":-75.13457,"zip":"08071","miles_from_dt":16.03},{"city":"Vincentown","state_name":"New Jersey","lat":39.84196,"lng":-74.69075,"zip":"08088","miles_from_dt":16.17},{"city":"Norma","state_name":"New Jersey","lat":39.49378,"lng":-75.08778,"zip":"08347","miles_from_dt":16.2},{"city":"Somerdale","state_name":"New Jersey","lat":39.84138,"lng":-75.02867,"zip":"08083","miles_from_dt":16.37},{"city":"Cologne","state_name":"New Jersey","lat":39.49921,"lng":-74.60825,"zip":"08213","miles_from_dt":16.61},{"city":"Dorothy","state_name":"New Jersey","lat":39.40398,"lng":-74.82696,"zip":"08317","miles_from_dt":16.71},{"city":"Monroeville","state_name":"New Jersey","lat":39.64057,"lng":-75.1699,"zip":"08343","miles_from_dt":16.76},{"city":"Milmay","state_name":"New Jersey","lat":39.40087,"lng":-74.88407,"zip":"08340","miles_from_dt":16.92},{"city":"Richwood","state_name":"New Jersey","lat":39.71289,"lng":-75.16379,"zip":"08074","miles_from_dt":17.07},{"city":"Magnolia","state_name":"New Jersey","lat":39.85463,"lng":-75.03816,"zip":"08049","miles_from_dt":17.41},{"city":"Cherry Hill","state_name":"New Jersey","lat":39.88334,"lng":-74.97191,"zip":"08003","miles_from_dt":17.56},{"city":"Glendora","state_name":"New Jersey","lat":39.84097,"lng":-75.06717,"zip":"08029","miles_from_dt":17.59},{"city":"Ewan","state_name":"New Jersey","lat":39.69757,"lng":-75.18274,"zip":"08025","miles_from_dt":17.8},{"city":"Lawnside","state_name":"New Jersey","lat":39.86722,"lng":-75.02912,"zip":"08045","miles_from_dt":17.89},{"city":"Elmer","state_name":"New Jersey","lat":39.55657,"lng":-75.17776,"zip":"08318","miles_from_dt":18.24},{"city":"Runnemede","state_name":"New Jersey","lat":39.85202,"lng":-75.07542,"zip":"08078","miles_from_dt":18.45},{"city":"Barrington","state_name":"New Jersey","lat":39.86509,"lng":-75.05379,"zip":"08007","miles_from_dt":18.48},{"city":"Rosenhayn","state_name":"New Jersey","lat":39.47545,"lng":-75.12724,"zip":"08352","miles_from_dt":18.63},{"city":"Wenonah","state_name":"New Jersey","lat":39.79777,"lng":-75.14849,"zip":"08090","miles_from_dt":18.82},{"city":"Woodbury","state_name":"New Jersey","lat":39.82921,"lng":-75.12871,"zip":"08096","miles_from_dt":19.3},{"city":"Chatsworth","state_name":"New Jersey","lat":39.76733,"lng":-74.52781,"zip":"08019","miles_from_dt":19.4},{"city":"Estell Manor","state_name":"New Jersey","lat":39.3645,"lng":-74.81753,"zip":"08319","miles_from_dt":19.47},{"city":"Cherry Hill","state_name":"New Jersey","lat":39.90593,"lng":-74.99935,"zip":"08034","miles_from_dt":19.55},{"city":"Haddon Heights","state_name":"New Jersey","lat":39.87914,"lng":-75.06435,"zip":"08035","miles_from_dt":19.6},{"city":"Woodbury Heights","state_name":"New Jersey","lat":39.81571,"lng":-75.15117,"zip":"08097","miles_from_dt":19.65},{"city":"Haddonfield","state_name":"New Jersey","lat":39.89332,"lng":-75.03723,"zip":"08033","miles_from_dt":19.66},{"city":"Mantua","state_name":"New Jersey","lat":39.78583,"lng":-75.17903,"zip":"08051","miles_from_dt":19.77},{"city":"Bellmawr","state_name":"New Jersey","lat":39.86655,"lng":-75.09408,"zip":"08031","miles_from_dt":19.86},{"city":"Bellmawr","state_name":"New Jersey","lat":39.86876,"lng":-75.09225,"zip":"08099","miles_from_dt":19.91},{"city":"Mullica Hill","state_name":"New Jersey","lat":39.71465,"lng":-75.22124,"zip":"08062","miles_from_dt":20.06},{"city":"Pomona","state_name":"New Jersey","lat":39.48676,"lng":-74.53633,"zip":"08240","miles_from_dt":20.26},{"city":"Audubon","state_name":"New Jersey","lat":39.89119,"lng":-75.07388,"zip":"08106","miles_from_dt":20.57},{"city":"Mount Ephraim","state_name":"New Jersey","lat":39.88462,"lng":-75.09309,"zip":"08059","miles_from_dt":20.8},{"city":"Westville","state_name":"New Jersey","lat":39.86098,"lng":-75.13265,"zip":"08093","miles_from_dt":20.96},{"city":"Mount Laurel","state_name":"New Jersey","lat":39.94835,"lng":-74.90472,"zip":"08054","miles_from_dt":21.08},{"city":"Millville","state_name":"New Jersey","lat":39.3705,"lng":-75.0293,"zip":"08332","miles_from_dt":21.09},{"city":"New Gretna","state_name":"New Jersey","lat":39.59548,"lng":-74.46352,"zip":"08224","miles_from_dt":21.21},{"city":"Port Republic","state_name":"New Jersey","lat":39.53278,"lng":-74.48523,"zip":"08241","miles_from_dt":21.24},{"city":"Deerfield Street","state_name":"New Jersey","lat":39.53065,"lng":-75.23101,"zip":"08313","miles_from_dt":21.53},{"city":"Collingswood","state_name":"New Jersey","lat":39.91453,"lng":-75.06192,"zip":"08108","miles_from_dt":21.58},{"city":"Lumberton","state_name":"New Jersey","lat":39.95644,"lng":-74.80627,"zip":"08048","miles_from_dt":21.64},{"city":"Cherry Hill","state_name":"New Jersey","lat":39.93142,"lng":-75.02515,"zip":"08002","miles_from_dt":21.71},{"city":"Mount Royal","state_name":"New Jersey","lat":39.80459,"lng":-75.207,"zip":"08061","miles_from_dt":21.71},{"city":"Egg Harbor Township","state_name":"New Jersey","lat":39.38662,"lng":-74.62369,"zip":"08234","miles_from_dt":21.72},{"city":"Oaklyn","state_name":"New Jersey","lat":39.90767,"lng":-75.08344,"zip":"08107","miles_from_dt":21.79},{"city":"Gloucester City","state_name":"New Jersey","lat":39.89023,"lng":-75.1178,"zip":"08030","miles_from_dt":21.92},{"city":"Clarksboro","state_name":"New Jersey","lat":39.79674,"lng":-75.22271,"zip":"08020","miles_from_dt":22.17},{"city":"Maple Shade","state_name":"New Jersey","lat":39.952,"lng":-74.99502,"zip":"08052","miles_from_dt":22.43},{"city":"Thorofare","state_name":"New Jersey","lat":39.85136,"lng":-75.18582,"zip":"08086","miles_from_dt":22.61},{"city":"Harrisonville","state_name":"New Jersey","lat":39.68662,"lng":-75.27661,"zip":"08039","miles_from_dt":22.62},{"city":"Hainesport","state_name":"New Jersey","lat":39.97669,"lng":-74.83708,"zip":"08036","miles_from_dt":22.9},{"city":"Mickleton","state_name":"New Jersey","lat":39.78355,"lng":-75.25155,"zip":"08056","miles_from_dt":23.15},{"city":"Camden","state_name":"New Jersey","lat":39.91672,"lng":-75.11203,"zip":"08104","miles_from_dt":23.18},{"city":"National Park","state_name":"New Jersey","lat":39.86758,"lng":-75.18509,"zip":"08063","miles_from_dt":23.3},{"city":"Merchantville","state_name":"New Jersey","lat":39.95006,"lng":-75.05094,"zip":"08109","miles_from_dt":23.46},{"city":"Moorestown","state_name":"New Jersey","lat":39.97948,"lng":-74.94105,"zip":"08057","miles_from_dt":23.51},{"city":"Port Elizabeth","state_name":"New Jersey","lat":39.31381,"lng":-74.96594,"zip":"08348","miles_from_dt":23.6},{"city":"Philadelphia","state_name":"Pennsylvania","lat":39.88999,"lng":-75.16985,"zip":"19112","miles_from_dt":23.77},{"city":"Philadelphia","state_name":"Pennsylvania","lat":39.89154,"lng":-75.16942,"zip":"19185","miles_from_dt":23.83},{"city":"Paulsboro","state_name":"New Jersey","lat":39.83475,"lng":-75.23017,"zip":"08066","miles_from_dt":23.85},{"city":"New Lisbon","state_name":"New Jersey","lat":39.93657,"lng":-74.61095,"zip":"08064","miles_from_dt":23.96},{"city":"Birmingham","state_name":"New Jersey","lat":39.97504,"lng":-74.71371,"zip":"08011","miles_from_dt":23.98},{"city":"Pemberton","state_name":"New Jersey","lat":39.9617,"lng":-74.667,"zip":"08068","miles_from_dt":24.04},{"city":"Philadelphia","state_name":"Pennsylvania","lat":39.91175,"lng":-75.1514,"zip":"19148","miles_from_dt":24.21},{"city":"Fairton","state_name":"New Jersey","lat":39.3851,"lng":-75.16059,"zip":"08320","miles_from_dt":24.23},{"city":"Camden","state_name":"New Jersey","lat":39.93533,"lng":-75.11275,"zip":"08103","miles_from_dt":24.25},{"city":"Absecon","state_name":"New Jersey","lat":39.47455,"lng":-74.45698,"zip":"08205","miles_from_dt":24.33},{"city":"Oceanville","state_name":"New Jersey","lat":39.4648,"lng":-74.46038,"zip":"08231","miles_from_dt":24.51},{"city":"Camden","state_name":"New Jersey","lat":39.95174,"lng":-75.09107,"zip":"08105","miles_from_dt":24.58},{"city":"Absecon","state_name":"New Jersey","lat":39.42257,"lng":-74.49511,"zip":"08201","miles_from_dt":24.64},{"city":"Leeds Point","state_name":"New Jersey","lat":39.49915,"lng":-74.43253,"zip":"08220","miles_from_dt":24.74},{"city":"Camden","state_name":"New Jersey","lat":39.9409,"lng":-75.12616,"zip":"08101","miles_from_dt":24.97},{"city":"Tuckahoe","state_name":"New Jersey","lat":39.29001,"lng":-74.75905,"zip":"08250","miles_from_dt":25.04},{"city":"Pennsauken","state_name":"New Jersey","lat":39.97243,"lng":-75.06021,"zip":"08110","miles_from_dt":25.06},{"city":"Rancocas","state_name":"New Jersey","lat":40.00952,"lng":-74.86698,"zip":"08073","miles_from_dt":25.15},{"city":"Woodstown","state_name":"New Jersey","lat":39.63934,"lng":-75.3316,"zip":"08098","miles_from_dt":25.38},{"city":"Mount Holly","state_name":"New Jersey","lat":40.00983,"lng":-74.79105,"zip":"08060","miles_from_dt":25.39},{"city":"Pleasantville","state_name":"New Jersey","lat":39.38771,"lng":-74.51489,"zip":"08232","miles_from_dt":25.44},{"city":"Camden","state_name":"New Jersey","lat":39.95203,"lng":-75.12134,"zip":"08102","miles_from_dt":25.46},{"city":"Dorchester","state_name":"New Jersey","lat":39.28009,"lng":-74.93186,"zip":"08316","miles_from_dt":25.51},{"city":"Tuckerton","state_name":"New Jersey","lat":39.60751,"lng":-74.37994,"zip":"08087","miles_from_dt":25.52},{"city":"Philadelphia","state_name":"Pennsylvania","lat":39.93645,"lng":-75.15468,"zip":"19147","miles_from_dt":25.63},{"city":"Riverton","state_name":"New Jersey","lat":40.00193,"lng":-74.99515,"zip":"08077","miles_from_dt":25.71},{"city":"Philadelphia","state_name":"Pennsylvania","lat":39.94589,"lng":-75.14224,"zip":"19106","miles_from_dt":25.75},{"city":"Philadelphia","state_name":"Pennsylvania","lat":39.91469,"lng":-75.19194,"zip":"19145","miles_from_dt":25.81},{"city":"Northfield","state_name":"New Jersey","lat":39.36167,"lng":-74.53963,"zip":"08225","miles_from_dt":25.84},{"city":"Browns Mills","state_name":"New Jersey","lat":39.92981,"lng":-74.53966,"zip":"08015","miles_from_dt":25.86},{"city":"Bridgeton","state_name":"New Jersey","lat":39.4397,"lng":-75.2616,"zip":"08302","miles_from_dt":25.9},{"city":"Philadelphia","state_name":"Pennsylvania","lat":39.94534,"lng":-75.15108,"zip":"19172","miles_from_dt":26},{"city":"Mauricetown","state_name":"New Jersey","lat":39.2857,"lng":-75.00338,"zip":"08329","miles_from_dt":26.02},{"city":"Philadelphia","state_name":"Pennsylvania","lat":39.88391,"lng":-75.2343,"zip":"19153","miles_from_dt":26.03},{"city":"Philadelphia","state_name":"Pennsylvania","lat":39.95145,"lng":-75.14702,"zip":"19181","miles_from_dt":26.21},{"city":"Linwood","state_name":"New Jersey","lat":39.33879,"lng":-74.5652,"zip":"08221","miles_from_dt":26.23},{"city":"Philadelphia","state_name":"Pennsylvania","lat":39.951,"lng":-75.14975,"zip":"19177","miles_from_dt":26.27},{"city":"Philadelphia","state_name":"Pennsylvania","lat":39.95144,"lng":-75.15151,"zip":"19244","miles_from_dt":26.35},{"city":"Philadelphia","state_name":"Pennsylvania","lat":39.94999,"lng":-75.15464,"zip":"19175","miles_from_dt":26.37},{"city":"Woodbine","state_name":"New Jersey","lat":39.26437,"lng":-74.80861,"zip":"08270","miles_from_dt":26.39},{"city":"Swedesboro","state_name":"New Jersey","lat":39.75579,"lng":-75.33017,"zip":"08085","miles_from_dt":26.41},{"city":"Palmyra","state_name":"New Jersey","lat":40.00234,"lng":-75.03589,"zip":"08065","miles_from_dt":26.44},{"city":"Willingboro","state_name":"New Jersey","lat":40.02787,"lng":-74.88709,"zip":"08046","miles_from_dt":26.46},{"city":"Gibbstown","state_name":"New Jersey","lat":39.82883,"lng":-75.29345,"zip":"08027","miles_from_dt":26.54},{"city":"Philadelphia","state_name":"Pennsylvania","lat":39.95,"lng":-75.1601,"zip":"19182","miles_from_dt":26.55},{"city":"Philadelphia","state_name":"Pennsylvania","lat":39.9518,"lng":-75.15864,"zip":"19107","miles_from_dt":26.6},{"city":"Philadelphia","state_name":"Pennsylvania","lat":39.95,"lng":-75.16219,"zip":"19195","miles_from_dt":26.61},{"city":"Philadelphia","state_name":"Pennsylvania","lat":39.95,"lng":-75.16219,"zip":"19190","miles_from_dt":26.61},{"city":"Riverton","state_name":"New Jersey","lat":40.01068,"lng":-75.01553,"zip":"08076","miles_from_dt":26.61},{"city":"Somers Point","state_name":"New Jersey","lat":39.31503,"lng":-74.59808,"zip":"08244","miles_from_dt":26.62},{"city":"Philadelphia","state_name":"Pennsylvania","lat":39.94958,"lng":-75.16387,"zip":"19109","miles_from_dt":26.65},{"city":"Philadelphia","state_name":"Pennsylvania","lat":39.95193,"lng":-75.16046,"zip":"19105","miles_from_dt":26.66},{"city":"Philadelphia","state_name":"Pennsylvania","lat":39.95563,"lng":-75.15526,"zip":"19171","miles_from_dt":26.7},{"city":"Philadelphia","state_name":"Pennsylvania","lat":39.95126,"lng":-75.1631,"zip":"19255","miles_from_dt":26.71},{"city":"Philadelphia","state_name":"Pennsylvania","lat":39.95307,"lng":-75.16103,"zip":"19099","miles_from_dt":26.74},{"city":"Philadelphia","state_name":"Pennsylvania","lat":39.99455,"lng":-75.074,"zip":"19137","miles_from_dt":26.76},{"city":"Philadelphia","state_name":"Pennsylvania","lat":39.95253,"lng":-75.1628,"zip":"19101","miles_from_dt":26.77},{"city":"Philadelphia","state_name":"Pennsylvania","lat":39.93917,"lng":-75.18398,"zip":"19146","miles_from_dt":26.77},{"city":"Shiloh","state_name":"New Jersey","lat":39.45954,"lng":-75.29695,"zip":"08353","miles_from_dt":26.82},{"city":"Philadelphia","state_name":"Pennsylvania","lat":39.95228,"lng":-75.16597,"zip":"19191","miles_from_dt":26.86},{"city":"Philadelphia","state_name":"Pennsylvania","lat":39.96399,"lng":-75.14568,"zip":"19123","miles_from_dt":26.87},{"city":"Philadelphia","state_name":"Pennsylvania","lat":39.95301,"lng":-75.16544,"zip":"19102","miles_from_dt":26.88},{"city":"Philadelphia","state_name":"Pennsylvania","lat":39.95173,"lng":-75.16796,"zip":"19192","miles_from_dt":26.9},{"city":"Philadelphia","state_name":"Pennsylvania","lat":39.9516,"lng":-75.169,"zip":"19183","miles_from_dt":26.92},{"city":"Philadelphia","state_name":"Pennsylvania","lat":39.95356,"lng":-75.16602,"zip":"19110","miles_from_dt":26.93},{"city":"Philadelphia","state_name":"Pennsylvania","lat":39.97611,"lng":-75.12472,"zip":"19125","miles_from_dt":26.95},{"city":"Riverside","state_name":"New Jersey","lat":40.02937,"lng":-74.94999,"zip":"08075","miles_from_dt":26.98},{"city":"Philadelphia","state_name":"Pennsylvania","lat":39.95477,"lng":-75.16769,"zip":"19187","miles_from_dt":27.05},{"city":"Philadelphia","state_name":"Pennsylvania","lat":39.90264,"lng":-75.24032,"zip":"19176","miles_from_dt":27.11},{"city":"Philadelphia","state_name":"Pennsylvania","lat":39.95987,"lng":-75.16083,"zip":"19108","miles_from_dt":27.11},{"city":"Philadelphia","state_name":"Pennsylvania","lat":39.95473,"lng":-75.16986,"zip":"19173","miles_from_dt":27.12},{"city":"Philadelphia","state_name":"Pennsylvania","lat":39.95303,"lng":-75.17386,"zip":"19103","miles_from_dt":27.16},{"city":"Philadelphia","state_name":"Pennsylvania","lat":39.86679,"lng":-75.27911,"zip":"19113","miles_from_dt":27.24},{"city":"Philadelphia","state_name":"Pennsylvania","lat":39.96334,"lng":-75.15953,"zip":"19188","miles_from_dt":27.26},{"city":"Philadelphia","state_name":"Pennsylvania","lat":39.95,"lng":-75.18219,"zip":"19194","miles_from_dt":27.28},{"city":"Philadelphia","state_name":"Pennsylvania","lat":39.98953,"lng":-75.10838,"zip":"19134","miles_from_dt":27.3},{"city":"Leesburg","state_name":"New Jersey","lat":39.25458,"lng":-74.94657,"zip":"08327","miles_from_dt":27.38},{"city":"Philadelphia","state_name":"Pennsylvania","lat":39.95258,"lng":-75.18178,"zip":"19092","miles_from_dt":27.4},{"city":"Philadelphia","state_name":"Pennsylvania","lat":39.95201,"lng":-75.18332,"zip":"19170","miles_from_dt":27.42},{"city":"Philadelphia","state_name":"Pennsylvania","lat":39.9547,"lng":-75.17878,"zip":"19197","miles_from_dt":27.42},{"city":"Juliustown","state_name":"New Jersey","lat":40.01363,"lng":-74.662,"zip":"08042","miles_from_dt":27.43},{"city":"Alloway","state_name":"New Jersey","lat":39.55423,"lng":-75.35683,"zip":"08001","miles_from_dt":27.47},{"city":"Philadelphia","state_name":"Pennsylvania","lat":39.9532,"lng":-75.1839,"zip":"19184","miles_from_dt":27.51},{"city":"Philadelphia","state_name":"Pennsylvania","lat":39.9557,"lng":-75.18101,"zip":"19162","miles_from_dt":27.54},{"city":"Philadelphia","state_name":"Pennsylvania","lat":39.95309,"lng":-75.18496,"zip":"19178","miles_from_dt":27.54},{"city":"Philadelphia","state_name":"Pennsylvania","lat":39.95591,"lng":-75.18238,"zip":"19093","miles_from_dt":27.6},{"city":"Philadelphia","state_name":"Pennsylvania","lat":39.95568,"lng":-75.18406,"zip":"19193","miles_from_dt":27.64},{"city":"Philadelphia","state_name":"Pennsylvania","lat":39.97767,"lng":-75.14571,"zip":"19122","miles_from_dt":27.65},{"city":"Essington","state_name":"Pennsylvania","lat":39.86345,"lng":-75.29271,"zip":"19029","miles_from_dt":27.72},{"city":"Philadelphia","state_name":"Pennsylvania","lat":39.95744,"lng":-75.18426,"zip":"19196","miles_from_dt":27.75},{"city":"Philadelphia","state_name":"Pennsylvania","lat":39.92278,"lng":-75.23375,"zip":"19142","miles_from_dt":27.78},{"city":"Marmora","state_name":"New Jersey","lat":39.27021,"lng":-74.6571,"zip":"08223","miles_from_dt":27.96},{"city":"Philadelphia","state_name":"Pennsylvania","lat":40.02192,"lng":-75.04966,"zip":"19135","miles_from_dt":27.97},{"city":"Philadelphia","state_name":"Pennsylvania","lat":39.9676,"lng":-75.17495,"zip":"19130","miles_from_dt":27.99},{"city":"Folcroft","state_name":"Pennsylvania","lat":39.88907,"lng":-75.277,"zip":"19032","miles_from_dt":28.04},{"city":"Sharon Hill","state_name":"Pennsylvania","lat":39.90238,"lng":-75.26591,"zip":"19079","miles_from_dt":28.14},{"city":"Atlantic City","state_name":"New Jersey","lat":39.37964,"lng":-74.45284,"zip":"08401","miles_from_dt":28.27},{"city":"Longport","state_name":"New Jersey","lat":39.31915,"lng":-74.53535,"zip":"08403","miles_from_dt":28.27},{"city":"Philadelphia","state_name":"Pennsylvania","lat":39.95891,"lng":-75.19836,"zip":"19104","miles_from_dt":28.3},{"city":"Philadelphia","state_name":"Pennsylvania","lat":39.99238,"lng":-75.14149,"zip":"19133","miles_from_dt":28.37},{"city":"Port Norris","state_name":"New Jersey","lat":39.266,"lng":-75.06337,"zip":"08349","miles_from_dt":28.41},{"city":"Beverly","state_name":"New Jersey","lat":40.05484,"lng":-74.91407,"zip":"08010","miles_from_dt":28.44},{"city":"Philadelphia","state_name":"Pennsylvania","lat":39.94315,"lng":-75.22664,"zip":"19143","miles_from_dt":28.5},{"city":"Philadelphia","state_name":"Pennsylvania","lat":40.03973,"lng":-75.01932,"zip":"19136","miles_from_dt":28.58},{"city":"Ventnor City","state_name":"New Jersey","lat":39.34565,"lng":-74.48603,"zip":"08406","miles_from_dt":28.59},{"city":"Margate City","state_name":"New Jersey","lat":39.33069,"lng":-74.50706,"zip":"08402","miles_from_dt":28.6},{"city":"Philadelphia","state_name":"Pennsylvania","lat":40.01728,"lng":-75.09387,"zip":"19124","miles_from_dt":28.63},{"city":"Jobstown","state_name":"New Jersey","lat":40.03852,"lng":-74.68263,"zip":"08041","miles_from_dt":28.66},{"city":"Norwood","state_name":"Pennsylvania","lat":39.88642,"lng":-75.29643,"zip":"19074","miles_from_dt":28.77},{"city":"Darby","state_name":"Pennsylvania","lat":39.91724,"lng":-75.26708,"zip":"19023","miles_from_dt":28.84},{"city":"Cedarville","state_name":"New Jersey","lat":39.32685,"lng":-75.20804,"zip":"08311","miles_from_dt":28.93},{"city":"Philadelphia","state_name":"Pennsylvania","lat":39.98231,"lng":-75.17995,"zip":"19121","miles_from_dt":28.96},{"city":"Joint Base Mdl","state_name":"New Jersey","lat":40.0093,"lng":-74.58424,"zip":"08640","miles_from_dt":28.98},{"city":"Dividing Creek","state_name":"New Jersey","lat":39.26969,"lng":-75.10486,"zip":"08315","miles_from_dt":29.13},{"city":"Newport","state_name":"New Jersey","lat":39.28816,"lng":-75.14668,"zip":"08345","miles_from_dt":29.13},{"city":"Prospect Park","state_name":"Pennsylvania","lat":39.88586,"lng":-75.30763,"zip":"19076","miles_from_dt":29.23},{"city":"Burlington","state_name":"New Jersey","lat":40.06926,"lng":-74.83198,"zip":"08016","miles_from_dt":29.29},{"city":"Philadelphia","state_name":"Pennsylvania","lat":40.03781,"lng":-75.06544,"zip":"19149","miles_from_dt":29.3},{"city":"Glenolden","state_name":"Pennsylvania","lat":39.90368,"lng":-75.29323,"zip":"19036","miles_from_dt":29.33},{"city":"Ocean City","state_name":"New Jersey","lat":39.26812,"lng":-74.60196,"zip":"08226","miles_from_dt":29.34},{"city":"Bridgeport","state_name":"New Jersey","lat":39.81186,"lng":-75.36286,"zip":"08014","miles_from_dt":29.36},{"city":"Ridley Park","state_name":"Pennsylvania","lat":39.87328,"lng":-75.32159,"zip":"19078","miles_from_dt":29.38},{"city":"Crum Lynne","state_name":"Pennsylvania","lat":39.85862,"lng":-75.33507,"zip":"19022","miles_from_dt":29.47},{"city":"Philadelphia","state_name":"Pennsylvania","lat":39.99649,"lng":-75.17102,"zip":"19132","miles_from_dt":29.48},{"city":"Philadelphia","state_name":"Pennsylvania","lat":39.96144,"lng":-75.22964,"zip":"19139","miles_from_dt":29.53},{"city":"Lansdowne","state_name":"Pennsylvania","lat":39.93764,"lng":-75.26355,"zip":"19050","miles_from_dt":29.64},{"city":"Philadelphia","state_name":"Pennsylvania","lat":40.01224,"lng":-75.14512,"zip":"19140","miles_from_dt":29.64},{"city":"Philadelphia","state_name":"Pennsylvania","lat":40.01,"lng":-75.15001,"zip":"19160","miles_from_dt":29.64},{"city":"Holmes","state_name":"Pennsylvania","lat":39.90042,"lng":-75.30891,"zip":"19043","miles_from_dt":29.87},{"city":"Delmont","state_name":"New Jersey","lat":39.21683,"lng":-74.94113,"zip":"08314","miles_from_dt":29.9}],"targetCityZipCode":"08095","targetCityState":"New Jersey"},"__N_SSG":true}