{"pageProps":{"stateName":"Kentucky","cityName":"almo","nearbyCities":[{"city":"Dexter","state_name":"Kentucky","lat":36.72246,"lng":-88.23048,"zip":"42036","miles_from_dt":4.09},{"city":"Murray","state_name":"Kentucky","lat":36.62139,"lng":-88.28291,"zip":"42071","miles_from_dt":4.7},{"city":"Hardin","state_name":"Kentucky","lat":36.76676,"lng":-88.23533,"zip":"42048","miles_from_dt":6.19},{"city":"Kirksey","state_name":"Kentucky","lat":36.71734,"lng":-88.43149,"zip":"42054","miles_from_dt":8.02},{"city":"Hazel","state_name":"Kentucky","lat":36.51874,"lng":-88.31828,"zip":"42049","miles_from_dt":11.84},{"city":"Benton","state_name":"Kentucky","lat":36.85764,"lng":-88.33441,"zip":"42025","miles_from_dt":11.86},{"city":"Farmington","state_name":"Kentucky","lat":36.62454,"lng":-88.50371,"zip":"42040","miles_from_dt":12.61},{"city":"New Concord","state_name":"Kentucky","lat":36.55906,"lng":-88.09473,"zip":"42076","miles_from_dt":14.14},{"city":"Puryear","state_name":"Tennessee","lat":36.44636,"lng":-88.3539,"zip":"38251","miles_from_dt":17.1},{"city":"Lynnville","state_name":"Kentucky","lat":36.55928,"lng":-88.56838,"zip":"42063","miles_from_dt":17.81},{"city":"Sedalia","state_name":"Kentucky","lat":36.55978,"lng":-88.57611,"zip":"42079","miles_from_dt":18.16},{"city":"Buchanan","state_name":"Tennessee","lat":36.44512,"lng":-88.16288,"zip":"38222","miles_from_dt":18.28},{"city":"Gilbertsville","state_name":"Kentucky","lat":36.95744,"lng":-88.26417,"zip":"42044","miles_from_dt":18.56},{"city":"Symsonia","state_name":"Kentucky","lat":36.91618,"lng":-88.50092,"zip":"42082","miles_from_dt":19.49},{"city":"Mayfield","state_name":"Kentucky","lat":36.73328,"lng":-88.6403,"zip":"42066","miles_from_dt":19.61},{"city":"Calvert City","state_name":"Kentucky","lat":37.00963,"lng":-88.38947,"zip":"42029","miles_from_dt":22.76},{"city":"Hickory","state_name":"Kentucky","lat":36.85629,"lng":-88.64522,"zip":"42051","miles_from_dt":22.76},{"city":"Cottage Grove","state_name":"Tennessee","lat":36.39172,"lng":-88.48774,"zip":"38224","miles_from_dt":23.23},{"city":"Boaz","state_name":"Kentucky","lat":36.91585,"lng":-88.63018,"zip":"42027","miles_from_dt":24.44},{"city":"Palmersville","state_name":"Tennessee","lat":36.42852,"lng":-88.58964,"zip":"38241","miles_from_dt":24.46},{"city":"Bumpus Mills","state_name":"Tennessee","lat":36.62793,"lng":-87.85723,"zip":"37028","miles_from_dt":24.49},{"city":"Como","state_name":"Tennessee","lat":36.35779,"lng":-88.4638,"zip":"38223","miles_from_dt":24.78},{"city":"Dukedom","state_name":"Tennessee","lat":36.47722,"lng":-88.66382,"zip":"38226","miles_from_dt":25.34},{"city":"Wingo","state_name":"Kentucky","lat":36.61808,"lng":-88.75409,"zip":"42088","miles_from_dt":26.17},{"city":"Paris","state_name":"Tennessee","lat":36.3076,"lng":-88.33244,"zip":"38242","miles_from_dt":26.41},{"city":"Grand Rivers","state_name":"Kentucky","lat":37.072,"lng":-88.26453,"zip":"42045","miles_from_dt":26.44},{"city":"Cadiz","state_name":"Kentucky","lat":36.82016,"lng":-87.83709,"zip":"42211","miles_from_dt":26.78},{"city":"Ledbetter","state_name":"Kentucky","lat":37.05329,"lng":-88.4714,"zip":"42058","miles_from_dt":27.02},{"city":"Dover","state_name":"Tennessee","lat":36.47872,"lng":-87.8807,"zip":"37058","miles_from_dt":27.06},{"city":"Kuttawa","state_name":"Kentucky","lat":37.06959,"lng":-88.16765,"zip":"42055","miles_from_dt":27.12},{"city":"Paducah","state_name":"Kentucky","lat":37.00653,"lng":-88.58472,"zip":"42003","miles_from_dt":27.26},{"city":"Springville","state_name":"Tennessee","lat":36.31388,"lng":-88.12539,"zip":"38256","miles_from_dt":27.48},{"city":"Eddyville","state_name":"Kentucky","lat":37.04137,"lng":-88.02364,"zip":"42038","miles_from_dt":28.46},{"city":"Big Rock","state_name":"Tennessee","lat":36.58409,"lng":-87.78302,"zip":"37023","miles_from_dt":29.17},{"city":"Water Valley","state_name":"Kentucky","lat":36.56942,"lng":-88.80044,"zip":"42085","miles_from_dt":29.47},{"city":"Lowes","state_name":"Kentucky","lat":36.88262,"lng":-88.76959,"zip":"42061","miles_from_dt":29.69}],"targetCityZipCode":"42020","targetCityState":"Kentucky"},"__N_SSG":true}