{"pageProps":{"stateName":"Kentucky","cityName":"annville","nearbyCities":[{"city":"Gray Hawk","state_name":"Kentucky","lat":37.39364,"lng":-83.93949,"zip":"40434","miles_from_dt":6.9},{"city":"Tyner","state_name":"Kentucky","lat":37.37238,"lng":-83.86123,"zip":"40486","miles_from_dt":7.95},{"city":"East Bernstadt","state_name":"Kentucky","lat":37.2435,"lng":-84.14788,"zip":"40729","miles_from_dt":10.46},{"city":"Sandgap","state_name":"Kentucky","lat":37.42658,"lng":-84.09116,"zip":"40481","miles_from_dt":11.17},{"city":"Fall Rock","state_name":"Kentucky","lat":37.21991,"lng":-83.78907,"zip":"40932","miles_from_dt":11.29},{"city":"McKee","state_name":"Kentucky","lat":37.45496,"lng":-84.0299,"zip":"40447","miles_from_dt":11.4},{"city":"Pittsburg","state_name":"Kentucky","lat":37.15958,"lng":-84.1041,"zip":"40755","miles_from_dt":12},{"city":"Sextons Creek","state_name":"Kentucky","lat":37.34608,"lng":-83.75339,"zip":"40983","miles_from_dt":12.41},{"city":"Waneta","state_name":"Kentucky","lat":37.47481,"lng":-84.03829,"zip":"40488","miles_from_dt":12.85},{"city":"London","state_name":"Kentucky","lat":37.12917,"lng":-84.08234,"zip":"40743","miles_from_dt":13.1},{"city":"Livingston","state_name":"Kentucky","lat":37.3125,"lng":-84.21159,"zip":"40445","miles_from_dt":13.35},{"city":"London","state_name":"Kentucky","lat":37.13349,"lng":-84.11636,"zip":"40741","miles_from_dt":13.84},{"city":"Manchester","state_name":"Kentucky","lat":37.14912,"lng":-83.74922,"zip":"40962","miles_from_dt":15.87},{"city":"London","state_name":"Kentucky","lat":37.14339,"lng":-84.18706,"zip":"40750","miles_from_dt":15.96},{"city":"Vincent","state_name":"Kentucky","lat":37.47992,"lng":-83.79273,"zip":"41386","miles_from_dt":15.97},{"city":"Orlando","state_name":"Kentucky","lat":37.39385,"lng":-84.23985,"zip":"40460","miles_from_dt":16.3},{"city":"Hima","state_name":"Kentucky","lat":37.11844,"lng":-83.77473,"zip":"40951","miles_from_dt":16.34},{"city":"Bush","state_name":"Kentucky","lat":37.07756,"lng":-84.08286,"zip":"40724","miles_from_dt":16.34},{"city":"Garrard","state_name":"Kentucky","lat":37.12981,"lng":-83.74585,"zip":"40941","miles_from_dt":16.89},{"city":"London","state_name":"Kentucky","lat":37.08879,"lng":-84.14358,"zip":"40745","miles_from_dt":17.24},{"city":"London","state_name":"Kentucky","lat":37.08965,"lng":-84.14659,"zip":"40742","miles_from_dt":17.28},{"city":"Ricetown","state_name":"Kentucky","lat":37.37569,"lng":-83.64172,"zip":"41364","miles_from_dt":18.89},{"city":"London","state_name":"Kentucky","lat":37.03841,"lng":-84.08864,"zip":"40744","miles_from_dt":18.97},{"city":"Lily","state_name":"Kentucky","lat":37.02111,"lng":-84.03888,"zip":"40740","miles_from_dt":19.38},{"city":"Mount Vernon","state_name":"Kentucky","lat":37.3538,"lng":-84.32099,"zip":"40456","miles_from_dt":19.72},{"city":"Wildie","state_name":"Kentucky","lat":37.42057,"lng":-84.2997,"zip":"40492","miles_from_dt":20.06},{"city":"Oneida","state_name":"Kentucky","lat":37.24501,"lng":-83.60692,"zip":"40972","miles_from_dt":20.33},{"city":"Booneville","state_name":"Kentucky","lat":37.44008,"lng":-83.63743,"zip":"41314","miles_from_dt":20.81},{"city":"Renfro Valley","state_name":"Kentucky","lat":37.38853,"lng":-84.33044,"zip":"40473","miles_from_dt":20.83},{"city":"Mistletoe","state_name":"Kentucky","lat":37.32754,"lng":-83.59363,"zip":"41351","miles_from_dt":20.85},{"city":"Goose Rock","state_name":"Kentucky","lat":37.09008,"lng":-83.69306,"zip":"40944","miles_from_dt":20.89},{"city":"Keavy","state_name":"Kentucky","lat":37.00838,"lng":-84.13902,"zip":"40737","miles_from_dt":21.96},{"city":"Bighill","state_name":"Kentucky","lat":37.55775,"lng":-84.20809,"zip":"40405","miles_from_dt":22.26},{"city":"Beattyville","state_name":"Kentucky","lat":37.57896,"lng":-83.72163,"zip":"41311","miles_from_dt":23.79},{"city":"Girdler","state_name":"Kentucky","lat":36.95494,"lng":-83.85631,"zip":"40943","miles_from_dt":24.39},{"city":"Corbin","state_name":"Kentucky","lat":36.95072,"lng":-84.08678,"zip":"40702","miles_from_dt":24.71},{"city":"Green Road","state_name":"Kentucky","lat":36.95757,"lng":-83.82467,"zip":"40946","miles_from_dt":24.72},{"city":"Berea","state_name":"Kentucky","lat":37.57052,"lng":-84.26622,"zip":"40403","miles_from_dt":24.94},{"city":"Gray","state_name":"Kentucky","lat":36.92642,"lng":-83.96609,"zip":"40734","miles_from_dt":25.53},{"city":"Brodhead","state_name":"Kentucky","lat":37.37667,"lng":-84.42971,"zip":"40409","miles_from_dt":25.9},{"city":"Buckhorn","state_name":"Kentucky","lat":37.31371,"lng":-83.49949,"zip":"41721","miles_from_dt":25.95},{"city":"Berea","state_name":"Kentucky","lat":37.57311,"lng":-84.29037,"zip":"40404","miles_from_dt":25.96},{"city":"Lone","state_name":"Kentucky","lat":37.53286,"lng":-83.60177,"zip":"41347","miles_from_dt":26},{"city":"Hinkle","state_name":"Kentucky","lat":36.93771,"lng":-83.80163,"zip":"40953","miles_from_dt":26.44},{"city":"Saint Helens","state_name":"Kentucky","lat":37.57933,"lng":-83.64406,"zip":"41368","miles_from_dt":26.49},{"city":"Big Creek","state_name":"Kentucky","lat":37.0932,"lng":-83.56154,"zip":"40914","miles_from_dt":26.55},{"city":"Sizerock","state_name":"Kentucky","lat":37.20742,"lng":-83.50077,"zip":"41762","miles_from_dt":26.59},{"city":"Irvine","state_name":"Kentucky","lat":37.68352,"lng":-83.9832,"zip":"40336","miles_from_dt":26.69},{"city":"Saul","state_name":"Kentucky","lat":37.27792,"lng":-83.48531,"zip":"40981","miles_from_dt":26.74},{"city":"Cannon","state_name":"Kentucky","lat":36.92059,"lng":-83.84923,"zip":"40923","miles_from_dt":26.78},{"city":"Bear Branch","state_name":"Kentucky","lat":37.16519,"lng":-83.5075,"zip":"41714","miles_from_dt":27.07},{"city":"Heidrick","state_name":"Kentucky","lat":36.90253,"lng":-83.86717,"zip":"40949","miles_from_dt":27.77},{"city":"Corbin","state_name":"Kentucky","lat":36.91759,"lng":-84.16651,"zip":"40701","miles_from_dt":28.3},{"city":"Barbourville","state_name":"Kentucky","lat":36.88828,"lng":-83.87546,"zip":"40906","miles_from_dt":28.64},{"city":"Bimble","state_name":"Kentucky","lat":36.89235,"lng":-83.82025,"zip":"40915","miles_from_dt":29.08},{"city":"Scalf","state_name":"Kentucky","lat":36.93241,"lng":-83.69421,"zip":"40982","miles_from_dt":29.38},{"city":"Ravenna","state_name":"Kentucky","lat":37.71841,"lng":-83.87562,"zip":"40472","miles_from_dt":29.55},{"city":"Thousandsticks","state_name":"Kentucky","lat":37.18526,"lng":-83.44443,"zip":"41766","miles_from_dt":29.98}],"targetCityZipCode":"40402","targetCityState":"Kentucky"},"__N_SSG":true}