{"pageProps":{"stateName":"Kentucky","cityName":"bee-spring","nearbyCities":[{"city":"Sweeden","state_name":"Kentucky","lat":37.26418,"lng":-86.29751,"zip":"42285","miles_from_dt":2.91},{"city":"Brownsville","state_name":"Kentucky","lat":37.21724,"lng":-86.31438,"zip":"42210","miles_from_dt":6.27},{"city":"Mammoth Cave","state_name":"Kentucky","lat":37.23524,"lng":-86.17206,"zip":"42259","miles_from_dt":7.53},{"city":"Cub Run","state_name":"Kentucky","lat":37.30167,"lng":-86.09719,"zip":"42729","miles_from_dt":9.99},{"city":"Roundhill","state_name":"Kentucky","lat":37.22701,"lng":-86.44628,"zip":"42275","miles_from_dt":10.64},{"city":"Clarkson","state_name":"Kentucky","lat":37.42423,"lng":-86.15035,"zip":"42726","miles_from_dt":10.91},{"city":"Leitchfield","state_name":"Kentucky","lat":37.47843,"lng":-86.29141,"zip":"42755","miles_from_dt":12.08},{"city":"Millwood","state_name":"Kentucky","lat":37.45366,"lng":-86.39527,"zip":"42762","miles_from_dt":12.18},{"city":"Leitchfield","state_name":"Kentucky","lat":37.47814,"lng":-86.31379,"zip":"42754","miles_from_dt":12.19},{"city":"Jetson","state_name":"Kentucky","lat":37.23713,"lng":-86.50029,"zip":"42252","miles_from_dt":13.05},{"city":"Caneyville","state_name":"Kentucky","lat":37.42173,"lng":-86.49593,"zip":"42721","miles_from_dt":14.48},{"city":"Rocky Hill","state_name":"Kentucky","lat":37.07968,"lng":-86.13466,"zip":"42163","miles_from_dt":17.36},{"city":"Park City","state_name":"Kentucky","lat":37.10339,"lng":-86.08035,"zip":"42160","miles_from_dt":17.61},{"city":"Big Clifty","state_name":"Kentucky","lat":37.56098,"lng":-86.15791,"zip":"42712","miles_from_dt":18.95},{"city":"Munfordville","state_name":"Kentucky","lat":37.30699,"lng":-85.93115,"zip":"42765","miles_from_dt":19.14},{"city":"Smiths Grove","state_name":"Kentucky","lat":37.03609,"lng":-86.16728,"zip":"42171","miles_from_dt":19.44},{"city":"Bowling Green","state_name":"Kentucky","lat":37.06552,"lng":-86.47809,"zip":"42101","miles_from_dt":19.77},{"city":"White Mills","state_name":"Kentucky","lat":37.52774,"lng":-86.0372,"zip":"42788","miles_from_dt":20.38},{"city":"Oakland","state_name":"Kentucky","lat":36.99594,"lng":-86.24771,"zip":"42159","miles_from_dt":21.28},{"city":"Woodbury","state_name":"Kentucky","lat":37.18172,"lng":-86.6362,"zip":"42288","miles_from_dt":21.43},{"city":"Upton","state_name":"Kentucky","lat":37.4503,"lng":-85.92272,"zip":"42784","miles_from_dt":22.04},{"city":"Morgantown","state_name":"Kentucky","lat":37.22405,"lng":-86.67015,"zip":"42261","miles_from_dt":22.27},{"city":"Bonnieville","state_name":"Kentucky","lat":37.37631,"lng":-85.88282,"zip":"42713","miles_from_dt":22.36},{"city":"Aberdeen","state_name":"Kentucky","lat":37.25362,"lng":-86.68473,"zip":"42201","miles_from_dt":22.65},{"city":"Eastview","state_name":"Kentucky","lat":37.61,"lng":-86.11235,"zip":"42732","miles_from_dt":23.02},{"city":"Cave City","state_name":"Kentucky","lat":37.12167,"lng":-85.92746,"zip":"42127","miles_from_dt":23.07},{"city":"McDaniels","state_name":"Kentucky","lat":37.61389,"lng":-86.44185,"zip":"40152","miles_from_dt":23.21},{"city":"Horse Branch","state_name":"Kentucky","lat":37.42695,"lng":-86.67425,"zip":"42349","miles_from_dt":23.38},{"city":"Horse Cave","state_name":"Kentucky","lat":37.18983,"lng":-85.87516,"zip":"42749","miles_from_dt":23.58},{"city":"Hudson","state_name":"Kentucky","lat":37.64607,"lng":-86.32019,"zip":"40145","miles_from_dt":23.73},{"city":"Sonora","state_name":"Kentucky","lat":37.51577,"lng":-85.91834,"zip":"42776","miles_from_dt":24.63},{"city":"Bowling Green","state_name":"Kentucky","lat":36.94802,"lng":-86.33396,"zip":"42103","miles_from_dt":24.71},{"city":"Bowling Green","state_name":"Kentucky","lat":36.95269,"lng":-86.40192,"zip":"42102","miles_from_dt":25.14},{"city":"Westview","state_name":"Kentucky","lat":37.65834,"lng":-86.40853,"zip":"40178","miles_from_dt":25.49},{"city":"Falls Of Rough","state_name":"Kentucky","lat":37.60799,"lng":-86.54925,"zip":"40119","miles_from_dt":25.73},{"city":"Cromwell","state_name":"Kentucky","lat":37.37718,"lng":-86.75609,"zip":"42333","miles_from_dt":26.78},{"city":"Glendale","state_name":"Kentucky","lat":37.59174,"lng":-85.94358,"zip":"42740","miles_from_dt":27.1},{"city":"Olaton","state_name":"Kentucky","lat":37.51791,"lng":-86.69183,"zip":"42361","miles_from_dt":27.12},{"city":"Rosine","state_name":"Kentucky","lat":37.4497,"lng":-86.74121,"zip":"42370","miles_from_dt":27.38},{"city":"Dunbar","state_name":"Kentucky","lat":37.16422,"lng":-86.74949,"zip":"42219","miles_from_dt":27.69},{"city":"Cecilia","state_name":"Kentucky","lat":37.67293,"lng":-86.06461,"zip":"42724","miles_from_dt":28.06},{"city":"Garfield","state_name":"Kentucky","lat":37.71867,"lng":-86.29047,"zip":"40140","miles_from_dt":28.63},{"city":"Hiseville","state_name":"Kentucky","lat":37.09871,"lng":-85.81184,"zip":"42152","miles_from_dt":29.37},{"city":"Glasgow","state_name":"Kentucky","lat":36.99761,"lng":-85.9063,"zip":"42142","miles_from_dt":29.45}],"targetCityZipCode":"42207","targetCityState":"Kentucky"},"__N_SSG":true}