{"pageProps":{"stateName":"Kentucky","cityName":"bighill","nearbyCities":[{"city":"Berea","state_name":"Kentucky","lat":37.57052,"lng":-84.26622,"zip":"40403","miles_from_dt":3.31},{"city":"Berea","state_name":"Kentucky","lat":37.57311,"lng":-84.29037,"zip":"40404","miles_from_dt":4.64},{"city":"Wildie","state_name":"Kentucky","lat":37.42057,"lng":-84.2997,"zip":"40492","miles_from_dt":10.72},{"city":"Waneta","state_name":"Kentucky","lat":37.47481,"lng":-84.03829,"zip":"40488","miles_from_dt":10.94},{"city":"Sandgap","state_name":"Kentucky","lat":37.42658,"lng":-84.09116,"zip":"40481","miles_from_dt":11.1},{"city":"Paint Lick","state_name":"Kentucky","lat":37.59014,"lng":-84.40849,"zip":"40461","miles_from_dt":11.22},{"city":"Orlando","state_name":"Kentucky","lat":37.39385,"lng":-84.23985,"zip":"40460","miles_from_dt":11.44},{"city":"McKee","state_name":"Kentucky","lat":37.45496,"lng":-84.0299,"zip":"40447","miles_from_dt":12.09},{"city":"Waco","state_name":"Kentucky","lat":37.73866,"lng":-84.13085,"zip":"40385","miles_from_dt":13.18},{"city":"Renfro Valley","state_name":"Kentucky","lat":37.38853,"lng":-84.33044,"zip":"40473","miles_from_dt":13.47},{"city":"Richmond","state_name":"Kentucky","lat":37.74898,"lng":-84.29351,"zip":"40476","miles_from_dt":14},{"city":"Irvine","state_name":"Kentucky","lat":37.68352,"lng":-83.9832,"zip":"40336","miles_from_dt":15.08},{"city":"Richmond","state_name":"Kentucky","lat":37.7635,"lng":-84.30828,"zip":"40475","miles_from_dt":15.22},{"city":"Mount Vernon","state_name":"Kentucky","lat":37.3538,"lng":-84.32099,"zip":"40456","miles_from_dt":15.37},{"city":"Livingston","state_name":"Kentucky","lat":37.3125,"lng":-84.21159,"zip":"40445","miles_from_dt":16.91},{"city":"Crab Orchard","state_name":"Kentucky","lat":37.44791,"lng":-84.49204,"zip":"40419","miles_from_dt":17.34},{"city":"Brodhead","state_name":"Kentucky","lat":37.37667,"lng":-84.42971,"zip":"40409","miles_from_dt":17.45},{"city":"Gray Hawk","state_name":"Kentucky","lat":37.39364,"lng":-83.93949,"zip":"40434","miles_from_dt":18.6},{"city":"Ravenna","state_name":"Kentucky","lat":37.71841,"lng":-83.87562,"zip":"40472","miles_from_dt":21.34},{"city":"East Bernstadt","state_name":"Kentucky","lat":37.2435,"lng":-84.14788,"zip":"40729","miles_from_dt":21.92},{"city":"Annville","state_name":"Kentucky","lat":37.29663,"lng":-83.97008,"zip":"40402","miles_from_dt":22.26},{"city":"Lancaster","state_name":"Kentucky","lat":37.67893,"lng":-84.58819,"zip":"40444","miles_from_dt":22.46},{"city":"Tyner","state_name":"Kentucky","lat":37.37238,"lng":-83.86123,"zip":"40486","miles_from_dt":22.96},{"city":"Vincent","state_name":"Kentucky","lat":37.47992,"lng":-83.79273,"zip":"41386","miles_from_dt":23.44},{"city":"Clay City","state_name":"Kentucky","lat":37.84386,"lng":-83.93013,"zip":"40312","miles_from_dt":24.93},{"city":"Stanford","state_name":"Kentucky","lat":37.5153,"lng":-84.676,"zip":"40484","miles_from_dt":25.86},{"city":"Bryantsville","state_name":"Kentucky","lat":37.71387,"lng":-84.64697,"zip":"40410","miles_from_dt":26.37},{"city":"Beattyville","state_name":"Kentucky","lat":37.57896,"lng":-83.72163,"zip":"41311","miles_from_dt":26.74},{"city":"Waynesburg","state_name":"Kentucky","lat":37.36629,"lng":-84.64435,"zip":"40489","miles_from_dt":27.38},{"city":"Lexington","state_name":"Kentucky","lat":37.92021,"lng":-84.4152,"zip":"40515","miles_from_dt":27.45},{"city":"Pittsburg","state_name":"Kentucky","lat":37.15958,"lng":-84.1041,"zip":"40755","miles_from_dt":28.05},{"city":"London","state_name":"Kentucky","lat":37.14339,"lng":-84.18706,"zip":"40750","miles_from_dt":28.6},{"city":"Winchester","state_name":"Kentucky","lat":37.96969,"lng":-84.14507,"zip":"40391","miles_from_dt":28.62},{"city":"Sextons Creek","state_name":"Kentucky","lat":37.34608,"lng":-83.75339,"zip":"40983","miles_from_dt":28.95},{"city":"Nicholasville","state_name":"Kentucky","lat":37.87307,"lng":-84.56554,"zip":"40356","miles_from_dt":29.26},{"city":"Stanton","state_name":"Kentucky","lat":37.81965,"lng":-83.78006,"zip":"40380","miles_from_dt":29.61},{"city":"London","state_name":"Kentucky","lat":37.13349,"lng":-84.11636,"zip":"40741","miles_from_dt":29.69},{"city":"Winchester","state_name":"Kentucky","lat":37.98845,"lng":-84.17849,"zip":"40392","miles_from_dt":29.75},{"city":"Eubank","state_name":"Kentucky","lat":37.26441,"lng":-84.60454,"zip":"42567","miles_from_dt":29.75},{"city":"Nicholasville","state_name":"Kentucky","lat":37.87826,"lng":-84.57803,"zip":"40340","miles_from_dt":29.99}],"targetCityZipCode":"40405","targetCityState":"Kentucky"},"__N_SSG":true}