{"pageProps":{"stateName":"Kentucky","cityName":"blaine","nearbyCities":[{"city":"Mazie","state_name":"Kentucky","lat":38.03389,"lng":-82.85851,"zip":"41160","miles_from_dt":0.94},{"city":"Adams","state_name":"Kentucky","lat":38.06201,"lng":-82.7576,"zip":"41201","miles_from_dt":5.82},{"city":"Keaton","state_name":"Kentucky","lat":37.97853,"lng":-82.9562,"zip":"41226","miles_from_dt":6.45},{"city":"Martha","state_name":"Kentucky","lat":38.01305,"lng":-82.96993,"zip":"41159","miles_from_dt":6.51},{"city":"Flatgap","state_name":"Kentucky","lat":37.92586,"lng":-82.90882,"zip":"41219","miles_from_dt":7.31},{"city":"Sitka","state_name":"Kentucky","lat":37.91014,"lng":-82.83765,"zip":"41255","miles_from_dt":7.71},{"city":"Webbville","state_name":"Kentucky","lat":38.13358,"lng":-82.85999,"zip":"41180","miles_from_dt":7.75},{"city":"Stambaugh","state_name":"Kentucky","lat":37.91372,"lng":-82.8044,"zip":"41257","miles_from_dt":7.86},{"city":"Lowmansville","state_name":"Kentucky","lat":37.93602,"lng":-82.74007,"zip":"41232","miles_from_dt":8.46},{"city":"Louisa","state_name":"Kentucky","lat":38.0656,"lng":-82.66196,"zip":"41230","miles_from_dt":10.76},{"city":"Ulysses","state_name":"Kentucky","lat":37.94021,"lng":-82.677,"zip":"41264","miles_from_dt":11.04},{"city":"Wittensville","state_name":"Kentucky","lat":37.86174,"lng":-82.81164,"zip":"41274","miles_from_dt":11.23},{"city":"Isonville","state_name":"Kentucky","lat":38.06008,"lng":-83.05438,"zip":"41149","miles_from_dt":11.4},{"city":"River","state_name":"Kentucky","lat":37.8845,"lng":-82.72711,"zip":"41254","miles_from_dt":11.63},{"city":"Tutor Key","state_name":"Kentucky","lat":37.85717,"lng":-82.76256,"zip":"41263","miles_from_dt":12.32},{"city":"Willard","state_name":"Kentucky","lat":38.20758,"lng":-82.87425,"zip":"41181","miles_from_dt":12.9},{"city":"Crockett","state_name":"Kentucky","lat":37.98747,"lng":-83.09117,"zip":"41413","miles_from_dt":13.31},{"city":"Oil Springs","state_name":"Kentucky","lat":37.83943,"lng":-82.95072,"zip":"41238","miles_from_dt":13.68},{"city":"Staffordsville","state_name":"Kentucky","lat":37.82446,"lng":-82.88135,"zip":"41256","miles_from_dt":13.69},{"city":"Sandy Hook","state_name":"Kentucky","lat":38.09336,"lng":-83.08901,"zip":"41171","miles_from_dt":13.89},{"city":"Paintsville","state_name":"Kentucky","lat":37.82103,"lng":-82.78927,"zip":"41240","miles_from_dt":14.23},{"city":"Thelma","state_name":"Kentucky","lat":37.82253,"lng":-82.75126,"zip":"41260","miles_from_dt":14.77},{"city":"Williamsport","state_name":"Kentucky","lat":37.82773,"lng":-82.72453,"zip":"41271","miles_from_dt":15.05},{"city":"Denton","state_name":"Kentucky","lat":38.25667,"lng":-82.8314,"zip":"41132","miles_from_dt":16.26},{"city":"West Van Lear","state_name":"Kentucky","lat":37.78797,"lng":-82.78433,"zip":"41268","miles_from_dt":16.51},{"city":"Meally","state_name":"Kentucky","lat":37.79654,"lng":-82.74161,"zip":"41234","miles_from_dt":16.63},{"city":"Boons Camp","state_name":"Kentucky","lat":37.81784,"lng":-82.6843,"zip":"41204","miles_from_dt":16.74},{"city":"Hagerhill","state_name":"Kentucky","lat":37.77036,"lng":-82.85032,"zip":"41222","miles_from_dt":17.32},{"city":"Tomahawk","state_name":"Kentucky","lat":37.85112,"lng":-82.61377,"zip":"41262","miles_from_dt":17.5},{"city":"Hitchins","state_name":"Kentucky","lat":38.27701,"lng":-82.88969,"zip":"41146","miles_from_dt":17.75},{"city":"Elkfork","state_name":"Kentucky","lat":37.99027,"lng":-83.17397,"zip":"41421","miles_from_dt":17.75},{"city":"Falcon","state_name":"Kentucky","lat":37.78872,"lng":-83.00004,"zip":"41426","miles_from_dt":18},{"city":"Fort Gay","state_name":"West Virginia","lat":38.08136,"lng":-82.51678,"zip":"25514","miles_from_dt":18.7},{"city":"Van Lear","state_name":"Kentucky","lat":37.75424,"lng":-82.70446,"zip":"41265","miles_from_dt":20.1},{"city":"East Point","state_name":"Kentucky","lat":37.73016,"lng":-82.81308,"zip":"41216","miles_from_dt":20.2},{"city":"Rush","state_name":"Kentucky","lat":38.30732,"lng":-82.76992,"zip":"41168","miles_from_dt":20.21},{"city":"Auxier","state_name":"Kentucky","lat":37.7387,"lng":-82.75249,"zip":"41602","miles_from_dt":20.24},{"city":"Debord","state_name":"Kentucky","lat":37.79448,"lng":-82.59839,"zip":"41214","miles_from_dt":20.88},{"city":"West Liberty","state_name":"Kentucky","lat":37.94179,"lng":-83.22334,"zip":"41472","miles_from_dt":21.05},{"city":"Grahn","state_name":"Kentucky","lat":38.27774,"lng":-83.07308,"zip":"41142","miles_from_dt":21.41},{"city":"Prichard","state_name":"West Virginia","lat":38.23525,"lng":-82.55913,"zip":"25555","miles_from_dt":21.69},{"city":"Inez","state_name":"Kentucky","lat":37.82089,"lng":-82.53936,"zip":"41224","miles_from_dt":21.95},{"city":"Genoa","state_name":"West Virginia","lat":38.10989,"lng":-82.45368,"zip":"25517","miles_from_dt":22.52},{"city":"Crum","state_name":"West Virginia","lat":37.93186,"lng":-82.4519,"zip":"25669","miles_from_dt":22.66},{"city":"Grayson","state_name":"Kentucky","lat":38.33916,"lng":-82.97704,"zip":"41143","miles_from_dt":22.96},{"city":"Catlettsburg","state_name":"Kentucky","lat":38.31755,"lng":-82.64073,"zip":"41129","miles_from_dt":23.42},{"city":"Salyersville","state_name":"Kentucky","lat":37.72985,"lng":-83.08494,"zip":"41465","miles_from_dt":23.83},{"city":"Beauty","state_name":"Kentucky","lat":37.85241,"lng":-82.46112,"zip":"41203","miles_from_dt":24.29},{"city":"Malone","state_name":"Kentucky","lat":37.87383,"lng":-83.25871,"zip":"41451","miles_from_dt":24.48},{"city":"Wrigley","state_name":"Kentucky","lat":37.98626,"lng":-83.30239,"zip":"41477","miles_from_dt":24.74},{"city":"Warfield","state_name":"Kentucky","lat":37.87514,"lng":-82.43591,"zip":"41267","miles_from_dt":24.82},{"city":"Olive Hill","state_name":"Kentucky","lat":38.28914,"lng":-83.16231,"zip":"41164","miles_from_dt":25.06},{"city":"Prestonsburg","state_name":"Kentucky","lat":37.6603,"lng":-82.76466,"zip":"41653","miles_from_dt":25.36},{"city":"Elliottville","state_name":"Kentucky","lat":38.18273,"lng":-83.27658,"zip":"40317","miles_from_dt":25.71},{"city":"Royalton","state_name":"Kentucky","lat":37.65974,"lng":-82.97201,"zip":"41464","miles_from_dt":25.81},{"city":"Dunlow","state_name":"West Virginia","lat":38.03194,"lng":-82.35637,"zip":"25511","miles_from_dt":27},{"city":"Blue River","state_name":"Kentucky","lat":37.62216,"lng":-82.8438,"zip":"41607","miles_from_dt":27.54},{"city":"Wayne","state_name":"West Virginia","lat":38.23508,"lng":-82.41927,"zip":"25570","miles_from_dt":27.76},{"city":"Kenova","state_name":"West Virginia","lat":38.35629,"lng":-82.56337,"zip":"25530","miles_from_dt":27.91},{"city":"Dwale","state_name":"Kentucky","lat":37.6269,"lng":-82.72663,"zip":"41621","miles_from_dt":28.05},{"city":"Ashland","state_name":"Kentucky","lat":38.42045,"lng":-82.72425,"zip":"41102","miles_from_dt":28.37},{"city":"Huntington","state_name":"West Virginia","lat":38.33898,"lng":-82.51843,"zip":"25770","miles_from_dt":28.42},{"city":"Huntington","state_name":"West Virginia","lat":38.3406,"lng":-82.51815,"zip":"25779","miles_from_dt":28.52},{"city":"Cannel City","state_name":"Kentucky","lat":37.79508,"lng":-83.28828,"zip":"41408","miles_from_dt":28.54},{"city":"Huntington","state_name":"West Virginia","lat":38.34177,"lng":-82.51748,"zip":"25771","miles_from_dt":28.6},{"city":"Pilgrim","state_name":"Kentucky","lat":37.73511,"lng":-82.46079,"zip":"41250","miles_from_dt":29.08},{"city":"Allen","state_name":"Kentucky","lat":37.60969,"lng":-82.72037,"zip":"41601","miles_from_dt":29.29},{"city":"Huntington","state_name":"West Virginia","lat":38.34969,"lng":-82.50693,"zip":"25704","miles_from_dt":29.39},{"city":"Kermit","state_name":"West Virginia","lat":37.87114,"lng":-82.34672,"zip":"25674","miles_from_dt":29.44},{"city":"Shoals","state_name":"West Virginia","lat":38.32627,"lng":-82.47241,"zip":"25562","miles_from_dt":29.45},{"city":"Soldier","state_name":"Kentucky","lat":38.26011,"lng":-83.29949,"zip":"41173","miles_from_dt":29.45},{"city":"Argillite","state_name":"Kentucky","lat":38.44911,"lng":-82.83032,"zip":"41121","miles_from_dt":29.52},{"city":"Wilsondale","state_name":"West Virginia","lat":37.96297,"lng":-82.31493,"zip":"25699","miles_from_dt":29.55},{"city":"Lovely","state_name":"Kentucky","lat":37.79447,"lng":-82.38903,"zip":"41231","miles_from_dt":29.71},{"city":"Mize","state_name":"Kentucky","lat":37.82357,"lng":-83.33511,"zip":"41352","miles_from_dt":29.75},{"city":"Ashland","state_name":"Kentucky","lat":38.43069,"lng":-82.66744,"zip":"41105","miles_from_dt":29.94}],"targetCityZipCode":"41124","targetCityState":"Kentucky"},"__N_SSG":true}