{"pageProps":{"stateName":"Kentucky","cityName":"bryantsville","nearbyCities":[{"city":"Lancaster","state_name":"Kentucky","lat":37.67893,"lng":-84.58819,"zip":"40444","miles_from_dt":4.02},{"city":"Burgin","state_name":"Kentucky","lat":37.752,"lng":-84.76941,"zip":"40310","miles_from_dt":7.2},{"city":"Danville","state_name":"Kentucky","lat":37.64316,"lng":-84.7715,"zip":"40423","miles_from_dt":8.39},{"city":"Wilmore","state_name":"Kentucky","lat":37.85407,"lng":-84.67075,"zip":"40390","miles_from_dt":9.76},{"city":"Danville","state_name":"Kentucky","lat":37.64235,"lng":-84.80488,"zip":"40422","miles_from_dt":9.96},{"city":"Nicholasville","state_name":"Kentucky","lat":37.87307,"lng":-84.56554,"zip":"40356","miles_from_dt":11.85},{"city":"Nicholasville","state_name":"Kentucky","lat":37.87826,"lng":-84.57803,"zip":"40340","miles_from_dt":11.95},{"city":"Stanford","state_name":"Kentucky","lat":37.5153,"lng":-84.676,"zip":"40484","miles_from_dt":13.79},{"city":"Junction City","state_name":"Kentucky","lat":37.57628,"lng":-84.8322,"zip":"40440","miles_from_dt":13.9},{"city":"Harrodsburg","state_name":"Kentucky","lat":37.78912,"lng":-84.89016,"zip":"40330","miles_from_dt":14.29},{"city":"Paint Lick","state_name":"Kentucky","lat":37.59014,"lng":-84.40849,"zip":"40461","miles_from_dt":15.61},{"city":"Keene","state_name":"Kentucky","lat":37.94313,"lng":-84.64107,"zip":"40339","miles_from_dt":15.81},{"city":"Parksville","state_name":"Kentucky","lat":37.55579,"lng":-84.91148,"zip":"40464","miles_from_dt":18.15},{"city":"Salvisa","state_name":"Kentucky","lat":37.90899,"lng":-84.88537,"zip":"40372","miles_from_dt":18.74},{"city":"McKinney","state_name":"Kentucky","lat":37.45624,"lng":-84.75799,"zip":"40448","miles_from_dt":18.78},{"city":"Richmond","state_name":"Kentucky","lat":37.7635,"lng":-84.30828,"zip":"40475","miles_from_dt":18.86},{"city":"Lexington","state_name":"Kentucky","lat":37.92021,"lng":-84.4152,"zip":"40515","miles_from_dt":19.06},{"city":"Lexington","state_name":"Kentucky","lat":37.98279,"lng":-84.56352,"zip":"40514","miles_from_dt":19.1},{"city":"Mitchellsburg","state_name":"Kentucky","lat":37.59841,"lng":-84.9643,"zip":"40452","miles_from_dt":19.13},{"city":"Perryville","state_name":"Kentucky","lat":37.65158,"lng":-84.98782,"zip":"40468","miles_from_dt":19.17},{"city":"Richmond","state_name":"Kentucky","lat":37.74898,"lng":-84.29351,"zip":"40476","miles_from_dt":19.51},{"city":"Lexington","state_name":"Kentucky","lat":37.99012,"lng":-84.53308,"zip":"40524","miles_from_dt":20.04},{"city":"Lexington","state_name":"Kentucky","lat":37.98488,"lng":-84.514,"zip":"40523","miles_from_dt":20.06},{"city":"Crab Orchard","state_name":"Kentucky","lat":37.44791,"lng":-84.49204,"zip":"40419","miles_from_dt":20.22},{"city":"Lexington","state_name":"Kentucky","lat":37.98386,"lng":-84.48833,"zip":"40517","miles_from_dt":20.54},{"city":"Lexington","state_name":"Kentucky","lat":38.01626,"lng":-84.60694,"zip":"40513","miles_from_dt":20.97},{"city":"Lexington","state_name":"Kentucky","lat":38.0047,"lng":-84.53434,"zip":"40503","miles_from_dt":20.98},{"city":"Versailles","state_name":"Kentucky","lat":38.01022,"lng":-84.73919,"zip":"40383","miles_from_dt":21.05},{"city":"Hustonville","state_name":"Kentucky","lat":37.44531,"lng":-84.85486,"zip":"40437","miles_from_dt":21.75},{"city":"Berea","state_name":"Kentucky","lat":37.57311,"lng":-84.29037,"zip":"40404","miles_from_dt":21.83},{"city":"Lexington","state_name":"Kentucky","lat":37.98483,"lng":-84.42705,"zip":"40555","miles_from_dt":22.22},{"city":"Lexington","state_name":"Kentucky","lat":38.01376,"lng":-84.48189,"zip":"40502","miles_from_dt":22.57},{"city":"Mackville","state_name":"Kentucky","lat":37.77433,"lng":-85.05727,"zip":"40040","miles_from_dt":22.85},{"city":"Lexington","state_name":"Kentucky","lat":38.02222,"lng":-84.48971,"zip":"40522","miles_from_dt":22.94},{"city":"Lexington","state_name":"Kentucky","lat":38.02979,"lng":-84.50732,"zip":"40536","miles_from_dt":23.09},{"city":"Berea","state_name":"Kentucky","lat":37.57052,"lng":-84.26622,"zip":"40403","miles_from_dt":23.1},{"city":"Gravel Switch","state_name":"Kentucky","lat":37.56632,"lng":-85.02565,"zip":"40328","miles_from_dt":23.13},{"city":"Lexington","state_name":"Kentucky","lat":38.0388,"lng":-84.5425,"zip":"40533","miles_from_dt":23.13},{"city":"Lexington","state_name":"Kentucky","lat":38.03058,"lng":-84.50806,"zip":"40506","miles_from_dt":23.13},{"city":"Lexington","state_name":"Kentucky","lat":38.0297,"lng":-84.50153,"zip":"40526","miles_from_dt":23.19},{"city":"Lexington","state_name":"Kentucky","lat":38.04181,"lng":-84.54133,"zip":"40504","miles_from_dt":23.34},{"city":"Lexington","state_name":"Kentucky","lat":38.0425,"lng":-84.54158,"zip":"40544","miles_from_dt":23.39},{"city":"Lexington","state_name":"Kentucky","lat":38.03875,"lng":-84.50899,"zip":"40546","miles_from_dt":23.64},{"city":"Versailles","state_name":"Kentucky","lat":38.05198,"lng":-84.72598,"zip":"40384","miles_from_dt":23.72},{"city":"Waynesburg","state_name":"Kentucky","lat":37.36629,"lng":-84.64435,"zip":"40489","miles_from_dt":23.97},{"city":"Lexington","state_name":"Kentucky","lat":38.04614,"lng":-84.49865,"zip":"40588","miles_from_dt":24.31},{"city":"Lexington","state_name":"Kentucky","lat":38.04686,"lng":-84.49628,"zip":"40507","miles_from_dt":24.4},{"city":"Lexington","state_name":"Kentucky","lat":38.05,"lng":-84.50219,"zip":"40598","miles_from_dt":24.5},{"city":"Lexington","state_name":"Kentucky","lat":38.04806,"lng":-84.49367,"zip":"40591","miles_from_dt":24.52},{"city":"Lexington","state_name":"Kentucky","lat":38.05004,"lng":-84.50018,"zip":"40508","miles_from_dt":24.53},{"city":"Lexington","state_name":"Kentucky","lat":37.99408,"lng":-84.36791,"zip":"40509","miles_from_dt":24.62},{"city":"Lexington","state_name":"Kentucky","lat":38.07243,"lng":-84.60138,"zip":"40510","miles_from_dt":24.85},{"city":"Middleburg","state_name":"Kentucky","lat":37.37325,"lng":-84.80778,"zip":"42541","miles_from_dt":25.1},{"city":"Kings Mountain","state_name":"Kentucky","lat":37.35205,"lng":-84.72868,"zip":"40442","miles_from_dt":25.35},{"city":"Lexington","state_name":"Kentucky","lat":38.0715,"lng":-84.50298,"zip":"40577","miles_from_dt":25.89},{"city":"Lexington","state_name":"Kentucky","lat":38.06039,"lng":-84.45679,"zip":"40505","miles_from_dt":26.06},{"city":"Brodhead","state_name":"Kentucky","lat":37.37667,"lng":-84.42971,"zip":"40409","miles_from_dt":26.14},{"city":"Lexington","state_name":"Kentucky","lat":38.07823,"lng":-84.50307,"zip":"40578","miles_from_dt":26.33},{"city":"Bighill","state_name":"Kentucky","lat":37.55775,"lng":-84.20809,"zip":"40405","miles_from_dt":26.37},{"city":"Lawrenceburg","state_name":"Kentucky","lat":38.0036,"lng":-84.9837,"zip":"40342","miles_from_dt":27.17},{"city":"Wildie","state_name":"Kentucky","lat":37.42057,"lng":-84.2997,"zip":"40492","miles_from_dt":27.8},{"city":"Waco","state_name":"Kentucky","lat":37.73866,"lng":-84.13085,"zip":"40385","miles_from_dt":28.32},{"city":"Renfro Valley","state_name":"Kentucky","lat":37.38853,"lng":-84.33044,"zip":"40473","miles_from_dt":28.38},{"city":"Willisburg","state_name":"Kentucky","lat":37.84272,"lng":-85.14902,"zip":"40078","miles_from_dt":28.88},{"city":"Lexington","state_name":"Kentucky","lat":38.07366,"lng":-84.36631,"zip":"40516","miles_from_dt":29.17},{"city":"Bradfordsville","state_name":"Kentucky","lat":37.47075,"lng":-85.099,"zip":"40009","miles_from_dt":29.94}],"targetCityZipCode":"40410","targetCityState":"Kentucky"},"__N_SSG":true}