{"pageProps":{"stateName":"Kentucky","cityName":"burlington","nearbyCities":[{"city":"Petersburg","state_name":"Kentucky","lat":39.0493,"lng":-84.82938,"zip":"41080","miles_from_dt":4.51},{"city":"Hebron","state_name":"Kentucky","lat":39.066,"lng":-84.69989,"zip":"41021","miles_from_dt":5.38},{"city":"Union","state_name":"Kentucky","lat":38.92056,"lng":-84.7379,"zip":"41091","miles_from_dt":6.15},{"city":"Hebron","state_name":"Kentucky","lat":39.08366,"lng":-84.70585,"zip":"41048","miles_from_dt":6.18},{"city":"Florence","state_name":"Kentucky","lat":38.98595,"lng":-84.64906,"zip":"41042","miles_from_dt":6.43},{"city":"Florence","state_name":"Kentucky","lat":38.98976,"lng":-84.64282,"zip":"41022","miles_from_dt":6.71},{"city":"Erlanger","state_name":"Kentucky","lat":39.06016,"lng":-84.63269,"zip":"41025","miles_from_dt":8.02},{"city":"Mount Saint Joseph","state_name":"Ohio","lat":39.09983,"lng":-84.65504,"zip":"45051","miles_from_dt":8.73},{"city":"Erlanger","state_name":"Kentucky","lat":39.01546,"lng":-84.60282,"zip":"41018","miles_from_dt":8.77},{"city":"Cincinnati","state_name":"Ohio","lat":39.1191,"lng":-84.66559,"zip":"45233","miles_from_dt":9.41},{"city":"Addyston","state_name":"Ohio","lat":39.13713,"lng":-84.71045,"zip":"45001","miles_from_dt":9.44},{"city":"North Bend","state_name":"Ohio","lat":39.14505,"lng":-84.77849,"zip":"45052","miles_from_dt":9.54},{"city":"Rising Sun","state_name":"Indiana","lat":38.91703,"lng":-84.92809,"zip":"47040","miles_from_dt":10.74},{"city":"Aurora","state_name":"Indiana","lat":39.0579,"lng":-84.95689,"zip":"47001","miles_from_dt":10.88},{"city":"Cincinnati","state_name":"Ohio","lat":39.10927,"lng":-84.61053,"zip":"45238","miles_from_dt":10.91},{"city":"Ft Mitchell","state_name":"Kentucky","lat":39.02893,"lng":-84.56177,"zip":"41017","miles_from_dt":11.06},{"city":"Walton","state_name":"Kentucky","lat":38.88213,"lng":-84.62292,"zip":"41094","miles_from_dt":11.54},{"city":"Lawrenceburg","state_name":"Indiana","lat":39.15415,"lng":-84.87461,"zip":"47025","miles_from_dt":11.72},{"city":"Cincinnati","state_name":"Ohio","lat":39.14068,"lng":-84.62751,"zip":"45258","miles_from_dt":11.83},{"city":"Patriot","state_name":"Indiana","lat":38.84588,"lng":-84.84212,"zip":"47038","miles_from_dt":11.86},{"city":"Hooven","state_name":"Ohio","lat":39.17962,"lng":-84.76469,"zip":"45033","miles_from_dt":11.9},{"city":"Cincinnati","state_name":"Ohio","lat":39.09536,"lng":-84.57225,"zip":"45204","miles_from_dt":12.04},{"city":"Cincinnati","state_name":"Ohio","lat":39.16442,"lng":-84.66229,"zip":"45248","miles_from_dt":12.19},{"city":"Cincinnati","state_name":"Ohio","lat":39.11057,"lng":-84.57518,"zip":"45205","miles_from_dt":12.48},{"city":"Covington","state_name":"Kentucky","lat":39.08701,"lng":-84.5487,"zip":"41016","miles_from_dt":12.9},{"city":"Independence","state_name":"Kentucky","lat":38.93233,"lng":-84.54451,"zip":"41051","miles_from_dt":12.97},{"city":"Covington","state_name":"Kentucky","lat":39.06885,"lng":-84.53293,"zip":"41012","miles_from_dt":13.21},{"city":"Covington","state_name":"Kentucky","lat":39.06802,"lng":-84.53065,"zip":"41011","miles_from_dt":13.31},{"city":"Cleves","state_name":"Ohio","lat":39.19871,"lng":-84.73422,"zip":"45002","miles_from_dt":13.32},{"city":"Covington","state_name":"Kentucky","lat":39.06964,"lng":-84.52981,"zip":"41019","miles_from_dt":13.39},{"city":"Verona","state_name":"Kentucky","lat":38.81811,"lng":-84.70115,"zip":"41092","miles_from_dt":13.49},{"city":"Cincinnati","state_name":"Ohio","lat":39.15746,"lng":-84.59888,"zip":"45211","miles_from_dt":13.7},{"city":"Cincinnati","state_name":"Ohio","lat":39.10092,"lng":-84.53588,"zip":"45270","miles_from_dt":13.94},{"city":"Cincinnati","state_name":"Ohio","lat":39.10437,"lng":-84.53787,"zip":"45264","miles_from_dt":13.96},{"city":"Cincinnati","state_name":"Ohio","lat":39.11899,"lng":-84.54792,"zip":"45250","miles_from_dt":14.01},{"city":"Cincinnati","state_name":"Ohio","lat":39.10624,"lng":-84.53487,"zip":"45269","miles_from_dt":14.16},{"city":"Cincinnati","state_name":"Ohio","lat":39.10403,"lng":-84.53337,"zip":"45203","miles_from_dt":14.16},{"city":"Cincinnati","state_name":"Ohio","lat":39.1037,"lng":-84.53283,"zip":"45296","miles_from_dt":14.17},{"city":"Cincinnati","state_name":"Ohio","lat":39.10798,"lng":-84.53418,"zip":"45263","miles_from_dt":14.25},{"city":"Cincinnati","state_name":"Ohio","lat":39.12209,"lng":-84.54413,"zip":"45262","miles_from_dt":14.3},{"city":"Cincinnati","state_name":"Ohio","lat":39.12271,"lng":-84.54442,"zip":"45214","miles_from_dt":14.31},{"city":"Cincinnati","state_name":"Ohio","lat":39.10233,"lng":-84.52697,"zip":"45999","miles_from_dt":14.41},{"city":"Cincinnati","state_name":"Ohio","lat":39.09951,"lng":-84.52467,"zip":"45298","miles_from_dt":14.43},{"city":"Miamitown","state_name":"Ohio","lat":39.21114,"lng":-84.70292,"zip":"45041","miles_from_dt":14.47},{"city":"Covington","state_name":"Kentucky","lat":39.0655,"lng":-84.50464,"zip":"41014","miles_from_dt":14.6},{"city":"Cincinnati","state_name":"Ohio","lat":39.14341,"lng":-84.55267,"zip":"45225","miles_from_dt":14.81},{"city":"Cincinnati","state_name":"Ohio","lat":39.10106,"lng":-84.51407,"zip":"45273","miles_from_dt":14.99},{"city":"Cincinnati","state_name":"Ohio","lat":39.13618,"lng":-84.53686,"zip":"45271","miles_from_dt":15.18},{"city":"Warsaw","state_name":"Kentucky","lat":38.79033,"lng":-84.81567,"zip":"41095","miles_from_dt":15.2},{"city":"East Enterprise","state_name":"Indiana","lat":38.87222,"lng":-84.98891,"zip":"47019","miles_from_dt":15.22},{"city":"Latonia","state_name":"Kentucky","lat":38.97885,"lng":-84.48456,"zip":"41015","miles_from_dt":15.24},{"city":"Cincinnati","state_name":"Ohio","lat":39.13814,"lng":-84.53632,"zip":"45274","miles_from_dt":15.28},{"city":"Cincinnati","state_name":"Ohio","lat":39.10383,"lng":-84.50755,"zip":"45299","miles_from_dt":15.39},{"city":"Cincinnati","state_name":"Ohio","lat":39.10547,"lng":-84.50184,"zip":"45254","miles_from_dt":15.72},{"city":"Cincinnati","state_name":"Ohio","lat":39.10885,"lng":-84.50243,"zip":"45202","miles_from_dt":15.79},{"city":"Cincinnati","state_name":"Ohio","lat":39.13032,"lng":-84.51693,"zip":"45221","miles_from_dt":15.84},{"city":"Cincinnati","state_name":"Ohio","lat":39.10879,"lng":-84.50125,"zip":"45201","miles_from_dt":15.85},{"city":"Newport","state_name":"Kentucky","lat":39.0732,"lng":-84.48211,"zip":"41071","miles_from_dt":15.91},{"city":"Cincinnati","state_name":"Ohio","lat":39.12668,"lng":-84.51201,"zip":"45219","miles_from_dt":15.93},{"city":"Cincinnati","state_name":"Ohio","lat":39.22048,"lng":-84.65172,"zip":"45247","miles_from_dt":15.94},{"city":"Cincinnati","state_name":"Ohio","lat":39.1696,"lng":-84.55354,"zip":"45223","miles_from_dt":15.98},{"city":"Newport","state_name":"Kentucky","lat":39.07958,"lng":-84.48034,"zip":"41072","miles_from_dt":16.13},{"city":"Florence","state_name":"Indiana","lat":38.8119,"lng":-84.93221,"zip":"47020","miles_from_dt":16.19},{"city":"Cincinnati","state_name":"Ohio","lat":39.14736,"lng":-84.52101,"zip":"45220","miles_from_dt":16.32},{"city":"Newport","state_name":"Kentucky","lat":39.03231,"lng":-84.46336,"zip":"41099","miles_from_dt":16.35},{"city":"Moores Hill","state_name":"Indiana","lat":39.08109,"lng":-85.05503,"zip":"47032","miles_from_dt":16.39},{"city":"Cincinnati","state_name":"Ohio","lat":39.14845,"lng":-84.5199,"zip":"45268","miles_from_dt":16.41},{"city":"Cincinnati","state_name":"Ohio","lat":39.13832,"lng":-84.50447,"zip":"45275","miles_from_dt":16.7},{"city":"Cincinnati","state_name":"Ohio","lat":39.13812,"lng":-84.5031,"zip":"45267","miles_from_dt":16.75},{"city":"Bellevue","state_name":"Kentucky","lat":39.10123,"lng":-84.47748,"zip":"41073","miles_from_dt":16.79},{"city":"Cincinnati","state_name":"Ohio","lat":39.20439,"lng":-84.57979,"zip":"45239","miles_from_dt":16.88},{"city":"Guilford","state_name":"Indiana","lat":39.20722,"lng":-84.95089,"zip":"47022","miles_from_dt":17.03},{"city":"Harrison","state_name":"Ohio","lat":39.25621,"lng":-84.76287,"zip":"45030","miles_from_dt":17.19},{"city":"Cincinnati","state_name":"Ohio","lat":39.12736,"lng":-84.48451,"zip":"45206","miles_from_dt":17.23},{"city":"Dillsboro","state_name":"Indiana","lat":38.98684,"lng":-85.0866,"zip":"47018","miles_from_dt":17.35},{"city":"Newport","state_name":"Kentucky","lat":39.0178,"lng":-84.44084,"zip":"41076","miles_from_dt":17.48},{"city":"Fort Thomas","state_name":"Kentucky","lat":39.07838,"lng":-84.45248,"zip":"41075","miles_from_dt":17.54},{"city":"Morning View","state_name":"Kentucky","lat":38.85323,"lng":-84.49983,"zip":"41063","miles_from_dt":17.82},{"city":"Dayton","state_name":"Kentucky","lat":39.11018,"lng":-84.4607,"zip":"41074","miles_from_dt":17.86},{"city":"Cincinnati","state_name":"Ohio","lat":39.1818,"lng":-84.51673,"zip":"45232","miles_from_dt":18},{"city":"Crittenden","state_name":"Kentucky","lat":38.78582,"lng":-84.58754,"zip":"41030","miles_from_dt":18.03},{"city":"Cincinnati","state_name":"Ohio","lat":39.15342,"lng":-84.48612,"zip":"45229","miles_from_dt":18.09},{"city":"Cincinnati","state_name":"Ohio","lat":39.16718,"lng":-84.49792,"zip":"45217","miles_from_dt":18.13},{"city":"Cincinnati","state_name":"Ohio","lat":39.14199,"lng":-84.4713,"zip":"45207","miles_from_dt":18.35},{"city":"Cincinnati","state_name":"Ohio","lat":39.20215,"lng":-84.53222,"zip":"45224","miles_from_dt":18.39},{"city":"Bennington","state_name":"Indiana","lat":38.8724,"lng":-85.06887,"zip":"47011","miles_from_dt":18.8},{"city":"Cincinnati","state_name":"Ohio","lat":39.14856,"lng":-84.46149,"zip":"45277","miles_from_dt":19.03},{"city":"Kenton","state_name":"Kentucky","lat":38.86706,"lng":-84.45858,"zip":"41053","miles_from_dt":19.15},{"city":"Cincinnati","state_name":"Ohio","lat":39.16,"lng":-84.46219,"zip":"45280","miles_from_dt":19.42},{"city":"Cincinnati","state_name":"Ohio","lat":39.27352,"lng":-84.63214,"zip":"45252","miles_from_dt":19.72},{"city":"Cincinnati","state_name":"Ohio","lat":39.13522,"lng":-84.43393,"zip":"45208","miles_from_dt":19.9},{"city":"Cincinnati","state_name":"Ohio","lat":39.11149,"lng":-84.41989,"zip":"45226","miles_from_dt":19.93},{"city":"Cincinnati","state_name":"Ohio","lat":39.16403,"lng":-84.45173,"zip":"45212","miles_from_dt":20.04},{"city":"Silver Grove","state_name":"Kentucky","lat":39.03508,"lng":-84.39378,"zip":"41085","miles_from_dt":20.09},{"city":"Cincinnati","state_name":"Ohio","lat":39.26912,"lng":-84.59929,"zip":"45253","miles_from_dt":20.16},{"city":"Cincinnati","state_name":"Ohio","lat":39.26789,"lng":-84.59422,"zip":"45251","miles_from_dt":20.21},{"city":"Cincinnati","state_name":"Ohio","lat":39.20054,"lng":-84.48114,"zip":"45216","miles_from_dt":20.29},{"city":"Cincinnati","state_name":"Ohio","lat":39.24617,"lng":-84.5383,"zip":"45231","miles_from_dt":20.52},{"city":"Alexandria","state_name":"Kentucky","lat":38.91409,"lng":-84.40256,"zip":"41001","miles_from_dt":20.57},{"city":"Glencoe","state_name":"Kentucky","lat":38.70953,"lng":-84.80637,"zip":"41046","miles_from_dt":20.64},{"city":"Cincinnati","state_name":"Ohio","lat":39.07445,"lng":-84.39082,"zip":"45230","miles_from_dt":20.68},{"city":"Friendship","state_name":"Indiana","lat":38.97015,"lng":-85.14855,"zip":"47021","miles_from_dt":20.78},{"city":"Cincinnati","state_name":"Ohio","lat":39.15336,"lng":-84.42762,"zip":"45209","miles_from_dt":20.78},{"city":"West Harrison","state_name":"Indiana","lat":39.29828,"lng":-84.8788,"zip":"47060","miles_from_dt":20.99},{"city":"Cincinnati","state_name":"Ohio","lat":39.19298,"lng":-84.45244,"zip":"45237","miles_from_dt":21.15},{"city":"Cincinnati","state_name":"Ohio","lat":39.19365,"lng":-84.44642,"zip":"45222","miles_from_dt":21.44},{"city":"Dry Ridge","state_name":"Kentucky","lat":38.70322,"lng":-84.66141,"zip":"41035","miles_from_dt":21.7},{"city":"Ross","state_name":"Ohio","lat":39.31163,"lng":-84.64507,"zip":"45061","miles_from_dt":21.98},{"city":"Shandon","state_name":"Ohio","lat":39.32493,"lng":-84.71319,"zip":"45063","miles_from_dt":22.1},{"city":"Cincinnati","state_name":"Ohio","lat":39.18111,"lng":-84.42006,"zip":"45213","miles_from_dt":22.11},{"city":"New Trenton","state_name":"Indiana","lat":39.31016,"lng":-84.90394,"zip":"47035","miles_from_dt":22.19},{"city":"Cincinnati","state_name":"Ohio","lat":39.26623,"lng":-84.51975,"zip":"45218","miles_from_dt":22.22},{"city":"Melbourne","state_name":"Kentucky","lat":39.00504,"lng":-84.35213,"zip":"41059","miles_from_dt":22.24},{"city":"Milan","state_name":"Indiana","lat":39.12872,"lng":-85.15333,"zip":"47031","miles_from_dt":22.48},{"city":"Sparta","state_name":"Kentucky","lat":38.69219,"lng":-84.88241,"zip":"41086","miles_from_dt":22.62},{"city":"Cincinnati","state_name":"Ohio","lat":39.23536,"lng":-84.46221,"zip":"45215","miles_from_dt":22.66},{"city":"Cross Plains","state_name":"Indiana","lat":38.93745,"lng":-85.17713,"zip":"47017","miles_from_dt":22.68},{"city":"Cincinnati","state_name":"Ohio","lat":39.15403,"lng":-84.38524,"zip":"45227","miles_from_dt":22.82},{"city":"Sunman","state_name":"Indiana","lat":39.23432,"lng":-85.0797,"zip":"47041","miles_from_dt":23.04},{"city":"Cincinnati","state_name":"Ohio","lat":39.28434,"lng":-84.52605,"zip":"45240","miles_from_dt":23.05},{"city":"De Mossville","state_name":"Kentucky","lat":38.77131,"lng":-84.46114,"zip":"41033","miles_from_dt":23.1},{"city":"Vevay","state_name":"Indiana","lat":38.7949,"lng":-85.10009,"zip":"47043","miles_from_dt":23.23},{"city":"Okeana","state_name":"Ohio","lat":39.35273,"lng":-84.78053,"zip":"45053","miles_from_dt":23.86},{"city":"Cincinnati","state_name":"Ohio","lat":39.05862,"lng":-84.32675,"zip":"45255","miles_from_dt":23.87},{"city":"Ghent","state_name":"Kentucky","lat":38.72262,"lng":-85.02091,"zip":"41045","miles_from_dt":23.98},{"city":"Jonesville","state_name":"Kentucky","lat":38.65914,"lng":-84.77777,"zip":"41052","miles_from_dt":24.01},{"city":"Cincinnati","state_name":"Ohio","lat":39.20949,"lng":-84.39701,"zip":"45236","miles_from_dt":24.23},{"city":"Cincinnati","state_name":"Ohio","lat":39.12009,"lng":-84.32764,"zip":"45244","miles_from_dt":24.8},{"city":"Fairfield","state_name":"Ohio","lat":39.32822,"lng":-84.5521,"zip":"45014","miles_from_dt":24.94},{"city":"Cincinnati","state_name":"Ohio","lat":39.2906,"lng":-84.46612,"zip":"45246","miles_from_dt":25.32},{"city":"Pierceville","state_name":"Indiana","lat":39.11281,"lng":-85.22152,"zip":"47039","miles_from_dt":25.59},{"city":"Cincinnati","state_name":"Ohio","lat":39.18381,"lng":-84.34171,"zip":"45243","miles_from_dt":25.83},{"city":"Sanders","state_name":"Kentucky","lat":38.67513,"lng":-84.98805,"zip":"41083","miles_from_dt":25.86},{"city":"California","state_name":"Kentucky","lat":38.89289,"lng":-84.30788,"zip":"41007","miles_from_dt":25.87},{"city":"Canaan","state_name":"Indiana","lat":38.88816,"lng":-85.22474,"zip":"47224","miles_from_dt":26.07},{"city":"Cedar Grove","state_name":"Indiana","lat":39.37414,"lng":-84.89484,"zip":"47016","miles_from_dt":26.26},{"city":"Versailles","state_name":"Indiana","lat":39.01247,"lng":-85.25484,"zip":"47042","miles_from_dt":26.34},{"city":"Cincinnati","state_name":"Ohio","lat":39.06065,"lng":-84.27748,"zip":"45245","miles_from_dt":26.51},{"city":"Terrace Park","state_name":"Ohio","lat":39.1588,"lng":-84.31073,"zip":"45174","miles_from_dt":26.59},{"city":"Cincinnati","state_name":"Ohio","lat":39.27342,"lng":-84.39979,"zip":"45234","miles_from_dt":26.89},{"city":"Cincinnati","state_name":"Ohio","lat":39.27659,"lng":-84.40175,"zip":"45241","miles_from_dt":26.97},{"city":"Cincinnati","state_name":"Ohio","lat":39.27441,"lng":-84.39891,"zip":"45235","miles_from_dt":26.98},{"city":"Cincinnati","state_name":"Ohio","lat":39.24348,"lng":-84.35621,"zip":"45242","miles_from_dt":27.37},{"city":"Hamilton","state_name":"Ohio","lat":39.36273,"lng":-84.53785,"zip":"45015","miles_from_dt":27.41},{"city":"Butler","state_name":"Kentucky","lat":38.78475,"lng":-84.34298,"zip":"41006","miles_from_dt":27.45},{"city":"New Liberty","state_name":"Kentucky","lat":38.61023,"lng":-84.86535,"zip":"40355","miles_from_dt":27.9},{"city":"Hamilton","state_name":"Ohio","lat":39.40649,"lng":-84.6501,"zip":"45013","miles_from_dt":28.24},{"city":"Williamstown","state_name":"Kentucky","lat":38.62088,"lng":-84.58033,"zip":"41097","miles_from_dt":28.45},{"city":"Miamiville","state_name":"Ohio","lat":39.21114,"lng":-84.30192,"zip":"45147","miles_from_dt":28.61},{"city":"Morris","state_name":"Indiana","lat":39.28127,"lng":-85.17232,"zip":"47033","miles_from_dt":28.91},{"city":"Camp Dennison","state_name":"Ohio","lat":39.20033,"lng":-84.28746,"zip":"45111","miles_from_dt":28.94},{"city":"New Richmond","state_name":"Ohio","lat":38.95599,"lng":-84.22824,"zip":"45157","miles_from_dt":29.14},{"city":"West Chester","state_name":"Ohio","lat":39.3338,"lng":-84.40562,"zip":"45071","miles_from_dt":29.69},{"city":"Cincinnati","state_name":"Ohio","lat":39.27617,"lng":-84.32777,"zip":"45249","miles_from_dt":29.95},{"city":"West Chester","state_name":"Ohio","lat":39.34213,"lng":-84.4105,"zip":"45069","miles_from_dt":29.96}],"targetCityZipCode":"41005","targetCityState":"Kentucky"},"__N_SSG":true}