{"pageProps":{"stateName":"Kentucky","cityName":"crockett","nearbyCities":[{"city":"Elkfork","state_name":"Kentucky","lat":37.99027,"lng":-83.17397,"zip":"41421","miles_from_dt":4.52},{"city":"Isonville","state_name":"Kentucky","lat":38.06008,"lng":-83.05438,"zip":"41149","miles_from_dt":5.4},{"city":"Martha","state_name":"Kentucky","lat":38.01305,"lng":-82.96993,"zip":"41159","miles_from_dt":6.85},{"city":"Sandy Hook","state_name":"Kentucky","lat":38.09336,"lng":-83.08901,"zip":"41171","miles_from_dt":7.3},{"city":"Keaton","state_name":"Kentucky","lat":37.97853,"lng":-82.9562,"zip":"41226","miles_from_dt":7.39},{"city":"West Liberty","state_name":"Kentucky","lat":37.94179,"lng":-83.22334,"zip":"41472","miles_from_dt":7.87},{"city":"Flatgap","state_name":"Kentucky","lat":37.92586,"lng":-82.90882,"zip":"41219","miles_from_dt":10.83},{"city":"Wrigley","state_name":"Kentucky","lat":37.98626,"lng":-83.30239,"zip":"41477","miles_from_dt":11.53},{"city":"Malone","state_name":"Kentucky","lat":37.87383,"lng":-83.25871,"zip":"41451","miles_from_dt":12.05},{"city":"Oil Springs","state_name":"Kentucky","lat":37.83943,"lng":-82.95072,"zip":"41238","miles_from_dt":12.77},{"city":"Mazie","state_name":"Kentucky","lat":38.03389,"lng":-82.85851,"zip":"41160","miles_from_dt":13.09},{"city":"Blaine","state_name":"Kentucky","lat":38.02148,"lng":-82.85118,"zip":"41124","miles_from_dt":13.31},{"city":"Falcon","state_name":"Kentucky","lat":37.78872,"lng":-83.00004,"zip":"41426","miles_from_dt":14.58},{"city":"Sitka","state_name":"Kentucky","lat":37.91014,"lng":-82.83765,"zip":"41255","miles_from_dt":14.84},{"city":"Staffordsville","state_name":"Kentucky","lat":37.82446,"lng":-82.88135,"zip":"41256","miles_from_dt":16.06},{"city":"Webbville","state_name":"Kentucky","lat":38.13358,"lng":-82.85999,"zip":"41180","miles_from_dt":16.14},{"city":"Stambaugh","state_name":"Kentucky","lat":37.91372,"lng":-82.8044,"zip":"41257","miles_from_dt":16.47},{"city":"Elliottville","state_name":"Kentucky","lat":38.18273,"lng":-83.27658,"zip":"40317","miles_from_dt":16.84},{"city":"Cannel City","state_name":"Kentucky","lat":37.79508,"lng":-83.28828,"zip":"41408","miles_from_dt":17.09},{"city":"Mize","state_name":"Kentucky","lat":37.82357,"lng":-83.33511,"zip":"41352","miles_from_dt":17.48},{"city":"Wittensville","state_name":"Kentucky","lat":37.86174,"lng":-82.81164,"zip":"41274","miles_from_dt":17.56},{"city":"Salyersville","state_name":"Kentucky","lat":37.72985,"lng":-83.08494,"zip":"41465","miles_from_dt":17.77},{"city":"Adams","state_name":"Kentucky","lat":38.06201,"lng":-82.7576,"zip":"41201","miles_from_dt":18.91},{"city":"Clearfield","state_name":"Kentucky","lat":38.13215,"lng":-83.38973,"zip":"40313","miles_from_dt":19.1},{"city":"Willard","state_name":"Kentucky","lat":38.20758,"lng":-82.87425,"zip":"41181","miles_from_dt":19.24},{"city":"Lowmansville","state_name":"Kentucky","lat":37.93602,"lng":-82.74007,"zip":"41232","miles_from_dt":19.5},{"city":"Ezel","state_name":"Kentucky","lat":37.88407,"lng":-83.42761,"zip":"41425","miles_from_dt":19.71},{"city":"Hagerhill","state_name":"Kentucky","lat":37.77036,"lng":-82.85032,"zip":"41222","miles_from_dt":19.94},{"city":"Grahn","state_name":"Kentucky","lat":38.27774,"lng":-83.07308,"zip":"41142","miles_from_dt":20.04},{"city":"Tutor Key","state_name":"Kentucky","lat":37.85717,"lng":-82.76256,"zip":"41263","miles_from_dt":20.08},{"city":"Paintsville","state_name":"Kentucky","lat":37.82103,"lng":-82.78927,"zip":"41240","miles_from_dt":20.1},{"city":"Hazel Green","state_name":"Kentucky","lat":37.80029,"lng":-83.37575,"zip":"41332","miles_from_dt":20.21},{"city":"River","state_name":"Kentucky","lat":37.8845,"lng":-82.72711,"zip":"41254","miles_from_dt":21.12},{"city":"Olive Hill","state_name":"Kentucky","lat":38.28914,"lng":-83.16231,"zip":"41164","miles_from_dt":21.16},{"city":"West Van Lear","state_name":"Kentucky","lat":37.78797,"lng":-82.78433,"zip":"41268","miles_from_dt":21.69},{"city":"Thelma","state_name":"Kentucky","lat":37.82253,"lng":-82.75126,"zip":"41260","miles_from_dt":21.78},{"city":"Soldier","state_name":"Kentucky","lat":38.26011,"lng":-83.29949,"zip":"41173","miles_from_dt":21.96},{"city":"Wellington","state_name":"Kentucky","lat":37.93494,"lng":-83.49027,"zip":"40387","miles_from_dt":22.09},{"city":"Morehead","state_name":"Kentucky","lat":38.19817,"lng":-83.4133,"zip":"40351","miles_from_dt":22.79},{"city":"Hitchins","state_name":"Kentucky","lat":38.27701,"lng":-82.88969,"zip":"41146","miles_from_dt":22.79},{"city":"Ulysses","state_name":"Kentucky","lat":37.94021,"lng":-82.677,"zip":"41264","miles_from_dt":22.85},{"city":"Williamsport","state_name":"Kentucky","lat":37.82773,"lng":-82.72453,"zip":"41271","miles_from_dt":22.86},{"city":"Meally","state_name":"Kentucky","lat":37.79654,"lng":-82.74161,"zip":"41234","miles_from_dt":23.2},{"city":"Denton","state_name":"Kentucky","lat":38.25667,"lng":-82.8314,"zip":"41132","miles_from_dt":23.35},{"city":"East Point","state_name":"Kentucky","lat":37.73016,"lng":-82.81308,"zip":"41216","miles_from_dt":23.37},{"city":"Royalton","state_name":"Kentucky","lat":37.65974,"lng":-82.97201,"zip":"41464","miles_from_dt":23.52},{"city":"Louisa","state_name":"Kentucky","lat":38.0656,"lng":-82.66196,"zip":"41230","miles_from_dt":24.03},{"city":"Denniston","state_name":"Kentucky","lat":37.93419,"lng":-83.52895,"zip":"40316","miles_from_dt":24.19},{"city":"Grayson","state_name":"Kentucky","lat":38.33916,"lng":-82.97704,"zip":"41143","miles_from_dt":25.04},{"city":"Boons Camp","state_name":"Kentucky","lat":37.81784,"lng":-82.6843,"zip":"41204","miles_from_dt":25.12},{"city":"Auxier","state_name":"Kentucky","lat":37.7387,"lng":-82.75249,"zip":"41602","miles_from_dt":25.24},{"city":"Bays","state_name":"Kentucky","lat":37.64068,"lng":-83.25147,"zip":"41310","miles_from_dt":25.47},{"city":"Rousseau","state_name":"Kentucky","lat":37.62472,"lng":-83.21959,"zip":"41366","miles_from_dt":25.99},{"city":"Van Lear","state_name":"Kentucky","lat":37.75424,"lng":-82.70446,"zip":"41265","miles_from_dt":26.57},{"city":"Vancleve","state_name":"Kentucky","lat":37.64998,"lng":-83.33665,"zip":"41385","miles_from_dt":26.87},{"city":"Farmers","state_name":"Kentucky","lat":38.14521,"lng":-83.54559,"zip":"40319","miles_from_dt":27.06},{"city":"Tomahawk","state_name":"Kentucky","lat":37.85112,"lng":-82.61377,"zip":"41262","miles_from_dt":27.73},{"city":"Emerson","state_name":"Kentucky","lat":38.36026,"lng":-83.28796,"zip":"41135","miles_from_dt":27.86},{"city":"Rush","state_name":"Kentucky","lat":38.30732,"lng":-82.76992,"zip":"41168","miles_from_dt":28.16},{"city":"Salt Lick","state_name":"Kentucky","lat":38.07716,"lng":-83.59561,"zip":"40371","miles_from_dt":28.21},{"city":"Campton","state_name":"Kentucky","lat":37.72121,"lng":-83.48941,"zip":"41301","miles_from_dt":28.49},{"city":"Blue River","state_name":"Kentucky","lat":37.62216,"lng":-82.8438,"zip":"41607","miles_from_dt":28.6},{"city":"Prestonsburg","state_name":"Kentucky","lat":37.6603,"lng":-82.76466,"zip":"41653","miles_from_dt":28.78},{"city":"Frenchburg","state_name":"Kentucky","lat":37.93367,"lng":-83.63329,"zip":"40322","miles_from_dt":29.83}],"targetCityZipCode":"41413","targetCityState":"Kentucky"},"__N_SSG":true}