{"pageProps":{"stateName":"Kentucky","cityName":"custer","nearbyCities":[{"city":"Garfield","state_name":"Kentucky","lat":37.71867,"lng":-86.29047,"zip":"40140","miles_from_dt":3.72},{"city":"Hudson","state_name":"Kentucky","lat":37.64607,"lng":-86.32019,"zip":"40145","miles_from_dt":8.13},{"city":"Harned","state_name":"Kentucky","lat":37.75899,"lng":-86.37732,"zip":"40144","miles_from_dt":8.36},{"city":"Irvington","state_name":"Kentucky","lat":37.84622,"lng":-86.31954,"zip":"40146","miles_from_dt":9.03},{"city":"Vine Grove","state_name":"Kentucky","lat":37.81907,"lng":-86.08635,"zip":"40175","miles_from_dt":9.52},{"city":"Cecilia","state_name":"Kentucky","lat":37.67293,"lng":-86.06461,"zip":"42724","miles_from_dt":9.96},{"city":"Rineyville","state_name":"Kentucky","lat":37.7517,"lng":-86.04394,"zip":"40162","miles_from_dt":10.07},{"city":"Guston","state_name":"Kentucky","lat":37.88898,"lng":-86.21095,"zip":"40142","miles_from_dt":10.46},{"city":"Eastview","state_name":"Kentucky","lat":37.61,"lng":-86.11235,"zip":"42732","miles_from_dt":10.83},{"city":"Westview","state_name":"Kentucky","lat":37.65834,"lng":-86.40853,"zip":"40178","miles_from_dt":11.36},{"city":"Ekron","state_name":"Kentucky","lat":37.89919,"lng":-86.1247,"zip":"40117","miles_from_dt":12.46},{"city":"Big Clifty","state_name":"Kentucky","lat":37.56098,"lng":-86.15791,"zip":"42712","miles_from_dt":12.77},{"city":"Webster","state_name":"Kentucky","lat":37.92377,"lng":-86.34652,"zip":"40176","miles_from_dt":14.39},{"city":"McDaniels","state_name":"Kentucky","lat":37.61389,"lng":-86.44185,"zip":"40152","miles_from_dt":14.55},{"city":"Hardinsburg","state_name":"Kentucky","lat":37.78541,"lng":-86.50507,"zip":"40143","miles_from_dt":15.57},{"city":"McQuady","state_name":"Kentucky","lat":37.70793,"lng":-86.52117,"zip":"40153","miles_from_dt":16.24},{"city":"Brandenburg","state_name":"Kentucky","lat":37.96964,"lng":-86.16791,"zip":"40108","miles_from_dt":16.31},{"city":"Radcliff","state_name":"Kentucky","lat":37.8144,"lng":-85.93971,"zip":"40160","miles_from_dt":16.59},{"city":"Radcliff","state_name":"Kentucky","lat":37.82526,"lng":-85.94125,"zip":"40159","miles_from_dt":16.77},{"city":"White Mills","state_name":"Kentucky","lat":37.52774,"lng":-86.0372,"zip":"42788","miles_from_dt":17.84},{"city":"Leitchfield","state_name":"Kentucky","lat":37.47843,"lng":-86.29141,"zip":"42755","miles_from_dt":18.24},{"city":"Glendale","state_name":"Kentucky","lat":37.59174,"lng":-85.94358,"zip":"42740","miles_from_dt":18.52},{"city":"Leitchfield","state_name":"Kentucky","lat":37.47814,"lng":-86.31379,"zip":"42754","miles_from_dt":18.53},{"city":"Muldraugh","state_name":"Kentucky","lat":37.94684,"lng":-85.99303,"zip":"40155","miles_from_dt":19.28},{"city":"Fort Knox","state_name":"Kentucky","lat":37.89922,"lng":-85.93892,"zip":"40122","miles_from_dt":19.3},{"city":"Union Star","state_name":"Kentucky","lat":37.96435,"lng":-86.43577,"zip":"40171","miles_from_dt":19.35},{"city":"Falls Of Rough","state_name":"Kentucky","lat":37.60799,"lng":-86.54925,"zip":"40119","miles_from_dt":19.8},{"city":"Fort Knox","state_name":"Kentucky","lat":37.92614,"lng":-85.95292,"zip":"40121","miles_from_dt":19.84},{"city":"Elizabethtown","state_name":"Kentucky","lat":37.69406,"lng":-85.86065,"zip":"42702","miles_from_dt":20.3},{"city":"Rhodelia","state_name":"Kentucky","lat":38.00422,"lng":-86.39887,"zip":"40161","miles_from_dt":20.63},{"city":"Payneville","state_name":"Kentucky","lat":38.02111,"lng":-86.37694,"zip":"40157","miles_from_dt":21.19},{"city":"Elizabethtown","state_name":"Kentucky","lat":37.70502,"lng":-85.83881,"zip":"42701","miles_from_dt":21.39},{"city":"Stephensport","state_name":"Kentucky","lat":37.96479,"lng":-86.49607,"zip":"40170","miles_from_dt":21.48},{"city":"Millwood","state_name":"Kentucky","lat":37.45366,"lng":-86.39527,"zip":"42762","miles_from_dt":21.66},{"city":"Clarkson","state_name":"Kentucky","lat":37.42423,"lng":-86.15035,"zip":"42726","miles_from_dt":22.03},{"city":"Cloverport","state_name":"Kentucky","lat":37.77881,"lng":-86.62881,"zip":"40111","miles_from_dt":22.18},{"city":"Laconia","state_name":"Indiana","lat":38.04108,"lng":-86.0744,"zip":"47135","miles_from_dt":22.52},{"city":"Mauckport","state_name":"Indiana","lat":38.0684,"lng":-86.21042,"zip":"47142","miles_from_dt":22.82},{"city":"Sonora","state_name":"Kentucky","lat":37.51577,"lng":-85.91834,"zip":"42776","miles_from_dt":22.83},{"city":"Rome","state_name":"Indiana","lat":37.95265,"lng":-86.56323,"zip":"47574","miles_from_dt":23.61},{"city":"West Point","state_name":"Kentucky","lat":38.0009,"lng":-85.92502,"zip":"40177","miles_from_dt":24.53},{"city":"Central","state_name":"Indiana","lat":38.09541,"lng":-86.2077,"zip":"47110","miles_from_dt":24.68},{"city":"Battletown","state_name":"Kentucky","lat":38.09012,"lng":-86.34053,"zip":"40104","miles_from_dt":25.07},{"city":"Upton","state_name":"Kentucky","lat":37.4503,"lng":-85.92272,"zip":"42784","miles_from_dt":25.93},{"city":"Caneyville","state_name":"Kentucky","lat":37.42173,"lng":-86.49593,"zip":"42721","miles_from_dt":26.33},{"city":"Cannelton","state_name":"Indiana","lat":37.99351,"lng":-86.5902,"zip":"47520","miles_from_dt":26.55},{"city":"Fordsville","state_name":"Kentucky","lat":37.63594,"lng":-86.69795,"zip":"42343","miles_from_dt":26.75},{"city":"Derby","state_name":"Indiana","lat":38.02856,"lng":-86.55359,"zip":"47525","miles_from_dt":26.84},{"city":"Reynolds Station","state_name":"Kentucky","lat":37.71258,"lng":-86.75133,"zip":"42368","miles_from_dt":28.77},{"city":"Elizabeth","state_name":"Indiana","lat":38.10505,"lng":-85.97275,"zip":"47117","miles_from_dt":28.89},{"city":"Olaton","state_name":"Kentucky","lat":37.51791,"lng":-86.69183,"zip":"42361","miles_from_dt":29.66},{"city":"New Middletown","state_name":"Indiana","lat":38.14817,"lng":-86.04711,"zip":"47160","miles_from_dt":29.96}],"targetCityZipCode":"40115","targetCityState":"Kentucky"},"__N_SSG":true}