{"pageProps":{"stateName":"Kentucky","cityName":"de-mossville","nearbyCities":[{"city":"Morning View","state_name":"Kentucky","lat":38.85323,"lng":-84.49983,"zip":"41063","miles_from_dt":6.02},{"city":"Butler","state_name":"Kentucky","lat":38.78475,"lng":-84.34298,"zip":"41006","miles_from_dt":6.45},{"city":"Kenton","state_name":"Kentucky","lat":38.86706,"lng":-84.45858,"zip":"41053","miles_from_dt":6.61},{"city":"Crittenden","state_name":"Kentucky","lat":38.78582,"lng":-84.58754,"zip":"41030","miles_from_dt":6.9},{"city":"Alexandria","state_name":"Kentucky","lat":38.91409,"lng":-84.40256,"zip":"41001","miles_from_dt":10.34},{"city":"Falmouth","state_name":"Kentucky","lat":38.65232,"lng":-84.33188,"zip":"41040","miles_from_dt":10.78},{"city":"Walton","state_name":"Kentucky","lat":38.88213,"lng":-84.62292,"zip":"41094","miles_from_dt":11.6},{"city":"California","state_name":"Kentucky","lat":38.89289,"lng":-84.30788,"zip":"41007","miles_from_dt":11.78},{"city":"Dry Ridge","state_name":"Kentucky","lat":38.70322,"lng":-84.66141,"zip":"41035","miles_from_dt":11.8},{"city":"Independence","state_name":"Kentucky","lat":38.93233,"lng":-84.54451,"zip":"41051","miles_from_dt":11.98},{"city":"Williamstown","state_name":"Kentucky","lat":38.62088,"lng":-84.58033,"zip":"41097","miles_from_dt":12.21},{"city":"Verona","state_name":"Kentucky","lat":38.81811,"lng":-84.70115,"zip":"41092","miles_from_dt":13.35},{"city":"Neville","state_name":"Ohio","lat":38.80947,"lng":-84.21348,"zip":"45156","miles_from_dt":13.63},{"city":"Foster","state_name":"Kentucky","lat":38.75644,"lng":-84.19832,"zip":"41043","miles_from_dt":14.23},{"city":"Latonia","state_name":"Kentucky","lat":38.97885,"lng":-84.48456,"zip":"41015","miles_from_dt":14.37},{"city":"Mason","state_name":"Kentucky","lat":38.57837,"lng":-84.58434,"zip":"41054","miles_from_dt":14.88},{"city":"Moscow","state_name":"Ohio","lat":38.86977,"lng":-84.18474,"zip":"45153","miles_from_dt":16.39},{"city":"Berry","state_name":"Kentucky","lat":38.53181,"lng":-84.39164,"zip":"41003","miles_from_dt":16.94},{"city":"Newport","state_name":"Kentucky","lat":39.0178,"lng":-84.44084,"zip":"41076","miles_from_dt":17.04},{"city":"Melbourne","state_name":"Kentucky","lat":39.00504,"lng":-84.35213,"zip":"41059","miles_from_dt":17.16},{"city":"Chilo","state_name":"Ohio","lat":38.79377,"lng":-84.14144,"zip":"45112","miles_from_dt":17.33},{"city":"New Richmond","state_name":"Ohio","lat":38.95599,"lng":-84.22824,"zip":"45157","miles_from_dt":17.89},{"city":"Florence","state_name":"Kentucky","lat":38.98595,"lng":-84.64906,"zip":"41042","miles_from_dt":17.94},{"city":"Florence","state_name":"Kentucky","lat":38.98976,"lng":-84.64282,"zip":"41022","miles_from_dt":17.97},{"city":"Newport","state_name":"Kentucky","lat":39.03231,"lng":-84.46336,"zip":"41099","miles_from_dt":18},{"city":"Union","state_name":"Kentucky","lat":38.92056,"lng":-84.7379,"zip":"41091","miles_from_dt":18.14},{"city":"Erlanger","state_name":"Kentucky","lat":39.01546,"lng":-84.60282,"zip":"41018","miles_from_dt":18.49},{"city":"Silver Grove","state_name":"Kentucky","lat":39.03508,"lng":-84.39378,"zip":"41085","miles_from_dt":18.55},{"city":"Ft Mitchell","state_name":"Kentucky","lat":39.02893,"lng":-84.56177,"zip":"41017","miles_from_dt":18.58},{"city":"Jonesville","state_name":"Kentucky","lat":38.65914,"lng":-84.77777,"zip":"41052","miles_from_dt":18.78},{"city":"Glencoe","state_name":"Kentucky","lat":38.70953,"lng":-84.80637,"zip":"41046","miles_from_dt":19.13},{"city":"Warsaw","state_name":"Kentucky","lat":38.79033,"lng":-84.81567,"zip":"41095","miles_from_dt":19.19},{"city":"Felicity","state_name":"Ohio","lat":38.82597,"lng":-84.09301,"zip":"45120","miles_from_dt":20.23},{"city":"Corinth","state_name":"Kentucky","lat":38.50085,"lng":-84.60763,"zip":"41010","miles_from_dt":20.27},{"city":"Covington","state_name":"Kentucky","lat":39.0655,"lng":-84.50464,"zip":"41014","miles_from_dt":20.43},{"city":"Covington","state_name":"Kentucky","lat":39.06802,"lng":-84.53065,"zip":"41011","miles_from_dt":20.81},{"city":"Newport","state_name":"Kentucky","lat":39.0732,"lng":-84.48211,"zip":"41071","miles_from_dt":20.86},{"city":"Covington","state_name":"Kentucky","lat":39.06885,"lng":-84.53293,"zip":"41012","miles_from_dt":20.89},{"city":"Covington","state_name":"Kentucky","lat":39.06964,"lng":-84.52981,"zip":"41019","miles_from_dt":20.91},{"city":"Brooksville","state_name":"Kentucky","lat":38.65549,"lng":-84.10134,"zip":"41004","miles_from_dt":21.02},{"city":"Milford","state_name":"Kentucky","lat":38.58265,"lng":-84.15486,"zip":"41061","miles_from_dt":21.06},{"city":"Cincinnati","state_name":"Ohio","lat":39.05862,"lng":-84.32675,"zip":"45255","miles_from_dt":21.1},{"city":"Fort Thomas","state_name":"Kentucky","lat":39.07838,"lng":-84.45248,"zip":"41075","miles_from_dt":21.19},{"city":"Patriot","state_name":"Indiana","lat":38.84588,"lng":-84.84212,"zip":"47038","miles_from_dt":21.2},{"city":"Cincinnati","state_name":"Ohio","lat":39.07445,"lng":-84.39082,"zip":"45230","miles_from_dt":21.25},{"city":"Newport","state_name":"Kentucky","lat":39.07958,"lng":-84.48034,"zip":"41072","miles_from_dt":21.29},{"city":"Amelia","state_name":"Ohio","lat":39.01718,"lng":-84.20602,"zip":"45102","miles_from_dt":21.84},{"city":"Erlanger","state_name":"Kentucky","lat":39.06016,"lng":-84.63269,"zip":"41025","miles_from_dt":21.97},{"city":"Covington","state_name":"Kentucky","lat":39.08701,"lng":-84.5487,"zip":"41016","miles_from_dt":22.28},{"city":"Cincinnati","state_name":"Ohio","lat":39.06065,"lng":-84.27748,"zip":"45245","miles_from_dt":22.28},{"city":"Bellevue","state_name":"Kentucky","lat":39.10123,"lng":-84.47748,"zip":"41073","miles_from_dt":22.78},{"city":"Cincinnati","state_name":"Ohio","lat":39.09951,"lng":-84.52467,"zip":"45298","miles_from_dt":22.9},{"city":"Cincinnati","state_name":"Ohio","lat":39.10106,"lng":-84.51407,"zip":"45273","miles_from_dt":22.92},{"city":"Cincinnati","state_name":"Ohio","lat":39.10383,"lng":-84.50755,"zip":"45299","miles_from_dt":23.07},{"city":"Cincinnati","state_name":"Ohio","lat":39.10092,"lng":-84.53588,"zip":"45270","miles_from_dt":23.09},{"city":"Burlington","state_name":"Kentucky","lat":39.00709,"lng":-84.76541,"zip":"41005","miles_from_dt":23.1},{"city":"Cincinnati","state_name":"Ohio","lat":39.10233,"lng":-84.52697,"zip":"45999","miles_from_dt":23.11},{"city":"Cincinnati","state_name":"Ohio","lat":39.09536,"lng":-84.57225,"zip":"45204","miles_from_dt":23.14},{"city":"Cincinnati","state_name":"Ohio","lat":39.10547,"lng":-84.50184,"zip":"45254","miles_from_dt":23.15},{"city":"Cincinnati","state_name":"Ohio","lat":39.1037,"lng":-84.53283,"zip":"45296","miles_from_dt":23.25},{"city":"Cincinnati","state_name":"Ohio","lat":39.10403,"lng":-84.53337,"zip":"45203","miles_from_dt":23.28},{"city":"Cincinnati","state_name":"Ohio","lat":39.10437,"lng":-84.53787,"zip":"45264","miles_from_dt":23.34},{"city":"Dayton","state_name":"Kentucky","lat":39.11018,"lng":-84.4607,"zip":"41074","miles_from_dt":23.38},{"city":"Cincinnati","state_name":"Ohio","lat":39.10879,"lng":-84.50125,"zip":"45201","miles_from_dt":23.38},{"city":"Cincinnati","state_name":"Ohio","lat":39.10885,"lng":-84.50243,"zip":"45202","miles_from_dt":23.39},{"city":"Sparta","state_name":"Kentucky","lat":38.69219,"lng":-84.88241,"zip":"41086","miles_from_dt":23.41},{"city":"Cincinnati","state_name":"Ohio","lat":39.10624,"lng":-84.53487,"zip":"45269","miles_from_dt":23.44},{"city":"Cincinnati","state_name":"Ohio","lat":39.10798,"lng":-84.53418,"zip":"45263","miles_from_dt":23.55},{"city":"Cincinnati","state_name":"Ohio","lat":39.11149,"lng":-84.41989,"zip":"45226","miles_from_dt":23.57},{"city":"Hebron","state_name":"Kentucky","lat":39.066,"lng":-84.69989,"zip":"41021","miles_from_dt":24.06},{"city":"Cincinnati","state_name":"Ohio","lat":39.11057,"lng":-84.57518,"zip":"45205","miles_from_dt":24.2},{"city":"Bethel","state_name":"Ohio","lat":38.94633,"lng":-84.06831,"zip":"45106","miles_from_dt":24.39},{"city":"Cincinnati","state_name":"Ohio","lat":39.11899,"lng":-84.54792,"zip":"45250","miles_from_dt":24.43},{"city":"New Liberty","state_name":"Kentucky","lat":38.61023,"lng":-84.86535,"zip":"40355","miles_from_dt":24.51},{"city":"Cincinnati","state_name":"Ohio","lat":39.12736,"lng":-84.48451,"zip":"45206","miles_from_dt":24.59},{"city":"Cincinnati","state_name":"Ohio","lat":39.12209,"lng":-84.54413,"zip":"45262","miles_from_dt":24.61},{"city":"Cincinnati","state_name":"Ohio","lat":39.12271,"lng":-84.54442,"zip":"45214","miles_from_dt":24.65},{"city":"Cincinnati","state_name":"Ohio","lat":39.10927,"lng":-84.61053,"zip":"45238","miles_from_dt":24.66},{"city":"Cincinnati","state_name":"Ohio","lat":39.12668,"lng":-84.51201,"zip":"45219","miles_from_dt":24.67},{"city":"Cincinnati","state_name":"Ohio","lat":39.13032,"lng":-84.51693,"zip":"45221","miles_from_dt":24.95},{"city":"Mount Saint Joseph","state_name":"Ohio","lat":39.09983,"lng":-84.65504,"zip":"45051","miles_from_dt":24.95},{"city":"Cincinnati","state_name":"Ohio","lat":39.12009,"lng":-84.32764,"zip":"45244","miles_from_dt":25.11},{"city":"Cincinnati","state_name":"Ohio","lat":39.13522,"lng":-84.43393,"zip":"45208","miles_from_dt":25.15},{"city":"Hebron","state_name":"Kentucky","lat":39.08366,"lng":-84.70585,"zip":"41048","miles_from_dt":25.26},{"city":"Cincinnati","state_name":"Ohio","lat":39.13812,"lng":-84.5031,"zip":"45267","miles_from_dt":25.4},{"city":"Cincinnati","state_name":"Ohio","lat":39.13832,"lng":-84.50447,"zip":"45275","miles_from_dt":25.42},{"city":"Cincinnati","state_name":"Ohio","lat":39.13618,"lng":-84.53686,"zip":"45271","miles_from_dt":25.5},{"city":"Cincinnati","state_name":"Ohio","lat":39.14199,"lng":-84.4713,"zip":"45207","miles_from_dt":25.58},{"city":"Florence","state_name":"Indiana","lat":38.8119,"lng":-84.93221,"zip":"47020","miles_from_dt":25.58},{"city":"Cincinnati","state_name":"Ohio","lat":39.13814,"lng":-84.53632,"zip":"45274","miles_from_dt":25.63},{"city":"Feesburg","state_name":"Ohio","lat":38.8781,"lng":-83.99927,"zip":"45119","miles_from_dt":25.99},{"city":"Augusta","state_name":"Kentucky","lat":38.73002,"lng":-83.98282,"zip":"41002","miles_from_dt":25.99},{"city":"Cincinnati","state_name":"Ohio","lat":39.14856,"lng":-84.46149,"zip":"45277","miles_from_dt":26.02},{"city":"Cincinnati","state_name":"Ohio","lat":39.14341,"lng":-84.55267,"zip":"45225","miles_from_dt":26.14},{"city":"Cincinnati","state_name":"Ohio","lat":39.14736,"lng":-84.52101,"zip":"45220","miles_from_dt":26.14},{"city":"Cincinnati","state_name":"Ohio","lat":39.14845,"lng":-84.5199,"zip":"45268","miles_from_dt":26.21},{"city":"Sadieville","state_name":"Kentucky","lat":38.39382,"lng":-84.52971,"zip":"40370","miles_from_dt":26.3},{"city":"Cincinnati","state_name":"Ohio","lat":39.15342,"lng":-84.48612,"zip":"45229","miles_from_dt":26.39},{"city":"Cincinnati","state_name":"Ohio","lat":39.1191,"lng":-84.66559,"zip":"45233","miles_from_dt":26.4},{"city":"Cynthiana","state_name":"Kentucky","lat":38.41383,"lng":-84.28631,"zip":"41031","miles_from_dt":26.41},{"city":"Cincinnati","state_name":"Ohio","lat":39.15336,"lng":-84.42762,"zip":"45209","miles_from_dt":26.42},{"city":"Hamersville","state_name":"Ohio","lat":38.90886,"lng":-83.99897,"zip":"45130","miles_from_dt":26.68},{"city":"Higginsport","state_name":"Ohio","lat":38.78997,"lng":-83.96729,"zip":"45131","miles_from_dt":26.7},{"city":"Cincinnati","state_name":"Ohio","lat":39.15403,"lng":-84.38524,"zip":"45227","miles_from_dt":26.72},{"city":"Cincinnati","state_name":"Ohio","lat":39.16,"lng":-84.46219,"zip":"45280","miles_from_dt":26.81},{"city":"Cincinnati","state_name":"Ohio","lat":39.14068,"lng":-84.62751,"zip":"45258","miles_from_dt":27.01},{"city":"Cincinnati","state_name":"Ohio","lat":39.16403,"lng":-84.45173,"zip":"45212","miles_from_dt":27.1},{"city":"Rising Sun","state_name":"Indiana","lat":38.91703,"lng":-84.92809,"zip":"47040","miles_from_dt":27.12},{"city":"Cincinnati","state_name":"Ohio","lat":39.16718,"lng":-84.49792,"zip":"45217","miles_from_dt":27.38},{"city":"Mount Olivet","state_name":"Kentucky","lat":38.51462,"lng":-84.07106,"zip":"41064","miles_from_dt":27.55},{"city":"Petersburg","state_name":"Kentucky","lat":39.0493,"lng":-84.82938,"zip":"41080","miles_from_dt":27.6},{"city":"Cincinnati","state_name":"Ohio","lat":39.15746,"lng":-84.59888,"zip":"45211","miles_from_dt":27.65},{"city":"Owenton","state_name":"Kentucky","lat":38.48224,"lng":-84.8209,"zip":"40359","miles_from_dt":27.87},{"city":"Cincinnati","state_name":"Ohio","lat":39.1696,"lng":-84.55354,"zip":"45223","miles_from_dt":27.92},{"city":"Terrace Park","state_name":"Ohio","lat":39.1588,"lng":-84.31073,"zip":"45174","miles_from_dt":27.93},{"city":"Batavia","state_name":"Ohio","lat":39.0946,"lng":-84.14006,"zip":"45103","miles_from_dt":28.22},{"city":"Cincinnati","state_name":"Ohio","lat":39.18111,"lng":-84.42006,"zip":"45213","miles_from_dt":28.36},{"city":"Cincinnati","state_name":"Ohio","lat":39.1818,"lng":-84.51673,"zip":"45232","miles_from_dt":28.47},{"city":"Addyston","state_name":"Ohio","lat":39.13713,"lng":-84.71045,"zip":"45001","miles_from_dt":28.59},{"city":"Germantown","state_name":"Kentucky","lat":38.60513,"lng":-83.97265,"zip":"41044","miles_from_dt":28.79},{"city":"Cincinnati","state_name":"Ohio","lat":39.19298,"lng":-84.45244,"zip":"45237","miles_from_dt":29.09},{"city":"Cincinnati","state_name":"Ohio","lat":39.19365,"lng":-84.44642,"zip":"45222","miles_from_dt":29.14},{"city":"Cincinnati","state_name":"Ohio","lat":39.18381,"lng":-84.34171,"zip":"45243","miles_from_dt":29.17},{"city":"Cincinnati","state_name":"Ohio","lat":39.16442,"lng":-84.66229,"zip":"45248","miles_from_dt":29.2},{"city":"Sanders","state_name":"Kentucky","lat":38.67513,"lng":-84.98805,"zip":"41083","miles_from_dt":29.23},{"city":"East Enterprise","state_name":"Indiana","lat":38.87222,"lng":-84.98891,"zip":"47019","miles_from_dt":29.32},{"city":"Cincinnati","state_name":"Ohio","lat":39.20054,"lng":-84.48114,"zip":"45216","miles_from_dt":29.63},{"city":"Minerva","state_name":"Kentucky","lat":38.70378,"lng":-83.91717,"zip":"41062","miles_from_dt":29.76},{"city":"Milford","state_name":"Ohio","lat":39.16567,"lng":-84.23281,"zip":"45150","miles_from_dt":29.85},{"city":"Owensville","state_name":"Ohio","lat":39.12358,"lng":-84.13725,"zip":"45160","miles_from_dt":29.91},{"city":"Cincinnati","state_name":"Ohio","lat":39.20215,"lng":-84.53222,"zip":"45224","miles_from_dt":29.97}],"targetCityZipCode":"41033","targetCityState":"Kentucky"},"__N_SSG":true}