{"pageProps":{"stateName":"Kentucky","cityName":"edmonton","nearbyCities":[{"city":"Knob Lick","state_name":"Kentucky","lat":37.04876,"lng":-85.72421,"zip":"42154","miles_from_dt":8.46},{"city":"Gradyville","state_name":"Kentucky","lat":37.07774,"lng":-85.47888,"zip":"42742","miles_from_dt":8.62},{"city":"Beaumont","state_name":"Kentucky","lat":36.86534,"lng":-85.64817,"zip":"42124","miles_from_dt":9.18},{"city":"Breeding","state_name":"Kentucky","lat":36.94352,"lng":-85.4134,"zip":"42715","miles_from_dt":10.28},{"city":"Summer Shade","state_name":"Kentucky","lat":36.87768,"lng":-85.71503,"zip":"42166","miles_from_dt":10.39},{"city":"Center","state_name":"Kentucky","lat":37.13428,"lng":-85.68822,"zip":"42214","miles_from_dt":11.34},{"city":"Eighty Eight","state_name":"Kentucky","lat":36.9224,"lng":-85.77816,"zip":"42130","miles_from_dt":11.41},{"city":"Marrowbone","state_name":"Kentucky","lat":36.82909,"lng":-85.51334,"zip":"42759","miles_from_dt":11.88},{"city":"Hiseville","state_name":"Kentucky","lat":37.09871,"lng":-85.81184,"zip":"42152","miles_from_dt":14.38},{"city":"Greensburg","state_name":"Kentucky","lat":37.22958,"lng":-85.53175,"zip":"42743","miles_from_dt":16.83},{"city":"Hardyville","state_name":"Kentucky","lat":37.21233,"lng":-85.73304,"zip":"42746","miles_from_dt":17.25},{"city":"Glasgow","state_name":"Kentucky","lat":36.99761,"lng":-85.9063,"zip":"42142","miles_from_dt":17.51},{"city":"Glasgow","state_name":"Kentucky","lat":36.94883,"lng":-85.91489,"zip":"42141","miles_from_dt":18.2},{"city":"Burkesville","state_name":"Kentucky","lat":36.78169,"lng":-85.38331,"zip":"42717","miles_from_dt":18.37},{"city":"Columbia","state_name":"Kentucky","lat":37.10943,"lng":-85.28873,"zip":"42728","miles_from_dt":18.57},{"city":"Glens Fork","state_name":"Kentucky","lat":36.9888,"lng":-85.25183,"zip":"42741","miles_from_dt":18.7},{"city":"Mount Hermon","state_name":"Kentucky","lat":36.78872,"lng":-85.8187,"zip":"42157","miles_from_dt":18.79},{"city":"Tompkinsville","state_name":"Kentucky","lat":36.72432,"lng":-85.66998,"zip":"42167","miles_from_dt":18.85},{"city":"Cane Valley","state_name":"Kentucky","lat":37.17028,"lng":-85.32617,"zip":"42720","miles_from_dt":19.15},{"city":"Cave City","state_name":"Kentucky","lat":37.12167,"lng":-85.92746,"zip":"42127","miles_from_dt":20.75},{"city":"Horse Cave","state_name":"Kentucky","lat":37.18983,"lng":-85.87516,"zip":"42749","miles_from_dt":20.93},{"city":"Etoile","state_name":"Kentucky","lat":36.82734,"lng":-85.90915,"zip":"42131","miles_from_dt":20.94},{"city":"Canmer","state_name":"Kentucky","lat":37.27628,"lng":-85.71703,"zip":"42722","miles_from_dt":20.95},{"city":"Hestand","state_name":"Kentucky","lat":36.64848,"lng":-85.56058,"zip":"42151","miles_from_dt":23.61},{"city":"Summersville","state_name":"Kentucky","lat":37.34475,"lng":-85.63702,"zip":"42782","miles_from_dt":24.6},{"city":"Austin","state_name":"Kentucky","lat":36.82039,"lng":-85.99573,"zip":"42123","miles_from_dt":25.33},{"city":"Jamestown","state_name":"Kentucky","lat":36.92551,"lng":-85.11732,"zip":"42629","miles_from_dt":26.53},{"city":"Gamaliel","state_name":"Kentucky","lat":36.65549,"lng":-85.83108,"zip":"42140","miles_from_dt":26.66},{"city":"Lucas","state_name":"Kentucky","lat":36.85947,"lng":-86.04952,"zip":"42156","miles_from_dt":26.99},{"city":"Fountain Run","state_name":"Kentucky","lat":36.72248,"lng":-85.95468,"zip":"42133","miles_from_dt":27.37},{"city":"Campbellsville","state_name":"Kentucky","lat":37.34194,"lng":-85.34023,"zip":"42719","miles_from_dt":27.91},{"city":"Knifley","state_name":"Kentucky","lat":37.22299,"lng":-85.17411,"zip":"42753","miles_from_dt":28.03},{"city":"Park City","state_name":"Kentucky","lat":37.10339,"lng":-86.08035,"zip":"42160","miles_from_dt":28.21},{"city":"Munfordville","state_name":"Kentucky","lat":37.30699,"lng":-85.93115,"zip":"42765","miles_from_dt":28.86},{"city":"Magnolia","state_name":"Kentucky","lat":37.40192,"lng":-85.72501,"zip":"42757","miles_from_dt":29.37},{"city":"Moss","state_name":"Tennessee","lat":36.55848,"lng":-85.63515,"zip":"38575","miles_from_dt":29.86}],"targetCityZipCode":"42129","targetCityState":"Kentucky"},"__N_SSG":true}