{"pageProps":{"stateName":"Kentucky","cityName":"fordsville","nearbyCities":[{"city":"Reynolds Station","state_name":"Kentucky","lat":37.71258,"lng":-86.75133,"zip":"42368","miles_from_dt":6.04},{"city":"Dundee","state_name":"Kentucky","lat":37.55295,"lng":-86.77408,"zip":"42338","miles_from_dt":7.09},{"city":"Olaton","state_name":"Kentucky","lat":37.51791,"lng":-86.69183,"zip":"42361","miles_from_dt":8.15},{"city":"Falls Of Rough","state_name":"Kentucky","lat":37.60799,"lng":-86.54925,"zip":"40119","miles_from_dt":8.38},{"city":"Whitesville","state_name":"Kentucky","lat":37.65093,"lng":-86.87258,"zip":"42378","miles_from_dt":9.63},{"city":"Hawesville","state_name":"Kentucky","lat":37.75244,"lng":-86.8148,"zip":"42364","miles_from_dt":10.27},{"city":"Cloverport","state_name":"Kentucky","lat":37.77881,"lng":-86.62881,"zip":"40111","miles_from_dt":10.56},{"city":"McQuady","state_name":"Kentucky","lat":37.70793,"lng":-86.52117,"zip":"40153","miles_from_dt":10.89},{"city":"Hartford","state_name":"Kentucky","lat":37.52414,"lng":-86.88715,"zip":"42347","miles_from_dt":12.93},{"city":"Rosine","state_name":"Kentucky","lat":37.4497,"lng":-86.74121,"zip":"42370","miles_from_dt":13.06},{"city":"McDaniels","state_name":"Kentucky","lat":37.61389,"lng":-86.44185,"zip":"40152","miles_from_dt":14.13},{"city":"Hawesville","state_name":"Kentucky","lat":37.83379,"lng":-86.76578,"zip":"42348","miles_from_dt":14.14},{"city":"Horse Branch","state_name":"Kentucky","lat":37.42695,"lng":-86.67425,"zip":"42349","miles_from_dt":14.47},{"city":"Philpot","state_name":"Kentucky","lat":37.72404,"lng":-86.93988,"zip":"42366","miles_from_dt":14.59},{"city":"Hardinsburg","state_name":"Kentucky","lat":37.78541,"lng":-86.50507,"zip":"40143","miles_from_dt":14.76},{"city":"Westview","state_name":"Kentucky","lat":37.65834,"lng":-86.40853,"zip":"40178","miles_from_dt":15.95},{"city":"Cromwell","state_name":"Kentucky","lat":37.37718,"lng":-86.75609,"zip":"42333","miles_from_dt":18.13},{"city":"Caneyville","state_name":"Kentucky","lat":37.42173,"lng":-86.49593,"zip":"42721","miles_from_dt":18.48},{"city":"Harned","state_name":"Kentucky","lat":37.75899,"lng":-86.37732,"zip":"40144","miles_from_dt":19.51},{"city":"Hudson","state_name":"Kentucky","lat":37.64607,"lng":-86.32019,"zip":"40145","miles_from_dt":20.73},{"city":"Millwood","state_name":"Kentucky","lat":37.45366,"lng":-86.39527,"zip":"42762","miles_from_dt":20.84},{"city":"Lewisport","state_name":"Kentucky","lat":37.9026,"lng":-86.87903,"zip":"42351","miles_from_dt":20.89},{"city":"Owensboro","state_name":"Kentucky","lat":37.76509,"lng":-87.04365,"zip":"42302","miles_from_dt":20.93},{"city":"Owensboro","state_name":"Kentucky","lat":37.76138,"lng":-87.04889,"zip":"42303","miles_from_dt":21.09},{"city":"Utica","state_name":"Kentucky","lat":37.61626,"lng":-87.08619,"zip":"42376","miles_from_dt":21.34},{"city":"McHenry","state_name":"Kentucky","lat":37.37915,"lng":-86.9273,"zip":"42354","miles_from_dt":21.73},{"city":"Beaver Dam","state_name":"Kentucky","lat":37.35093,"lng":-86.87291,"zip":"42320","miles_from_dt":21.88},{"city":"Maceo","state_name":"Kentucky","lat":37.86206,"lng":-86.9895,"zip":"42355","miles_from_dt":22.32},{"city":"Livermore","state_name":"Kentucky","lat":37.51333,"lng":-87.0833,"zip":"42352","miles_from_dt":22.78},{"city":"Garfield","state_name":"Kentucky","lat":37.71867,"lng":-86.29047,"zip":"40140","miles_from_dt":23.05},{"city":"Rome","state_name":"Indiana","lat":37.95265,"lng":-86.56323,"zip":"47574","miles_from_dt":23.05},{"city":"Leitchfield","state_name":"Kentucky","lat":37.47814,"lng":-86.31379,"zip":"42754","miles_from_dt":23.73},{"city":"Centertown","state_name":"Kentucky","lat":37.41898,"lng":-87.0429,"zip":"42328","miles_from_dt":24.14},{"city":"Leitchfield","state_name":"Kentucky","lat":37.47843,"lng":-86.29141,"zip":"42755","miles_from_dt":24.82},{"city":"Stephensport","state_name":"Kentucky","lat":37.96479,"lng":-86.49607,"zip":"40170","miles_from_dt":25.23},{"city":"Irvington","state_name":"Kentucky","lat":37.84622,"lng":-86.31954,"zip":"40146","miles_from_dt":25.29},{"city":"Cannelton","state_name":"Indiana","lat":37.99351,"lng":-86.5902,"zip":"47520","miles_from_dt":25.36},{"city":"Rockport","state_name":"Kentucky","lat":37.3517,"lng":-87.00719,"zip":"42369","miles_from_dt":25.94},{"city":"Aberdeen","state_name":"Kentucky","lat":37.25362,"lng":-86.68473,"zip":"42201","miles_from_dt":26.38},{"city":"Custer","state_name":"Kentucky","lat":37.73784,"lng":-86.22707,"zip":"40115","miles_from_dt":26.75},{"city":"Union Star","state_name":"Kentucky","lat":37.96435,"lng":-86.43577,"zip":"40171","miles_from_dt":26.81},{"city":"Grandview","state_name":"Indiana","lat":37.97214,"lng":-86.95643,"zip":"47615","miles_from_dt":27.16},{"city":"Owensboro","state_name":"Kentucky","lat":37.77771,"lng":-87.16865,"zip":"42304","miles_from_dt":27.58},{"city":"Webster","state_name":"Kentucky","lat":37.92377,"lng":-86.34652,"zip":"40176","miles_from_dt":27.64},{"city":"Tell City","state_name":"Indiana","lat":38.03684,"lng":-86.69297,"zip":"47586","miles_from_dt":27.65},{"city":"Derby","state_name":"Indiana","lat":38.02856,"lng":-86.55359,"zip":"47525","miles_from_dt":28.21},{"city":"Rockport","state_name":"Indiana","lat":37.8862,"lng":-87.10751,"zip":"47635","miles_from_dt":28.3},{"city":"Morgantown","state_name":"Kentucky","lat":37.22405,"lng":-86.67015,"zip":"42261","miles_from_dt":28.45},{"city":"Evanston","state_name":"Indiana","lat":38.04161,"lng":-86.84867,"zip":"47531","miles_from_dt":29.17},{"city":"Jetson","state_name":"Kentucky","lat":37.23713,"lng":-86.50029,"zip":"42252","miles_from_dt":29.57},{"city":"Island","state_name":"Kentucky","lat":37.44852,"lng":-87.1831,"zip":"42350","miles_from_dt":29.61}],"targetCityZipCode":"42343","targetCityState":"Kentucky"},"__N_SSG":true}