{"pageProps":{"stateName":"Kentucky","cityName":"grayson","nearbyCities":[{"city":"Hitchins","state_name":"Kentucky","lat":38.27701,"lng":-82.88969,"zip":"41146","miles_from_dt":6.4},{"city":"Grahn","state_name":"Kentucky","lat":38.27774,"lng":-83.07308,"zip":"41142","miles_from_dt":6.72},{"city":"Denton","state_name":"Kentucky","lat":38.25667,"lng":-82.8314,"zip":"41132","miles_from_dt":9.75},{"city":"Carter","state_name":"Kentucky","lat":38.4274,"lng":-83.11977,"zip":"41128","miles_from_dt":9.85},{"city":"Olive Hill","state_name":"Kentucky","lat":38.28914,"lng":-83.16231,"zip":"41164","miles_from_dt":10.64},{"city":"Willard","state_name":"Kentucky","lat":38.20758,"lng":-82.87425,"zip":"41181","miles_from_dt":10.66},{"city":"Argillite","state_name":"Kentucky","lat":38.44911,"lng":-82.83032,"zip":"41121","miles_from_dt":11},{"city":"Rush","state_name":"Kentucky","lat":38.30732,"lng":-82.76992,"zip":"41168","miles_from_dt":11.47},{"city":"Greenup","state_name":"Kentucky","lat":38.53461,"lng":-82.91208,"zip":"41144","miles_from_dt":13.93},{"city":"Ashland","state_name":"Kentucky","lat":38.42045,"lng":-82.72425,"zip":"41102","miles_from_dt":14.83},{"city":"Webbville","state_name":"Kentucky","lat":38.13358,"lng":-82.85999,"zip":"41180","miles_from_dt":15.54},{"city":"Garrison","state_name":"Kentucky","lat":38.54381,"lng":-83.13357,"zip":"41141","miles_from_dt":16.47},{"city":"Emerson","state_name":"Kentucky","lat":38.36026,"lng":-83.28796,"zip":"41135","miles_from_dt":16.95},{"city":"Flatwoods","state_name":"Kentucky","lat":38.50927,"lng":-82.73288,"zip":"41139","miles_from_dt":17.7},{"city":"Ashland","state_name":"Kentucky","lat":38.43069,"lng":-82.66744,"zip":"41105","miles_from_dt":17.95},{"city":"Sandy Hook","state_name":"Kentucky","lat":38.09336,"lng":-83.08901,"zip":"41171","miles_from_dt":18.02},{"city":"Catlettsburg","state_name":"Kentucky","lat":38.31755,"lng":-82.64073,"zip":"41129","miles_from_dt":18.33},{"city":"Soldier","state_name":"Kentucky","lat":38.26011,"lng":-83.29949,"zip":"41173","miles_from_dt":18.35},{"city":"Haverhill","state_name":"Ohio","lat":38.58416,"lng":-82.81401,"zip":"45636","miles_from_dt":19.07},{"city":"Russell","state_name":"Kentucky","lat":38.52232,"lng":-82.71316,"zip":"41169","miles_from_dt":19.09},{"city":"Worthington","state_name":"Kentucky","lat":38.55,"lng":-82.73707,"zip":"41183","miles_from_dt":19.52},{"city":"Elliottville","state_name":"Kentucky","lat":38.18273,"lng":-83.27658,"zip":"40317","miles_from_dt":19.54},{"city":"Isonville","state_name":"Kentucky","lat":38.06008,"lng":-83.05438,"zip":"41149","miles_from_dt":19.7},{"city":"Ashland","state_name":"Kentucky","lat":38.46142,"lng":-82.64765,"zip":"41114","miles_from_dt":19.77},{"city":"Ashland","state_name":"Kentucky","lat":38.47392,"lng":-82.65045,"zip":"41101","miles_from_dt":20.01},{"city":"South Shore","state_name":"Kentucky","lat":38.64574,"lng":-82.97791,"zip":"41175","miles_from_dt":21.15},{"city":"Quincy","state_name":"Kentucky","lat":38.63464,"lng":-83.09328,"zip":"41166","miles_from_dt":21.33},{"city":"Mazie","state_name":"Kentucky","lat":38.03389,"lng":-82.85851,"zip":"41160","miles_from_dt":22.02},{"city":"Ironton","state_name":"Ohio","lat":38.56217,"lng":-82.67607,"zip":"45638","miles_from_dt":22.43},{"city":"Martha","state_name":"Kentucky","lat":38.01305,"lng":-82.96993,"zip":"41159","miles_from_dt":22.5},{"city":"Kenova","state_name":"West Virginia","lat":38.35629,"lng":-82.56337,"zip":"25530","miles_from_dt":22.5},{"city":"Adams","state_name":"Kentucky","lat":38.06201,"lng":-82.7576,"zip":"41201","miles_from_dt":22.54},{"city":"Blaine","state_name":"Kentucky","lat":38.02148,"lng":-82.85118,"zip":"41124","miles_from_dt":22.96},{"city":"Franklin Furnace","state_name":"Ohio","lat":38.65221,"lng":-82.81051,"zip":"45629","miles_from_dt":23.4},{"city":"Ceredo","state_name":"West Virginia","lat":38.39945,"lng":-82.55193,"zip":"25507","miles_from_dt":23.46},{"city":"Prichard","state_name":"West Virginia","lat":38.23525,"lng":-82.55913,"zip":"25555","miles_from_dt":23.82},{"city":"South Point","state_name":"Ohio","lat":38.45526,"lng":-82.54489,"zip":"45680","miles_from_dt":24.79},{"city":"South Portsmouth","state_name":"Kentucky","lat":38.69841,"lng":-83.0139,"zip":"41174","miles_from_dt":24.86},{"city":"Keaton","state_name":"Kentucky","lat":37.97853,"lng":-82.9562,"zip":"41226","miles_from_dt":24.9},{"city":"Huntington","state_name":"West Virginia","lat":38.33898,"lng":-82.51843,"zip":"25770","miles_from_dt":24.91},{"city":"Huntington","state_name":"West Virginia","lat":38.3406,"lng":-82.51815,"zip":"25779","miles_from_dt":24.93},{"city":"Huntington","state_name":"West Virginia","lat":38.34177,"lng":-82.51748,"zip":"25771","miles_from_dt":24.97},{"city":"Crockett","state_name":"Kentucky","lat":37.98747,"lng":-83.09117,"zip":"41413","miles_from_dt":25.04},{"city":"Louisa","state_name":"Kentucky","lat":38.0656,"lng":-82.66196,"zip":"41230","miles_from_dt":25.5},{"city":"Friendship","state_name":"Ohio","lat":38.69758,"lng":-83.09275,"zip":"45630","miles_from_dt":25.51},{"city":"Huntington","state_name":"West Virginia","lat":38.34969,"lng":-82.50693,"zip":"25704","miles_from_dt":25.55},{"city":"Morehead","state_name":"Kentucky","lat":38.19817,"lng":-83.4133,"zip":"40351","miles_from_dt":25.64},{"city":"Rock Camp","state_name":"Ohio","lat":38.52186,"lng":-82.56326,"zip":"45675","miles_from_dt":25.75},{"city":"Vanceburg","state_name":"Kentucky","lat":38.52483,"lng":-83.38988,"zip":"41179","miles_from_dt":25.8},{"city":"Elkfork","state_name":"Kentucky","lat":37.99027,"lng":-83.17397,"zip":"41421","miles_from_dt":26.34},{"city":"Clearfield","state_name":"Kentucky","lat":38.13215,"lng":-83.38973,"zip":"40313","miles_from_dt":26.61},{"city":"Shoals","state_name":"West Virginia","lat":38.32627,"lng":-82.47241,"zip":"25562","miles_from_dt":27.43},{"city":"Huntington","state_name":"West Virginia","lat":38.41953,"lng":-82.47831,"zip":"25773","miles_from_dt":27.64},{"city":"Huntington","state_name":"West Virginia","lat":38.41615,"lng":-82.47755,"zip":"25777","miles_from_dt":27.64},{"city":"Huntington","state_name":"West Virginia","lat":38.414,"lng":-82.4752,"zip":"25727","miles_from_dt":27.73},{"city":"Huntington","state_name":"West Virginia","lat":38.41954,"lng":-82.47534,"zip":"25774","miles_from_dt":27.8},{"city":"Huntington","state_name":"West Virginia","lat":38.41602,"lng":-82.47443,"zip":"25772","miles_from_dt":27.8},{"city":"Huntington","state_name":"West Virginia","lat":38.41313,"lng":-82.4732,"zip":"25775","miles_from_dt":27.83},{"city":"Huntington","state_name":"West Virginia","lat":38.41918,"lng":-82.47466,"zip":"25776","miles_from_dt":27.83},{"city":"Huntington","state_name":"West Virginia","lat":38.41872,"lng":-82.47462,"zip":"25726","miles_from_dt":27.83},{"city":"Huntington","state_name":"West Virginia","lat":38.41834,"lng":-82.47426,"zip":"25778","miles_from_dt":27.84},{"city":"Stout","state_name":"Ohio","lat":38.67546,"lng":-83.27789,"zip":"45684","miles_from_dt":28.35},{"city":"Flatgap","state_name":"Kentucky","lat":37.92586,"lng":-82.90882,"zip":"41219","miles_from_dt":28.75},{"city":"Huntington","state_name":"West Virginia","lat":38.39511,"lng":-82.45178,"zip":"25715","miles_from_dt":28.78},{"city":"Huntington","state_name":"West Virginia","lat":38.39867,"lng":-82.45188,"zip":"25728","miles_from_dt":28.81},{"city":"Huntington","state_name":"West Virginia","lat":38.39812,"lng":-82.45004,"zip":"25714","miles_from_dt":28.9},{"city":"Huntington","state_name":"West Virginia","lat":38.39594,"lng":-82.44895,"zip":"25707","miles_from_dt":28.94},{"city":"West Portsmouth","state_name":"Ohio","lat":38.74507,"lng":-83.11198,"zip":"45663","miles_from_dt":28.94},{"city":"Huntington","state_name":"West Virginia","lat":38.39933,"lng":-82.4495,"zip":"25711","miles_from_dt":28.95},{"city":"Huntington","state_name":"West Virginia","lat":38.39738,"lng":-82.44872,"zip":"25706","miles_from_dt":28.97},{"city":"Kitts Hill","state_name":"Ohio","lat":38.57082,"lng":-82.53159,"zip":"45645","miles_from_dt":28.97},{"city":"Huntington","state_name":"West Virginia","lat":38.39751,"lng":-82.44855,"zip":"25712","miles_from_dt":28.98},{"city":"Huntington","state_name":"West Virginia","lat":38.39917,"lng":-82.44869,"zip":"25729","miles_from_dt":28.99},{"city":"Huntington","state_name":"West Virginia","lat":38.39829,"lng":-82.44834,"zip":"25716","miles_from_dt":29},{"city":"Huntington","state_name":"West Virginia","lat":38.39866,"lng":-82.44826,"zip":"25720","miles_from_dt":29.01},{"city":"Huntington","state_name":"West Virginia","lat":38.39813,"lng":-82.4468,"zip":"25725","miles_from_dt":29.08},{"city":"Huntington","state_name":"West Virginia","lat":38.39566,"lng":-82.44617,"zip":"25713","miles_from_dt":29.09},{"city":"Lavalette","state_name":"West Virginia","lat":38.30772,"lng":-82.43405,"zip":"25535","miles_from_dt":29.58},{"city":"Huntington","state_name":"West Virginia","lat":38.42154,"lng":-82.44226,"zip":"25710","miles_from_dt":29.59},{"city":"Huntington","state_name":"West Virginia","lat":38.42188,"lng":-82.44184,"zip":"25708","miles_from_dt":29.61},{"city":"Huntington","state_name":"West Virginia","lat":38.42556,"lng":-82.44258,"zip":"25722","miles_from_dt":29.62},{"city":"Huntington","state_name":"West Virginia","lat":38.42299,"lng":-82.44163,"zip":"25721","miles_from_dt":29.64},{"city":"Huntington","state_name":"West Virginia","lat":38.42302,"lng":-82.44075,"zip":"25719","miles_from_dt":29.69},{"city":"Huntington","state_name":"West Virginia","lat":38.42312,"lng":-82.44048,"zip":"25723","miles_from_dt":29.7},{"city":"Huntington","state_name":"West Virginia","lat":38.42636,"lng":-82.44099,"zip":"25724","miles_from_dt":29.72},{"city":"Huntington","state_name":"West Virginia","lat":38.424,"lng":-82.43961,"zip":"25709","miles_from_dt":29.76},{"city":"Huntington","state_name":"West Virginia","lat":38.4267,"lng":-82.43856,"zip":"25718","miles_from_dt":29.85},{"city":"Pedro","state_name":"Ohio","lat":38.67117,"lng":-82.62331,"zip":"45659","miles_from_dt":29.87},{"city":"Huntington","state_name":"West Virginia","lat":38.42599,"lng":-82.43727,"zip":"25717","miles_from_dt":29.91},{"city":"Chesapeake","state_name":"Ohio","lat":38.47257,"lng":-82.45157,"zip":"45619","miles_from_dt":29.97}],"targetCityZipCode":"41143","targetCityState":"Kentucky"},"__N_SSG":true}