{"pageProps":{"stateName":"Kentucky","cityName":"greensburg","nearbyCities":[{"city":"Summersville","state_name":"Kentucky","lat":37.34475,"lng":-85.63702,"zip":"42782","miles_from_dt":9.83},{"city":"Canmer","state_name":"Kentucky","lat":37.27628,"lng":-85.71703,"zip":"42722","miles_from_dt":10.71},{"city":"Center","state_name":"Kentucky","lat":37.13428,"lng":-85.68822,"zip":"42214","miles_from_dt":10.85},{"city":"Gradyville","state_name":"Kentucky","lat":37.07774,"lng":-85.47888,"zip":"42742","miles_from_dt":10.87},{"city":"Hardyville","state_name":"Kentucky","lat":37.21233,"lng":-85.73304,"zip":"42746","miles_from_dt":11.16},{"city":"Cane Valley","state_name":"Kentucky","lat":37.17028,"lng":-85.32617,"zip":"42720","miles_from_dt":12.06},{"city":"Campbellsville","state_name":"Kentucky","lat":37.34194,"lng":-85.34023,"zip":"42719","miles_from_dt":13.09},{"city":"Campbellsville","state_name":"Kentucky","lat":37.38994,"lng":-85.37561,"zip":"42718","miles_from_dt":14.01},{"city":"Mount Sherman","state_name":"Kentucky","lat":37.42948,"lng":-85.62507,"zip":"42764","miles_from_dt":14.71},{"city":"Columbia","state_name":"Kentucky","lat":37.10943,"lng":-85.28873,"zip":"42728","miles_from_dt":15.76},{"city":"Magnolia","state_name":"Kentucky","lat":37.40192,"lng":-85.72501,"zip":"42757","miles_from_dt":15.95},{"city":"Knob Lick","state_name":"Kentucky","lat":37.04876,"lng":-85.72421,"zip":"42154","miles_from_dt":16.38},{"city":"Edmonton","state_name":"Kentucky","lat":36.99,"lng":-85.58992,"zip":"42129","miles_from_dt":16.83},{"city":"Buffalo","state_name":"Kentucky","lat":37.47495,"lng":-85.61925,"zip":"42716","miles_from_dt":17.59},{"city":"Hiseville","state_name":"Kentucky","lat":37.09871,"lng":-85.81184,"zip":"42152","miles_from_dt":17.9},{"city":"Horse Cave","state_name":"Kentucky","lat":37.18983,"lng":-85.87516,"zip":"42749","miles_from_dt":19.14},{"city":"Knifley","state_name":"Kentucky","lat":37.22299,"lng":-85.17411,"zip":"42753","miles_from_dt":19.73},{"city":"Breeding","state_name":"Kentucky","lat":36.94352,"lng":-85.4134,"zip":"42715","miles_from_dt":20.78},{"city":"Elk Horn","state_name":"Kentucky","lat":37.34008,"lng":-85.18028,"zip":"42733","miles_from_dt":20.81},{"city":"Mannsville","state_name":"Kentucky","lat":37.37656,"lng":-85.19756,"zip":"42758","miles_from_dt":21.02},{"city":"Raywick","state_name":"Kentucky","lat":37.53529,"lng":-85.44371,"zip":"40060","miles_from_dt":21.63},{"city":"Bonnieville","state_name":"Kentucky","lat":37.37631,"lng":-85.88282,"zip":"42713","miles_from_dt":21.83},{"city":"Munfordville","state_name":"Kentucky","lat":37.30699,"lng":-85.93115,"zip":"42765","miles_from_dt":22.65},{"city":"Glens Fork","state_name":"Kentucky","lat":36.9888,"lng":-85.25183,"zip":"42741","miles_from_dt":22.69},{"city":"Cave City","state_name":"Kentucky","lat":37.12167,"lng":-85.92746,"zip":"42127","miles_from_dt":23.07},{"city":"New Hope","state_name":"Kentucky","lat":37.58417,"lng":-85.51154,"zip":"40052","miles_from_dt":24.48},{"city":"Eighty Eight","state_name":"Kentucky","lat":36.9224,"lng":-85.77816,"zip":"42130","miles_from_dt":25.18},{"city":"Hodgenville","state_name":"Kentucky","lat":37.57029,"lng":-85.70952,"zip":"42748","miles_from_dt":25.45},{"city":"Saint Mary","state_name":"Kentucky","lat":37.57052,"lng":-85.34336,"zip":"40063","miles_from_dt":25.7},{"city":"Beaumont","state_name":"Kentucky","lat":36.86534,"lng":-85.64817,"zip":"42124","miles_from_dt":25.93},{"city":"Saint Francis","state_name":"Kentucky","lat":37.59969,"lng":-85.43161,"zip":"40062","miles_from_dt":26.11},{"city":"Glasgow","state_name":"Kentucky","lat":36.99761,"lng":-85.9063,"zip":"42142","miles_from_dt":26.15},{"city":"Summer Shade","state_name":"Kentucky","lat":36.87768,"lng":-85.71503,"zip":"42166","miles_from_dt":26.3},{"city":"Upton","state_name":"Kentucky","lat":37.4503,"lng":-85.92272,"zip":"42784","miles_from_dt":26.37},{"city":"Marrowbone","state_name":"Kentucky","lat":36.82909,"lng":-85.51334,"zip":"42759","miles_from_dt":27.64},{"city":"Lebanon","state_name":"Kentucky","lat":37.55935,"lng":-85.23928,"zip":"40033","miles_from_dt":27.86},{"city":"Dunnville","state_name":"Kentucky","lat":37.18335,"lng":-85.01712,"zip":"42528","miles_from_dt":28.57},{"city":"Glasgow","state_name":"Kentucky","lat":36.94883,"lng":-85.91489,"zip":"42141","miles_from_dt":28.69},{"city":"Sonora","state_name":"Kentucky","lat":37.51577,"lng":-85.91834,"zip":"42776","miles_from_dt":29.02},{"city":"Bradfordsville","state_name":"Kentucky","lat":37.47075,"lng":-85.099,"zip":"40009","miles_from_dt":29.06},{"city":"New Haven","state_name":"Kentucky","lat":37.65293,"lng":-85.57949,"zip":"40051","miles_from_dt":29.31},{"city":"Russell Springs","state_name":"Kentucky","lat":37.05624,"lng":-85.0352,"zip":"42642","miles_from_dt":29.91}],"targetCityZipCode":"42743","targetCityState":"Kentucky"},"__N_SSG":true}