{"pageProps":{"stateName":"Kentucky","cityName":"herndon","nearbyCities":[{"city":"La Fayette","state_name":"Kentucky","lat":36.66435,"lng":-87.63852,"zip":"42254","miles_from_dt":4.08},{"city":"Oak Grove","state_name":"Kentucky","lat":36.68386,"lng":-87.44714,"zip":"42262","miles_from_dt":9.49},{"city":"Fort Campbell","state_name":"Kentucky","lat":36.6381,"lng":-87.47258,"zip":"42223","miles_from_dt":9.58},{"city":"Gracey","state_name":"Kentucky","lat":36.86665,"lng":-87.66167,"zip":"42232","miles_from_dt":10.5},{"city":"Hopkinsville","state_name":"Kentucky","lat":36.86709,"lng":-87.48976,"zip":"42241","miles_from_dt":12.23},{"city":"Big Rock","state_name":"Tennessee","lat":36.58409,"lng":-87.78302,"zip":"37023","miles_from_dt":13.32},{"city":"Fairview","state_name":"Kentucky","lat":36.89449,"lng":-87.48534,"zip":"42221","miles_from_dt":13.96},{"city":"Hopkinsville","state_name":"Kentucky","lat":36.88388,"lng":-87.46024,"zip":"42240","miles_from_dt":14.12},{"city":"Cadiz","state_name":"Kentucky","lat":36.82016,"lng":-87.83709,"zip":"42211","miles_from_dt":14.27},{"city":"Pembroke","state_name":"Kentucky","lat":36.76562,"lng":-87.3601,"zip":"42266","miles_from_dt":14.35},{"city":"Bumpus Mills","state_name":"Tennessee","lat":36.62793,"lng":-87.85723,"zip":"37028","miles_from_dt":15},{"city":"Clarksville","state_name":"Tennessee","lat":36.56894,"lng":-87.41225,"zip":"37042","miles_from_dt":15.21},{"city":"Woodlawn","state_name":"Tennessee","lat":36.50726,"lng":-87.52392,"zip":"37191","miles_from_dt":15.44},{"city":"Indian Mound","state_name":"Tennessee","lat":36.4826,"lng":-87.65939,"zip":"37079","miles_from_dt":16.55},{"city":"Clarksville","state_name":"Tennessee","lat":36.5612,"lng":-87.34874,"zip":"37041","miles_from_dt":18.27},{"city":"Trenton","state_name":"Kentucky","lat":36.72749,"lng":-87.26959,"zip":"42286","miles_from_dt":19.03},{"city":"Cerulean","state_name":"Kentucky","lat":36.99256,"lng":-87.67018,"zip":"42215","miles_from_dt":19.09},{"city":"Clarksville","state_name":"Tennessee","lat":36.52938,"lng":-87.33763,"zip":"37044","miles_from_dt":20.12},{"city":"Clarksville","state_name":"Tennessee","lat":36.52408,"lng":-87.33287,"zip":"37040","miles_from_dt":20.56},{"city":"Palmyra","state_name":"Tennessee","lat":36.41164,"lng":-87.50112,"zip":"37142","miles_from_dt":22.12},{"city":"Dover","state_name":"Tennessee","lat":36.47872,"lng":-87.8807,"zip":"37058","miles_from_dt":22.33},{"city":"Crofton","state_name":"Kentucky","lat":37.04915,"lng":-87.47212,"zip":"42217","miles_from_dt":24.01},{"city":"Cumberland City","state_name":"Tennessee","lat":36.3713,"lng":-87.63586,"zip":"37050","miles_from_dt":24.05},{"city":"Guthrie","state_name":"Kentucky","lat":36.70656,"lng":-87.17598,"zip":"42234","miles_from_dt":24.24},{"city":"Clarksville","state_name":"Tennessee","lat":36.49842,"lng":-87.23197,"zip":"37043","miles_from_dt":26.07},{"city":"Cunningham","state_name":"Tennessee","lat":36.37534,"lng":-87.40095,"zip":"37052","miles_from_dt":26.49},{"city":"Elkton","state_name":"Kentucky","lat":36.90129,"lng":-87.18395,"zip":"42220","miles_from_dt":26.85},{"city":"New Concord","state_name":"Kentucky","lat":36.55906,"lng":-88.09473,"zip":"42076","miles_from_dt":29.01},{"city":"Tennessee Ridge","state_name":"Tennessee","lat":36.3195,"lng":-87.78694,"zip":"37178","miles_from_dt":29.25},{"city":"Allensville","state_name":"Kentucky","lat":36.69509,"lng":-87.08096,"zip":"42204","miles_from_dt":29.55},{"city":"Saint Charles","state_name":"Kentucky","lat":37.14888,"lng":-87.58275,"zip":"42453","miles_from_dt":29.65},{"city":"Erin","state_name":"Tennessee","lat":36.28918,"lng":-87.66528,"zip":"37061","miles_from_dt":29.83},{"city":"Adams","state_name":"Tennessee","lat":36.5675,"lng":-87.10894,"zip":"37010","miles_from_dt":29.87},{"city":"Southside","state_name":"Tennessee","lat":36.36442,"lng":-87.30365,"zip":"37171","miles_from_dt":29.91}],"targetCityZipCode":"42236","targetCityState":"Kentucky"},"__N_SSG":true}