{"pageProps":{"stateName":"Kentucky","cityName":"hinkle","nearbyCities":[{"city":"Green Road","state_name":"Kentucky","lat":36.95757,"lng":-83.82467,"zip":"40946","miles_from_dt":1.87},{"city":"Cannon","state_name":"Kentucky","lat":36.92059,"lng":-83.84923,"zip":"40923","miles_from_dt":2.89},{"city":"Girdler","state_name":"Kentucky","lat":36.95494,"lng":-83.85631,"zip":"40943","miles_from_dt":3.25},{"city":"Bimble","state_name":"Kentucky","lat":36.89235,"lng":-83.82025,"zip":"40915","miles_from_dt":3.29},{"city":"Heidrick","state_name":"Kentucky","lat":36.90253,"lng":-83.86717,"zip":"40949","miles_from_dt":4.36},{"city":"Flat Lick","state_name":"Kentucky","lat":36.91107,"lng":-83.71264,"zip":"40935","miles_from_dt":5.26},{"city":"Barbourville","state_name":"Kentucky","lat":36.88828,"lng":-83.87546,"zip":"40906","miles_from_dt":5.32},{"city":"Scalf","state_name":"Kentucky","lat":36.93241,"lng":-83.69421,"zip":"40982","miles_from_dt":5.96},{"city":"Dewitt","state_name":"Kentucky","lat":36.87096,"lng":-83.72905,"zip":"40930","miles_from_dt":6.11},{"city":"Walker","state_name":"Kentucky","lat":36.88348,"lng":-83.67711,"zip":"40997","miles_from_dt":7.84},{"city":"Artemus","state_name":"Kentucky","lat":36.80973,"lng":-83.83163,"zip":"40903","miles_from_dt":8.98},{"city":"Gray","state_name":"Kentucky","lat":36.92642,"lng":-83.96609,"zip":"40734","miles_from_dt":9.14},{"city":"Fourmile","state_name":"Kentucky","lat":36.81217,"lng":-83.71152,"zip":"40939","miles_from_dt":9.99},{"city":"Arjay","state_name":"Kentucky","lat":36.84824,"lng":-83.62435,"zip":"40902","miles_from_dt":11.6},{"city":"Bryants Store","state_name":"Kentucky","lat":36.78195,"lng":-83.90185,"zip":"40921","miles_from_dt":12.09},{"city":"Goose Rock","state_name":"Kentucky","lat":37.09008,"lng":-83.69306,"zip":"40944","miles_from_dt":12.1},{"city":"Hima","state_name":"Kentucky","lat":37.11844,"lng":-83.77473,"zip":"40951","miles_from_dt":12.55},{"city":"Trosper","state_name":"Kentucky","lat":36.75268,"lng":-83.82322,"zip":"40995","miles_from_dt":12.82},{"city":"Garrard","state_name":"Kentucky","lat":37.12981,"lng":-83.74585,"zip":"40941","miles_from_dt":13.6},{"city":"Woodbine","state_name":"Kentucky","lat":36.85942,"lng":-84.03459,"zip":"40771","miles_from_dt":13.99},{"city":"Beverly","state_name":"Kentucky","lat":36.94986,"lng":-83.54367,"zip":"40913","miles_from_dt":14.3},{"city":"Lily","state_name":"Kentucky","lat":37.02111,"lng":-84.03888,"zip":"40740","miles_from_dt":14.33},{"city":"Ingram","state_name":"Kentucky","lat":36.72855,"lng":-83.80052,"zip":"40955","miles_from_dt":14.42},{"city":"Kettle Island","state_name":"Kentucky","lat":36.8088,"lng":-83.5878,"zip":"40958","miles_from_dt":14.81},{"city":"Manchester","state_name":"Kentucky","lat":37.14912,"lng":-83.74922,"zip":"40962","miles_from_dt":14.86},{"city":"Pineville","state_name":"Kentucky","lat":36.72332,"lng":-83.72867,"zip":"40977","miles_from_dt":15.33},{"city":"Corbin","state_name":"Kentucky","lat":36.95072,"lng":-84.08678,"zip":"40702","miles_from_dt":15.81},{"city":"Stoney Fork","state_name":"Kentucky","lat":36.85928,"lng":-83.52838,"zip":"40988","miles_from_dt":16.07},{"city":"Rockholds","state_name":"Kentucky","lat":36.82034,"lng":-84.0571,"zip":"40759","miles_from_dt":16.3},{"city":"Big Creek","state_name":"Kentucky","lat":37.0932,"lng":-83.56154,"zip":"40914","miles_from_dt":17.07},{"city":"London","state_name":"Kentucky","lat":37.03841,"lng":-84.08864,"zip":"40744","miles_from_dt":17.33},{"city":"Roark","state_name":"Kentucky","lat":37.00491,"lng":-83.495,"zip":"40979","miles_from_dt":17.59},{"city":"Bush","state_name":"Kentucky","lat":37.07756,"lng":-84.08286,"zip":"40724","miles_from_dt":18.3},{"city":"Hulen","state_name":"Kentucky","lat":36.79899,"lng":-83.51755,"zip":"40845","miles_from_dt":18.42},{"city":"Warbranch","state_name":"Kentucky","lat":36.98407,"lng":-83.47345,"zip":"40874","miles_from_dt":18.44},{"city":"Siler","state_name":"Kentucky","lat":36.68848,"lng":-83.94403,"zip":"40763","miles_from_dt":18.91},{"city":"Calvin","state_name":"Kentucky","lat":36.71526,"lng":-83.59838,"zip":"40813","miles_from_dt":19.03},{"city":"Keavy","state_name":"Kentucky","lat":37.00838,"lng":-84.13902,"zip":"40737","miles_from_dt":19.29},{"city":"Fall Rock","state_name":"Kentucky","lat":37.21991,"lng":-83.78907,"zip":"40932","miles_from_dt":19.47},{"city":"Essie","state_name":"Kentucky","lat":37.05208,"lng":-83.47187,"zip":"40827","miles_from_dt":19.87},{"city":"Corbin","state_name":"Kentucky","lat":36.91759,"lng":-84.16651,"zip":"40701","miles_from_dt":20.25},{"city":"London","state_name":"Kentucky","lat":37.12917,"lng":-84.08234,"zip":"40743","miles_from_dt":20.38},{"city":"Coldiron","state_name":"Kentucky","lat":36.81025,"lng":-83.46242,"zip":"40819","miles_from_dt":20.75},{"city":"Helton","state_name":"Kentucky","lat":36.9457,"lng":-83.41854,"zip":"40840","miles_from_dt":21.21},{"city":"London","state_name":"Kentucky","lat":37.08879,"lng":-84.14358,"zip":"40745","miles_from_dt":21.59},{"city":"London","state_name":"Kentucky","lat":37.08965,"lng":-84.14659,"zip":"40742","miles_from_dt":21.76},{"city":"Middlesboro","state_name":"Kentucky","lat":36.62469,"lng":-83.73461,"zip":"40965","miles_from_dt":21.9},{"city":"Miracle","state_name":"Kentucky","lat":36.70574,"lng":-83.52939,"zip":"40856","miles_from_dt":21.99},{"city":"London","state_name":"Kentucky","lat":37.13349,"lng":-84.11636,"zip":"40741","miles_from_dt":22.02},{"city":"Asher","state_name":"Kentucky","lat":37.04572,"lng":-83.42185,"zip":"40803","miles_from_dt":22.29},{"city":"Bear Branch","state_name":"Kentucky","lat":37.16519,"lng":-83.5075,"zip":"41714","miles_from_dt":22.59},{"city":"Pittsburg","state_name":"Kentucky","lat":37.15958,"lng":-84.1041,"zip":"40755","miles_from_dt":22.66},{"city":"Mozelle","state_name":"Kentucky","lat":37.01592,"lng":-83.40106,"zip":"40858","miles_from_dt":22.81},{"city":"Wallins Creek","state_name":"Kentucky","lat":36.81541,"lng":-83.40411,"zip":"40873","miles_from_dt":23.58},{"city":"Frakes","state_name":"Kentucky","lat":36.60991,"lng":-83.92988,"zip":"40940","miles_from_dt":23.7},{"city":"Oneida","state_name":"Kentucky","lat":37.24501,"lng":-83.60692,"zip":"40972","miles_from_dt":23.76},{"city":"Stinnett","state_name":"Kentucky","lat":37.09367,"lng":-83.41638,"zip":"40868","miles_from_dt":23.86},{"city":"Pathfork","state_name":"Kentucky","lat":36.74048,"lng":-83.44567,"zip":"40863","miles_from_dt":23.96},{"city":"Chappell","state_name":"Kentucky","lat":37.00879,"lng":-83.3667,"zip":"40816","miles_from_dt":24.56},{"city":"Emlyn","state_name":"Kentucky","lat":36.70642,"lng":-84.14605,"zip":"40730","miles_from_dt":24.88},{"city":"Sizerock","state_name":"Kentucky","lat":37.20742,"lng":-83.50077,"zip":"41762","miles_from_dt":24.95},{"city":"Dayhoit","state_name":"Kentucky","lat":36.82489,"lng":-83.37221,"zip":"40824","miles_from_dt":25.03},{"city":"Loyall","state_name":"Kentucky","lat":36.84664,"lng":-83.35634,"zip":"40854","miles_from_dt":25.45},{"city":"London","state_name":"Kentucky","lat":37.14339,"lng":-84.18706,"zip":"40750","miles_from_dt":25.6},{"city":"Pruden","state_name":"Tennessee","lat":36.56558,"lng":-83.79244,"zip":"37851","miles_from_dt":25.67},{"city":"Williamsburg","state_name":"Kentucky","lat":36.7116,"lng":-84.17284,"zip":"40769","miles_from_dt":25.82},{"city":"Hoskinston","state_name":"Kentucky","lat":37.05506,"lng":-83.35406,"zip":"40844","miles_from_dt":26.04},{"city":"Thousandsticks","state_name":"Kentucky","lat":37.18526,"lng":-83.44443,"zip":"41766","miles_from_dt":26.1},{"city":"Shawanee","state_name":"Tennessee","lat":36.57992,"lng":-83.63951,"zip":"37867","miles_from_dt":26.26},{"city":"Annville","state_name":"Kentucky","lat":37.29663,"lng":-83.97008,"zip":"40402","miles_from_dt":26.44},{"city":"Ewing","state_name":"Virginia","lat":36.62708,"lng":-83.50767,"zip":"24248","miles_from_dt":26.92},{"city":"Eagan","state_name":"Tennessee","lat":36.56837,"lng":-83.97357,"zip":"37730","miles_from_dt":27.2},{"city":"Hyden","state_name":"Kentucky","lat":37.19364,"lng":-83.4199,"zip":"41749","miles_from_dt":27.5},{"city":"Bledsoe","state_name":"Kentucky","lat":36.93176,"lng":-83.30451,"zip":"40810","miles_from_dt":27.52},{"city":"Wendover","state_name":"Kentucky","lat":37.09373,"lng":-83.34207,"zip":"41775","miles_from_dt":27.6},{"city":"Cumberland Gap","state_name":"Tennessee","lat":36.54457,"lng":-83.69328,"zip":"37724","miles_from_dt":27.77},{"city":"Mary Alice","state_name":"Kentucky","lat":36.78264,"lng":-83.33763,"zip":"40964","miles_from_dt":27.85},{"city":"Clairfield","state_name":"Tennessee","lat":36.55323,"lng":-83.95894,"zip":"37715","miles_from_dt":27.91},{"city":"Sextons Creek","state_name":"Kentucky","lat":37.34608,"lng":-83.75339,"zip":"40983","miles_from_dt":28.29},{"city":"Gulston","state_name":"Kentucky","lat":36.77644,"lng":-83.33114,"zip":"40830","miles_from_dt":28.34},{"city":"East Bernstadt","state_name":"Kentucky","lat":37.2435,"lng":-84.14788,"zip":"40729","miles_from_dt":28.47},{"city":"Harlan","state_name":"Kentucky","lat":36.76457,"lng":-83.33454,"zip":"40831","miles_from_dt":28.51},{"city":"Baxter","state_name":"Kentucky","lat":36.88595,"lng":-83.2881,"zip":"40806","miles_from_dt":28.66},{"city":"Harrogate","state_name":"Tennessee","lat":36.56735,"lng":-83.55422,"zip":"37752","miles_from_dt":28.99},{"city":"Big Laurel","state_name":"Kentucky","lat":36.9995,"lng":-83.2801,"zip":"40808","miles_from_dt":29.17},{"city":"Mistletoe","state_name":"Kentucky","lat":37.32754,"lng":-83.59363,"zip":"41351","miles_from_dt":29.23},{"city":"Saul","state_name":"Kentucky","lat":37.27792,"lng":-83.48531,"zip":"40981","miles_from_dt":29.25},{"city":"Grays Knob","state_name":"Kentucky","lat":36.798,"lng":-83.29655,"zip":"40829","miles_from_dt":29.6}],"targetCityZipCode":"40953","targetCityState":"Kentucky"},"__N_SSG":true}