{"pageProps":{"stateName":"Kentucky","cityName":"hodgenville","nearbyCities":[{"city":"Buffalo","state_name":"Kentucky","lat":37.47495,"lng":-85.61925,"zip":"42716","miles_from_dt":8.24},{"city":"New Haven","state_name":"Kentucky","lat":37.65293,"lng":-85.57949,"zip":"40051","miles_from_dt":9.13},{"city":"Mount Sherman","state_name":"Kentucky","lat":37.42948,"lng":-85.62507,"zip":"42764","miles_from_dt":10.76},{"city":"New Hope","state_name":"Kentucky","lat":37.58417,"lng":-85.51154,"zip":"40052","miles_from_dt":10.91},{"city":"Magnolia","state_name":"Kentucky","lat":37.40192,"lng":-85.72501,"zip":"42757","miles_from_dt":11.64},{"city":"Elizabethtown","state_name":"Kentucky","lat":37.70502,"lng":-85.83881,"zip":"42701","miles_from_dt":11.69},{"city":"Elizabethtown","state_name":"Kentucky","lat":37.69406,"lng":-85.86065,"zip":"42702","miles_from_dt":11.9},{"city":"Sonora","state_name":"Kentucky","lat":37.51577,"lng":-85.91834,"zip":"42776","miles_from_dt":12.07},{"city":"Glendale","state_name":"Kentucky","lat":37.59174,"lng":-85.94358,"zip":"42740","miles_from_dt":12.93},{"city":"Boston","state_name":"Kentucky","lat":37.76952,"lng":-85.63798,"zip":"40107","miles_from_dt":14.29},{"city":"Upton","state_name":"Kentucky","lat":37.4503,"lng":-85.92272,"zip":"42784","miles_from_dt":14.34},{"city":"Raywick","state_name":"Kentucky","lat":37.53529,"lng":-85.44371,"zip":"40060","miles_from_dt":14.79},{"city":"Saint Francis","state_name":"Kentucky","lat":37.59969,"lng":-85.43161,"zip":"40062","miles_from_dt":15.39},{"city":"Summersville","state_name":"Kentucky","lat":37.34475,"lng":-85.63702,"zip":"42782","miles_from_dt":16.06},{"city":"Bonnieville","state_name":"Kentucky","lat":37.37631,"lng":-85.88282,"zip":"42713","miles_from_dt":16.42},{"city":"Loretto","state_name":"Kentucky","lat":37.65409,"lng":-85.41196,"zip":"40037","miles_from_dt":17.32},{"city":"White Mills","state_name":"Kentucky","lat":37.52774,"lng":-86.0372,"zip":"42788","miles_from_dt":18.23},{"city":"Nerinx","state_name":"Kentucky","lat":37.66442,"lng":-85.39724,"zip":"40049","miles_from_dt":18.32},{"city":"Saint Mary","state_name":"Kentucky","lat":37.57052,"lng":-85.34336,"zip":"40063","miles_from_dt":20.1},{"city":"Canmer","state_name":"Kentucky","lat":37.27628,"lng":-85.71703,"zip":"42722","miles_from_dt":20.28},{"city":"Cecilia","state_name":"Kentucky","lat":37.67293,"lng":-86.06461,"zip":"42724","miles_from_dt":20.73},{"city":"Bardstown","state_name":"Kentucky","lat":37.80279,"lng":-85.4695,"zip":"40004","miles_from_dt":20.74},{"city":"Lebanon Junction","state_name":"Kentucky","lat":37.87458,"lng":-85.68799,"zip":"40150","miles_from_dt":21.02},{"city":"Radcliff","state_name":"Kentucky","lat":37.8144,"lng":-85.93971,"zip":"40160","miles_from_dt":21.04},{"city":"Radcliff","state_name":"Kentucky","lat":37.82526,"lng":-85.94125,"zip":"40159","miles_from_dt":21.69},{"city":"Munfordville","state_name":"Kentucky","lat":37.30699,"lng":-85.93115,"zip":"42765","miles_from_dt":21.87},{"city":"Campbellsville","state_name":"Kentucky","lat":37.38994,"lng":-85.37561,"zip":"42718","miles_from_dt":22.17},{"city":"Rineyville","state_name":"Kentucky","lat":37.7517,"lng":-86.04394,"zip":"40162","miles_from_dt":22.2},{"city":"Eastview","state_name":"Kentucky","lat":37.61,"lng":-86.11235,"zip":"42732","miles_from_dt":22.28},{"city":"Nazareth","state_name":"Kentucky","lat":37.84707,"lng":-85.47338,"zip":"40048","miles_from_dt":23.06},{"city":"Big Clifty","state_name":"Kentucky","lat":37.56098,"lng":-86.15791,"zip":"42712","miles_from_dt":24.62},{"city":"Hardyville","state_name":"Kentucky","lat":37.21233,"lng":-85.73304,"zip":"42746","miles_from_dt":24.72},{"city":"Clermont","state_name":"Kentucky","lat":37.93478,"lng":-85.64015,"zip":"40110","miles_from_dt":25.42},{"city":"Greensburg","state_name":"Kentucky","lat":37.22958,"lng":-85.53175,"zip":"42743","miles_from_dt":25.45},{"city":"Campbellsville","state_name":"Kentucky","lat":37.34194,"lng":-85.34023,"zip":"42719","miles_from_dt":25.69},{"city":"Lebanon","state_name":"Kentucky","lat":37.55935,"lng":-85.23928,"zip":"40033","miles_from_dt":25.83},{"city":"Fort Knox","state_name":"Kentucky","lat":37.89922,"lng":-85.93892,"zip":"40122","miles_from_dt":25.93},{"city":"Clarkson","state_name":"Kentucky","lat":37.42423,"lng":-86.15035,"zip":"42726","miles_from_dt":26.23},{"city":"Saint Catharine","state_name":"Kentucky","lat":37.70954,"lng":-85.26353,"zip":"40061","miles_from_dt":26.28},{"city":"Vine Grove","state_name":"Kentucky","lat":37.81907,"lng":-86.08635,"zip":"40175","miles_from_dt":26.85},{"city":"Horse Cave","state_name":"Kentucky","lat":37.18983,"lng":-85.87516,"zip":"42749","miles_from_dt":27.78},{"city":"Coxs Creek","state_name":"Kentucky","lat":37.93427,"lng":-85.48684,"zip":"40013","miles_from_dt":27.91},{"city":"Fort Knox","state_name":"Kentucky","lat":37.92614,"lng":-85.95292,"zip":"40121","miles_from_dt":27.93},{"city":"Cub Run","state_name":"Kentucky","lat":37.30167,"lng":-86.09719,"zip":"42729","miles_from_dt":28.24},{"city":"Shepherdsville","state_name":"Kentucky","lat":37.98138,"lng":-85.68823,"zip":"40166","miles_from_dt":28.38},{"city":"Springfield","state_name":"Kentucky","lat":37.71627,"lng":-85.21764,"zip":"40069","miles_from_dt":28.79},{"city":"Shepherdsville","state_name":"Kentucky","lat":37.99407,"lng":-85.68918,"zip":"40165","miles_from_dt":29.25}],"targetCityZipCode":"42748","targetCityState":"Kentucky"},"__N_SSG":true}