{"pageProps":{"stateName":"Kentucky","cityName":"la-fayette","nearbyCities":[{"city":"Herndon","state_name":"Kentucky","lat":36.7196,"lng":-87.61225,"zip":"42236","miles_from_dt":4.08},{"city":"Fort Campbell","state_name":"Kentucky","lat":36.6381,"lng":-87.47258,"zip":"42223","miles_from_dt":9.4},{"city":"Big Rock","state_name":"Tennessee","lat":36.58409,"lng":-87.78302,"zip":"37023","miles_from_dt":9.75},{"city":"Oak Grove","state_name":"Kentucky","lat":36.68386,"lng":-87.44714,"zip":"42262","miles_from_dt":10.71},{"city":"Bumpus Mills","state_name":"Tennessee","lat":36.62793,"lng":-87.85723,"zip":"37028","miles_from_dt":12.41},{"city":"Woodlawn","state_name":"Tennessee","lat":36.50726,"lng":-87.52392,"zip":"37191","miles_from_dt":12.57},{"city":"Indian Mound","state_name":"Tennessee","lat":36.4826,"lng":-87.65939,"zip":"37079","miles_from_dt":12.59},{"city":"Gracey","state_name":"Kentucky","lat":36.86665,"lng":-87.66167,"zip":"42232","miles_from_dt":14.01},{"city":"Clarksville","state_name":"Tennessee","lat":36.56894,"lng":-87.41225,"zip":"37042","miles_from_dt":14.19},{"city":"Cadiz","state_name":"Kentucky","lat":36.82016,"lng":-87.83709,"zip":"42211","miles_from_dt":15.39},{"city":"Hopkinsville","state_name":"Kentucky","lat":36.86709,"lng":-87.48976,"zip":"42241","miles_from_dt":16.23},{"city":"Pembroke","state_name":"Kentucky","lat":36.76562,"lng":-87.3601,"zip":"42266","miles_from_dt":16.96},{"city":"Clarksville","state_name":"Tennessee","lat":36.5612,"lng":-87.34874,"zip":"37041","miles_from_dt":17.61},{"city":"Fairview","state_name":"Kentucky","lat":36.89449,"lng":-87.48534,"zip":"42221","miles_from_dt":18},{"city":"Hopkinsville","state_name":"Kentucky","lat":36.88388,"lng":-87.46024,"zip":"42240","miles_from_dt":18.08},{"city":"Dover","state_name":"Tennessee","lat":36.47872,"lng":-87.8807,"zip":"37058","miles_from_dt":18.58},{"city":"Palmyra","state_name":"Tennessee","lat":36.41164,"lng":-87.50112,"zip":"37142","miles_from_dt":19.03},{"city":"Clarksville","state_name":"Tennessee","lat":36.52938,"lng":-87.33763,"zip":"37044","miles_from_dt":19.14},{"city":"Clarksville","state_name":"Tennessee","lat":36.52408,"lng":-87.33287,"zip":"37040","miles_from_dt":19.55},{"city":"Cumberland City","state_name":"Tennessee","lat":36.3713,"lng":-87.63586,"zip":"37050","miles_from_dt":20.21},{"city":"Trenton","state_name":"Kentucky","lat":36.72749,"lng":-87.26959,"zip":"42286","miles_from_dt":20.94},{"city":"Cerulean","state_name":"Kentucky","lat":36.99256,"lng":-87.67018,"zip":"42215","miles_from_dt":22.7},{"city":"Cunningham","state_name":"Tennessee","lat":36.37534,"lng":-87.40095,"zip":"37052","miles_from_dt":23.92},{"city":"Tennessee Ridge","state_name":"Tennessee","lat":36.3195,"lng":-87.78694,"zip":"37178","miles_from_dt":25.17},{"city":"Clarksville","state_name":"Tennessee","lat":36.49842,"lng":-87.23197,"zip":"37043","miles_from_dt":25.34},{"city":"Guthrie","state_name":"Kentucky","lat":36.70656,"lng":-87.17598,"zip":"42234","miles_from_dt":25.85},{"city":"Erin","state_name":"Tennessee","lat":36.28918,"lng":-87.66528,"zip":"37061","miles_from_dt":25.91},{"city":"New Concord","state_name":"Kentucky","lat":36.55906,"lng":-88.09473,"zip":"42076","miles_from_dt":26.38},{"city":"Slayden","state_name":"Tennessee","lat":36.29005,"lng":-87.46943,"zip":"37165","miles_from_dt":27.47},{"city":"Stewart","state_name":"Tennessee","lat":36.32349,"lng":-87.89678,"zip":"37175","miles_from_dt":27.55},{"city":"Cumberland Furnace","state_name":"Tennessee","lat":36.30426,"lng":-87.41405,"zip":"37051","miles_from_dt":27.8},{"city":"Southside","state_name":"Tennessee","lat":36.36442,"lng":-87.30365,"zip":"37171","miles_from_dt":27.84},{"city":"Crofton","state_name":"Kentucky","lat":37.04915,"lng":-87.47212,"zip":"42217","miles_from_dt":28.09}],"targetCityZipCode":"42254","targetCityState":"Kentucky"},"__N_SSG":true}