{"pageProps":{"stateName":"Kentucky","cityName":"madisonville","nearbyCities":[{"city":"Earlington","state_name":"Kentucky","lat":37.27655,"lng":-87.51078,"zip":"42410","miles_from_dt":4.37},{"city":"Mortons Gap","state_name":"Kentucky","lat":37.23887,"lng":-87.46782,"zip":"42440","miles_from_dt":6.52},{"city":"Hanson","state_name":"Kentucky","lat":37.44257,"lng":-87.46919,"zip":"42413","miles_from_dt":7.55},{"city":"Manitou","state_name":"Kentucky","lat":37.41462,"lng":-87.56946,"zip":"42436","miles_from_dt":7.65},{"city":"Graham","state_name":"Kentucky","lat":37.25681,"lng":-87.32053,"zip":"42344","miles_from_dt":10.01},{"city":"Nebo","state_name":"Kentucky","lat":37.36768,"lng":-87.65962,"zip":"42441","miles_from_dt":10.43},{"city":"Nortonville","state_name":"Kentucky","lat":37.17408,"lng":-87.48652,"zip":"42442","miles_from_dt":10.99},{"city":"Bremen","state_name":"Kentucky","lat":37.32537,"lng":-87.27375,"zip":"42325","miles_from_dt":11.1},{"city":"White Plains","state_name":"Kentucky","lat":37.18132,"lng":-87.37148,"zip":"42464","miles_from_dt":11.93},{"city":"Sacramento","state_name":"Kentucky","lat":37.40588,"lng":-87.2773,"zip":"42372","miles_from_dt":11.99},{"city":"Slaughters","state_name":"Kentucky","lat":37.51182,"lng":-87.49929,"zip":"42456","miles_from_dt":12.39},{"city":"Saint Charles","state_name":"Kentucky","lat":37.14888,"lng":-87.58275,"zip":"42453","miles_from_dt":14.03},{"city":"Rumsey","state_name":"Kentucky","lat":37.4978,"lng":-87.29362,"zip":"42371","miles_from_dt":15.12},{"city":"Dawson Springs","state_name":"Kentucky","lat":37.1797,"lng":-87.69229,"zip":"42408","miles_from_dt":15.98},{"city":"Providence","state_name":"Kentucky","lat":37.38741,"lng":-87.77535,"zip":"42450","miles_from_dt":16.94},{"city":"Sebree","state_name":"Kentucky","lat":37.5858,"lng":-87.53938,"zip":"42455","miles_from_dt":17.78},{"city":"Island","state_name":"Kentucky","lat":37.44852,"lng":-87.1831,"zip":"42350","miles_from_dt":17.93},{"city":"Powderly","state_name":"Kentucky","lat":37.2448,"lng":-87.16133,"zip":"42367","miles_from_dt":18.33},{"city":"South Carrollton","state_name":"Kentucky","lat":37.33333,"lng":-87.14045,"zip":"42374","miles_from_dt":18.43},{"city":"Dixon","state_name":"Kentucky","lat":37.5436,"lng":-87.69947,"zip":"42409","miles_from_dt":19.05},{"city":"Central City","state_name":"Kentucky","lat":37.31436,"lng":-87.12245,"zip":"42330","miles_from_dt":19.47},{"city":"Crofton","state_name":"Kentucky","lat":37.04915,"lng":-87.47212,"zip":"42217","miles_from_dt":19.59},{"city":"Calhoun","state_name":"Kentucky","lat":37.58721,"lng":-87.30042,"zip":"42327","miles_from_dt":19.98},{"city":"Greenville","state_name":"Kentucky","lat":37.14839,"lng":-87.18943,"zip":"42345","miles_from_dt":20.26},{"city":"Beech Grove","state_name":"Kentucky","lat":37.62083,"lng":-87.38821,"zip":"42322","miles_from_dt":20.4},{"city":"Cleaton","state_name":"Kentucky","lat":37.25099,"lng":-87.08935,"zip":"42332","miles_from_dt":22},{"city":"Clay","state_name":"Kentucky","lat":37.47878,"lng":-87.83636,"zip":"42404","miles_from_dt":22.27},{"city":"Poole","state_name":"Kentucky","lat":37.64152,"lng":-87.6455,"zip":"42444","miles_from_dt":23.23},{"city":"Wheatcroft","state_name":"Kentucky","lat":37.47897,"lng":-87.86717,"zip":"42463","miles_from_dt":23.8},{"city":"Centertown","state_name":"Kentucky","lat":37.41898,"lng":-87.0429,"zip":"42328","miles_from_dt":24.51},{"city":"Robards","state_name":"Kentucky","lat":37.68531,"lng":-87.53654,"zip":"42452","miles_from_dt":24.52},{"city":"Livermore","state_name":"Kentucky","lat":37.51333,"lng":-87.0833,"zip":"42352","miles_from_dt":24.87},{"city":"Princeton","state_name":"Kentucky","lat":37.12861,"lng":-87.86052,"zip":"42445","miles_from_dt":25.51},{"city":"Beech Creek","state_name":"Kentucky","lat":37.17977,"lng":-87.05195,"zip":"42321","miles_from_dt":25.61},{"city":"Rockport","state_name":"Kentucky","lat":37.3517,"lng":-87.00719,"zip":"42369","miles_from_dt":25.8},{"city":"Cerulean","state_name":"Kentucky","lat":36.99256,"lng":-87.67018,"zip":"42215","miles_from_dt":25.84},{"city":"Maple Mount","state_name":"Kentucky","lat":37.69364,"lng":-87.32289,"zip":"42356","miles_from_dt":26.23},{"city":"Browder","state_name":"Kentucky","lat":37.23666,"lng":-87.00835,"zip":"42326","miles_from_dt":26.57},{"city":"Beechmont","state_name":"Kentucky","lat":37.17406,"lng":-87.03261,"zip":"42323","miles_from_dt":26.75},{"city":"West Louisville","state_name":"Kentucky","lat":37.69821,"lng":-87.28471,"zip":"42377","miles_from_dt":27.26},{"city":"Drakesboro","state_name":"Kentucky","lat":37.22309,"lng":-86.99964,"zip":"42337","miles_from_dt":27.28},{"city":"Sullivan","state_name":"Kentucky","lat":37.49873,"lng":-87.94526,"zip":"42460","miles_from_dt":28.27},{"city":"Utica","state_name":"Kentucky","lat":37.61626,"lng":-87.08619,"zip":"42376","miles_from_dt":28.95},{"city":"Curdsville","state_name":"Kentucky","lat":37.73673,"lng":-87.32966,"zip":"42334","miles_from_dt":28.95},{"city":"Belton","state_name":"Kentucky","lat":37.13863,"lng":-87.00974,"zip":"42324","miles_from_dt":28.96}],"targetCityZipCode":"42431","targetCityState":"Kentucky"},"__N_SSG":true}