{"pageProps":{"stateName":"Kentucky","cityName":"mckinney","nearbyCities":[{"city":"Hustonville","state_name":"Kentucky","lat":37.44531,"lng":-84.85486,"zip":"40437","miles_from_dt":5.38},{"city":"Stanford","state_name":"Kentucky","lat":37.5153,"lng":-84.676,"zip":"40484","miles_from_dt":6.07},{"city":"Middleburg","state_name":"Kentucky","lat":37.37325,"lng":-84.80778,"zip":"42541","miles_from_dt":6.34},{"city":"Kings Mountain","state_name":"Kentucky","lat":37.35205,"lng":-84.72868,"zip":"40442","miles_from_dt":7.36},{"city":"Waynesburg","state_name":"Kentucky","lat":37.36629,"lng":-84.64435,"zip":"40489","miles_from_dt":8.81},{"city":"Junction City","state_name":"Kentucky","lat":37.57628,"lng":-84.8322,"zip":"40440","miles_from_dt":9.23},{"city":"Parksville","state_name":"Kentucky","lat":37.55579,"lng":-84.91148,"zip":"40464","miles_from_dt":10.87},{"city":"Yosemite","state_name":"Kentucky","lat":37.28389,"lng":-84.77932,"zip":"42566","miles_from_dt":11.94},{"city":"Danville","state_name":"Kentucky","lat":37.64316,"lng":-84.7715,"zip":"40423","miles_from_dt":12.91},{"city":"Danville","state_name":"Kentucky","lat":37.64235,"lng":-84.80488,"zip":"40422","miles_from_dt":13.09},{"city":"Crab Orchard","state_name":"Kentucky","lat":37.44791,"lng":-84.49204,"zip":"40419","miles_from_dt":14.63},{"city":"Liberty","state_name":"Kentucky","lat":37.30566,"lng":-84.95265,"zip":"42539","miles_from_dt":14.92},{"city":"Mitchellsburg","state_name":"Kentucky","lat":37.59841,"lng":-84.9643,"zip":"40452","miles_from_dt":14.98},{"city":"Eubank","state_name":"Kentucky","lat":37.26441,"lng":-84.60454,"zip":"42567","miles_from_dt":15.7},{"city":"Bethelridge","state_name":"Kentucky","lat":37.22247,"lng":-84.77881,"zip":"42516","miles_from_dt":16.16},{"city":"Gravel Switch","state_name":"Kentucky","lat":37.56632,"lng":-85.02565,"zip":"40328","miles_from_dt":16.55},{"city":"Lancaster","state_name":"Kentucky","lat":37.67893,"lng":-84.58819,"zip":"40444","miles_from_dt":17.97},{"city":"Perryville","state_name":"Kentucky","lat":37.65158,"lng":-84.98782,"zip":"40468","miles_from_dt":18.46},{"city":"Bradfordsville","state_name":"Kentucky","lat":37.47075,"lng":-85.099,"zip":"40009","miles_from_dt":18.77},{"city":"Bryantsville","state_name":"Kentucky","lat":37.71387,"lng":-84.64697,"zip":"40410","miles_from_dt":18.78},{"city":"Brodhead","state_name":"Kentucky","lat":37.37667,"lng":-84.42971,"zip":"40409","miles_from_dt":18.87},{"city":"Science Hill","state_name":"Kentucky","lat":37.1716,"lng":-84.70056,"zip":"42553","miles_from_dt":19.88},{"city":"Burgin","state_name":"Kentucky","lat":37.752,"lng":-84.76941,"zip":"40310","miles_from_dt":20.41},{"city":"Paint Lick","state_name":"Kentucky","lat":37.59014,"lng":-84.40849,"zip":"40461","miles_from_dt":21.3},{"city":"Windsor","state_name":"Kentucky","lat":37.15008,"lng":-84.90086,"zip":"42565","miles_from_dt":22.53},{"city":"Dunnville","state_name":"Kentucky","lat":37.18335,"lng":-85.01712,"zip":"42528","miles_from_dt":23.62},{"city":"Renfro Valley","state_name":"Kentucky","lat":37.38853,"lng":-84.33044,"zip":"40473","miles_from_dt":23.98},{"city":"Harrodsburg","state_name":"Kentucky","lat":37.78912,"lng":-84.89016,"zip":"40330","miles_from_dt":24.07},{"city":"Somerset","state_name":"Kentucky","lat":37.15677,"lng":-84.52511,"zip":"42503","miles_from_dt":24.31},{"city":"Elk Horn","state_name":"Kentucky","lat":37.34008,"lng":-85.18028,"zip":"42733","miles_from_dt":24.58},{"city":"Mannsville","state_name":"Kentucky","lat":37.37656,"lng":-85.19756,"zip":"42758","miles_from_dt":24.8},{"city":"Mount Vernon","state_name":"Kentucky","lat":37.3538,"lng":-84.32099,"zip":"40456","miles_from_dt":25.06},{"city":"Wildie","state_name":"Kentucky","lat":37.42057,"lng":-84.2997,"zip":"40492","miles_from_dt":25.32},{"city":"Somerset","state_name":"Kentucky","lat":37.09586,"lng":-84.60369,"zip":"42502","miles_from_dt":26.27},{"city":"West Somerset","state_name":"Kentucky","lat":37.08839,"lng":-84.60085,"zip":"42564","miles_from_dt":26.8},{"city":"Berea","state_name":"Kentucky","lat":37.57311,"lng":-84.29037,"zip":"40404","miles_from_dt":26.92},{"city":"Lebanon","state_name":"Kentucky","lat":37.55935,"lng":-85.23928,"zip":"40033","miles_from_dt":27.38},{"city":"Mackville","state_name":"Kentucky","lat":37.77433,"lng":-85.05727,"zip":"40040","miles_from_dt":27.4},{"city":"Wilmore","state_name":"Kentucky","lat":37.85407,"lng":-84.67075,"zip":"40390","miles_from_dt":27.85},{"city":"Knifley","state_name":"Kentucky","lat":37.22299,"lng":-85.17411,"zip":"42753","miles_from_dt":28},{"city":"Berea","state_name":"Kentucky","lat":37.57052,"lng":-84.26622,"zip":"40403","miles_from_dt":28.14},{"city":"Ferguson","state_name":"Kentucky","lat":37.06752,"lng":-84.59382,"zip":"42533","miles_from_dt":28.29},{"city":"Orlando","state_name":"Kentucky","lat":37.39385,"lng":-84.23985,"zip":"40460","miles_from_dt":28.82},{"city":"Nancy","state_name":"Kentucky","lat":37.03473,"lng":-84.8143,"zip":"42544","miles_from_dt":29.23}],"targetCityZipCode":"40448","targetCityState":"Kentucky"},"__N_SSG":true}