{"pageProps":{"stateName":"Kentucky","cityName":"mount-sherman","nearbyCities":[{"city":"Buffalo","state_name":"Kentucky","lat":37.47495,"lng":-85.61925,"zip":"42716","miles_from_dt":3.15},{"city":"Magnolia","state_name":"Kentucky","lat":37.40192,"lng":-85.72501,"zip":"42757","miles_from_dt":5.82},{"city":"Summersville","state_name":"Kentucky","lat":37.34475,"lng":-85.63702,"zip":"42782","miles_from_dt":5.88},{"city":"Hodgenville","state_name":"Kentucky","lat":37.57029,"lng":-85.70952,"zip":"42748","miles_from_dt":10.76},{"city":"Canmer","state_name":"Kentucky","lat":37.27628,"lng":-85.71703,"zip":"42722","miles_from_dt":11.72},{"city":"Raywick","state_name":"Kentucky","lat":37.53529,"lng":-85.44371,"zip":"40060","miles_from_dt":12.35},{"city":"New Hope","state_name":"Kentucky","lat":37.58417,"lng":-85.51154,"zip":"40052","miles_from_dt":12.36},{"city":"Campbellsville","state_name":"Kentucky","lat":37.38994,"lng":-85.37561,"zip":"42718","miles_from_dt":13.99},{"city":"Bonnieville","state_name":"Kentucky","lat":37.37631,"lng":-85.88282,"zip":"42713","miles_from_dt":14.65},{"city":"Greensburg","state_name":"Kentucky","lat":37.22958,"lng":-85.53175,"zip":"42743","miles_from_dt":14.71},{"city":"New Haven","state_name":"Kentucky","lat":37.65293,"lng":-85.57949,"zip":"40051","miles_from_dt":15.61},{"city":"Saint Francis","state_name":"Kentucky","lat":37.59969,"lng":-85.43161,"zip":"40062","miles_from_dt":15.83},{"city":"Hardyville","state_name":"Kentucky","lat":37.21233,"lng":-85.73304,"zip":"42746","miles_from_dt":16.11},{"city":"Upton","state_name":"Kentucky","lat":37.4503,"lng":-85.92272,"zip":"42784","miles_from_dt":16.43},{"city":"Campbellsville","state_name":"Kentucky","lat":37.34194,"lng":-85.34023,"zip":"42719","miles_from_dt":16.8},{"city":"Sonora","state_name":"Kentucky","lat":37.51577,"lng":-85.91834,"zip":"42776","miles_from_dt":17.18},{"city":"Saint Mary","state_name":"Kentucky","lat":37.57052,"lng":-85.34336,"zip":"40063","miles_from_dt":18.28},{"city":"Munfordville","state_name":"Kentucky","lat":37.30699,"lng":-85.93115,"zip":"42765","miles_from_dt":18.85},{"city":"Loretto","state_name":"Kentucky","lat":37.65409,"lng":-85.41196,"zip":"40037","miles_from_dt":19.41},{"city":"Nerinx","state_name":"Kentucky","lat":37.66442,"lng":-85.39724,"zip":"40049","miles_from_dt":20.47},{"city":"Center","state_name":"Kentucky","lat":37.13428,"lng":-85.68822,"zip":"42214","miles_from_dt":20.65},{"city":"Glendale","state_name":"Kentucky","lat":37.59174,"lng":-85.94358,"zip":"42740","miles_from_dt":20.77},{"city":"Horse Cave","state_name":"Kentucky","lat":37.18983,"lng":-85.87516,"zip":"42749","miles_from_dt":21.52},{"city":"Elizabethtown","state_name":"Kentucky","lat":37.70502,"lng":-85.83881,"zip":"42701","miles_from_dt":22.33},{"city":"Elizabethtown","state_name":"Kentucky","lat":37.69406,"lng":-85.86065,"zip":"42702","miles_from_dt":22.37},{"city":"Lebanon","state_name":"Kentucky","lat":37.55935,"lng":-85.23928,"zip":"40033","miles_from_dt":23.01},{"city":"Boston","state_name":"Kentucky","lat":37.76952,"lng":-85.63798,"zip":"40107","miles_from_dt":23.46},{"city":"White Mills","state_name":"Kentucky","lat":37.52774,"lng":-86.0372,"zip":"42788","miles_from_dt":23.64},{"city":"Mannsville","state_name":"Kentucky","lat":37.37656,"lng":-85.19756,"zip":"42758","miles_from_dt":23.8},{"city":"Cane Valley","state_name":"Kentucky","lat":37.17028,"lng":-85.32617,"zip":"42720","miles_from_dt":24.3},{"city":"Hiseville","state_name":"Kentucky","lat":37.09871,"lng":-85.81184,"zip":"42152","miles_from_dt":25.03},{"city":"Elk Horn","state_name":"Kentucky","lat":37.34008,"lng":-85.18028,"zip":"42733","miles_from_dt":25.24},{"city":"Gradyville","state_name":"Kentucky","lat":37.07774,"lng":-85.47888,"zip":"42742","miles_from_dt":25.56},{"city":"Knob Lick","state_name":"Kentucky","lat":37.04876,"lng":-85.72421,"zip":"42154","miles_from_dt":26.82},{"city":"Cave City","state_name":"Kentucky","lat":37.12167,"lng":-85.92746,"zip":"42127","miles_from_dt":26.99},{"city":"Bardstown","state_name":"Kentucky","lat":37.80279,"lng":-85.4695,"zip":"40004","miles_from_dt":27.12},{"city":"Cub Run","state_name":"Kentucky","lat":37.30167,"lng":-86.09719,"zip":"42729","miles_from_dt":27.44},{"city":"Saint Catharine","state_name":"Kentucky","lat":37.70954,"lng":-85.26353,"zip":"40061","miles_from_dt":27.69},{"city":"Knifley","state_name":"Kentucky","lat":37.22299,"lng":-85.17411,"zip":"42753","miles_from_dt":28.63},{"city":"Columbia","state_name":"Kentucky","lat":37.10943,"lng":-85.28873,"zip":"42728","miles_from_dt":28.82},{"city":"Clarkson","state_name":"Kentucky","lat":37.42423,"lng":-86.15035,"zip":"42726","miles_from_dt":28.89},{"city":"Bradfordsville","state_name":"Kentucky","lat":37.47075,"lng":-85.099,"zip":"40009","miles_from_dt":29.06},{"city":"Cecilia","state_name":"Kentucky","lat":37.67293,"lng":-86.06461,"zip":"42724","miles_from_dt":29.4},{"city":"Eastview","state_name":"Kentucky","lat":37.61,"lng":-86.11235,"zip":"42732","miles_from_dt":29.52},{"city":"Springfield","state_name":"Kentucky","lat":37.71627,"lng":-85.21764,"zip":"40069","miles_from_dt":29.86},{"city":"Nazareth","state_name":"Kentucky","lat":37.84707,"lng":-85.47338,"zip":"40048","miles_from_dt":29.98}],"targetCityZipCode":"42764","targetCityState":"Kentucky"},"__N_SSG":true}