{"pageProps":{"stateName":"Kentucky","cityName":"rockfield","nearbyCities":[{"city":"Woodburn","state_name":"Kentucky","lat":36.84678,"lng":-86.57459,"zip":"42170","miles_from_dt":7.26},{"city":"Auburn","state_name":"Kentucky","lat":36.88221,"lng":-86.72302,"zip":"42206","miles_from_dt":7.99},{"city":"Bowling Green","state_name":"Kentucky","lat":36.87718,"lng":-86.45233,"zip":"42104","miles_from_dt":9.82},{"city":"Bowling Green","state_name":"Kentucky","lat":37.06552,"lng":-86.47809,"zip":"42101","miles_from_dt":10.67},{"city":"Bowling Green","state_name":"Kentucky","lat":36.95269,"lng":-86.40192,"zip":"42102","miles_from_dt":11.26},{"city":"Bowling Green","state_name":"Kentucky","lat":36.83432,"lng":-86.40639,"zip":"42128","miles_from_dt":13.57},{"city":"Bowling Green","state_name":"Kentucky","lat":36.94802,"lng":-86.33396,"zip":"42103","miles_from_dt":15.02},{"city":"Alvaton","state_name":"Kentucky","lat":36.85885,"lng":-86.35718,"zip":"42122","miles_from_dt":15.09},{"city":"Franklin","state_name":"Kentucky","lat":36.72626,"lng":-86.56433,"zip":"42134","miles_from_dt":15.54},{"city":"Franklin","state_name":"Kentucky","lat":36.71649,"lng":-86.57733,"zip":"42135","miles_from_dt":16.12},{"city":"Woodbury","state_name":"Kentucky","lat":37.18172,"lng":-86.6362,"zip":"42288","miles_from_dt":16.13},{"city":"Russellville","state_name":"Kentucky","lat":36.86093,"lng":-86.87727,"zip":"42276","miles_from_dt":16.24},{"city":"Dunbar","state_name":"Kentucky","lat":37.16422,"lng":-86.74949,"zip":"42219","miles_from_dt":16.84},{"city":"Morgantown","state_name":"Kentucky","lat":37.22405,"lng":-86.67015,"zip":"42261","miles_from_dt":19.29},{"city":"Lewisburg","state_name":"Kentucky","lat":37.01666,"lng":-86.94796,"zip":"42256","miles_from_dt":19.52},{"city":"Oakland","state_name":"Kentucky","lat":36.99594,"lng":-86.24771,"zip":"42159","miles_from_dt":20.05},{"city":"Jetson","state_name":"Kentucky","lat":37.23713,"lng":-86.50029,"zip":"42252","miles_from_dt":20.69},{"city":"Roundhill","state_name":"Kentucky","lat":37.22701,"lng":-86.44628,"zip":"42275","miles_from_dt":21.08},{"city":"Aberdeen","state_name":"Kentucky","lat":37.25362,"lng":-86.68473,"zip":"42201","miles_from_dt":21.45},{"city":"Mitchellville","state_name":"Tennessee","lat":36.63259,"lng":-86.5371,"zip":"37119","miles_from_dt":22.15},{"city":"Dunmor","state_name":"Kentucky","lat":37.11326,"lng":-86.95033,"zip":"42339","miles_from_dt":22.18},{"city":"Rochester","state_name":"Kentucky","lat":37.20128,"lng":-86.85916,"zip":"42273","miles_from_dt":22.34},{"city":"Adairville","state_name":"Kentucky","lat":36.68732,"lng":-86.85916,"zip":"42202","miles_from_dt":22.89},{"city":"Orlinda","state_name":"Tennessee","lat":36.6145,"lng":-86.69894,"zip":"37141","miles_from_dt":23.65},{"city":"Brownsville","state_name":"Kentucky","lat":37.21724,"lng":-86.31438,"zip":"42210","miles_from_dt":24.5},{"city":"Smiths Grove","state_name":"Kentucky","lat":37.03609,"lng":-86.16728,"zip":"42171","miles_from_dt":24.96},{"city":"Belton","state_name":"Kentucky","lat":37.13863,"lng":-87.00974,"zip":"42324","miles_from_dt":25.89},{"city":"Portland","state_name":"Tennessee","lat":36.57694,"lng":-86.50224,"zip":"37148","miles_from_dt":26.3},{"city":"Olmstead","state_name":"Kentucky","lat":36.739,"lng":-87.00141,"zip":"42265","miles_from_dt":26.3},{"city":"Adolphus","state_name":"Kentucky","lat":36.67196,"lng":-86.27465,"zip":"42120","miles_from_dt":26.49},{"city":"Scottsville","state_name":"Kentucky","lat":36.7704,"lng":-86.18096,"zip":"42164","miles_from_dt":26.55},{"city":"Cross Plains","state_name":"Tennessee","lat":36.55985,"lng":-86.67887,"zip":"37049","miles_from_dt":27.15},{"city":"Sharon Grove","state_name":"Kentucky","lat":36.95055,"lng":-87.09927,"zip":"42280","miles_from_dt":27.34},{"city":"Rocky Hill","state_name":"Kentucky","lat":37.07968,"lng":-86.13466,"zip":"42163","miles_from_dt":27.54},{"city":"Sweeden","state_name":"Kentucky","lat":37.26418,"lng":-86.29751,"zip":"42285","miles_from_dt":27.59},{"city":"Beechmont","state_name":"Kentucky","lat":37.17406,"lng":-87.03261,"zip":"42323","miles_from_dt":28.25},{"city":"Drakesboro","state_name":"Kentucky","lat":37.22309,"lng":-86.99964,"zip":"42337","miles_from_dt":28.83},{"city":"Beech Creek","state_name":"Kentucky","lat":37.17977,"lng":-87.05195,"zip":"42321","miles_from_dt":29.36},{"city":"Browder","state_name":"Kentucky","lat":37.23666,"lng":-87.00835,"zip":"42326","miles_from_dt":29.81},{"city":"Clifty","state_name":"Kentucky","lat":36.98719,"lng":-87.14236,"zip":"42216","miles_from_dt":29.83}],"targetCityZipCode":"42274","targetCityState":"Kentucky"},"__N_SSG":true}