{"pageProps":{"stateName":"Kentucky","cityName":"stearns","nearbyCities":[{"city":"Marshes Siding","state_name":"Kentucky","lat":36.74039,"lng":-84.48098,"zip":"42631","miles_from_dt":7.97},{"city":"Revelo","state_name":"Kentucky","lat":36.67487,"lng":-84.4689,"zip":"42638","miles_from_dt":8.01},{"city":"Whitley City","state_name":"Kentucky","lat":36.78117,"lng":-84.4618,"zip":"42653","miles_from_dt":10.33},{"city":"Strunk","state_name":"Kentucky","lat":36.6253,"lng":-84.41798,"zip":"42649","miles_from_dt":11.7},{"city":"Pine Knot","state_name":"Kentucky","lat":36.67601,"lng":-84.40033,"zip":"42635","miles_from_dt":11.78},{"city":"Oneida","state_name":"Tennessee","lat":36.5088,"lng":-84.54665,"zip":"37841","miles_from_dt":13.15},{"city":"Monticello","state_name":"Kentucky","lat":36.79245,"lng":-84.83155,"zip":"42633","miles_from_dt":14.04},{"city":"Bronston","state_name":"Kentucky","lat":36.9253,"lng":-84.64265,"zip":"42518","miles_from_dt":16.17},{"city":"Winfield","state_name":"Tennessee","lat":36.55666,"lng":-84.37132,"zip":"37892","miles_from_dt":16.29},{"city":"Parkers Lake","state_name":"Kentucky","lat":36.88043,"lng":-84.41601,"zip":"42634","miles_from_dt":16.91},{"city":"Burnside","state_name":"Kentucky","lat":36.93932,"lng":-84.53573,"zip":"42519","miles_from_dt":17.55},{"city":"Tateville","state_name":"Kentucky","lat":36.94869,"lng":-84.57667,"zip":"42558","miles_from_dt":17.79},{"city":"Helenwood","state_name":"Tennessee","lat":36.42249,"lng":-84.53166,"zip":"37755","miles_from_dt":19.12},{"city":"Pall Mall","state_name":"Tennessee","lat":36.56453,"lng":-84.94651,"zip":"38577","miles_from_dt":20.6},{"city":"Allardt","state_name":"Tennessee","lat":36.39314,"lng":-84.73528,"zip":"38504","miles_from_dt":21.74},{"city":"Alpha","state_name":"Kentucky","lat":36.77875,"lng":-85.01093,"zip":"42603","miles_from_dt":22.96},{"city":"Rugby","state_name":"Tennessee","lat":36.35676,"lng":-84.69497,"zip":"37733","miles_from_dt":23.59},{"city":"Newcomb","state_name":"Tennessee","lat":36.55649,"lng":-84.21169,"zip":"37819","miles_from_dt":24.11},{"city":"Williamsburg","state_name":"Kentucky","lat":36.7116,"lng":-84.17284,"zip":"40769","miles_from_dt":24.39},{"city":"Elgin","state_name":"Tennessee","lat":36.32792,"lng":-84.6282,"zip":"37732","miles_from_dt":25.14},{"city":"Robbins","state_name":"Tennessee","lat":36.32365,"lng":-84.57454,"zip":"37852","miles_from_dt":25.5},{"city":"Emlyn","state_name":"Kentucky","lat":36.70642,"lng":-84.14605,"zip":"40730","miles_from_dt":25.86},{"city":"Ferguson","state_name":"Kentucky","lat":37.06752,"lng":-84.59382,"zip":"42533","miles_from_dt":25.9},{"city":"Pioneer","state_name":"Tennessee","lat":36.43156,"lng":-84.27346,"zip":"37847","miles_from_dt":26.01},{"city":"Jamestown","state_name":"Tennessee","lat":36.41016,"lng":-84.9249,"zip":"38556","miles_from_dt":26.12},{"city":"Nancy","state_name":"Kentucky","lat":37.03473,"lng":-84.8143,"zip":"42544","miles_from_dt":26.16},{"city":"Somerset","state_name":"Kentucky","lat":37.06174,"lng":-84.44973,"zip":"42501","miles_from_dt":27.01},{"city":"West Somerset","state_name":"Kentucky","lat":37.08839,"lng":-84.60085,"zip":"42564","miles_from_dt":27.33},{"city":"Somerset","state_name":"Kentucky","lat":37.09586,"lng":-84.60369,"zip":"42502","miles_from_dt":27.84},{"city":"Jellico","state_name":"Tennessee","lat":36.57657,"lng":-84.12323,"zip":"37762","miles_from_dt":28.28},{"city":"Albany","state_name":"Kentucky","lat":36.73201,"lng":-85.13324,"zip":"42602","miles_from_dt":29.1},{"city":"Corbin","state_name":"Kentucky","lat":36.91759,"lng":-84.16651,"zip":"40701","miles_from_dt":29.16},{"city":"Huntsville","state_name":"Tennessee","lat":36.30165,"lng":-84.40704,"zip":"37756","miles_from_dt":29.23},{"city":"Sunbright","state_name":"Tennessee","lat":36.26869,"lng":-84.68119,"zip":"37872","miles_from_dt":29.46}],"targetCityZipCode":"42647","targetCityState":"Kentucky"},"__N_SSG":true}