{"pageProps":{"stateName":"Kentucky","cityName":"tompkinsville","nearbyCities":[{"city":"Hestand","state_name":"Kentucky","lat":36.64848,"lng":-85.56058,"zip":"42151","miles_from_dt":8.02},{"city":"Mount Hermon","state_name":"Kentucky","lat":36.78872,"lng":-85.8187,"zip":"42157","miles_from_dt":9.37},{"city":"Beaumont","state_name":"Kentucky","lat":36.86534,"lng":-85.64817,"zip":"42124","miles_from_dt":9.8},{"city":"Gamaliel","state_name":"Kentucky","lat":36.65549,"lng":-85.83108,"zip":"42140","miles_from_dt":10.13},{"city":"Summer Shade","state_name":"Kentucky","lat":36.87768,"lng":-85.71503,"zip":"42166","miles_from_dt":10.87},{"city":"Marrowbone","state_name":"Kentucky","lat":36.82909,"lng":-85.51334,"zip":"42759","miles_from_dt":11.3},{"city":"Moss","state_name":"Tennessee","lat":36.55848,"lng":-85.63515,"zip":"38575","miles_from_dt":11.6},{"city":"Red Boiling Springs","state_name":"Tennessee","lat":36.54437,"lng":-85.81082,"zip":"37150","miles_from_dt":14.67},{"city":"Eighty Eight","state_name":"Kentucky","lat":36.9224,"lng":-85.77816,"zip":"42130","miles_from_dt":14.92},{"city":"Etoile","state_name":"Kentucky","lat":36.82734,"lng":-85.90915,"zip":"42131","miles_from_dt":15.05},{"city":"Celina","state_name":"Tennessee","lat":36.55804,"lng":-85.48699,"zip":"38551","miles_from_dt":15.33},{"city":"Fountain Run","state_name":"Kentucky","lat":36.72248,"lng":-85.95468,"zip":"42133","miles_from_dt":15.8},{"city":"Burkesville","state_name":"Kentucky","lat":36.78169,"lng":-85.38331,"zip":"42717","miles_from_dt":16.39},{"city":"Whitleyville","state_name":"Tennessee","lat":36.45613,"lng":-85.7189,"zip":"38588","miles_from_dt":18.69},{"city":"Edmonton","state_name":"Kentucky","lat":36.99,"lng":-85.58992,"zip":"42129","miles_from_dt":18.85},{"city":"Austin","state_name":"Kentucky","lat":36.82039,"lng":-85.99573,"zip":"42123","miles_from_dt":19.25},{"city":"Glasgow","state_name":"Kentucky","lat":36.94883,"lng":-85.91489,"zip":"42141","miles_from_dt":20.59},{"city":"Breeding","state_name":"Kentucky","lat":36.94352,"lng":-85.4134,"zip":"42715","miles_from_dt":20.75},{"city":"Holland","state_name":"Kentucky","lat":36.68006,"lng":-86.04234,"zip":"42153","miles_from_dt":20.9},{"city":"Lafayette","state_name":"Tennessee","lat":36.54357,"lng":-86.00149,"zip":"37083","miles_from_dt":22.24},{"city":"Knob Lick","state_name":"Kentucky","lat":37.04876,"lng":-85.72421,"zip":"42154","miles_from_dt":22.57},{"city":"Hilham","state_name":"Tennessee","lat":36.43594,"lng":-85.46907,"zip":"38568","miles_from_dt":22.81},{"city":"Allons","state_name":"Tennessee","lat":36.52903,"lng":-85.33767,"zip":"38541","miles_from_dt":22.86},{"city":"Glasgow","state_name":"Kentucky","lat":36.99761,"lng":-85.9063,"zip":"42142","miles_from_dt":22.95},{"city":"Lucas","state_name":"Kentucky","lat":36.85947,"lng":-86.04952,"zip":"42156","miles_from_dt":23.02},{"city":"Gainesboro","state_name":"Tennessee","lat":36.35173,"lng":-85.65932,"zip":"38562","miles_from_dt":25.7},{"city":"Gradyville","state_name":"Kentucky","lat":37.07774,"lng":-85.47888,"zip":"42742","miles_from_dt":26.57},{"city":"Hiseville","state_name":"Kentucky","lat":37.09871,"lng":-85.81184,"zip":"42152","miles_from_dt":26.99},{"city":"Pleasant Shade","state_name":"Tennessee","lat":36.38179,"lng":-85.91203,"zip":"37145","miles_from_dt":27.19},{"city":"Center","state_name":"Kentucky","lat":37.13428,"lng":-85.68822,"zip":"42214","miles_from_dt":28.29},{"city":"Scottsville","state_name":"Kentucky","lat":36.7704,"lng":-86.18096,"zip":"42164","miles_from_dt":28.53},{"city":"Glens Fork","state_name":"Kentucky","lat":36.9888,"lng":-85.25183,"zip":"42741","miles_from_dt":29.49},{"city":"Dixon Springs","state_name":"Tennessee","lat":36.40466,"lng":-86.02726,"zip":"37057","miles_from_dt":29.68},{"city":"Albany","state_name":"Kentucky","lat":36.73201,"lng":-85.13324,"zip":"42602","miles_from_dt":29.8},{"city":"Monroe","state_name":"Tennessee","lat":36.48945,"lng":-85.21931,"zip":"38573","miles_from_dt":29.83}],"targetCityZipCode":"42167","targetCityState":"Kentucky"},"__N_SSG":true}