{"pageProps":{"stateName":"Kentucky","cityName":"vanceburg","nearbyCities":[{"city":"Tollesboro","state_name":"Kentucky","lat":38.54493,"lng":-83.56175,"zip":"41189","miles_from_dt":9.41},{"city":"Stout","state_name":"Ohio","lat":38.67546,"lng":-83.27789,"zip":"45684","miles_from_dt":12.03},{"city":"Emerson","state_name":"Kentucky","lat":38.36026,"lng":-83.28796,"zip":"41135","miles_from_dt":12.63},{"city":"Wallingford","state_name":"Kentucky","lat":38.39441,"lng":-83.56269,"zip":"41093","miles_from_dt":12.99},{"city":"Garrison","state_name":"Kentucky","lat":38.54381,"lng":-83.13357,"zip":"41141","miles_from_dt":13.95},{"city":"Lynx","state_name":"Ohio","lat":38.74415,"lng":-83.42099,"zip":"45650","miles_from_dt":15.22},{"city":"Carter","state_name":"Kentucky","lat":38.4274,"lng":-83.11977,"zip":"41128","miles_from_dt":16.11},{"city":"Blue Creek","state_name":"Ohio","lat":38.76018,"lng":-83.30864,"zip":"45616","miles_from_dt":16.82},{"city":"Manchester","state_name":"Ohio","lat":38.70534,"lng":-83.6142,"zip":"45144","miles_from_dt":17.39},{"city":"Quincy","state_name":"Kentucky","lat":38.63464,"lng":-83.09328,"zip":"41166","miles_from_dt":17.76},{"city":"Plummers Landing","state_name":"Kentucky","lat":38.30496,"lng":-83.56992,"zip":"41081","miles_from_dt":18.04},{"city":"Soldier","state_name":"Kentucky","lat":38.26011,"lng":-83.29949,"zip":"41173","miles_from_dt":18.91},{"city":"Bentonville","state_name":"Ohio","lat":38.75015,"lng":-83.61235,"zip":"45105","miles_from_dt":19.66},{"city":"Flemingsburg","state_name":"Kentucky","lat":38.40548,"lng":-83.72338,"zip":"41041","miles_from_dt":19.87},{"city":"Friendship","state_name":"Ohio","lat":38.69758,"lng":-83.09275,"zip":"45630","miles_from_dt":20.01},{"city":"Olive Hill","state_name":"Kentucky","lat":38.28914,"lng":-83.16231,"zip":"41164","miles_from_dt":20.42},{"city":"West Union","state_name":"Ohio","lat":38.80921,"lng":-83.53406,"zip":"45693","miles_from_dt":21.11},{"city":"West Portsmouth","state_name":"Ohio","lat":38.74507,"lng":-83.11198,"zip":"45663","miles_from_dt":21.37},{"city":"Maysville","state_name":"Kentucky","lat":38.59913,"lng":-83.77576,"zip":"41056","miles_from_dt":21.52},{"city":"Hillsboro","state_name":"Kentucky","lat":38.27465,"lng":-83.64581,"zip":"41049","miles_from_dt":22.15},{"city":"Aberdeen","state_name":"Ohio","lat":38.69164,"lng":-83.74024,"zip":"45101","miles_from_dt":22.18},{"city":"Morehead","state_name":"Kentucky","lat":38.19817,"lng":-83.4133,"zip":"40351","miles_from_dt":22.57},{"city":"Washington","state_name":"Kentucky","lat":38.61585,"lng":-83.80616,"zip":"41096","miles_from_dt":23.4},{"city":"South Portsmouth","state_name":"Kentucky","lat":38.69841,"lng":-83.0139,"zip":"41174","miles_from_dt":23.61},{"city":"South Shore","state_name":"Kentucky","lat":38.64574,"lng":-82.97791,"zip":"41175","miles_from_dt":23.81},{"city":"Grahn","state_name":"Kentucky","lat":38.27774,"lng":-83.07308,"zip":"41142","miles_from_dt":24.21},{"city":"Elliottville","state_name":"Kentucky","lat":38.18273,"lng":-83.27658,"zip":"40317","miles_from_dt":24.39},{"city":"Otway","state_name":"Ohio","lat":38.85166,"lng":-83.21011,"zip":"45657","miles_from_dt":24.55},{"city":"Elizaville","state_name":"Kentucky","lat":38.41997,"lng":-83.82414,"zip":"41037","miles_from_dt":24.63},{"city":"Grayson","state_name":"Kentucky","lat":38.33916,"lng":-82.97704,"zip":"41143","miles_from_dt":25.8},{"city":"Greenup","state_name":"Kentucky","lat":38.53461,"lng":-82.91208,"zip":"41144","miles_from_dt":25.9},{"city":"Decatur","state_name":"Ohio","lat":38.80818,"lng":-83.70728,"zip":"45115","miles_from_dt":26.01},{"city":"Mayslick","state_name":"Kentucky","lat":38.51787,"lng":-83.86995,"zip":"41055","miles_from_dt":26.02},{"city":"McDermott","state_name":"Ohio","lat":38.82911,"lng":-83.08018,"zip":"45652","miles_from_dt":26.85},{"city":"Clearfield","state_name":"Kentucky","lat":38.13215,"lng":-83.38973,"zip":"40313","miles_from_dt":27.08},{"city":"Farmers","state_name":"Kentucky","lat":38.14521,"lng":-83.54559,"zip":"40319","miles_from_dt":27.52},{"city":"Cherry Fork","state_name":"Ohio","lat":38.88502,"lng":-83.61623,"zip":"45618","miles_from_dt":27.69},{"city":"Ewing","state_name":"Kentucky","lat":38.41381,"lng":-83.88074,"zip":"41039","miles_from_dt":27.7},{"city":"Ripley","state_name":"Ohio","lat":38.77234,"lng":-83.79943,"zip":"45167","miles_from_dt":27.97}],"targetCityZipCode":"41179","targetCityState":"Kentucky"},"__N_SSG":true}