{"pageProps":{"stateName":"Kentucky","cityName":"vancleve","nearbyCities":[{"city":"Bays","state_name":"Kentucky","lat":37.64068,"lng":-83.25147,"zip":"41310","miles_from_dt":4.71},{"city":"Rousseau","state_name":"Kentucky","lat":37.62472,"lng":-83.21959,"zip":"41366","miles_from_dt":6.65},{"city":"Jackson","state_name":"Kentucky","lat":37.53158,"lng":-83.29231,"zip":"41339","miles_from_dt":8.52},{"city":"Campton","state_name":"Kentucky","lat":37.72121,"lng":-83.48941,"zip":"41301","miles_from_dt":9.71},{"city":"Cannel City","state_name":"Kentucky","lat":37.79508,"lng":-83.28828,"zip":"41408","miles_from_dt":10.35},{"city":"Hazel Green","state_name":"Kentucky","lat":37.80029,"lng":-83.37575,"zip":"41332","miles_from_dt":10.59},{"city":"Mize","state_name":"Kentucky","lat":37.82357,"lng":-83.33511,"zip":"41352","miles_from_dt":11.97},{"city":"Salyersville","state_name":"Kentucky","lat":37.72985,"lng":-83.08494,"zip":"41465","miles_from_dt":14.85},{"city":"Clayhole","state_name":"Kentucky","lat":37.46029,"lng":-83.19851,"zip":"41317","miles_from_dt":15.12},{"city":"Lost Creek","state_name":"Kentucky","lat":37.42577,"lng":-83.31387,"zip":"41348","miles_from_dt":15.51},{"city":"Malone","state_name":"Kentucky","lat":37.87383,"lng":-83.25871,"zip":"41451","miles_from_dt":16.02},{"city":"Whick","state_name":"Kentucky","lat":37.41872,"lng":-83.3792,"zip":"41390","miles_from_dt":16.12},{"city":"Rogers","state_name":"Kentucky","lat":37.71117,"lng":-83.62663,"zip":"41365","miles_from_dt":16.45},{"city":"Lone","state_name":"Kentucky","lat":37.53286,"lng":-83.60177,"zip":"41347","miles_from_dt":16.64},{"city":"Ezel","state_name":"Kentucky","lat":37.88407,"lng":-83.42761,"zip":"41425","miles_from_dt":16.9},{"city":"Saint Helens","state_name":"Kentucky","lat":37.57933,"lng":-83.64406,"zip":"41368","miles_from_dt":17.55},{"city":"Rowdy","state_name":"Kentucky","lat":37.4045,"lng":-83.23218,"zip":"41367","miles_from_dt":17.88},{"city":"Pine Ridge","state_name":"Kentucky","lat":37.78889,"lng":-83.6264,"zip":"41360","miles_from_dt":18.54},{"city":"Zoe","state_name":"Kentucky","lat":37.66683,"lng":-83.67709,"zip":"41397","miles_from_dt":18.7},{"city":"Royalton","state_name":"Kentucky","lat":37.65974,"lng":-82.97201,"zip":"41464","miles_from_dt":20.01},{"city":"Dice","state_name":"Kentucky","lat":37.37707,"lng":-83.20839,"zip":"41736","miles_from_dt":20.1},{"city":"Chavies","state_name":"Kentucky","lat":37.35624,"lng":-83.32352,"zip":"41727","miles_from_dt":20.27},{"city":"Falcon","state_name":"Kentucky","lat":37.78872,"lng":-83.00004,"zip":"41426","miles_from_dt":20.78},{"city":"West Liberty","state_name":"Kentucky","lat":37.94179,"lng":-83.22334,"zip":"41472","miles_from_dt":21.06},{"city":"Bulan","state_name":"Kentucky","lat":37.40441,"lng":-83.10329,"zip":"41722","miles_from_dt":21.24},{"city":"Wellington","state_name":"Kentucky","lat":37.93494,"lng":-83.49027,"zip":"40387","miles_from_dt":21.38},{"city":"Gays Creek","state_name":"Kentucky","lat":37.34449,"lng":-83.42848,"zip":"41745","miles_from_dt":21.66},{"city":"Beattyville","state_name":"Kentucky","lat":37.57896,"lng":-83.72163,"zip":"41311","miles_from_dt":21.68},{"city":"Slade","state_name":"Kentucky","lat":37.7839,"lng":-83.69604,"zip":"40376","miles_from_dt":21.75},{"city":"Ary","state_name":"Kentucky","lat":37.3744,"lng":-83.13751,"zip":"41712","miles_from_dt":21.93},{"city":"Booneville","state_name":"Kentucky","lat":37.44008,"lng":-83.63743,"zip":"41314","miles_from_dt":21.96},{"city":"Denniston","state_name":"Kentucky","lat":37.93419,"lng":-83.52895,"zip":"40316","miles_from_dt":22.25},{"city":"Gunlock","state_name":"Kentucky","lat":37.55029,"lng":-82.94982,"zip":"41632","miles_from_dt":22.31},{"city":"Wrigley","state_name":"Kentucky","lat":37.98626,"lng":-83.30239,"zip":"41477","miles_from_dt":23.27},{"city":"Fisty","state_name":"Kentucky","lat":37.35498,"lng":-83.1045,"zip":"41743","miles_from_dt":24.01},{"city":"Krypton","state_name":"Kentucky","lat":37.30025,"lng":-83.32459,"zip":"41754","miles_from_dt":24.13},{"city":"Vest","state_name":"Kentucky","lat":37.4075,"lng":-83.01679,"zip":"41772","miles_from_dt":24.25},{"city":"Bonnyman","state_name":"Kentucky","lat":37.29727,"lng":-83.24526,"zip":"41719","miles_from_dt":24.84},{"city":"Oil Springs","state_name":"Kentucky","lat":37.83943,"lng":-82.95072,"zip":"41238","miles_from_dt":24.85},{"city":"Buckhorn","state_name":"Kentucky","lat":37.31371,"lng":-83.49949,"zip":"41721","miles_from_dt":24.86},{"city":"Elkfork","state_name":"Kentucky","lat":37.99027,"lng":-83.17397,"zip":"41421","miles_from_dt":25.1},{"city":"Dwarf","state_name":"Kentucky","lat":37.32596,"lng":-83.12802,"zip":"41739","miles_from_dt":25.12},{"city":"Ricetown","state_name":"Kentucky","lat":37.37569,"lng":-83.64172,"zip":"41364","miles_from_dt":25.27},{"city":"Frenchburg","state_name":"Kentucky","lat":37.93367,"lng":-83.63329,"zip":"40322","miles_from_dt":25.42},{"city":"Hueysville","state_name":"Kentucky","lat":37.47649,"lng":-82.92643,"zip":"41640","miles_from_dt":25.5},{"city":"David","state_name":"Kentucky","lat":37.58522,"lng":-82.87847,"zip":"41616","miles_from_dt":25.53},{"city":"Hazard","state_name":"Kentucky","lat":37.29778,"lng":-83.18781,"zip":"41701","miles_from_dt":25.63},{"city":"Emmalena","state_name":"Kentucky","lat":37.35649,"lng":-83.0467,"zip":"41740","miles_from_dt":25.76},{"city":"Mistletoe","state_name":"Kentucky","lat":37.32754,"lng":-83.59363,"zip":"41351","miles_from_dt":26.34},{"city":"Yerkes","state_name":"Kentucky","lat":37.26612,"lng":-83.3223,"zip":"41778","miles_from_dt":26.48},{"city":"Crockett","state_name":"Kentucky","lat":37.98747,"lng":-83.09117,"zip":"41413","miles_from_dt":26.87},{"city":"Saul","state_name":"Kentucky","lat":37.27792,"lng":-83.48531,"zip":"40981","miles_from_dt":26.93},{"city":"Stanton","state_name":"Kentucky","lat":37.81965,"lng":-83.78006,"zip":"40380","miles_from_dt":26.96},{"city":"Blue River","state_name":"Kentucky","lat":37.62216,"lng":-82.8438,"zip":"41607","miles_from_dt":27.1},{"city":"Combs","state_name":"Kentucky","lat":37.2681,"lng":-83.2159,"zip":"41729","miles_from_dt":27.16},{"city":"Busy","state_name":"Kentucky","lat":37.25469,"lng":-83.31409,"zip":"41723","miles_from_dt":27.29},{"city":"Vincent","state_name":"Kentucky","lat":37.47992,"lng":-83.79273,"zip":"41386","miles_from_dt":27.65},{"city":"Staffordsville","state_name":"Kentucky","lat":37.82446,"lng":-82.88135,"zip":"41256","miles_from_dt":27.69},{"city":"Hagerhill","state_name":"Kentucky","lat":37.77036,"lng":-82.85032,"zip":"41222","miles_from_dt":27.91},{"city":"Leburn","state_name":"Kentucky","lat":37.38531,"lng":-82.94633,"zip":"41831","miles_from_dt":28.16},{"city":"Carrie","state_name":"Kentucky","lat":37.31667,"lng":-83.03244,"zip":"41725","miles_from_dt":28.42},{"city":"Hazard","state_name":"Kentucky","lat":37.2494,"lng":-83.19137,"zip":"41702","miles_from_dt":28.76},{"city":"East Point","state_name":"Kentucky","lat":37.73016,"lng":-82.81308,"zip":"41216","miles_from_dt":29.22},{"city":"Avawam","state_name":"Kentucky","lat":37.22703,"lng":-83.27799,"zip":"41713","miles_from_dt":29.35},{"city":"Garrett","state_name":"Kentucky","lat":37.46416,"lng":-82.84992,"zip":"41630","miles_from_dt":29.64},{"city":"Mousie","state_name":"Kentucky","lat":37.42041,"lng":-82.87741,"zip":"41839","miles_from_dt":29.78},{"city":"Ravenna","state_name":"Kentucky","lat":37.71841,"lng":-83.87562,"zip":"40472","miles_from_dt":29.92}],"targetCityZipCode":"41385","targetCityState":"Kentucky"},"__N_SSG":true}