{"pageProps":{"stateName":"Kentucky","cityName":"warsaw","nearbyCities":[{"city":"Patriot","state_name":"Indiana","lat":38.84588,"lng":-84.84212,"zip":"47038","miles_from_dt":4.09},{"city":"Glencoe","state_name":"Kentucky","lat":38.70953,"lng":-84.80637,"zip":"41046","miles_from_dt":5.6},{"city":"Florence","state_name":"Indiana","lat":38.8119,"lng":-84.93221,"zip":"47020","miles_from_dt":6.46},{"city":"Verona","state_name":"Kentucky","lat":38.81811,"lng":-84.70115,"zip":"41092","miles_from_dt":6.47},{"city":"Sparta","state_name":"Kentucky","lat":38.69219,"lng":-84.88241,"zip":"41086","miles_from_dt":7.67},{"city":"Jonesville","state_name":"Kentucky","lat":38.65914,"lng":-84.77777,"zip":"41052","miles_from_dt":9.28},{"city":"Union","state_name":"Kentucky","lat":38.92056,"lng":-84.7379,"zip":"41091","miles_from_dt":9.91},{"city":"Dry Ridge","state_name":"Kentucky","lat":38.70322,"lng":-84.66141,"zip":"41035","miles_from_dt":10.27},{"city":"Rising Sun","state_name":"Indiana","lat":38.91703,"lng":-84.92809,"zip":"47040","miles_from_dt":10.64},{"city":"East Enterprise","state_name":"Indiana","lat":38.87222,"lng":-84.98891,"zip":"47019","miles_from_dt":10.92},{"city":"Ghent","state_name":"Kentucky","lat":38.72262,"lng":-85.02091,"zip":"41045","miles_from_dt":12.03},{"city":"Walton","state_name":"Kentucky","lat":38.88213,"lng":-84.62292,"zip":"41094","miles_from_dt":12.18},{"city":"Sanders","state_name":"Kentucky","lat":38.67513,"lng":-84.98805,"zip":"41083","miles_from_dt":12.24},{"city":"Crittenden","state_name":"Kentucky","lat":38.78582,"lng":-84.58754,"zip":"41030","miles_from_dt":12.32},{"city":"New Liberty","state_name":"Kentucky","lat":38.61023,"lng":-84.86535,"zip":"40355","miles_from_dt":12.71},{"city":"Bennington","state_name":"Indiana","lat":38.8724,"lng":-85.06887,"zip":"47011","miles_from_dt":14.79},{"city":"Burlington","state_name":"Kentucky","lat":39.00709,"lng":-84.76541,"zip":"41005","miles_from_dt":15.2},{"city":"Vevay","state_name":"Indiana","lat":38.7949,"lng":-85.10009,"zip":"47043","miles_from_dt":15.36},{"city":"Florence","state_name":"Kentucky","lat":38.98595,"lng":-84.64906,"zip":"41042","miles_from_dt":16.21},{"city":"Worthville","state_name":"Kentucky","lat":38.59553,"lng":-84.99513,"zip":"41098","miles_from_dt":16.57},{"city":"Florence","state_name":"Kentucky","lat":38.98976,"lng":-84.64282,"zip":"41022","miles_from_dt":16.62},{"city":"Williamstown","state_name":"Kentucky","lat":38.62088,"lng":-84.58033,"zip":"41097","miles_from_dt":17.27},{"city":"Morning View","state_name":"Kentucky","lat":38.85323,"lng":-84.49983,"zip":"41063","miles_from_dt":17.59},{"city":"Independence","state_name":"Kentucky","lat":38.93233,"lng":-84.54451,"zip":"41051","miles_from_dt":17.6},{"city":"Petersburg","state_name":"Kentucky","lat":39.0493,"lng":-84.82938,"zip":"41080","miles_from_dt":17.88},{"city":"De Mossville","state_name":"Kentucky","lat":38.77131,"lng":-84.46114,"zip":"41033","miles_from_dt":19.19},{"city":"Mason","state_name":"Kentucky","lat":38.57837,"lng":-84.58434,"zip":"41054","miles_from_dt":19.24},{"city":"Erlanger","state_name":"Kentucky","lat":39.01546,"lng":-84.60282,"zip":"41018","miles_from_dt":19.31},{"city":"Dillsboro","state_name":"Indiana","lat":38.98684,"lng":-85.0866,"zip":"47018","miles_from_dt":19.93},{"city":"Aurora","state_name":"Indiana","lat":39.0579,"lng":-84.95689,"zip":"47001","miles_from_dt":19.96},{"city":"Kenton","state_name":"Kentucky","lat":38.86706,"lng":-84.45858,"zip":"41053","miles_from_dt":19.98},{"city":"Hebron","state_name":"Kentucky","lat":39.066,"lng":-84.69989,"zip":"41021","miles_from_dt":20.01},{"city":"Erlanger","state_name":"Kentucky","lat":39.06016,"lng":-84.63269,"zip":"41025","miles_from_dt":21.06},{"city":"Hebron","state_name":"Kentucky","lat":39.08366,"lng":-84.70585,"zip":"41048","miles_from_dt":21.08},{"city":"Carrollton","state_name":"Kentucky","lat":38.65648,"lng":-85.16873,"zip":"41008","miles_from_dt":21.19},{"city":"Owenton","state_name":"Kentucky","lat":38.48224,"lng":-84.8209,"zip":"40359","miles_from_dt":21.25},{"city":"Ft Mitchell","state_name":"Kentucky","lat":39.02893,"lng":-84.56177,"zip":"41017","miles_from_dt":21.4},{"city":"Perry Park","state_name":"Kentucky","lat":38.51439,"lng":-85.00976,"zip":"40363","miles_from_dt":21.74},{"city":"Friendship","state_name":"Indiana","lat":38.97015,"lng":-85.14855,"zip":"47021","miles_from_dt":21.82},{"city":"Cross Plains","state_name":"Indiana","lat":38.93745,"lng":-85.17713,"zip":"47017","miles_from_dt":21.98},{"city":"Latonia","state_name":"Kentucky","lat":38.97885,"lng":-84.48456,"zip":"41015","miles_from_dt":22.09},{"city":"Turners Station","state_name":"Kentucky","lat":38.56169,"lng":-85.11346,"zip":"40075","miles_from_dt":22.54},{"city":"Corinth","state_name":"Kentucky","lat":38.50085,"lng":-84.60763,"zip":"41010","miles_from_dt":22.92},{"city":"Mount Saint Joseph","state_name":"Ohio","lat":39.09983,"lng":-84.65504,"zip":"45051","miles_from_dt":23.04},{"city":"Canaan","state_name":"Indiana","lat":38.88816,"lng":-85.22474,"zip":"47224","miles_from_dt":23.08},{"city":"Moores Hill","state_name":"Indiana","lat":39.08109,"lng":-85.05503,"zip":"47032","miles_from_dt":23.84},{"city":"Alexandria","state_name":"Kentucky","lat":38.91409,"lng":-84.40256,"zip":"41001","miles_from_dt":23.86},{"city":"Cincinnati","state_name":"Ohio","lat":39.1191,"lng":-84.66559,"zip":"45233","miles_from_dt":24.08},{"city":"Covington","state_name":"Kentucky","lat":39.06885,"lng":-84.53293,"zip":"41012","miles_from_dt":24.52},{"city":"North Bend","state_name":"Ohio","lat":39.14505,"lng":-84.77849,"zip":"45052","miles_from_dt":24.55},{"city":"Covington","state_name":"Kentucky","lat":39.06802,"lng":-84.53065,"zip":"41011","miles_from_dt":24.55},{"city":"Addyston","state_name":"Ohio","lat":39.13713,"lng":-84.71045,"zip":"45001","miles_from_dt":24.58},{"city":"Cincinnati","state_name":"Ohio","lat":39.10927,"lng":-84.61053,"zip":"45238","miles_from_dt":24.62},{"city":"Covington","state_name":"Kentucky","lat":39.06964,"lng":-84.52981,"zip":"41019","miles_from_dt":24.67},{"city":"Cincinnati","state_name":"Ohio","lat":39.09536,"lng":-84.57225,"zip":"45204","miles_from_dt":24.79},{"city":"Covington","state_name":"Kentucky","lat":39.08701,"lng":-84.5487,"zip":"41016","miles_from_dt":25.01},{"city":"Newport","state_name":"Kentucky","lat":39.03231,"lng":-84.46336,"zip":"41099","miles_from_dt":25.28},{"city":"Lawrenceburg","state_name":"Indiana","lat":39.15415,"lng":-84.87461,"zip":"47025","miles_from_dt":25.3},{"city":"Covington","state_name":"Kentucky","lat":39.0655,"lng":-84.50464,"zip":"41014","miles_from_dt":25.32},{"city":"Bethlehem","state_name":"Kentucky","lat":38.4524,"lng":-85.00176,"zip":"40007","miles_from_dt":25.39},{"city":"Lockport","state_name":"Kentucky","lat":38.44317,"lng":-84.97272,"zip":"40036","miles_from_dt":25.41},{"city":"Butler","state_name":"Kentucky","lat":38.78475,"lng":-84.34298,"zip":"41006","miles_from_dt":25.52},{"city":"Newport","state_name":"Kentucky","lat":39.0178,"lng":-84.44084,"zip":"41076","miles_from_dt":25.58},{"city":"Cincinnati","state_name":"Ohio","lat":39.11057,"lng":-84.57518,"zip":"45205","miles_from_dt":25.61},{"city":"Cincinnati","state_name":"Ohio","lat":39.10092,"lng":-84.53588,"zip":"45270","miles_from_dt":26.2},{"city":"Cincinnati","state_name":"Ohio","lat":39.14068,"lng":-84.62751,"zip":"45258","miles_from_dt":26.21},{"city":"Campbellsburg","state_name":"Kentucky","lat":38.53048,"lng":-85.1718,"zip":"40011","miles_from_dt":26.31},{"city":"Cincinnati","state_name":"Ohio","lat":39.10437,"lng":-84.53787,"zip":"45264","miles_from_dt":26.33},{"city":"Cincinnati","state_name":"Ohio","lat":39.10403,"lng":-84.53337,"zip":"45203","miles_from_dt":26.45},{"city":"Cincinnati","state_name":"Ohio","lat":39.1037,"lng":-84.53283,"zip":"45296","miles_from_dt":26.45},{"city":"Cincinnati","state_name":"Ohio","lat":39.09951,"lng":-84.52467,"zip":"45298","miles_from_dt":26.47},{"city":"Newport","state_name":"Kentucky","lat":39.0732,"lng":-84.48211,"zip":"41071","miles_from_dt":26.53},{"city":"Cincinnati","state_name":"Ohio","lat":39.10624,"lng":-84.53487,"zip":"45269","miles_from_dt":26.53},{"city":"Cincinnati","state_name":"Ohio","lat":39.10233,"lng":-84.52697,"zip":"45999","miles_from_dt":26.55},{"city":"Cincinnati","state_name":"Ohio","lat":39.10798,"lng":-84.53418,"zip":"45263","miles_from_dt":26.65},{"city":"Cincinnati","state_name":"Ohio","lat":39.11899,"lng":-84.54792,"zip":"45250","miles_from_dt":26.87},{"city":"Cincinnati","state_name":"Ohio","lat":39.10106,"lng":-84.51407,"zip":"45273","miles_from_dt":26.9},{"city":"Newport","state_name":"Kentucky","lat":39.07958,"lng":-84.48034,"zip":"41072","miles_from_dt":26.92},{"city":"Hooven","state_name":"Ohio","lat":39.17962,"lng":-84.76469,"zip":"45033","miles_from_dt":26.99},{"city":"Cincinnati","state_name":"Ohio","lat":39.16442,"lng":-84.66229,"zip":"45248","miles_from_dt":27.09},{"city":"Cincinnati","state_name":"Ohio","lat":39.12209,"lng":-84.54413,"zip":"45262","miles_from_dt":27.16},{"city":"Cincinnati","state_name":"Ohio","lat":39.12271,"lng":-84.54442,"zip":"45214","miles_from_dt":27.19},{"city":"Cincinnati","state_name":"Ohio","lat":39.10383,"lng":-84.50755,"zip":"45299","miles_from_dt":27.26},{"city":"Cincinnati","state_name":"Ohio","lat":39.10547,"lng":-84.50184,"zip":"45254","miles_from_dt":27.54},{"city":"Cincinnati","state_name":"Ohio","lat":39.10885,"lng":-84.50243,"zip":"45202","miles_from_dt":27.7},{"city":"Cincinnati","state_name":"Ohio","lat":39.10879,"lng":-84.50125,"zip":"45201","miles_from_dt":27.74},{"city":"Falmouth","state_name":"Kentucky","lat":38.65232,"lng":-84.33188,"zip":"41040","miles_from_dt":27.82},{"city":"Fort Thomas","state_name":"Kentucky","lat":39.07838,"lng":-84.45248,"zip":"41075","miles_from_dt":27.89},{"city":"Cincinnati","state_name":"Ohio","lat":39.15746,"lng":-84.59888,"zip":"45211","miles_from_dt":27.89},{"city":"Bellevue","state_name":"Kentucky","lat":39.10123,"lng":-84.47748,"zip":"41073","miles_from_dt":28.14},{"city":"Cincinnati","state_name":"Ohio","lat":39.14341,"lng":-84.55267,"zip":"45225","miles_from_dt":28.17},{"city":"Cincinnati","state_name":"Ohio","lat":39.13618,"lng":-84.53686,"zip":"45271","miles_from_dt":28.19},{"city":"Versailles","state_name":"Indiana","lat":39.01247,"lng":-85.25484,"zip":"47042","miles_from_dt":28.2},{"city":"California","state_name":"Kentucky","lat":38.89289,"lng":-84.30788,"zip":"41007","miles_from_dt":28.29},{"city":"Silver Grove","state_name":"Kentucky","lat":39.03508,"lng":-84.39378,"zip":"41085","miles_from_dt":28.32},{"city":"Cincinnati","state_name":"Ohio","lat":39.13814,"lng":-84.53632,"zip":"45274","miles_from_dt":28.32},{"city":"Cincinnati","state_name":"Ohio","lat":39.12668,"lng":-84.51201,"zip":"45219","miles_from_dt":28.39},{"city":"Cincinnati","state_name":"Ohio","lat":39.13032,"lng":-84.51693,"zip":"45221","miles_from_dt":28.44},{"city":"Cleves","state_name":"Ohio","lat":39.19871,"lng":-84.73422,"zip":"45002","miles_from_dt":28.51},{"city":"Berry","state_name":"Kentucky","lat":38.53181,"lng":-84.39164,"zip":"41003","miles_from_dt":29.05},{"city":"Melbourne","state_name":"Kentucky","lat":39.00504,"lng":-84.35213,"zip":"41059","miles_from_dt":29.05},{"city":"Madison","state_name":"Indiana","lat":38.81867,"lng":-85.3552,"zip":"47250","miles_from_dt":29.19},{"city":"Dayton","state_name":"Kentucky","lat":39.11018,"lng":-84.4607,"zip":"41074","miles_from_dt":29.2},{"city":"Cincinnati","state_name":"Ohio","lat":39.13832,"lng":-84.50447,"zip":"45275","miles_from_dt":29.28},{"city":"Cincinnati","state_name":"Ohio","lat":39.14736,"lng":-84.52101,"zip":"45220","miles_from_dt":29.3},{"city":"Cincinnati","state_name":"Ohio","lat":39.12736,"lng":-84.48451,"zip":"45206","miles_from_dt":29.3},{"city":"Cincinnati","state_name":"Ohio","lat":39.13812,"lng":-84.5031,"zip":"45267","miles_from_dt":29.31},{"city":"Cincinnati","state_name":"Ohio","lat":39.14845,"lng":-84.5199,"zip":"45268","miles_from_dt":29.39},{"city":"Milan","state_name":"Indiana","lat":39.12872,"lng":-85.15333,"zip":"47031","miles_from_dt":29.59},{"city":"Miamitown","state_name":"Ohio","lat":39.21114,"lng":-84.70292,"zip":"45041","miles_from_dt":29.66},{"city":"Guilford","state_name":"Indiana","lat":39.20722,"lng":-84.95089,"zip":"47022","miles_from_dt":29.66},{"city":"Cincinnati","state_name":"Ohio","lat":39.1696,"lng":-84.55354,"zip":"45223","miles_from_dt":29.73},{"city":"Milton","state_name":"Kentucky","lat":38.69376,"lng":-85.35641,"zip":"40045","miles_from_dt":29.96}],"targetCityZipCode":"41095","targetCityState":"Kentucky"},"__N_SSG":true}