{"pageProps":{"stateName":"South-dakota","cityName":"armour","nearbyCities":[{"city":"Corsica","state_name":"South Dakota","lat":43.43413,"lng":-98.44207,"zip":"57328","miles_from_dt":9.39},{"city":"Delmont","state_name":"South Dakota","lat":43.26147,"lng":-98.16082,"zip":"57330","miles_from_dt":10.76},{"city":"Lake Andes","state_name":"South Dakota","lat":43.1468,"lng":-98.51803,"zip":"57356","miles_from_dt":13.76},{"city":"New Holland","state_name":"South Dakota","lat":43.43442,"lng":-98.61786,"zip":"57364","miles_from_dt":15.4},{"city":"Harrison","state_name":"South Dakota","lat":43.45575,"lng":-98.61796,"zip":"57344","miles_from_dt":16.26},{"city":"Geddes","state_name":"South Dakota","lat":43.24561,"lng":-98.70054,"zip":"57342","miles_from_dt":17.6},{"city":"Stickney","state_name":"South Dakota","lat":43.56222,"lng":-98.47877,"zip":"57375","miles_from_dt":18.3},{"city":"Pickstown","state_name":"South Dakota","lat":43.06348,"lng":-98.5133,"zip":"57367","miles_from_dt":18.68},{"city":"Wagner","state_name":"South Dakota","lat":43.03387,"lng":-98.28916,"zip":"57380","miles_from_dt":19.48},{"city":"Dimock","state_name":"South Dakota","lat":43.47337,"lng":-98.04619,"zip":"57331","miles_from_dt":19.51},{"city":"Parkston","state_name":"South Dakota","lat":43.3855,"lng":-97.94306,"zip":"57366","miles_from_dt":21.79},{"city":"Marty","state_name":"South Dakota","lat":42.99459,"lng":-98.43463,"zip":"57361","miles_from_dt":22.13},{"city":"Tripp","state_name":"South Dakota","lat":43.21948,"lng":-97.94176,"zip":"57376","miles_from_dt":22.18},{"city":"Ethan","state_name":"South Dakota","lat":43.54199,"lng":-97.99492,"zip":"57334","miles_from_dt":24.46},{"city":"Dante","state_name":"South Dakota","lat":42.97814,"lng":-98.1522,"zip":"57329","miles_from_dt":25.32},{"city":"Bristow","state_name":"Nebraska","lat":42.96446,"lng":-98.57426,"zip":"68719","miles_from_dt":26.18},{"city":"Mount Vernon","state_name":"South Dakota","lat":43.68723,"lng":-98.25491,"zip":"57363","miles_from_dt":26.55},{"city":"Fairfax","state_name":"South Dakota","lat":43.06005,"lng":-98.77255,"zip":"57335","miles_from_dt":26.97},{"city":"Avon","state_name":"South Dakota","lat":42.99391,"lng":-98.04852,"zip":"57315","miles_from_dt":27.05},{"city":"Kaylor","state_name":"South Dakota","lat":43.19099,"lng":-97.84236,"zip":"57354","miles_from_dt":27.56}],"targetCityZipCode":"57313","targetCityState":"South Dakota"},"__N_SSG":true}