{"pageProps":{"stateName":"South-dakota","cityName":"burke","nearbyCities":[{"city":"Herrick","state_name":"South Dakota","lat":43.12167,"lng":-99.15551,"zip":"57538","miles_from_dt":9.44},{"city":"Gregory","state_name":"South Dakota","lat":43.3463,"lng":-99.41692,"zip":"57533","miles_from_dt":11.44},{"city":"Bonesteel","state_name":"South Dakota","lat":43.13153,"lng":-98.97891,"zip":"57317","miles_from_dt":15.23},{"city":"Saint Charles","state_name":"South Dakota","lat":43.04152,"lng":-99.09042,"zip":"57571","miles_from_dt":15.87},{"city":"Dallas","state_name":"South Dakota","lat":43.22931,"lng":-99.57019,"zip":"57529","miles_from_dt":16.8},{"city":"Platte","state_name":"South Dakota","lat":43.42544,"lng":-98.94606,"zip":"57369","miles_from_dt":19.3},{"city":"Naper","state_name":"Nebraska","lat":42.92329,"lng":-99.12963,"zip":"68755","miles_from_dt":22.83},{"city":"Colome","state_name":"South Dakota","lat":43.17814,"lng":-99.75901,"zip":"57528","miles_from_dt":26.7},{"city":"Fairfax","state_name":"South Dakota","lat":43.06005,"lng":-98.77255,"zip":"57335","miles_from_dt":26.74},{"city":"Geddes","state_name":"South Dakota","lat":43.24561,"lng":-98.70054,"zip":"57342","miles_from_dt":27.12},{"city":"Butte","state_name":"Nebraska","lat":42.92074,"lng":-98.87123,"zip":"68722","miles_from_dt":29.04},{"city":"Mills","state_name":"Nebraska","lat":42.84464,"lng":-99.45588,"zip":"68753","miles_from_dt":29.72}],"targetCityZipCode":"57523","targetCityState":"South Dakota"},"__N_SSG":true}