{"pageProps":{"stateName":"South-dakota","cityName":"centerville","nearbyCities":[{"city":"Beresford","state_name":"South Dakota","lat":43.07571,"lng":-96.79376,"zip":"57004","miles_from_dt":8.47},{"city":"Wakonda","state_name":"South Dakota","lat":43.00227,"lng":-97.05754,"zip":"57073","miles_from_dt":9.25},{"city":"Davis","state_name":"South Dakota","lat":43.2723,"lng":-96.97797,"zip":"57021","miles_from_dt":11.11},{"city":"Viborg","state_name":"South Dakota","lat":43.182,"lng":-97.1702,"zip":"57070","miles_from_dt":11.96},{"city":"Hurley","state_name":"South Dakota","lat":43.27067,"lng":-97.14364,"zip":"57036","miles_from_dt":14.55},{"city":"Irene","state_name":"South Dakota","lat":43.10146,"lng":-97.25318,"zip":"57037","miles_from_dt":15.18},{"city":"Volin","state_name":"South Dakota","lat":42.98747,"lng":-97.20363,"zip":"57072","miles_from_dt":15.32},{"city":"Lennox","state_name":"South Dakota","lat":43.33659,"lng":-96.86755,"zip":"57039","miles_from_dt":16.07},{"city":"Alcester","state_name":"South Dakota","lat":42.9981,"lng":-96.65492,"zip":"57001","miles_from_dt":17.05},{"city":"Worthing","state_name":"South Dakota","lat":43.31574,"lng":-96.75699,"zip":"57077","miles_from_dt":17.19},{"city":"Vermillion","state_name":"South Dakota","lat":42.84348,"lng":-96.98774,"zip":"57069","miles_from_dt":18.64},{"city":"Gayville","state_name":"South Dakota","lat":42.87058,"lng":-97.18655,"zip":"57031","miles_from_dt":20.45},{"city":"Canton","state_name":"South Dakota","lat":43.28595,"lng":-96.62178,"zip":"57013","miles_from_dt":20.6},{"city":"Hudson","state_name":"South Dakota","lat":43.12493,"lng":-96.54575,"zip":"57034","miles_from_dt":20.64},{"city":"Mission Hill","state_name":"South Dakota","lat":42.9563,"lng":-97.30113,"zip":"57046","miles_from_dt":20.64},{"city":"Chancellor","state_name":"South Dakota","lat":43.42182,"lng":-96.98006,"zip":"57015","miles_from_dt":21.4},{"city":"Burbank","state_name":"South Dakota","lat":42.8119,"lng":-96.82403,"zip":"57010","miles_from_dt":21.76},{"city":"Parker","state_name":"South Dakota","lat":43.40963,"lng":-97.13716,"zip":"57053","miles_from_dt":22.52},{"city":"Fairview","state_name":"South Dakota","lat":43.19461,"lng":-96.50933,"zip":"57027","miles_from_dt":23.15},{"city":"Tea","state_name":"South Dakota","lat":43.45563,"lng":-96.87489,"zip":"57064","miles_from_dt":24.02},{"city":"Harrisburg","state_name":"South Dakota","lat":43.42326,"lng":-96.68708,"zip":"57032","miles_from_dt":25.32},{"city":"Hawarden","state_name":"Iowa","lat":43.00893,"lng":-96.46845,"zip":"51023","miles_from_dt":25.57},{"city":"Chatsworth","state_name":"Iowa","lat":42.91562,"lng":-96.51388,"zip":"51011","miles_from_dt":26.08},{"city":"Saint Helena","state_name":"Nebraska","lat":42.81403,"lng":-97.27747,"zip":"68774","miles_from_dt":26.34},{"city":"Utica","state_name":"South Dakota","lat":43.04095,"lng":-97.47169,"zip":"57067","miles_from_dt":26.68},{"city":"Wynot","state_name":"Nebraska","lat":42.73323,"lng":-97.11427,"zip":"68792","miles_from_dt":27.41},{"city":"Marion","state_name":"South Dakota","lat":43.41954,"lng":-97.30889,"zip":"57043","miles_from_dt":27.77},{"city":"Sioux Falls","state_name":"South Dakota","lat":43.50953,"lng":-96.83919,"zip":"57106","miles_from_dt":28.02},{"city":"Akron","state_name":"Iowa","lat":42.83854,"lng":-96.54551,"zip":"51001","miles_from_dt":28.02},{"city":"Sioux Falls","state_name":"South Dakota","lat":43.47776,"lng":-96.70571,"zip":"57108","miles_from_dt":28.15},{"city":"Yankton","state_name":"South Dakota","lat":42.91782,"lng":-97.44702,"zip":"57078","miles_from_dt":28.38},{"city":"Inwood","state_name":"Iowa","lat":43.30986,"lng":-96.45727,"zip":"51240","miles_from_dt":28.52},{"city":"Maskell","state_name":"Nebraska","lat":42.69035,"lng":-96.98138,"zip":"68751","miles_from_dt":29.17},{"city":"Menno","state_name":"South Dakota","lat":43.20051,"lng":-97.52425,"zip":"57045","miles_from_dt":29.48}],"targetCityZipCode":"57014","targetCityState":"South Dakota"},"__N_SSG":true}