{"pageProps":{"stateName":"South-dakota","cityName":"fedora","nearbyCities":[{"city":"Artesian","state_name":"South Dakota","lat":44.0509,"lng":-97.98904,"zip":"57314","miles_from_dt":10.47},{"city":"Howard","state_name":"South Dakota","lat":44.02671,"lng":-97.57521,"zip":"57349","miles_from_dt":10.87},{"city":"Carthage","state_name":"South Dakota","lat":44.16259,"lng":-97.72115,"zip":"57323","miles_from_dt":11.67},{"city":"Fulton","state_name":"South Dakota","lat":43.79392,"lng":-97.85036,"zip":"57340","miles_from_dt":14.61},{"city":"Canova","state_name":"South Dakota","lat":43.87294,"lng":-97.54864,"zip":"57321","miles_from_dt":14.96},{"city":"Spencer","state_name":"South Dakota","lat":43.75582,"lng":-97.60361,"zip":"57374","miles_from_dt":19.33},{"city":"Letcher","state_name":"South Dakota","lat":43.90105,"lng":-98.15589,"zip":"57359","miles_from_dt":19.49},{"city":"Winfred","state_name":"South Dakota","lat":43.97673,"lng":-97.35307,"zip":"57076","miles_from_dt":21.87},{"city":"Mitchell","state_name":"South Dakota","lat":43.71136,"lng":-98.04155,"zip":"57301","miles_from_dt":23.61},{"city":"Alexandria","state_name":"South Dakota","lat":43.65112,"lng":-97.76483,"zip":"57311","miles_from_dt":24.2},{"city":"Cavour","state_name":"South Dakota","lat":44.30154,"lng":-98.04535,"zip":"57324","miles_from_dt":24.31},{"city":"Woonsocket","state_name":"South Dakota","lat":44.04433,"lng":-98.29507,"zip":"57385","miles_from_dt":25.31},{"city":"Iroquois","state_name":"South Dakota","lat":44.36944,"lng":-97.83438,"zip":"57353","miles_from_dt":25.53},{"city":"Salem","state_name":"South Dakota","lat":43.74602,"lng":-97.40468,"zip":"57058","miles_from_dt":26.1},{"city":"Oldham","state_name":"South Dakota","lat":44.21741,"lng":-97.35066,"zip":"57051","miles_from_dt":26.49},{"city":"Ramona","state_name":"South Dakota","lat":44.12162,"lng":-97.25799,"zip":"57054","miles_from_dt":27.79},{"city":"De Smet","state_name":"South Dakota","lat":44.3749,"lng":-97.58243,"zip":"57231","miles_from_dt":27.8}],"targetCityZipCode":"57337","targetCityState":"South Dakota"},"__N_SSG":true}