{"pageProps":{"stateName":"South-dakota","cityName":"irene","nearbyCities":[{"city":"Viborg","state_name":"South Dakota","lat":43.182,"lng":-97.1702,"zip":"57070","miles_from_dt":6.96},{"city":"Volin","state_name":"South Dakota","lat":42.98747,"lng":-97.20363,"zip":"57072","miles_from_dt":8.26},{"city":"Mission Hill","state_name":"South Dakota","lat":42.9563,"lng":-97.30113,"zip":"57046","miles_from_dt":10.31},{"city":"Utica","state_name":"South Dakota","lat":43.04095,"lng":-97.47169,"zip":"57067","miles_from_dt":11.82},{"city":"Wakonda","state_name":"South Dakota","lat":43.00227,"lng":-97.05754,"zip":"57073","miles_from_dt":12.04},{"city":"Hurley","state_name":"South Dakota","lat":43.27067,"lng":-97.14364,"zip":"57036","miles_from_dt":12.93},{"city":"Centerville","state_name":"South Dakota","lat":43.11238,"lng":-96.95347,"zip":"57014","miles_from_dt":15.18},{"city":"Menno","state_name":"South Dakota","lat":43.20051,"lng":-97.52425,"zip":"57045","miles_from_dt":15.31},{"city":"Yankton","state_name":"South Dakota","lat":42.91782,"lng":-97.44702,"zip":"57078","miles_from_dt":16.04},{"city":"Gayville","state_name":"South Dakota","lat":42.87058,"lng":-97.18655,"zip":"57031","miles_from_dt":16.29},{"city":"Lesterville","state_name":"South Dakota","lat":43.06206,"lng":-97.58582,"zip":"57040","miles_from_dt":17.05},{"city":"Davis","state_name":"South Dakota","lat":43.2723,"lng":-96.97797,"zip":"57021","miles_from_dt":18.23},{"city":"Freeman","state_name":"South Dakota","lat":43.33696,"lng":-97.47936,"zip":"57029","miles_from_dt":19.87},{"city":"Saint Helena","state_name":"Nebraska","lat":42.81403,"lng":-97.27747,"zip":"68774","miles_from_dt":19.88},{"city":"Parker","state_name":"South Dakota","lat":43.40963,"lng":-97.13716,"zip":"57053","miles_from_dt":22.06},{"city":"Marion","state_name":"South Dakota","lat":43.41954,"lng":-97.30889,"zip":"57043","miles_from_dt":22.14},{"city":"Vermillion","state_name":"South Dakota","lat":42.84348,"lng":-96.98774,"zip":"57069","miles_from_dt":22.32},{"city":"Beresford","state_name":"South Dakota","lat":43.07571,"lng":-96.79376,"zip":"57004","miles_from_dt":23.31},{"city":"Tabor","state_name":"South Dakota","lat":42.92483,"lng":-97.68668,"zip":"57063","miles_from_dt":25.12},{"city":"Fordyce","state_name":"Nebraska","lat":42.74481,"lng":-97.37136,"zip":"68736","miles_from_dt":25.34},{"city":"Lennox","state_name":"South Dakota","lat":43.33659,"lng":-96.86755,"zip":"57039","miles_from_dt":25.35},{"city":"Scotland","state_name":"South Dakota","lat":43.12476,"lng":-97.76365,"zip":"57059","miles_from_dt":25.87},{"city":"Chancellor","state_name":"South Dakota","lat":43.42182,"lng":-96.98006,"zip":"57015","miles_from_dt":26.06},{"city":"Wynot","state_name":"Nebraska","lat":42.73323,"lng":-97.11427,"zip":"68792","miles_from_dt":26.38},{"city":"Olivet","state_name":"South Dakota","lat":43.29471,"lng":-97.7054,"zip":"57052","miles_from_dt":26.45},{"city":"Crofton","state_name":"Nebraska","lat":42.76688,"lng":-97.53488,"zip":"68730","miles_from_dt":27.16},{"city":"Monroe","state_name":"South Dakota","lat":43.51755,"lng":-97.21525,"zip":"57047","miles_from_dt":28.79},{"city":"Worthing","state_name":"South Dakota","lat":43.31574,"lng":-96.75699,"zip":"57077","miles_from_dt":29.1},{"city":"Burbank","state_name":"South Dakota","lat":42.8119,"lng":-96.82403,"zip":"57010","miles_from_dt":29.55}],"targetCityZipCode":"57037","targetCityState":"South Dakota"},"__N_SSG":true}