{"pageProps":{"stateName":"South-dakota","cityName":"lennox","nearbyCities":[{"city":"Worthing","state_name":"South Dakota","lat":43.31574,"lng":-96.75699,"zip":"57077","miles_from_dt":5.75},{"city":"Davis","state_name":"South Dakota","lat":43.2723,"lng":-96.97797,"zip":"57021","miles_from_dt":7.12},{"city":"Chancellor","state_name":"South Dakota","lat":43.42182,"lng":-96.98006,"zip":"57015","miles_from_dt":8.17},{"city":"Tea","state_name":"South Dakota","lat":43.45563,"lng":-96.87489,"zip":"57064","miles_from_dt":8.23},{"city":"Harrisburg","state_name":"South Dakota","lat":43.42326,"lng":-96.68708,"zip":"57032","miles_from_dt":10.88},{"city":"Sioux Falls","state_name":"South Dakota","lat":43.50953,"lng":-96.83919,"zip":"57106","miles_from_dt":12.02},{"city":"Sioux Falls","state_name":"South Dakota","lat":43.47776,"lng":-96.70571,"zip":"57108","miles_from_dt":12.7},{"city":"Canton","state_name":"South Dakota","lat":43.28595,"lng":-96.62178,"zip":"57013","miles_from_dt":12.87},{"city":"Sioux Falls","state_name":"South Dakota","lat":43.52054,"lng":-96.73836,"zip":"57109","miles_from_dt":14.27},{"city":"Sioux Falls","state_name":"South Dakota","lat":43.52125,"lng":-96.73587,"zip":"57105","miles_from_dt":14.37},{"city":"Parker","state_name":"South Dakota","lat":43.40963,"lng":-97.13716,"zip":"57053","miles_from_dt":14.48},{"city":"Sioux Falls","state_name":"South Dakota","lat":43.52455,"lng":-96.73862,"zip":"57197","miles_from_dt":14.51},{"city":"Sioux Falls","state_name":"South Dakota","lat":43.53124,"lng":-96.75497,"zip":"57117","miles_from_dt":14.58},{"city":"Hurley","state_name":"South Dakota","lat":43.27067,"lng":-97.14364,"zip":"57036","miles_from_dt":14.64},{"city":"Centerville","state_name":"South Dakota","lat":43.11238,"lng":-96.95347,"zip":"57014","miles_from_dt":16.07},{"city":"Sioux Falls","state_name":"South Dakota","lat":43.54555,"lng":-96.72077,"zip":"57193","miles_from_dt":16.21},{"city":"Sioux Falls","state_name":"South Dakota","lat":43.538,"lng":-96.69241,"zip":"57103","miles_from_dt":16.46},{"city":"Sioux Falls","state_name":"South Dakota","lat":43.55,"lng":-96.70219,"zip":"57186","miles_from_dt":16.92},{"city":"Sioux Falls","state_name":"South Dakota","lat":43.59468,"lng":-96.81962,"zip":"57107","miles_from_dt":17.98},{"city":"Beresford","state_name":"South Dakota","lat":43.07571,"lng":-96.79376,"zip":"57004","miles_from_dt":18.39},{"city":"Sioux Falls","state_name":"South Dakota","lat":43.54445,"lng":-96.63812,"zip":"57110","miles_from_dt":18.41},{"city":"Viborg","state_name":"South Dakota","lat":43.182,"lng":-97.1702,"zip":"57070","miles_from_dt":18.63},{"city":"Hartford","state_name":"South Dakota","lat":43.61613,"lng":-96.96037,"zip":"57033","miles_from_dt":19.85},{"city":"Sioux Falls","state_name":"South Dakota","lat":43.60131,"lng":-96.70485,"zip":"57101","miles_from_dt":20.02},{"city":"Sioux Falls","state_name":"South Dakota","lat":43.60478,"lng":-96.70697,"zip":"57118","miles_from_dt":20.2},{"city":"Sioux Falls","state_name":"South Dakota","lat":43.6041,"lng":-96.70442,"zip":"57104","miles_from_dt":20.21},{"city":"Fairview","state_name":"South Dakota","lat":43.19461,"lng":-96.50933,"zip":"57027","miles_from_dt":20.56},{"city":"Inwood","state_name":"Iowa","lat":43.30986,"lng":-96.45727,"zip":"51240","miles_from_dt":20.76},{"city":"Monroe","state_name":"South Dakota","lat":43.51755,"lng":-97.21525,"zip":"57047","miles_from_dt":21.5},{"city":"Hudson","state_name":"South Dakota","lat":43.12493,"lng":-96.54575,"zip":"57034","miles_from_dt":21.85},{"city":"Larchwood","state_name":"Iowa","lat":43.44992,"lng":-96.46001,"zip":"51241","miles_from_dt":21.96},{"city":"Brandon","state_name":"South Dakota","lat":43.59281,"lng":-96.58728,"zip":"57005","miles_from_dt":22.62},{"city":"Marion","state_name":"South Dakota","lat":43.41954,"lng":-97.30889,"zip":"57043","miles_from_dt":22.95},{"city":"Renner","state_name":"South Dakota","lat":43.66638,"lng":-96.73973,"zip":"57055","miles_from_dt":23.66},{"city":"Crooks","state_name":"South Dakota","lat":43.67796,"lng":-96.82665,"zip":"57020","miles_from_dt":23.66},{"city":"Humboldt","state_name":"South Dakota","lat":43.64651,"lng":-97.07627,"zip":"57035","miles_from_dt":23.83},{"city":"Valley Springs","state_name":"South Dakota","lat":43.57435,"lng":-96.49361,"zip":"57068","miles_from_dt":24.96},{"city":"Wakonda","state_name":"South Dakota","lat":43.00227,"lng":-97.05754,"zip":"57073","miles_from_dt":25},{"city":"Irene","state_name":"South Dakota","lat":43.10146,"lng":-97.25318,"zip":"57037","miles_from_dt":25.35},{"city":"Alcester","state_name":"South Dakota","lat":42.9981,"lng":-96.65492,"zip":"57001","miles_from_dt":25.72},{"city":"Lyons","state_name":"South Dakota","lat":43.72184,"lng":-96.88415,"zip":"57041","miles_from_dt":26.61},{"city":"Canistota","state_name":"South Dakota","lat":43.59683,"lng":-97.27986,"zip":"57012","miles_from_dt":27.43},{"city":"Lester","state_name":"Iowa","lat":43.43227,"lng":-96.33806,"zip":"51242","miles_from_dt":27.47},{"city":"Alvord","state_name":"Iowa","lat":43.3562,"lng":-96.32217,"zip":"51230","miles_from_dt":27.51},{"city":"Hills","state_name":"Minnesota","lat":43.53279,"lng":-96.38348,"zip":"56138","miles_from_dt":27.87},{"city":"Baltic","state_name":"South Dakota","lat":43.73705,"lng":-96.75784,"zip":"57003","miles_from_dt":28.19},{"city":"Rock Valley","state_name":"Iowa","lat":43.19259,"lng":-96.33723,"zip":"51247","miles_from_dt":28.54},{"city":"Volin","state_name":"South Dakota","lat":42.98747,"lng":-97.20363,"zip":"57072","miles_from_dt":29.48},{"city":"Sioux Falls","state_name":"South Dakota","lat":43.73374,"lng":-96.62827,"zip":"57198","miles_from_dt":29.94}],"targetCityZipCode":"57039","targetCityState":"South Dakota"},"__N_SSG":true}