{"pageProps":{"stateName":"South-dakota","cityName":"marty","nearbyCities":[{"city":"Pickstown","state_name":"South Dakota","lat":43.06348,"lng":-98.5133,"zip":"57367","miles_from_dt":6.2},{"city":"Bristow","state_name":"Nebraska","lat":42.96446,"lng":-98.57426,"zip":"68719","miles_from_dt":7.38},{"city":"Wagner","state_name":"South Dakota","lat":43.03387,"lng":-98.28916,"zip":"57380","miles_from_dt":7.85},{"city":"Lake Andes","state_name":"South Dakota","lat":43.1468,"lng":-98.51803,"zip":"57356","miles_from_dt":11.32},{"city":"Lynch","state_name":"Nebraska","lat":42.80726,"lng":-98.4354,"zip":"68746","miles_from_dt":12.93},{"city":"Dante","state_name":"South Dakota","lat":42.97814,"lng":-98.1522,"zip":"57329","miles_from_dt":14.36},{"city":"Spencer","state_name":"Nebraska","lat":42.86088,"lng":-98.68504,"zip":"68777","miles_from_dt":15.7},{"city":"Fairfax","state_name":"South Dakota","lat":43.06005,"lng":-98.77255,"zip":"57335","miles_from_dt":17.7},{"city":"Avon","state_name":"South Dakota","lat":42.99391,"lng":-98.04852,"zip":"57315","miles_from_dt":19.56},{"city":"Geddes","state_name":"South Dakota","lat":43.24561,"lng":-98.70054,"zip":"57342","miles_from_dt":21.93},{"city":"Armour","state_name":"South Dakota","lat":43.31085,"lng":-98.36327,"zip":"57313","miles_from_dt":22.13},{"city":"Butte","state_name":"Nebraska","lat":42.92074,"lng":-98.87123,"zip":"68722","miles_from_dt":22.72},{"city":"Delmont","state_name":"South Dakota","lat":43.26147,"lng":-98.16082,"zip":"57330","miles_from_dt":23.05},{"city":"Niobrara","state_name":"Nebraska","lat":42.76616,"lng":-98.03831,"zip":"68760","miles_from_dt":25.56},{"city":"Springfield","state_name":"South Dakota","lat":42.85046,"lng":-97.95327,"zip":"57062","miles_from_dt":26.37},{"city":"Tyndall","state_name":"South Dakota","lat":42.98874,"lng":-97.86703,"zip":"57066","miles_from_dt":28.77},{"city":"Bonesteel","state_name":"South Dakota","lat":43.13153,"lng":-98.97891,"zip":"57317","miles_from_dt":29.13},{"city":"Tripp","state_name":"South Dakota","lat":43.21948,"lng":-97.94176,"zip":"57376","miles_from_dt":29.37},{"city":"Verdigre","state_name":"Nebraska","lat":42.62523,"lng":-98.14612,"zip":"68783","miles_from_dt":29.41}],"targetCityZipCode":"57361","targetCityState":"South Dakota"},"__N_SSG":true}