{"pageProps":{"stateName":"South-dakota","cityName":"nunda","nearbyCities":[{"city":"Rutland","state_name":"South Dakota","lat":44.10261,"lng":-96.95717,"zip":"57057","miles_from_dt":4.73},{"city":"Sinai","state_name":"South Dakota","lat":44.24452,"lng":-97.04399,"zip":"57061","miles_from_dt":6.2},{"city":"Volga","state_name":"South Dakota","lat":44.26986,"lng":-96.95934,"zip":"57071","miles_from_dt":8.25},{"city":"Wentworth","state_name":"South Dakota","lat":43.99605,"lng":-96.96749,"zip":"57075","miles_from_dt":11.37},{"city":"Ramona","state_name":"South Dakota","lat":44.12162,"lng":-97.25799,"zip":"57054","miles_from_dt":12.35},{"city":"Colman","state_name":"South Dakota","lat":44.02246,"lng":-96.82788,"zip":"57017","miles_from_dt":13.15},{"city":"Madison","state_name":"South Dakota","lat":43.97744,"lng":-97.15133,"zip":"57042","miles_from_dt":14.16},{"city":"Brookings","state_name":"South Dakota","lat":44.31588,"lng":-96.79518,"zip":"57006","miles_from_dt":15.45},{"city":"Brookings","state_name":"South Dakota","lat":44.31924,"lng":-96.78408,"zip":"57007","miles_from_dt":16},{"city":"Arlington","state_name":"South Dakota","lat":44.38111,"lng":-97.14344,"zip":"57212","miles_from_dt":16.72},{"city":"Oldham","state_name":"South Dakota","lat":44.21741,"lng":-97.35066,"zip":"57051","miles_from_dt":17.2},{"city":"Chester","state_name":"South Dakota","lat":43.88874,"lng":-96.96139,"zip":"57016","miles_from_dt":18.73},{"city":"Aurora","state_name":"South Dakota","lat":44.28785,"lng":-96.67752,"zip":"57002","miles_from_dt":19.01},{"city":"Egan","state_name":"South Dakota","lat":43.98538,"lng":-96.68146,"zip":"57024","miles_from_dt":20.39},{"city":"Winfred","state_name":"South Dakota","lat":43.97673,"lng":-97.35307,"zip":"57076","miles_from_dt":20.96},{"city":"Bruce","state_name":"South Dakota","lat":44.45927,"lng":-96.92022,"zip":"57220","miles_from_dt":21.37},{"city":"Flandreau","state_name":"South Dakota","lat":44.05766,"lng":-96.60443,"zip":"57028","miles_from_dt":21.54},{"city":"Lake Preston","state_name":"South Dakota","lat":44.37111,"lng":-97.3646,"zip":"57249","miles_from_dt":22.79},{"city":"Badger","state_name":"South Dakota","lat":44.47764,"lng":-97.19575,"zip":"57214","miles_from_dt":23.87},{"city":"Colton","state_name":"South Dakota","lat":43.79995,"lng":-96.97901,"zip":"57018","miles_from_dt":24.73},{"city":"Dell Rapids","state_name":"South Dakota","lat":43.85081,"lng":-96.7327,"zip":"57022","miles_from_dt":25.4},{"city":"Elkton","state_name":"South Dakota","lat":44.24996,"lng":-96.50149,"zip":"57026","miles_from_dt":26.28},{"city":"Trent","state_name":"South Dakota","lat":43.90041,"lng":-96.60631,"zip":"57065","miles_from_dt":26.99},{"city":"White","state_name":"South Dakota","lat":44.43308,"lng":-96.61983,"zip":"57276","miles_from_dt":27.31},{"city":"Howard","state_name":"South Dakota","lat":44.02671,"lng":-97.57521,"zip":"57349","miles_from_dt":29.31}],"targetCityZipCode":"57050","targetCityState":"South Dakota"},"__N_SSG":true}