{"pageProps":{"stateName":"South-dakota","cityName":"virgil","nearbyCities":[{"city":"Alpena","state_name":"South Dakota","lat":44.19646,"lng":-98.38564,"zip":"57312","miles_from_dt":8.89},{"city":"Wolsey","state_name":"South Dakota","lat":44.42044,"lng":-98.48477,"zip":"57384","miles_from_dt":11.1},{"city":"Wessington","state_name":"South Dakota","lat":44.38717,"lng":-98.73267,"zip":"57381","miles_from_dt":12.85},{"city":"Lane","state_name":"South Dakota","lat":44.07521,"lng":-98.42201,"zip":"57358","miles_from_dt":14.27},{"city":"Wessington Springs","state_name":"South Dakota","lat":44.05561,"lng":-98.67303,"zip":"57382","miles_from_dt":15.89},{"city":"Huron","state_name":"South Dakota","lat":44.36319,"lng":-98.21892,"zip":"57399","miles_from_dt":17.23},{"city":"Huron","state_name":"South Dakota","lat":44.3948,"lng":-98.20037,"zip":"57350","miles_from_dt":19},{"city":"Woonsocket","state_name":"South Dakota","lat":44.04433,"lng":-98.29507,"zip":"57385","miles_from_dt":19.4},{"city":"Cavour","state_name":"South Dakota","lat":44.30154,"lng":-98.04535,"zip":"57324","miles_from_dt":24.57},{"city":"Saint Lawrence","state_name":"South Dakota","lat":44.52936,"lng":-98.86987,"zip":"57373","miles_from_dt":24.6},{"city":"Hitchcock","state_name":"South Dakota","lat":44.62147,"lng":-98.36483,"zip":"57348","miles_from_dt":26.11},{"city":"Miller","state_name":"South Dakota","lat":44.47488,"lng":-99.06447,"zip":"57362","miles_from_dt":29.86}],"targetCityZipCode":"57379","targetCityState":"South Dakota"},"__N_SSG":true}