{"pageProps":{"stateName":"Arizona","cityName":"houck","nearbyCities":[{"city":"Lupton","state_name":"Arizona","lat":35.35086,"lng":-109.08737,"zip":"86508","miles_from_dt":9.68},{"city":"Sanders","state_name":"Arizona","lat":35.079,"lng":-109.24737,"zip":"86512","miles_from_dt":18.84},{"city":"Mentmore","state_name":"New Mexico","lat":35.4769,"lng":-108.94232,"zip":"87319","miles_from_dt":19.82},{"city":"Saint Michaels","state_name":"Arizona","lat":35.66536,"lng":-109.26397,"zip":"86511","miles_from_dt":21.6},{"city":"Vanderwagen","state_name":"New Mexico","lat":35.27223,"lng":-108.88765,"zip":"87326","miles_from_dt":21.68},{"city":"Chambers","state_name":"Arizona","lat":35.1212,"lng":-109.61705,"zip":"86502","miles_from_dt":25.77},{"city":"Window Rock","state_name":"Arizona","lat":35.70301,"lng":-108.99057,"zip":"86515","miles_from_dt":28.53},{"city":"Gallup","state_name":"New Mexico","lat":35.40327,"lng":-108.73151,"zip":"87305","miles_from_dt":29.97}],"targetCityZipCode":"86506","targetCityState":"Arizona"},"__N_SSG":true}