{"pageProps":{"stateName":"Arizona","cityName":"littlefield","nearbyCities":[{"city":"Mesquite","state_name":"Nevada","lat":36.80454,"lng":-114.07114,"zip":"89024","miles_from_dt":18.51},{"city":"Mesquite","state_name":"Nevada","lat":36.81374,"lng":-114.08857,"zip":"89027","miles_from_dt":19.51},{"city":"Saint George","state_name":"Utah","lat":37.04615,"lng":-113.55738,"zip":"84790","miles_from_dt":20.24},{"city":"Saint George","state_name":"Utah","lat":37.08728,"lng":-113.55608,"zip":"84791","miles_from_dt":22.78},{"city":"Mesquite","state_name":"Nevada","lat":36.80924,"lng":-114.14978,"zip":"89034","miles_from_dt":22.88},{"city":"Saint George","state_name":"Utah","lat":37.13818,"lng":-113.6294,"zip":"84770","miles_from_dt":24.69},{"city":"Washington","state_name":"Utah","lat":37.12798,"lng":-113.48108,"zip":"84780","miles_from_dt":27.25},{"city":"Saint George","state_name":"Utah","lat":37.13348,"lng":-113.49006,"zip":"84771","miles_from_dt":27.32},{"city":"Bunkerville","state_name":"Nevada","lat":36.68605,"lng":-114.22915,"zip":"89007","miles_from_dt":28.21},{"city":"Ivins","state_name":"Utah","lat":37.20987,"lng":-113.70888,"zip":"84738","miles_from_dt":28.94}],"targetCityZipCode":"86432","targetCityState":"Arizona"},"__N_SSG":true}