{"pageProps":{"stateName":"Arizona","cityName":"mcneal","nearbyCities":[{"city":"Douglas","state_name":"Arizona","lat":31.45624,"lng":-109.58635,"zip":"85608","miles_from_dt":10.34},{"city":"Elfrida","state_name":"Arizona","lat":31.73144,"lng":-109.65957,"zip":"85610","miles_from_dt":12.42},{"city":"Bisbee","state_name":"Arizona","lat":31.43525,"lng":-109.91127,"zip":"85603","miles_from_dt":14.31},{"city":"Pirtleville","state_name":"Arizona","lat":31.35932,"lng":-109.56827,"zip":"85626","miles_from_dt":16.2},{"city":"Douglas","state_name":"Arizona","lat":31.33919,"lng":-109.52963,"zip":"85655","miles_from_dt":18.63},{"city":"Naco","state_name":"Arizona","lat":31.33835,"lng":-109.9431,"zip":"85620","miles_from_dt":20.23},{"city":"Tombstone","state_name":"Arizona","lat":31.68588,"lng":-110.05887,"zip":"85638","miles_from_dt":22.09},{"city":"Pearce","state_name":"Arizona","lat":31.88021,"lng":-109.66692,"zip":"85625","miles_from_dt":22.41},{"city":"Douglas","state_name":"Arizona","lat":31.49008,"lng":-109.34052,"zip":"85607","miles_from_dt":22.61},{"city":"Sierra Vista","state_name":"Arizona","lat":31.55322,"lng":-110.17304,"zip":"85635","miles_from_dt":27},{"city":"Sierra Vista","state_name":"Arizona","lat":31.47003,"lng":-110.18712,"zip":"85636","miles_from_dt":28.48},{"city":"Sierra Vista","state_name":"Arizona","lat":31.49759,"lng":-110.19906,"zip":"85650","miles_from_dt":28.84}],"targetCityZipCode":"85617","targetCityState":"Arizona"},"__N_SSG":true}