{"pageProps":{"stateName":"Arizona","cityName":"munds-park","nearbyCities":[{"city":"Sedona","state_name":"Arizona","lat":34.869,"lng":-111.76605,"zip":"86339","miles_from_dt":6.91},{"city":"Sedona","state_name":"Arizona","lat":34.86435,"lng":-111.79818,"zip":"86340","miles_from_dt":8.68},{"city":"Mormon Lake","state_name":"Arizona","lat":34.9018,"lng":-111.49161,"zip":"86038","miles_from_dt":9.68},{"city":"Sedona","state_name":"Arizona","lat":34.8902,"lng":-111.85157,"zip":"86336","miles_from_dt":11.02},{"city":"Flagstaff","state_name":"Arizona","lat":35.08125,"lng":-111.62832,"zip":"86005","miles_from_dt":11.31},{"city":"Sedona","state_name":"Arizona","lat":34.77414,"lng":-111.76282,"zip":"86341","miles_from_dt":11.57},{"city":"Sedona","state_name":"Arizona","lat":34.77846,"lng":-111.78514,"zip":"86351","miles_from_dt":12.01},{"city":"Rimrock","state_name":"Arizona","lat":34.65216,"lng":-111.68044,"zip":"86335","miles_from_dt":18.45},{"city":"Flagstaff","state_name":"Arizona","lat":35.18953,"lng":-111.65469,"zip":"86011","miles_from_dt":18.63},{"city":"Cornville","state_name":"Arizona","lat":34.73347,"lng":-111.89884,"zip":"86325","miles_from_dt":18.64},{"city":"Lake Montezuma","state_name":"Arizona","lat":34.63092,"lng":-111.77668,"zip":"86342","miles_from_dt":20.95},{"city":"Flagstaff","state_name":"Arizona","lat":35.23374,"lng":-111.56592,"zip":"86002","miles_from_dt":22.33},{"city":"Bellemont","state_name":"Arizona","lat":35.22408,"lng":-111.80972,"zip":"86015","miles_from_dt":22.64},{"city":"Cottonwood","state_name":"Arizona","lat":34.69857,"lng":-112.01383,"zip":"86326","miles_from_dt":25.19},{"city":"Clarkdale","state_name":"Arizona","lat":34.836,"lng":-112.1304,"zip":"86324","miles_from_dt":27.29},{"city":"Jerome","state_name":"Arizona","lat":34.76009,"lng":-112.11704,"zip":"86331","miles_from_dt":28.16},{"city":"Parks","state_name":"Arizona","lat":35.24716,"lng":-111.96204,"zip":"86018","miles_from_dt":28.32}],"targetCityZipCode":"86017","targetCityState":"Arizona"},"__N_SSG":true}