{"pageProps":{"stateName":"Arizona","cityName":"wickenburg","nearbyCities":[{"city":"Wickenburg","state_name":"Arizona","lat":33.92391,"lng":-112.86739,"zip":"85390","miles_from_dt":7.43},{"city":"Wittmann","state_name":"Arizona","lat":33.76617,"lng":-112.63093,"zip":"85361","miles_from_dt":15.12},{"city":"Morristown","state_name":"Arizona","lat":33.95308,"lng":-112.48358,"zip":"85342","miles_from_dt":15.14},{"city":"Congress","state_name":"Arizona","lat":34.19209,"lng":-112.89444,"zip":"85332","miles_from_dt":17.91},{"city":"Yarnell","state_name":"Arizona","lat":34.28558,"lng":-112.84337,"zip":"85362","miles_from_dt":22.9},{"city":"Surprise","state_name":"Arizona","lat":33.71025,"lng":-112.44869,"zip":"85387","miles_from_dt":24.45},{"city":"Kirkland","state_name":"Arizona","lat":34.30403,"lng":-112.61809,"zip":"86332","miles_from_dt":24.63},{"city":"Peoria","state_name":"Arizona","lat":33.80297,"lng":-112.31734,"zip":"85383","miles_from_dt":27.05},{"city":"Crown King","state_name":"Arizona","lat":34.17937,"lng":-112.31236,"zip":"86343","miles_from_dt":29.04},{"city":"Aguila","state_name":"Arizona","lat":33.83563,"lng":-113.23214,"zip":"85320","miles_from_dt":29.24},{"city":"Surprise","state_name":"Arizona","lat":33.64449,"lng":-112.395,"zip":"85374","miles_from_dt":29.87},{"city":"Buckeye","state_name":"Arizona","lat":33.5376,"lng":-112.64635,"zip":"85396","miles_from_dt":29.89}],"targetCityZipCode":"85358","targetCityState":"Arizona"},"__N_SSG":true}