{"pageProps":{"stateName":"Ohio","cityName":"bryan","nearbyCities":[{"city":"Ney","state_name":"Ohio","lat":41.37519,"lng":-84.51818,"zip":"43549","miles_from_dt":6.68},{"city":"Farmer","state_name":"Ohio","lat":41.38008,"lng":-84.63565,"zip":"43520","miles_from_dt":7.28},{"city":"Evansport","state_name":"Ohio","lat":41.42092,"lng":-84.40854,"zip":"43519","miles_from_dt":8.35},{"city":"Stryker","state_name":"Ohio","lat":41.48354,"lng":-84.39693,"zip":"43557","miles_from_dt":8.38},{"city":"Edgerton","state_name":"Ohio","lat":41.44003,"lng":-84.72833,"zip":"43517","miles_from_dt":9.09},{"city":"Blakeslee","state_name":"Ohio","lat":41.52429,"lng":-84.73101,"zip":"43505","miles_from_dt":9.84},{"city":"West Unity","state_name":"Ohio","lat":41.58616,"lng":-84.44116,"zip":"43570","miles_from_dt":10.16},{"city":"Montpelier","state_name":"Ohio","lat":41.60575,"lng":-84.6338,"zip":"43543","miles_from_dt":10.34},{"city":"Sherwood","state_name":"Ohio","lat":41.30575,"lng":-84.56984,"zip":"43556","miles_from_dt":11.17},{"city":"Mark Center","state_name":"Ohio","lat":41.31345,"lng":-84.634,"zip":"43536","miles_from_dt":11.35},{"city":"Kunkle","state_name":"Ohio","lat":41.63511,"lng":-84.4957,"zip":"43531","miles_from_dt":12},{"city":"Edon","state_name":"Ohio","lat":41.58977,"lng":-84.75385,"zip":"43518","miles_from_dt":13.25},{"city":"Pioneer","state_name":"Ohio","lat":41.66024,"lng":-84.56239,"zip":"43554","miles_from_dt":13.31},{"city":"Hicksville","state_name":"Ohio","lat":41.31339,"lng":-84.73024,"zip":"43526","miles_from_dt":13.93},{"city":"Archbold","state_name":"Ohio","lat":41.53181,"lng":-84.30201,"zip":"43502","miles_from_dt":13.96},{"city":"Alvordton","state_name":"Ohio","lat":41.66966,"lng":-84.46095,"zip":"43501","miles_from_dt":14.82},{"city":"Defiance","state_name":"Ohio","lat":41.30309,"lng":-84.35874,"zip":"43512","miles_from_dt":15.32},{"city":"Ridgeville Corners","state_name":"Ohio","lat":41.43772,"lng":-84.25596,"zip":"43555","miles_from_dt":15.77},{"city":"Cecil","state_name":"Ohio","lat":41.22643,"lng":-84.56208,"zip":"45821","miles_from_dt":16.63},{"city":"Butler","state_name":"Indiana","lat":41.4237,"lng":-84.87425,"zip":"46721","miles_from_dt":16.74},{"city":"Jewell","state_name":"Ohio","lat":41.32794,"lng":-84.28933,"zip":"43530","miles_from_dt":16.92},{"city":"Hamilton","state_name":"Indiana","lat":41.54919,"lng":-84.87892,"zip":"46742","miles_from_dt":17.63},{"city":"Pettisville","state_name":"Ohio","lat":41.53096,"lng":-84.22382,"zip":"43553","miles_from_dt":17.84},{"city":"Fayette","state_name":"Ohio","lat":41.66377,"lng":-84.29717,"zip":"43521","miles_from_dt":19.11},{"city":"Waldron","state_name":"Michigan","lat":41.73534,"lng":-84.43211,"zip":"49288","miles_from_dt":19.59},{"city":"Camden","state_name":"Michigan","lat":41.74049,"lng":-84.66858,"zip":"49232","miles_from_dt":19.71},{"city":"Saint Joe","state_name":"Indiana","lat":41.31974,"lng":-84.88506,"zip":"46785","miles_from_dt":19.86},{"city":"Antwerp","state_name":"Ohio","lat":41.18914,"lng":-84.73031,"zip":"45813","miles_from_dt":21.21},{"city":"Wauseon","state_name":"Ohio","lat":41.57592,"lng":-84.15248,"zip":"43567","miles_from_dt":22.28},{"city":"Frontier","state_name":"Michigan","lat":41.79389,"lng":-84.62312,"zip":"49239","miles_from_dt":22.79},{"city":"Spencerville","state_name":"Indiana","lat":41.27005,"lng":-84.90876,"zip":"46788","miles_from_dt":22.8},{"city":"Napoleon","state_name":"Ohio","lat":41.39163,"lng":-84.12719,"zip":"43545","miles_from_dt":22.93},{"city":"Okolona","state_name":"Ohio","lat":41.39221,"lng":-84.12302,"zip":"43550","miles_from_dt":23.13},{"city":"Harlan","state_name":"Indiana","lat":41.21511,"lng":-84.85321,"zip":"46743","miles_from_dt":23.25},{"city":"Paulding","state_name":"Ohio","lat":41.12918,"lng":-84.56471,"zip":"45879","miles_from_dt":23.34},{"city":"Waterloo","state_name":"Indiana","lat":41.46106,"lng":-85.01928,"zip":"46793","miles_from_dt":24},{"city":"Oakwood","state_name":"Ohio","lat":41.11935,"lng":-84.39628,"zip":"45873","miles_from_dt":25.43},{"city":"Holgate","state_name":"Ohio","lat":41.25121,"lng":-84.1593,"zip":"43527","miles_from_dt":25.5},{"city":"Pleasant Lake","state_name":"Indiana","lat":41.5725,"lng":-85.03094,"zip":"46779","miles_from_dt":25.63},{"city":"Fremont","state_name":"Indiana","lat":41.72209,"lng":-84.92233,"zip":"46737","miles_from_dt":25.83},{"city":"Osseo","state_name":"Michigan","lat":41.84247,"lng":-84.54641,"zip":"49266","miles_from_dt":25.89},{"city":"Montgomery","state_name":"Michigan","lat":41.77152,"lng":-84.85499,"zip":"49255","miles_from_dt":26.05},{"city":"Morenci","state_name":"Michigan","lat":41.74989,"lng":-84.22122,"zip":"49256","miles_from_dt":26.13},{"city":"Pittsford","state_name":"Michigan","lat":41.83813,"lng":-84.45382,"zip":"49271","miles_from_dt":26.14},{"city":"Latty","state_name":"Ohio","lat":41.08819,"lng":-84.5835,"zip":"45855","miles_from_dt":26.2},{"city":"Ashley","state_name":"Indiana","lat":41.51816,"lng":-85.06029,"zip":"46705","miles_from_dt":26.35},{"city":"Auburn","state_name":"Indiana","lat":41.34242,"lng":-85.03922,"zip":"46706","miles_from_dt":26.5},{"city":"Angola","state_name":"Indiana","lat":41.65305,"lng":-85.00976,"zip":"46703","miles_from_dt":26.74},{"city":"Grabill","state_name":"Indiana","lat":41.21161,"lng":-84.95176,"zip":"46741","miles_from_dt":27.07},{"city":"Melrose","state_name":"Ohio","lat":41.08587,"lng":-84.42569,"zip":"45861","miles_from_dt":27.2},{"city":"Reading","state_name":"Michigan","lat":41.83689,"lng":-84.76419,"zip":"49274","miles_from_dt":27.66},{"city":"New Bavaria","state_name":"Ohio","lat":41.18867,"lng":-84.17296,"zip":"43548","miles_from_dt":27.73},{"city":"Woodburn","state_name":"Indiana","lat":41.12749,"lng":-84.86046,"zip":"46797","miles_from_dt":28.28},{"city":"Hudson","state_name":"Michigan","lat":41.84712,"lng":-84.34189,"zip":"49247","miles_from_dt":28.47},{"city":"Hillsdale","state_name":"Michigan","lat":41.88434,"lng":-84.61581,"zip":"49242","miles_from_dt":28.94},{"city":"Lyons","state_name":"Ohio","lat":41.69335,"lng":-84.07997,"zip":"43533","miles_from_dt":29.23},{"city":"Payne","state_name":"Ohio","lat":41.0662,"lng":-84.73782,"zip":"45880","miles_from_dt":29.24},{"city":"Continental","state_name":"Ohio","lat":41.11141,"lng":-84.24993,"zip":"45831","miles_from_dt":29.31},{"city":"Delta","state_name":"Ohio","lat":41.58656,"lng":-84.00746,"zip":"43515","miles_from_dt":29.66},{"city":"Malinta","state_name":"Ohio","lat":41.30592,"lng":-84.02416,"zip":"43535","miles_from_dt":29.85},{"city":"Leo","state_name":"Indiana","lat":41.23361,"lng":-85.04047,"zip":"46765","miles_from_dt":29.87}],"targetCityZipCode":"43506","targetCityState":"Ohio"},"__N_SSG":true}