{"pageProps":{"stateName":"Ohio","cityName":"buffalo","nearbyCities":[{"city":"Derwent","state_name":"Ohio","lat":39.92736,"lng":-81.53807,"zip":"43733","miles_from_dt":1.11},{"city":"Pleasant City","state_name":"Ohio","lat":39.88063,"lng":-81.52448,"zip":"43772","miles_from_dt":2.68},{"city":"Byesville","state_name":"Ohio","lat":39.96022,"lng":-81.5412,"zip":"43723","miles_from_dt":3.04},{"city":"Senecaville","state_name":"Ohio","lat":39.92229,"lng":-81.44024,"zip":"43780","miles_from_dt":4.24},{"city":"Kipling","state_name":"Ohio","lat":39.99353,"lng":-81.50975,"zip":"43750","miles_from_dt":5.15},{"city":"Ava","state_name":"Ohio","lat":39.84262,"lng":-81.57738,"zip":"43711","miles_from_dt":6.11},{"city":"Sarahsville","state_name":"Ohio","lat":39.81718,"lng":-81.42528,"zip":"43779","miles_from_dt":8.66},{"city":"Cumberland","state_name":"Ohio","lat":39.84409,"lng":-81.65883,"zip":"43732","miles_from_dt":9.02},{"city":"Old Washington","state_name":"Ohio","lat":40.03776,"lng":-81.44477,"zip":"43768","miles_from_dt":9.09},{"city":"Belle Valley","state_name":"Ohio","lat":39.78943,"lng":-81.5548,"zip":"43717","miles_from_dt":9.15},{"city":"Cambridge","state_name":"Ohio","lat":40.03949,"lng":-81.59934,"zip":"43725","miles_from_dt":9.3},{"city":"Salesville","state_name":"Ohio","lat":40.01111,"lng":-81.37001,"zip":"43778","miles_from_dt":10.17},{"city":"Lore City","state_name":"Ohio","lat":40.0537,"lng":-81.43318,"zip":"43755","miles_from_dt":10.35},{"city":"Quaker City","state_name":"Ohio","lat":39.98758,"lng":-81.29636,"zip":"43773","miles_from_dt":12.77},{"city":"Summerfield","state_name":"Ohio","lat":39.80175,"lng":-81.3334,"zip":"43788","miles_from_dt":12.82},{"city":"Caldwell","state_name":"Ohio","lat":39.73267,"lng":-81.5166,"zip":"43724","miles_from_dt":12.88},{"city":"New Concord","state_name":"Ohio","lat":40.03156,"lng":-81.74007,"zip":"43762","miles_from_dt":14.01},{"city":"Chandlersville","state_name":"Ohio","lat":39.8714,"lng":-81.79884,"zip":"43727","miles_from_dt":15.18},{"city":"Norwich","state_name":"Ohio","lat":40.00653,"lng":-81.80198,"zip":"43767","miles_from_dt":16.13},{"city":"Kimbolton","state_name":"Ohio","lat":40.15932,"lng":-81.56411,"zip":"43749","miles_from_dt":16.72},{"city":"Fairview","state_name":"Ohio","lat":40.05755,"lng":-81.23689,"zip":"43736","miles_from_dt":17.8},{"city":"Lewisville","state_name":"Ohio","lat":39.75586,"lng":-81.24017,"zip":"43754","miles_from_dt":18.67},{"city":"Barnesville","state_name":"Ohio","lat":39.98979,"lng":-81.17368,"zip":"43713","miles_from_dt":19.02},{"city":"Dexter City","state_name":"Ohio","lat":39.64495,"lng":-81.48171,"zip":"45727","miles_from_dt":19.04},{"city":"Stafford","state_name":"Ohio","lat":39.71086,"lng":-81.27704,"zip":"43786","miles_from_dt":19.34},{"city":"Malaga","state_name":"Ohio","lat":39.85623,"lng":-81.14677,"zip":"43757","miles_from_dt":20.31},{"city":"Blue Rock","state_name":"Ohio","lat":39.79272,"lng":-81.86886,"zip":"43720","miles_from_dt":20.5},{"city":"Duncan Falls","state_name":"Ohio","lat":39.88144,"lng":-81.90489,"zip":"43734","miles_from_dt":20.62},{"city":"Adamsville","state_name":"Ohio","lat":40.09346,"lng":-81.85687,"zip":"43802","miles_from_dt":21.54},{"city":"Mcconnelsville","state_name":"Ohio","lat":39.68993,"lng":-81.79574,"zip":"43756","miles_from_dt":21.58},{"city":"Jerusalem","state_name":"Ohio","lat":39.85784,"lng":-81.12128,"zip":"43747","miles_from_dt":21.61},{"city":"Macksburg","state_name":"Ohio","lat":39.604,"lng":-81.44809,"zip":"45746","miles_from_dt":22.09},{"city":"Beverly","state_name":"Ohio","lat":39.60484,"lng":-81.6268,"zip":"45715","miles_from_dt":22.43},{"city":"Plainfield","state_name":"Ohio","lat":40.2087,"lng":-81.71854,"zip":"43836","miles_from_dt":22.57},{"city":"Piedmont","state_name":"Ohio","lat":40.13886,"lng":-81.20296,"zip":"43983","miles_from_dt":22.63},{"city":"Freeport","state_name":"Ohio","lat":40.19111,"lng":-81.27688,"zip":"43973","miles_from_dt":22.75},{"city":"Philo","state_name":"Ohio","lat":39.83586,"lng":-81.94135,"zip":"43771","miles_from_dt":23.13},{"city":"Lower Salem","state_name":"Ohio","lat":39.61678,"lng":-81.32689,"zip":"45745","miles_from_dt":23.27},{"city":"Bethesda","state_name":"Ohio","lat":39.98907,"lng":-81.07938,"zip":"43719","miles_from_dt":23.89},{"city":"Newcomerstown","state_name":"Ohio","lat":40.27333,"lng":-81.57931,"zip":"43832","miles_from_dt":24.63},{"city":"Coal Run","state_name":"Ohio","lat":39.56563,"lng":-81.58347,"zip":"45721","miles_from_dt":24.63},{"city":"Woodsfield","state_name":"Ohio","lat":39.74362,"lng":-81.10219,"zip":"43793","miles_from_dt":25.32},{"city":"Zanesville","state_name":"Ohio","lat":39.95986,"lng":-81.99498,"zip":"43701","miles_from_dt":25.38},{"city":"West Lafayette","state_name":"Ohio","lat":40.25692,"lng":-81.73144,"zip":"43845","miles_from_dt":25.85},{"city":"Zanesville","state_name":"Ohio","lat":39.94082,"lng":-82.00679,"zip":"43702","miles_from_dt":25.9},{"city":"Morristown","state_name":"Ohio","lat":40.06393,"lng":-81.06942,"zip":"43759","miles_from_dt":25.91},{"city":"Graysville","state_name":"Ohio","lat":39.63982,"lng":-81.18816,"zip":"45734","miles_from_dt":26.15},{"city":"Port Washington","state_name":"Ohio","lat":40.29773,"lng":-81.47846,"zip":"43837","miles_from_dt":26.2},{"city":"Lowell","state_name":"Ohio","lat":39.5396,"lng":-81.5077,"zip":"45744","miles_from_dt":26.21},{"city":"Holloway","state_name":"Ohio","lat":40.16168,"lng":-81.13155,"zip":"43985","miles_from_dt":26.53},{"city":"Flushing","state_name":"Ohio","lat":40.14519,"lng":-81.10451,"zip":"43977","miles_from_dt":26.99},{"city":"Tippecanoe","state_name":"Ohio","lat":40.27789,"lng":-81.28752,"zip":"44699","miles_from_dt":27.64},{"city":"Beallsville","state_name":"Ohio","lat":39.83683,"lng":-81.00752,"zip":"43716","miles_from_dt":27.83},{"city":"Belmont","state_name":"Ohio","lat":40.00926,"lng":-81.00596,"zip":"43718","miles_from_dt":27.99},{"city":"Conesville","state_name":"Ohio","lat":40.18285,"lng":-81.93232,"zip":"43811","miles_from_dt":28.43},{"city":"Wingett Run","state_name":"Ohio","lat":39.5514,"lng":-81.25592,"zip":"45789","miles_from_dt":29.02},{"city":"Whipple","state_name":"Ohio","lat":39.51349,"lng":-81.37016,"zip":"45788","miles_from_dt":29.12},{"city":"Waterford","state_name":"Ohio","lat":39.50365,"lng":-81.65451,"zip":"45786","miles_from_dt":29.56},{"city":"Dresden","state_name":"Ohio","lat":40.13559,"lng":-82.00695,"zip":"43821","miles_from_dt":29.83},{"city":"Stillwater","state_name":"Ohio","lat":40.32091,"lng":-81.3095,"zip":"44679","miles_from_dt":29.87}],"targetCityZipCode":"43722","targetCityState":"Ohio"},"__N_SSG":true}