{"pageProps":{"stateName":"Ohio","cityName":"canfield","nearbyCities":[{"city":"Ellsworth","state_name":"Ohio","lat":41.02529,"lng":-80.85869,"zip":"44416","miles_from_dt":4.64},{"city":"Greenford","state_name":"Ohio","lat":40.94502,"lng":-80.79206,"zip":"44422","miles_from_dt":4.69},{"city":"Youngstown","state_name":"Ohio","lat":41.02467,"lng":-80.67596,"zip":"44513","miles_from_dt":5.1},{"city":"Youngstown","state_name":"Ohio","lat":41.0249,"lng":-80.66757,"zip":"44512","miles_from_dt":5.53},{"city":"Youngstown","state_name":"Ohio","lat":41.06927,"lng":-80.69617,"zip":"44511","miles_from_dt":5.63},{"city":"Youngstown","state_name":"Ohio","lat":41.1029,"lng":-80.76201,"zip":"44515","miles_from_dt":6.34},{"city":"North Jackson","state_name":"Ohio","lat":41.08104,"lng":-80.86887,"zip":"44451","miles_from_dt":6.98},{"city":"North Lima","state_name":"Ohio","lat":40.94711,"lng":-80.66232,"zip":"44452","miles_from_dt":7.25},{"city":"Youngstown","state_name":"Ohio","lat":41.07436,"lng":-80.65542,"zip":"44507","miles_from_dt":7.48},{"city":"Washingtonville","state_name":"Ohio","lat":40.90041,"lng":-80.76801,"zip":"44490","miles_from_dt":7.66},{"city":"Youngstown","state_name":"Ohio","lat":41.10986,"lng":-80.69655,"zip":"44509","miles_from_dt":7.86},{"city":"Youngstown","state_name":"Ohio","lat":41.09739,"lng":-80.6617,"zip":"44501","miles_from_dt":8.27},{"city":"Youngstown","state_name":"Ohio","lat":41.08365,"lng":-80.64253,"zip":"44502","miles_from_dt":8.4},{"city":"Youngstown","state_name":"Ohio","lat":40.99838,"lng":-80.60868,"zip":"44514","miles_from_dt":8.58},{"city":"Youngstown","state_name":"Ohio","lat":41.09918,"lng":-80.64912,"zip":"44503","miles_from_dt":8.83},{"city":"Salem","state_name":"Ohio","lat":40.90221,"lng":-80.87026,"zip":"44460","miles_from_dt":9.12},{"city":"Berlin Center","state_name":"Ohio","lat":41.02457,"lng":-80.94658,"zip":"44401","miles_from_dt":9.17},{"city":"Youngstown","state_name":"Ohio","lat":41.12246,"lng":-80.67424,"zip":"44510","miles_from_dt":9.21},{"city":"Youngstown","state_name":"Ohio","lat":41.10726,"lng":-80.64875,"zip":"44555","miles_from_dt":9.23},{"city":"Mineral Ridge","state_name":"Ohio","lat":41.1482,"lng":-80.78439,"zip":"44440","miles_from_dt":9.47},{"city":"Youngstown","state_name":"Ohio","lat":41.09356,"lng":-80.62583,"zip":"44506","miles_from_dt":9.51},{"city":"Columbiana","state_name":"Ohio","lat":40.88487,"lng":-80.68569,"zip":"44408","miles_from_dt":9.82},{"city":"Struthers","state_name":"Ohio","lat":41.04793,"lng":-80.58973,"zip":"44471","miles_from_dt":9.85},{"city":"Youngstown","state_name":"Ohio","lat":41.12327,"lng":-80.65363,"zip":"44504","miles_from_dt":9.89},{"city":"McDonald","state_name":"Ohio","lat":41.15536,"lng":-80.73,"zip":"44437","miles_from_dt":10.18},{"city":"Campbell","state_name":"Ohio","lat":41.07787,"lng":-80.59136,"zip":"44405","miles_from_dt":10.49},{"city":"New Springfield","state_name":"Ohio","lat":40.92351,"lng":-80.59473,"zip":"44443","miles_from_dt":11.07},{"city":"Leetonia","state_name":"Ohio","lat":40.84748,"lng":-80.75365,"zip":"44431","miles_from_dt":11.35},{"city":"Youngstown","state_name":"Ohio","lat":41.12735,"lng":-80.61687,"zip":"44505","miles_from_dt":11.39},{"city":"Damascus","state_name":"Ohio","lat":40.90536,"lng":-80.95381,"zip":"44619","miles_from_dt":12},{"city":"New Middletown","state_name":"Ohio","lat":40.96591,"lng":-80.54963,"zip":"44442","miles_from_dt":12.04},{"city":"Girard","state_name":"Ohio","lat":41.17384,"lng":-80.67726,"zip":"44420","miles_from_dt":12.26},{"city":"Niles","state_name":"Ohio","lat":41.18958,"lng":-80.74692,"zip":"44446","miles_from_dt":12.37},{"city":"Lowellville","state_name":"Ohio","lat":41.05775,"lng":-80.54241,"zip":"44436","miles_from_dt":12.41},{"city":"Lake Milton","state_name":"Ohio","lat":41.09648,"lng":-80.98156,"zip":"44429","miles_from_dt":12.43},{"city":"Warren","state_name":"Ohio","lat":41.19425,"lng":-80.82747,"zip":"44482","miles_from_dt":12.95},{"city":"Beloit","state_name":"Ohio","lat":40.9121,"lng":-80.9879,"zip":"44609","miles_from_dt":13.21},{"city":"North Benton","state_name":"Ohio","lat":40.97957,"lng":-81.02446,"zip":"44449","miles_from_dt":13.38},{"city":"Petersburg","state_name":"Ohio","lat":40.9197,"lng":-80.53976,"zip":"44454","miles_from_dt":13.69},{"city":"New Waterford","state_name":"Ohio","lat":40.84834,"lng":-80.61732,"zip":"44445","miles_from_dt":13.86},{"city":"Hillsville","state_name":"Pennsylvania","lat":41.00603,"lng":-80.50449,"zip":"16132","miles_from_dt":13.98},{"city":"Villa Maria","state_name":"Pennsylvania","lat":41.06771,"lng":-80.51073,"zip":"16155","miles_from_dt":14.19},{"city":"Diamond","state_name":"Ohio","lat":41.09671,"lng":-81.0229,"zip":"44412","miles_from_dt":14.37},{"city":"Winona","state_name":"Ohio","lat":40.82192,"lng":-80.88864,"zip":"44493","miles_from_dt":14.43},{"city":"Bessemer","state_name":"Pennsylvania","lat":40.96812,"lng":-80.50099,"zip":"16112","miles_from_dt":14.48},{"city":"Sebring","state_name":"Ohio","lat":40.92045,"lng":-81.02375,"zip":"44672","miles_from_dt":14.59},{"city":"Deerfield","state_name":"Ohio","lat":41.0326,"lng":-81.05092,"zip":"44411","miles_from_dt":14.65},{"city":"New Bedford","state_name":"Pennsylvania","lat":41.09355,"lng":-80.51078,"zip":"16140","miles_from_dt":14.78},{"city":"Hubbard","state_name":"Ohio","lat":41.17022,"lng":-80.57395,"zip":"44425","miles_from_dt":15.07},{"city":"Warren","state_name":"Ohio","lat":41.2348,"lng":-80.74962,"zip":"44484","miles_from_dt":15.47},{"city":"Newton Falls","state_name":"Ohio","lat":41.17559,"lng":-80.97647,"zip":"44444","miles_from_dt":15.57},{"city":"Warren","state_name":"Ohio","lat":41.22736,"lng":-80.86344,"zip":"44481","miles_from_dt":15.65},{"city":"East Palestine","state_name":"Ohio","lat":40.84803,"lng":-80.5549,"zip":"44413","miles_from_dt":16},{"city":"Warren","state_name":"Ohio","lat":41.24032,"lng":-80.848,"zip":"44485","miles_from_dt":16.29},{"city":"North Georgetown","state_name":"Ohio","lat":40.83555,"lng":-80.98706,"zip":"44665","miles_from_dt":16.55},{"city":"Edinburg","state_name":"Pennsylvania","lat":41.03744,"lng":-80.45212,"zip":"16116","miles_from_dt":16.81},{"city":"Elkton","state_name":"Ohio","lat":40.77068,"lng":-80.70455,"zip":"44415","miles_from_dt":16.98},{"city":"Vienna","state_name":"Ohio","lat":41.24684,"lng":-80.66326,"zip":"44473","miles_from_dt":17.21},{"city":"Leavittsburg","state_name":"Ohio","lat":41.24011,"lng":-80.90804,"zip":"44430","miles_from_dt":17.31},{"city":"Enon Valley","state_name":"Pennsylvania","lat":40.892,"lng":-80.47344,"zip":"16120","miles_from_dt":17.65},{"city":"Warren","state_name":"Ohio","lat":41.26537,"lng":-80.81575,"zip":"44483","miles_from_dt":17.68},{"city":"Pulaski","state_name":"Pennsylvania","lat":41.10528,"lng":-80.45434,"zip":"16143","miles_from_dt":17.81},{"city":"Lisbon","state_name":"Ohio","lat":40.74974,"lng":-80.75149,"zip":"44432","miles_from_dt":18.08},{"city":"Rogers","state_name":"Ohio","lat":40.77581,"lng":-80.60485,"zip":"44455","miles_from_dt":18.46},{"city":"Wayland","state_name":"Ohio","lat":41.16241,"lng":-81.06595,"zip":"44285","miles_from_dt":18.56},{"city":"Brookfield","state_name":"Ohio","lat":41.24053,"lng":-80.58265,"zip":"44403","miles_from_dt":18.65},{"city":"West Middlesex","state_name":"Pennsylvania","lat":41.15967,"lng":-80.46858,"zip":"16159","miles_from_dt":18.86},{"city":"Homeworth","state_name":"Ohio","lat":40.83385,"lng":-81.04685,"zip":"44634","miles_from_dt":18.89},{"city":"New Castle","state_name":"Pennsylvania","lat":40.96173,"lng":-80.41616,"zip":"16102","miles_from_dt":18.92},{"city":"Hanoverton","state_name":"Ohio","lat":40.7524,"lng":-80.89963,"zip":"44423","miles_from_dt":19.08},{"city":"Wheatland","state_name":"Pennsylvania","lat":41.20232,"lng":-80.49282,"zip":"16161","miles_from_dt":19.65},{"city":"Alliance","state_name":"Ohio","lat":40.91978,"lng":-81.1278,"zip":"44601","miles_from_dt":19.66},{"city":"Limaville","state_name":"Ohio","lat":40.98455,"lng":-81.14858,"zip":"44640","miles_from_dt":19.78},{"city":"Farrell","state_name":"Pennsylvania","lat":41.21121,"lng":-80.49696,"zip":"16121","miles_from_dt":19.91},{"city":"Masury","state_name":"Ohio","lat":41.24252,"lng":-80.5345,"zip":"44438","miles_from_dt":20.2},{"city":"Warren","state_name":"Ohio","lat":41.3006,"lng":-80.84418,"zip":"44486","miles_from_dt":20.31},{"city":"East Rochester","state_name":"Ohio","lat":40.7623,"lng":-80.99919,"zip":"44625","miles_from_dt":20.9},{"city":"Negley","state_name":"Ohio","lat":40.75802,"lng":-80.55264,"zip":"44441","miles_from_dt":20.91},{"city":"Sharon","state_name":"Pennsylvania","lat":41.23478,"lng":-80.49932,"zip":"16146","miles_from_dt":20.98},{"city":"West Point","state_name":"Ohio","lat":40.70796,"lng":-80.70221,"zip":"44492","miles_from_dt":21.25},{"city":"Atwater","state_name":"Ohio","lat":41.02741,"lng":-81.18354,"zip":"44201","miles_from_dt":21.54},{"city":"New Galilee","state_name":"Pennsylvania","lat":40.87237,"lng":-80.3968,"zip":"16141","miles_from_dt":21.85},{"city":"Darlington","state_name":"Pennsylvania","lat":40.79433,"lng":-80.46289,"zip":"16115","miles_from_dt":22.05},{"city":"New Castle","state_name":"Pennsylvania","lat":40.99992,"lng":-80.35011,"zip":"16107","miles_from_dt":22.07},{"city":"Rootstown","state_name":"Ohio","lat":41.08691,"lng":-81.18244,"zip":"44272","miles_from_dt":22.07},{"city":"Southington","state_name":"Ohio","lat":41.29783,"lng":-80.95999,"zip":"44470","miles_from_dt":22.07},{"city":"New Castle","state_name":"Pennsylvania","lat":40.99983,"lng":-80.35011,"zip":"16103","miles_from_dt":22.07},{"city":"West Pittsburg","state_name":"Pennsylvania","lat":40.9283,"lng":-80.36235,"zip":"16160","miles_from_dt":22.18},{"city":"Fowler","state_name":"Ohio","lat":41.30692,"lng":-80.60465,"zip":"44418","miles_from_dt":22.19},{"city":"Kensington","state_name":"Ohio","lat":40.71672,"lng":-80.95686,"zip":"44427","miles_from_dt":22.52},{"city":"Windham","state_name":"Ohio","lat":41.2392,"lng":-81.08354,"zip":"44288","miles_from_dt":22.62},{"city":"New Castle","state_name":"Pennsylvania","lat":41.05285,"lng":-80.33918,"zip":"16105","miles_from_dt":22.79},{"city":"Maximo","state_name":"Ohio","lat":40.87603,"lng":-81.17413,"zip":"44650","miles_from_dt":23.02},{"city":"Hermitage","state_name":"Pennsylvania","lat":41.23147,"lng":-80.43199,"zip":"16148","miles_from_dt":23.36},{"city":"Cortland","state_name":"Ohio","lat":41.34817,"lng":-80.72629,"zip":"44410","miles_from_dt":23.37},{"city":"Hartford","state_name":"Ohio","lat":41.32201,"lng":-80.58326,"zip":"44424","miles_from_dt":23.59},{"city":"Summitville","state_name":"Ohio","lat":40.67315,"lng":-80.88919,"zip":"43962","miles_from_dt":24.13},{"city":"New Wilmington","state_name":"Pennsylvania","lat":41.1177,"lng":-80.33105,"zip":"16172","miles_from_dt":24.17},{"city":"New Wilmington","state_name":"Pennsylvania","lat":41.13908,"lng":-80.34084,"zip":"16142","miles_from_dt":24.18},{"city":"Wampum","state_name":"Pennsylvania","lat":40.88902,"lng":-80.33509,"zip":"16157","miles_from_dt":24.36},{"city":"Ravenna","state_name":"Ohio","lat":41.1662,"lng":-81.19829,"zip":"44266","miles_from_dt":24.69},{"city":"Burghill","state_name":"Ohio","lat":41.3277,"lng":-80.54861,"zip":"44404","miles_from_dt":24.74},{"city":"Curllsville","state_name":"Pennsylvania","lat":40.98826,"lng":-80.29541,"zip":"16221","miles_from_dt":24.96},{"city":"New Castle","state_name":"Pennsylvania","lat":40.98826,"lng":-80.29541,"zip":"16108","miles_from_dt":24.96},{"city":"Paris","state_name":"Ohio","lat":40.79613,"lng":-81.15619,"zip":"44669","miles_from_dt":25},{"city":"Minerva","state_name":"Ohio","lat":40.74313,"lng":-81.09343,"zip":"44657","miles_from_dt":25.02},{"city":"East Liverpool","state_name":"Ohio","lat":40.67608,"lng":-80.57965,"zip":"43920","miles_from_dt":25.23},{"city":"New Castle","state_name":"Pennsylvania","lat":40.98776,"lng":-80.28814,"zip":"16101","miles_from_dt":25.35},{"city":"Augusta","state_name":"Ohio","lat":40.69589,"lng":-81.02685,"zip":"44607","miles_from_dt":25.54},{"city":"Sharpsville","state_name":"Pennsylvania","lat":41.28687,"lng":-80.44509,"zip":"16150","miles_from_dt":25.54},{"city":"Garrettsville","state_name":"Ohio","lat":41.30692,"lng":-81.07197,"zip":"44231","miles_from_dt":25.71},{"city":"Orangeville","state_name":"Ohio","lat":41.33602,"lng":-80.52628,"zip":"44453","miles_from_dt":25.81},{"city":"Clark","state_name":"Pennsylvania","lat":41.2828,"lng":-80.42569,"zip":"16113","miles_from_dt":26.02},{"city":"Bristolville","state_name":"Ohio","lat":41.38893,"lng":-80.85513,"zip":"44402","miles_from_dt":26.42},{"city":"Wellsville","state_name":"Ohio","lat":40.63365,"lng":-80.68729,"zip":"43968","miles_from_dt":26.44},{"city":"Koppel","state_name":"Pennsylvania","lat":40.83425,"lng":-80.32369,"zip":"16136","miles_from_dt":26.45},{"city":"Louisville","state_name":"Ohio","lat":40.86528,"lng":-81.23977,"zip":"44641","miles_from_dt":26.47},{"city":"Salineville","state_name":"Ohio","lat":40.63156,"lng":-80.84797,"zip":"43945","miles_from_dt":26.51},{"city":"West Farmington","state_name":"Ohio","lat":41.37368,"lng":-80.96478,"zip":"44491","miles_from_dt":26.95},{"city":"Midland","state_name":"Pennsylvania","lat":40.68056,"lng":-80.49182,"zip":"15059","miles_from_dt":27.14},{"city":"Beaver Falls","state_name":"Pennsylvania","lat":40.76829,"lng":-80.35873,"zip":"15010","miles_from_dt":27.38},{"city":"Robertsville","state_name":"Ohio","lat":40.76305,"lng":-81.18788,"zip":"44670","miles_from_dt":27.71},{"city":"Randolph","state_name":"Ohio","lat":41.01951,"lng":-81.30239,"zip":"44265","miles_from_dt":27.73},{"city":"Hartville","state_name":"Ohio","lat":40.96401,"lng":-81.3048,"zip":"44632","miles_from_dt":28.05},{"city":"Transfer","state_name":"Pennsylvania","lat":41.32539,"lng":-80.42111,"zip":"16154","miles_from_dt":28.36},{"city":"Mechanicstown","state_name":"Ohio","lat":40.6231,"lng":-80.9556,"zip":"44651","miles_from_dt":28.47},{"city":"Ellwood City","state_name":"Pennsylvania","lat":40.8743,"lng":-80.2568,"zip":"16117","miles_from_dt":28.56},{"city":"Parkman","state_name":"Ohio","lat":41.36886,"lng":-81.05966,"zip":"44080","miles_from_dt":28.87},{"city":"Newell","state_name":"West Virginia","lat":40.60108,"lng":-80.62646,"zip":"26050","miles_from_dt":29.32},{"city":"Volant","state_name":"Pennsylvania","lat":41.09702,"lng":-80.21943,"zip":"16156","miles_from_dt":29.46},{"city":"Industry","state_name":"Pennsylvania","lat":40.6669,"lng":-80.43318,"zip":"15052","miles_from_dt":29.66},{"city":"Farmdale","state_name":"Ohio","lat":41.43336,"lng":-80.66329,"zip":"44417","miles_from_dt":29.67},{"city":"Mogadore","state_name":"Ohio","lat":41.03684,"lng":-81.34079,"zip":"44260","miles_from_dt":29.78}],"targetCityZipCode":"44406","targetCityState":"Ohio"},"__N_SSG":true}