{"pageProps":{"stateName":"Ohio","cityName":"chesterland","nearbyCities":[{"city":"Novelty","state_name":"Ohio","lat":41.47196,"lng":-81.32917,"zip":"44072","miles_from_dt":4.13},{"city":"Gates Mills","state_name":"Ohio","lat":41.53128,"lng":-81.4112,"zip":"44040","miles_from_dt":4.19},{"city":"Novelty","state_name":"Ohio","lat":41.46685,"lng":-81.33989,"zip":"44073","miles_from_dt":4.51},{"city":"Willoughby","state_name":"Ohio","lat":41.60985,"lng":-81.3791,"zip":"44094","miles_from_dt":5.94},{"city":"Newbury","state_name":"Ohio","lat":41.46308,"lng":-81.24408,"zip":"44065","miles_from_dt":6.53},{"city":"Chagrin Falls","state_name":"Ohio","lat":41.44747,"lng":-81.4045,"zip":"44022","miles_from_dt":6.97},{"city":"Cleveland","state_name":"Ohio","lat":41.49999,"lng":-81.46774,"zip":"44124","miles_from_dt":7.45},{"city":"Cleveland","state_name":"Ohio","lat":41.55358,"lng":-81.47513,"zip":"44143","miles_from_dt":7.65},{"city":"Chardon","state_name":"Ohio","lat":41.57668,"lng":-81.19112,"zip":"44024","miles_from_dt":7.86},{"city":"Wickliffe","state_name":"Ohio","lat":41.59797,"lng":-81.46867,"zip":"44092","miles_from_dt":8.49},{"city":"Willoughby","state_name":"Ohio","lat":41.64662,"lng":-81.40873,"zip":"44096","miles_from_dt":8.9},{"city":"Mentor","state_name":"Ohio","lat":41.67742,"lng":-81.32806,"zip":"44060","miles_from_dt":10.05},{"city":"Euclid","state_name":"Ohio","lat":41.60484,"lng":-81.49958,"zip":"44132","miles_from_dt":10.11},{"city":"Eastlake","state_name":"Ohio","lat":41.65223,"lng":-81.44209,"zip":"44095","miles_from_dt":10.12},{"city":"Chagrin Falls","state_name":"Ohio","lat":41.38732,"lng":-81.28858,"zip":"44023","miles_from_dt":10.21},{"city":"Eastlake","state_name":"Ohio","lat":41.65145,"lng":-81.44878,"zip":"44097","miles_from_dt":10.28},{"city":"Beachwood","state_name":"Ohio","lat":41.4701,"lng":-81.51272,"zip":"44122","miles_from_dt":10.37},{"city":"Cleveland","state_name":"Ohio","lat":41.52626,"lng":-81.53246,"zip":"44121","miles_from_dt":10.48},{"city":"Euclid","state_name":"Ohio","lat":41.57145,"lng":-81.52695,"zip":"44117","miles_from_dt":10.54},{"city":"Mentor","state_name":"Ohio","lat":41.68824,"lng":-81.33282,"zip":"44061","miles_from_dt":10.8},{"city":"Euclid","state_name":"Ohio","lat":41.60365,"lng":-81.52441,"zip":"44123","miles_from_dt":11.21},{"city":"Burton","state_name":"Ohio","lat":41.44141,"lng":-81.14579,"zip":"44021","miles_from_dt":11.44},{"city":"Solon","state_name":"Ohio","lat":41.38325,"lng":-81.44439,"zip":"44139","miles_from_dt":11.84},{"city":"Cleveland","state_name":"Ohio","lat":41.58673,"lng":-81.54748,"zip":"44119","miles_from_dt":11.87},{"city":"East Claridon","state_name":"Ohio","lat":41.54698,"lng":-81.10173,"zip":"44033","miles_from_dt":11.91},{"city":"Cleveland","state_name":"Ohio","lat":41.5016,"lng":-81.55653,"zip":"44118","miles_from_dt":11.91},{"city":"Cleveland","state_name":"Ohio","lat":41.53562,"lng":-81.57369,"zip":"44112","miles_from_dt":12.61},{"city":"Cleveland","state_name":"Ohio","lat":41.56365,"lng":-81.57111,"zip":"44110","miles_from_dt":12.67},{"city":"Cleveland","state_name":"Ohio","lat":41.43766,"lng":-81.54036,"zip":"44128","miles_from_dt":12.68},{"city":"Painesville","state_name":"Ohio","lat":41.69933,"lng":-81.21142,"zip":"44077","miles_from_dt":13.1},{"city":"Huntsburg","state_name":"Ohio","lat":41.54157,"lng":-81.07227,"zip":"44046","miles_from_dt":13.41},{"city":"Cleveland","state_name":"Ohio","lat":41.47337,"lng":-81.58015,"zip":"44120","miles_from_dt":13.57},{"city":"Cleveland","state_name":"Ohio","lat":41.5062,"lng":-81.60679,"zip":"44106","miles_from_dt":14.44},{"city":"Cleveland","state_name":"Ohio","lat":41.53992,"lng":-81.60988,"zip":"44108","miles_from_dt":14.5},{"city":"Bedford","state_name":"Ohio","lat":41.38161,"lng":-81.53018,"zip":"44146","miles_from_dt":14.66},{"city":"Maple Heights","state_name":"Ohio","lat":41.40903,"lng":-81.56274,"zip":"44137","miles_from_dt":14.73},{"city":"Aurora","state_name":"Ohio","lat":41.31645,"lng":-81.34243,"zip":"44202","miles_from_dt":14.88},{"city":"Grand River","state_name":"Ohio","lat":41.7461,"lng":-81.28512,"zip":"44045","miles_from_dt":14.97},{"city":"Cleveland","state_name":"Ohio","lat":41.50218,"lng":-81.61965,"zip":"44195","miles_from_dt":15.14},{"city":"Cleveland","state_name":"Ohio","lat":41.5035,"lng":-81.62116,"zip":"44190","miles_from_dt":15.2},{"city":"Montville","state_name":"Ohio","lat":41.60567,"lng":-81.0477,"zip":"44064","miles_from_dt":15.52},{"city":"Cleveland","state_name":"Ohio","lat":41.48238,"lng":-81.62702,"zip":"44104","miles_from_dt":15.76},{"city":"Twinsburg","state_name":"Ohio","lat":41.31706,"lng":-81.44106,"zip":"44087","miles_from_dt":15.89},{"city":"Cleveland","state_name":"Ohio","lat":41.51559,"lng":-81.64301,"zip":"44103","miles_from_dt":16.25},{"city":"Hiram","state_name":"Ohio","lat":41.33454,"lng":-81.15822,"zip":"44234","miles_from_dt":16.29},{"city":"Cleveland","state_name":"Ohio","lat":41.45069,"lng":-81.63032,"zip":"44105","miles_from_dt":16.53},{"city":"Middlefield","state_name":"Ohio","lat":41.45899,"lng":-81.02698,"zip":"44062","miles_from_dt":16.53},{"city":"Cleveland","state_name":"Ohio","lat":41.471,"lng":-81.64874,"zip":"44127","miles_from_dt":17.04},{"city":"Cleveland","state_name":"Ohio","lat":41.40658,"lng":-81.61548,"zip":"44125","miles_from_dt":17.13},{"city":"Thompson","state_name":"Ohio","lat":41.67443,"lng":-81.05599,"zip":"44086","miles_from_dt":17.29},{"city":"Macedonia","state_name":"Ohio","lat":41.31465,"lng":-81.49868,"zip":"44056","miles_from_dt":17.35},{"city":"Mantua","state_name":"Ohio","lat":41.28658,"lng":-81.22982,"zip":"44255","miles_from_dt":17.71},{"city":"Cleveland","state_name":"Ohio","lat":41.51603,"lng":-81.67229,"zip":"44194","miles_from_dt":17.76},{"city":"Cleveland","state_name":"Ohio","lat":41.49211,"lng":-81.66999,"zip":"44115","miles_from_dt":17.82},{"city":"Cleveland","state_name":"Ohio","lat":41.48988,"lng":-81.6717,"zip":"44101","miles_from_dt":17.93},{"city":"Cleveland","state_name":"Ohio","lat":41.5137,"lng":-81.67625,"zip":"44114","miles_from_dt":17.98},{"city":"Parkman","state_name":"Ohio","lat":41.36886,"lng":-81.05966,"zip":"44080","miles_from_dt":18.01},{"city":"Cleveland","state_name":"Ohio","lat":41.49367,"lng":-81.67625,"zip":"44198","miles_from_dt":18.13},{"city":"Windsor","state_name":"Ohio","lat":41.55125,"lng":-80.97446,"zip":"44099","miles_from_dt":18.51},{"city":"Cleveland","state_name":"Ohio","lat":41.481,"lng":-81.6817,"zip":"44197","miles_from_dt":18.55},{"city":"Cleveland","state_name":"Ohio","lat":41.50172,"lng":-81.68644,"zip":"44192","miles_from_dt":18.58},{"city":"Perry","state_name":"Ohio","lat":41.76589,"lng":-81.14551,"zip":"44081","miles_from_dt":18.78},{"city":"Northfield","state_name":"Ohio","lat":41.31386,"lng":-81.5476,"zip":"44067","miles_from_dt":18.8},{"city":"Cleveland","state_name":"Ohio","lat":41.50535,"lng":-81.69343,"zip":"44199","miles_from_dt":18.91},{"city":"Cleveland","state_name":"Ohio","lat":41.50288,"lng":-81.69542,"zip":"44193","miles_from_dt":19.03},{"city":"Cleveland","state_name":"Ohio","lat":41.48343,"lng":-81.69638,"zip":"44113","miles_from_dt":19.27},{"city":"Cleveland","state_name":"Ohio","lat":41.48468,"lng":-81.70274,"zip":"44191","miles_from_dt":19.58},{"city":"Independence","state_name":"Ohio","lat":41.3835,"lng":-81.65349,"zip":"44131","miles_from_dt":19.65},{"city":"Cleveland","state_name":"Ohio","lat":41.44457,"lng":-81.69681,"zip":"44109","miles_from_dt":19.94},{"city":"Mesopotamia","state_name":"Ohio","lat":41.45436,"lng":-80.95552,"zip":"44439","miles_from_dt":20.18},{"city":"Streetsboro","state_name":"Ohio","lat":41.23945,"lng":-81.34728,"zip":"44241","miles_from_dt":20.2},{"city":"Garrettsville","state_name":"Ohio","lat":41.30692,"lng":-81.07197,"zip":"44231","miles_from_dt":20.52},{"city":"Hudson","state_name":"Ohio","lat":41.24669,"lng":-81.44775,"zip":"44236","miles_from_dt":20.6},{"city":"Hudson","state_name":"Ohio","lat":41.25496,"lng":-81.48139,"zip":"44237","miles_from_dt":20.65},{"city":"Madison","state_name":"Ohio","lat":41.76675,"lng":-81.05965,"zip":"44057","miles_from_dt":21.43},{"city":"Cleveland","state_name":"Ohio","lat":41.4749,"lng":-81.73751,"zip":"44102","miles_from_dt":21.48},{"city":"Brecksville","state_name":"Ohio","lat":41.30139,"lng":-81.61439,"zip":"44141","miles_from_dt":21.69},{"city":"West Farmington","state_name":"Ohio","lat":41.37368,"lng":-80.96478,"zip":"44491","miles_from_dt":21.9},{"city":"Cleveland","state_name":"Ohio","lat":41.38496,"lng":-81.70459,"zip":"44134","miles_from_dt":21.91},{"city":"Cleveland","state_name":"Ohio","lat":41.43738,"lng":-81.74272,"zip":"44144","miles_from_dt":22.36},{"city":"Cleveland","state_name":"Ohio","lat":41.39035,"lng":-81.73536,"zip":"44129","miles_from_dt":23.17},{"city":"Broadview Heights","state_name":"Ohio","lat":41.31956,"lng":-81.67797,"zip":"44147","miles_from_dt":23.24},{"city":"Peninsula","state_name":"Ohio","lat":41.22966,"lng":-81.54311,"zip":"44264","miles_from_dt":23.6},{"city":"Unionville","state_name":"Ohio","lat":41.77935,"lng":-81.00765,"zip":"44088","miles_from_dt":23.9},{"city":"Windham","state_name":"Ohio","lat":41.2392,"lng":-81.08354,"zip":"44288","miles_from_dt":23.93},{"city":"Cleveland","state_name":"Ohio","lat":41.46138,"lng":-81.78691,"zip":"44181","miles_from_dt":24.17},{"city":"Rome","state_name":"Ohio","lat":41.60463,"lng":-80.87128,"zip":"44085","miles_from_dt":24.32},{"city":"Cleveland","state_name":"Ohio","lat":41.45775,"lng":-81.78986,"zip":"44111","miles_from_dt":24.38},{"city":"Rock Creek","state_name":"Ohio","lat":41.67242,"lng":-80.89605,"zip":"44084","miles_from_dt":24.51},{"city":"Lakewood","state_name":"Ohio","lat":41.48263,"lng":-81.80025,"zip":"44107","miles_from_dt":24.6},{"city":"Brady Lake","state_name":"Ohio","lat":41.17038,"lng":-81.31682,"zip":"44211","miles_from_dt":24.95},{"city":"Southington","state_name":"Ohio","lat":41.29783,"lng":-80.95999,"zip":"44470","miles_from_dt":25.12},{"city":"Stow","state_name":"Ohio","lat":41.17697,"lng":-81.44016,"zip":"44224","miles_from_dt":25.14},{"city":"Geneva","state_name":"Ohio","lat":41.77579,"lng":-80.95223,"zip":"44041","miles_from_dt":25.82},{"city":"Richfield","state_name":"Ohio","lat":41.23668,"lng":-81.64017,"zip":"44286","miles_from_dt":25.96},{"city":"Cleveland","state_name":"Ohio","lat":41.378,"lng":-81.7868,"zip":"44130","miles_from_dt":25.96},{"city":"Ravenna","state_name":"Ohio","lat":41.1662,"lng":-81.19829,"zip":"44266","miles_from_dt":26.15},{"city":"North Royalton","state_name":"Ohio","lat":41.31388,"lng":-81.74497,"zip":"44133","miles_from_dt":26.26},{"city":"Kent","state_name":"Ohio","lat":41.14793,"lng":-81.34046,"zip":"44243","miles_from_dt":26.5},{"city":"Cleveland","state_name":"Ohio","lat":41.42472,"lng":-81.82135,"zip":"44135","miles_from_dt":26.53},{"city":"Orwell","state_name":"Ohio","lat":41.52728,"lng":-80.81867,"zip":"44076","miles_from_dt":26.54},{"city":"Bristolville","state_name":"Ohio","lat":41.38893,"lng":-80.85513,"zip":"44402","miles_from_dt":26.58},{"city":"Kent","state_name":"Ohio","lat":41.14674,"lng":-81.36268,"zip":"44242","miles_from_dt":26.63},{"city":"North Bloomfield","state_name":"Ohio","lat":41.45397,"lng":-80.82576,"zip":"44450","miles_from_dt":26.74},{"city":"Cuyahoga Falls","state_name":"Ohio","lat":41.16968,"lng":-81.53051,"zip":"44223","miles_from_dt":27.07},{"city":"Brookpark","state_name":"Ohio","lat":41.40205,"lng":-81.82406,"zip":"44142","miles_from_dt":27.14},{"city":"Cleveland","state_name":"Ohio","lat":41.4005,"lng":-81.82678,"zip":"44188","miles_from_dt":27.31},{"city":"Rocky River","state_name":"Ohio","lat":41.47011,"lng":-81.85194,"zip":"44116","miles_from_dt":27.39},{"city":"Kent","state_name":"Ohio","lat":41.13329,"lng":-81.34241,"zip":"44240","miles_from_dt":27.51},{"city":"Munroe Falls","state_name":"Ohio","lat":41.13901,"lng":-81.43492,"zip":"44262","miles_from_dt":27.65},{"city":"Cleveland","state_name":"Ohio","lat":41.44263,"lng":-81.85278,"zip":"44126","miles_from_dt":27.79},{"city":"Cuyahoga Falls","state_name":"Ohio","lat":41.13898,"lng":-81.47624,"zip":"44221","miles_from_dt":28.15},{"city":"Bath","state_name":"Ohio","lat":41.18892,"lng":-81.62975,"zip":"44210","miles_from_dt":28.32},{"city":"Cuyahoga Falls","state_name":"Ohio","lat":41.13534,"lng":-81.48311,"zip":"44222","miles_from_dt":28.49},{"city":"Wayland","state_name":"Ohio","lat":41.16241,"lng":-81.06595,"zip":"44285","miles_from_dt":28.97},{"city":"Hinckley","state_name":"Ohio","lat":41.23943,"lng":-81.73513,"zip":"44233","miles_from_dt":29.14},{"city":"Strongsville","state_name":"Ohio","lat":41.31265,"lng":-81.81064,"zip":"44136","miles_from_dt":29.17},{"city":"Austinburg","state_name":"Ohio","lat":41.76087,"lng":-80.85152,"zip":"44010","miles_from_dt":29.4},{"city":"Leavittsburg","state_name":"Ohio","lat":41.24011,"lng":-80.90804,"zip":"44430","miles_from_dt":29.79},{"city":"Berea","state_name":"Ohio","lat":41.36867,"lng":-81.86303,"zip":"44017","miles_from_dt":29.85},{"city":"Warren","state_name":"Ohio","lat":41.3006,"lng":-80.84418,"zip":"44486","miles_from_dt":29.88}],"targetCityZipCode":"44026","targetCityState":"Ohio"},"__N_SSG":true}