{"pageProps":{"stateName":"Ohio","cityName":"deersville","nearbyCities":[{"city":"Tippecanoe","state_name":"Ohio","lat":40.27789,"lng":-81.28752,"zip":"44699","miles_from_dt":5.42},{"city":"Stillwater","state_name":"Ohio","lat":40.32091,"lng":-81.3095,"zip":"44679","miles_from_dt":6.6},{"city":"Uhrichsville","state_name":"Ohio","lat":40.35505,"lng":-81.3218,"zip":"44683","miles_from_dt":8.09},{"city":"Freeport","state_name":"Ohio","lat":40.19111,"lng":-81.27688,"zip":"43973","miles_from_dt":8.73},{"city":"Scio","state_name":"Ohio","lat":40.40486,"lng":-81.09925,"zip":"43988","miles_from_dt":8.75},{"city":"Cadiz","state_name":"Ohio","lat":40.25697,"lng":-81.0205,"zip":"43907","miles_from_dt":9.3},{"city":"Bowerston","state_name":"Ohio","lat":40.43868,"lng":-81.1754,"zip":"44695","miles_from_dt":9.74},{"city":"Holloway","state_name":"Ohio","lat":40.16168,"lng":-81.13155,"zip":"43985","miles_from_dt":9.86},{"city":"Dennison","state_name":"Ohio","lat":40.42878,"lng":-81.28955,"zip":"44621","miles_from_dt":10.5},{"city":"Leesville","state_name":"Ohio","lat":40.45166,"lng":-81.20963,"zip":"44639","miles_from_dt":10.68},{"city":"New Rumley","state_name":"Ohio","lat":40.39926,"lng":-81.03393,"zip":"43984","miles_from_dt":10.74},{"city":"Piedmont","state_name":"Ohio","lat":40.13886,"lng":-81.20296,"zip":"43983","miles_from_dt":10.99},{"city":"Flushing","state_name":"Ohio","lat":40.14519,"lng":-81.10451,"zip":"43977","miles_from_dt":11.42},{"city":"Jewett","state_name":"Ohio","lat":40.3784,"lng":-80.99036,"zip":"43986","miles_from_dt":11.83},{"city":"New Athens","state_name":"Ohio","lat":40.18401,"lng":-80.99466,"zip":"43981","miles_from_dt":12.9},{"city":"Tuscarawas","state_name":"Ohio","lat":40.39765,"lng":-81.40323,"zip":"44682","miles_from_dt":13.28},{"city":"Midvale","state_name":"Ohio","lat":40.43711,"lng":-81.37105,"zip":"44653","miles_from_dt":13.62},{"city":"Gnadenhutten","state_name":"Ohio","lat":40.35107,"lng":-81.44553,"zip":"44629","miles_from_dt":14.08},{"city":"Sherrodsville","state_name":"Ohio","lat":40.50245,"lng":-81.24975,"zip":"44675","miles_from_dt":14.49},{"city":"Port Washington","state_name":"Ohio","lat":40.29773,"lng":-81.47846,"zip":"43837","miles_from_dt":15.33},{"city":"Lafferty","state_name":"Ohio","lat":40.11475,"lng":-81.01405,"zip":"43951","miles_from_dt":15.63},{"city":"Hopedale","state_name":"Ohio","lat":40.36981,"lng":-80.90655,"zip":"43976","miles_from_dt":15.68},{"city":"Fairview","state_name":"Ohio","lat":40.05755,"lng":-81.23689,"zip":"43736","miles_from_dt":16.78},{"city":"Amsterdam","state_name":"Ohio","lat":40.47042,"lng":-80.95131,"zip":"43903","miles_from_dt":17.27},{"city":"Morristown","state_name":"Ohio","lat":40.06393,"lng":-81.06942,"zip":"43759","miles_from_dt":17.32},{"city":"Bannock","state_name":"Ohio","lat":40.10164,"lng":-80.9749,"zip":"43972","miles_from_dt":17.62},{"city":"New Philadelphia","state_name":"Ohio","lat":40.46066,"lng":-81.44961,"zip":"44663","miles_from_dt":17.79},{"city":"Harrisville","state_name":"Ohio","lat":40.18205,"lng":-80.88728,"zip":"43974","miles_from_dt":17.8},{"city":"Adena","state_name":"Ohio","lat":40.21691,"lng":-80.86637,"zip":"43901","miles_from_dt":17.91},{"city":"Fairpoint","state_name":"Ohio","lat":40.12334,"lng":-80.9335,"zip":"43927","miles_from_dt":18.07},{"city":"Carrollton","state_name":"Ohio","lat":40.5669,"lng":-81.0739,"zip":"44615","miles_from_dt":19.52},{"city":"Dellroy","state_name":"Ohio","lat":40.5811,"lng":-81.21592,"zip":"44620","miles_from_dt":19.6},{"city":"Wolf Run","state_name":"Ohio","lat":40.46564,"lng":-80.88599,"zip":"43970","miles_from_dt":19.71},{"city":"Maynard","state_name":"Ohio","lat":40.1309,"lng":-80.87904,"zip":"43937","miles_from_dt":20},{"city":"East Springfield","state_name":"Ohio","lat":40.44583,"lng":-80.86242,"zip":"43925","miles_from_dt":20},{"city":"Bloomingdale","state_name":"Ohio","lat":40.37039,"lng":-80.8214,"zip":"43910","miles_from_dt":20.01},{"city":"Saint Clairsville","state_name":"Ohio","lat":40.09164,"lng":-80.92193,"zip":"43950","miles_from_dt":20.02},{"city":"Piney Fork","state_name":"Ohio","lat":40.25258,"lng":-80.81345,"zip":"43941","miles_from_dt":20.05},{"city":"Mineral City","state_name":"Ohio","lat":40.57027,"lng":-81.33104,"zip":"44656","miles_from_dt":20.25},{"city":"Somerdale","state_name":"Ohio","lat":40.56478,"lng":-81.36408,"zip":"44678","miles_from_dt":20.62},{"city":"Newcomerstown","state_name":"Ohio","lat":40.27333,"lng":-81.57931,"zip":"43832","miles_from_dt":20.73},{"city":"Dillonvale","state_name":"Ohio","lat":40.22396,"lng":-80.80546,"zip":"43917","miles_from_dt":20.86},{"city":"Lore City","state_name":"Ohio","lat":40.0537,"lng":-81.43318,"zip":"43755","miles_from_dt":21.25},{"city":"Barnesville","state_name":"Ohio","lat":39.98979,"lng":-81.17368,"zip":"43713","miles_from_dt":21.27},{"city":"Smithfield","state_name":"Ohio","lat":40.26847,"lng":-80.78002,"zip":"43948","miles_from_dt":21.66},{"city":"Salesville","state_name":"Ohio","lat":40.01111,"lng":-81.37001,"zip":"43778","miles_from_dt":22},{"city":"Kimbolton","state_name":"Ohio","lat":40.15932,"lng":-81.56411,"zip":"43749","miles_from_dt":22.06},{"city":"Bethesda","state_name":"Ohio","lat":39.98907,"lng":-81.07938,"zip":"43719","miles_from_dt":22.07},{"city":"Bergholz","state_name":"Ohio","lat":40.50867,"lng":-80.87349,"zip":"43908","miles_from_dt":22.07},{"city":"Belmont","state_name":"Ohio","lat":40.00926,"lng":-81.00596,"zip":"43718","miles_from_dt":22.12},{"city":"Quaker City","state_name":"Ohio","lat":39.98758,"lng":-81.29636,"zip":"43773","miles_from_dt":22.16},{"city":"Barton","state_name":"Ohio","lat":40.11159,"lng":-80.8408,"zip":"43905","miles_from_dt":22.42},{"city":"Mount Pleasant","state_name":"Ohio","lat":40.16723,"lng":-80.79993,"zip":"43939","miles_from_dt":22.42},{"city":"Old Washington","state_name":"Ohio","lat":40.03776,"lng":-81.44477,"zip":"43768","miles_from_dt":22.5},{"city":"Warnock","state_name":"Ohio","lat":40.02309,"lng":-80.94371,"zip":"43967","miles_from_dt":22.95},{"city":"Stone Creek","state_name":"Ohio","lat":40.40511,"lng":-81.60025,"zip":"43840","miles_from_dt":22.98},{"city":"Dover","state_name":"Ohio","lat":40.54883,"lng":-81.48375,"zip":"44622","miles_from_dt":23.3},{"city":"Richmond","state_name":"Ohio","lat":40.43623,"lng":-80.76853,"zip":"43944","miles_from_dt":24.12},{"city":"Bakersville","state_name":"Ohio","lat":40.35531,"lng":-81.64397,"zip":"43803","miles_from_dt":24.39},{"city":"Zoar","state_name":"Ohio","lat":40.60807,"lng":-81.41175,"zip":"44697","miles_from_dt":24.44},{"city":"Magnolia","state_name":"Ohio","lat":40.64304,"lng":-81.2998,"zip":"44643","miles_from_dt":24.54},{"city":"Rayland","state_name":"Ohio","lat":40.2242,"lng":-80.73269,"zip":"43943","miles_from_dt":24.61},{"city":"Blaine","state_name":"Ohio","lat":40.06774,"lng":-80.81552,"zip":"43909","miles_from_dt":25.32},{"city":"Bridgeport","state_name":"Ohio","lat":40.08708,"lng":-80.79255,"zip":"43912","miles_from_dt":25.49},{"city":"Mechanicstown","state_name":"Ohio","lat":40.6231,"lng":-80.9556,"zip":"44651","miles_from_dt":25.58},{"city":"Glencoe","state_name":"Ohio","lat":40.01088,"lng":-80.88172,"zip":"43928","miles_from_dt":25.6},{"city":"Sandyville","state_name":"Ohio","lat":40.64511,"lng":-81.36565,"zip":"44671","miles_from_dt":25.72},{"city":"Steubenville","state_name":"Ohio","lat":40.35815,"lng":-80.70548,"zip":"43953","miles_from_dt":25.83},{"city":"Martins Ferry","state_name":"Ohio","lat":40.1247,"lng":-80.75225,"zip":"43935","miles_from_dt":25.97},{"city":"Lansing","state_name":"Ohio","lat":40.0752,"lng":-80.79123,"zip":"43934","miles_from_dt":26.02},{"city":"Neffs","state_name":"Ohio","lat":40.02863,"lng":-80.82541,"zip":"43940","miles_from_dt":26.72},{"city":"Malvern","state_name":"Ohio","lat":40.68691,"lng":-81.17639,"zip":"44644","miles_from_dt":26.86},{"city":"Yorkville","state_name":"Ohio","lat":40.15811,"lng":-80.71301,"zip":"43971","miles_from_dt":26.92},{"city":"Waynesburg","state_name":"Ohio","lat":40.68458,"lng":-81.25757,"zip":"44688","miles_from_dt":26.94},{"city":"Kipling","state_name":"Ohio","lat":39.99353,"lng":-81.50975,"zip":"43750","miles_from_dt":27.03},{"city":"Mingo Junction","state_name":"Ohio","lat":40.30138,"lng":-80.67199,"zip":"43938","miles_from_dt":27.27},{"city":"Bolivar","state_name":"Ohio","lat":40.63488,"lng":-81.46098,"zip":"44612","miles_from_dt":27.34},{"city":"Tiltonsville","state_name":"Ohio","lat":40.17155,"lng":-80.69698,"zip":"43963","miles_from_dt":27.4},{"city":"Cambridge","state_name":"Ohio","lat":40.03949,"lng":-81.59934,"zip":"43725","miles_from_dt":28.13},{"city":"Strasburg","state_name":"Ohio","lat":40.60174,"lng":-81.54512,"zip":"44680","miles_from_dt":28.17},{"city":"Irondale","state_name":"Ohio","lat":40.53145,"lng":-80.74699,"zip":"43932","miles_from_dt":28.31},{"city":"Bellaire","state_name":"Ohio","lat":40.0132,"lng":-80.80118,"zip":"43906","miles_from_dt":28.38},{"city":"Colerain","state_name":"Ohio","lat":40.07001,"lng":-80.74028,"zip":"43916","miles_from_dt":28.44},{"city":"Beech Bottom","state_name":"West Virginia","lat":40.21662,"lng":-80.65965,"zip":"26030","miles_from_dt":28.5},{"city":"Steubenville","state_name":"Ohio","lat":40.39763,"lng":-80.66278,"zip":"43952","miles_from_dt":28.58},{"city":"Sugarcreek","state_name":"Ohio","lat":40.50018,"lng":-81.6625,"zip":"44681","miles_from_dt":28.65},{"city":"Plainfield","state_name":"Ohio","lat":40.2087,"lng":-81.71854,"zip":"43836","miles_from_dt":28.7},{"city":"Short Creek","state_name":"West Virginia","lat":40.18622,"lng":-80.66453,"zip":"26058","miles_from_dt":28.74},{"city":"Augusta","state_name":"Ohio","lat":40.69589,"lng":-81.02685,"zip":"44607","miles_from_dt":28.75},{"city":"Hammondsville","state_name":"Ohio","lat":40.56978,"lng":-80.77372,"zip":"43930","miles_from_dt":28.81},{"city":"West Lafayette","state_name":"Ohio","lat":40.25692,"lng":-81.73144,"zip":"43845","miles_from_dt":28.85},{"city":"East Sparta","state_name":"Ohio","lat":40.68994,"lng":-81.38404,"zip":"44626","miles_from_dt":28.96},{"city":"Senecaville","state_name":"Ohio","lat":39.92229,"lng":-81.44024,"zip":"43780","miles_from_dt":29.15},{"city":"Jacobsburg","state_name":"Ohio","lat":39.93917,"lng":-80.89588,"zip":"43933","miles_from_dt":29.19},{"city":"Salineville","state_name":"Ohio","lat":40.63156,"lng":-80.84797,"zip":"43945","miles_from_dt":29.19},{"city":"Brilliant","state_name":"Ohio","lat":40.27048,"lng":-80.63154,"zip":"43913","miles_from_dt":29.48},{"city":"Windsor Heights","state_name":"West Virginia","lat":40.19748,"lng":-80.64567,"zip":"26075","miles_from_dt":29.51},{"city":"Byesville","state_name":"Ohio","lat":39.96022,"lng":-81.5412,"zip":"43723","miles_from_dt":29.87}],"targetCityZipCode":"44693","targetCityState":"Ohio"},"__N_SSG":true}