{"pageProps":{"stateName":"Ohio","cityName":"dexter-city","nearbyCities":[{"city":"Macksburg","state_name":"Ohio","lat":39.604,"lng":-81.44809,"zip":"45746","miles_from_dt":3.35},{"city":"Caldwell","state_name":"Ohio","lat":39.73267,"lng":-81.5166,"zip":"43724","miles_from_dt":6.33},{"city":"Lowell","state_name":"Ohio","lat":39.5396,"lng":-81.5077,"zip":"45744","miles_from_dt":7.4},{"city":"Coal Run","state_name":"Ohio","lat":39.56563,"lng":-81.58347,"zip":"45721","miles_from_dt":7.71},{"city":"Beverly","state_name":"Ohio","lat":39.60484,"lng":-81.6268,"zip":"45715","miles_from_dt":8.22},{"city":"Lower Salem","state_name":"Ohio","lat":39.61678,"lng":-81.32689,"zip":"45745","miles_from_dt":8.48},{"city":"Belle Valley","state_name":"Ohio","lat":39.78943,"lng":-81.5548,"zip":"43717","miles_from_dt":10.7},{"city":"Whipple","state_name":"Ohio","lat":39.51349,"lng":-81.37016,"zip":"45788","miles_from_dt":10.85},{"city":"Stafford","state_name":"Ohio","lat":39.71086,"lng":-81.27704,"zip":"43786","miles_from_dt":11.82},{"city":"Sarahsville","state_name":"Ohio","lat":39.81718,"lng":-81.42528,"zip":"43779","miles_from_dt":12.26},{"city":"Summerfield","state_name":"Ohio","lat":39.80175,"lng":-81.3334,"zip":"43788","miles_from_dt":13.4},{"city":"Waterford","state_name":"Ohio","lat":39.50365,"lng":-81.65451,"zip":"45786","miles_from_dt":13.42},{"city":"Wingett Run","state_name":"Ohio","lat":39.5514,"lng":-81.25592,"zip":"45789","miles_from_dt":13.67},{"city":"Ava","state_name":"Ohio","lat":39.84262,"lng":-81.57738,"zip":"43711","miles_from_dt":14.56},{"city":"Watertown","state_name":"Ohio","lat":39.4658,"lng":-81.63464,"zip":"45787","miles_from_dt":14.81},{"city":"Lewisville","state_name":"Ohio","lat":39.75586,"lng":-81.24017,"zip":"43754","miles_from_dt":14.97},{"city":"Marietta","state_name":"Ohio","lat":39.4301,"lng":-81.42947,"zip":"45750","miles_from_dt":15.08},{"city":"Graysville","state_name":"Ohio","lat":39.63982,"lng":-81.18816,"zip":"45734","miles_from_dt":15.66},{"city":"Pleasant City","state_name":"Ohio","lat":39.88063,"lng":-81.52448,"zip":"43772","miles_from_dt":16.42},{"city":"Cumberland","state_name":"Ohio","lat":39.84409,"lng":-81.65883,"zip":"43732","miles_from_dt":16.67},{"city":"Reno","state_name":"Ohio","lat":39.45525,"lng":-81.28656,"zip":"45773","miles_from_dt":16.73},{"city":"Mcconnelsville","state_name":"Ohio","lat":39.68993,"lng":-81.79574,"zip":"43756","miles_from_dt":17.03},{"city":"Fleming","state_name":"Ohio","lat":39.41653,"lng":-81.60828,"zip":"45729","miles_from_dt":17.15},{"city":"Stockport","state_name":"Ohio","lat":39.53292,"lng":-81.80554,"zip":"43787","miles_from_dt":18.93},{"city":"Buffalo","state_name":"Ohio","lat":39.91933,"lng":-81.52001,"zip":"43722","miles_from_dt":19.04},{"city":"Williamstown","state_name":"West Virginia","lat":39.36711,"lng":-81.44894,"zip":"26187","miles_from_dt":19.25},{"city":"Senecaville","state_name":"Ohio","lat":39.92229,"lng":-81.44024,"zip":"43780","miles_from_dt":19.26},{"city":"Newport","state_name":"Ohio","lat":39.4149,"lng":-81.26468,"zip":"45768","miles_from_dt":19.65},{"city":"Derwent","state_name":"Ohio","lat":39.92736,"lng":-81.53807,"zip":"43733","miles_from_dt":19.71},{"city":"Barlow","state_name":"Ohio","lat":39.39494,"lng":-81.66776,"zip":"45712","miles_from_dt":19.91},{"city":"New Matamoras","state_name":"Ohio","lat":39.54367,"lng":-81.1312,"zip":"45767","miles_from_dt":19.97},{"city":"Vincent","state_name":"Ohio","lat":39.38879,"lng":-81.68805,"zip":"45784","miles_from_dt":20.83},{"city":"Woodsfield","state_name":"Ohio","lat":39.74362,"lng":-81.10219,"zip":"43793","miles_from_dt":21.34},{"city":"Belmont","state_name":"West Virginia","lat":39.37686,"lng":-81.27544,"zip":"26134","miles_from_dt":21.53},{"city":"Vienna","state_name":"West Virginia","lat":39.32949,"lng":-81.52267,"zip":"26105","miles_from_dt":21.87},{"city":"Byesville","state_name":"Ohio","lat":39.96022,"lng":-81.5412,"zip":"43723","miles_from_dt":21.98},{"city":"Parkersburg","state_name":"West Virginia","lat":39.32468,"lng":-81.501,"zip":"26106","miles_from_dt":22.12},{"city":"Chandlersville","state_name":"Ohio","lat":39.8714,"lng":-81.79884,"zip":"43727","miles_from_dt":23.01},{"city":"Blue Rock","state_name":"Ohio","lat":39.79272,"lng":-81.86886,"zip":"43720","miles_from_dt":23.01},{"city":"Malaga","state_name":"Ohio","lat":39.85623,"lng":-81.14677,"zip":"43757","miles_from_dt":23.04},{"city":"Bartlett","state_name":"Ohio","lat":39.42139,"lng":-81.81594,"zip":"45713","miles_from_dt":23.59},{"city":"Belpre","state_name":"Ohio","lat":39.3183,"lng":-81.62001,"zip":"45714","miles_from_dt":23.72},{"city":"Kipling","state_name":"Ohio","lat":39.99353,"lng":-81.50975,"zip":"43750","miles_from_dt":24.1},{"city":"Jerusalem","state_name":"Ohio","lat":39.85784,"lng":-81.12128,"zip":"43747","miles_from_dt":24.17},{"city":"Chesterhill","state_name":"Ohio","lat":39.49188,"lng":-81.89676,"zip":"43728","miles_from_dt":24.55},{"city":"Cutler","state_name":"Ohio","lat":39.38246,"lng":-81.79233,"zip":"45724","miles_from_dt":24.56},{"city":"Malta","state_name":"Ohio","lat":39.62482,"lng":-81.9432,"zip":"43758","miles_from_dt":24.66},{"city":"Waverly","state_name":"West Virginia","lat":39.29739,"lng":-81.35086,"zip":"26184","miles_from_dt":24.98},{"city":"Laings","state_name":"Ohio","lat":39.71601,"lng":-81.0131,"zip":"43752","miles_from_dt":25.46},{"city":"Parkersburg","state_name":"West Virginia","lat":39.27413,"lng":-81.47779,"zip":"26104","miles_from_dt":25.58},{"city":"Quaker City","state_name":"Ohio","lat":39.98758,"lng":-81.29636,"zip":"43773","miles_from_dt":25.61},{"city":"Saint Marys","state_name":"West Virginia","lat":39.36136,"lng":-81.17136,"zip":"26170","miles_from_dt":25.65},{"city":"Salesville","state_name":"Ohio","lat":40.01111,"lng":-81.37001,"zip":"43778","miles_from_dt":25.95},{"city":"Old Washington","state_name":"Ohio","lat":40.03776,"lng":-81.44477,"zip":"43768","miles_from_dt":27.17},{"city":"Sharpsburg","state_name":"Ohio","lat":39.44542,"lng":-81.9212,"zip":"45777","miles_from_dt":27.21},{"city":"Friendly","state_name":"West Virginia","lat":39.45053,"lng":-81.03601,"zip":"26146","miles_from_dt":27.32},{"city":"Sardis","state_name":"Ohio","lat":39.64792,"lng":-80.96887,"zip":"43946","miles_from_dt":27.35},{"city":"Parkersburg","state_name":"West Virginia","lat":39.24827,"lng":-81.5572,"zip":"26103","miles_from_dt":27.66},{"city":"Philo","state_name":"Ohio","lat":39.83586,"lng":-81.94135,"zip":"43771","miles_from_dt":27.8},{"city":"Duncan Falls","state_name":"Ohio","lat":39.88144,"lng":-81.90489,"zip":"43734","miles_from_dt":27.82},{"city":"Cambridge","state_name":"Ohio","lat":40.03949,"lng":-81.59934,"zip":"43725","miles_from_dt":27.93},{"city":"Parkersburg","state_name":"West Virginia","lat":39.23975,"lng":-81.5164,"zip":"26102","miles_from_dt":28.02},{"city":"Little Hocking","state_name":"Ohio","lat":39.28563,"lng":-81.73008,"zip":"45742","miles_from_dt":28.12},{"city":"Lore City","state_name":"Ohio","lat":40.0537,"lng":-81.43318,"zip":"43755","miles_from_dt":28.32},{"city":"Amesville","state_name":"Ohio","lat":39.42503,"lng":-81.93038,"zip":"45711","miles_from_dt":28.37},{"city":"Sistersville","state_name":"West Virginia","lat":39.53899,"lng":-80.96577,"zip":"26175","miles_from_dt":28.49},{"city":"Beallsville","state_name":"Ohio","lat":39.83683,"lng":-81.00752,"zip":"43716","miles_from_dt":28.51},{"city":"Parkersburg","state_name":"West Virginia","lat":39.23394,"lng":-81.57483,"zip":"26101","miles_from_dt":28.79},{"city":"Barnesville","state_name":"Ohio","lat":39.98979,"lng":-81.17368,"zip":"43713","miles_from_dt":28.89},{"city":"Paden City","state_name":"West Virginia","lat":39.60724,"lng":-80.93216,"zip":"26159","miles_from_dt":29.43},{"city":"Cameron","state_name":"Ohio","lat":39.77532,"lng":-80.95288,"zip":"43914","miles_from_dt":29.58},{"city":"Davisville","state_name":"West Virginia","lat":39.21488,"lng":-81.45431,"zip":"26142","miles_from_dt":29.71}],"targetCityZipCode":"45727","targetCityState":"Ohio"},"__N_SSG":true}