{"pageProps":{"stateName":"Ohio","cityName":"franklin","nearbyCities":[{"city":"Springboro","state_name":"Ohio","lat":39.54925,"lng":-84.22265,"zip":"45066","miles_from_dt":4.34},{"city":"Miamisburg","state_name":"Ohio","lat":39.62943,"lng":-84.27545,"zip":"45342","miles_from_dt":6.68},{"city":"Dayton","state_name":"Ohio","lat":39.62974,"lng":-84.2725,"zip":"45470","miles_from_dt":6.74},{"city":"Monroe","state_name":"Ohio","lat":39.44437,"lng":-84.36594,"zip":"45050","miles_from_dt":7.12},{"city":"Middletown","state_name":"Ohio","lat":39.45028,"lng":-84.37988,"zip":"45044","miles_from_dt":7.17},{"city":"Miamisburg","state_name":"Ohio","lat":39.63639,"lng":-84.26725,"zip":"45343","miles_from_dt":7.25},{"city":"Middletown","state_name":"Ohio","lat":39.54867,"lng":-84.43755,"zip":"45042","miles_from_dt":7.31},{"city":"Lebanon","state_name":"Ohio","lat":39.44487,"lng":-84.21832,"zip":"45036","miles_from_dt":7.64},{"city":"Germantown","state_name":"Ohio","lat":39.63286,"lng":-84.39841,"zip":"45327","miles_from_dt":8.51},{"city":"Dayton","state_name":"Ohio","lat":39.60036,"lng":-84.1576,"zip":"45458","miles_from_dt":8.93},{"city":"Dayton","state_name":"Ohio","lat":39.66472,"lng":-84.24067,"zip":"45449","miles_from_dt":9.54},{"city":"Trenton","state_name":"Ohio","lat":39.49017,"lng":-84.47948,"zip":"45067","miles_from_dt":9.98},{"city":"Dayton","state_name":"Ohio","lat":39.64381,"lng":-84.16633,"zip":"45475","miles_from_dt":10.43},{"city":"Dayton","state_name":"Ohio","lat":39.64496,"lng":-84.16726,"zip":"45441","miles_from_dt":10.46},{"city":"Dayton","state_name":"Ohio","lat":39.64756,"lng":-84.16984,"zip":"45448","miles_from_dt":10.5},{"city":"Dayton","state_name":"Ohio","lat":39.64658,"lng":-84.16693,"zip":"45459","miles_from_dt":10.55},{"city":"Dayton","state_name":"Ohio","lat":39.69867,"lng":-84.22944,"zip":"45439","miles_from_dt":11.95},{"city":"South Lebanon","state_name":"Ohio","lat":39.37016,"lng":-84.21426,"zip":"45065","miles_from_dt":12.28},{"city":"Overpeck","state_name":"Ohio","lat":39.45701,"lng":-84.51094,"zip":"45055","miles_from_dt":12.4},{"city":"Fairfield","state_name":"Ohio","lat":39.43024,"lng":-84.49298,"zip":"45018","miles_from_dt":12.51},{"city":"Kings Mills","state_name":"Ohio","lat":39.35749,"lng":-84.24687,"zip":"45034","miles_from_dt":12.58},{"city":"Dayton","state_name":"Ohio","lat":39.68411,"lng":-84.16248,"zip":"45429","miles_from_dt":12.7},{"city":"Mason","state_name":"Ohio","lat":39.35023,"lng":-84.30996,"zip":"45040","miles_from_dt":12.74},{"city":"Farmersville","state_name":"Ohio","lat":39.69297,"lng":-84.4269,"zip":"45325","miles_from_dt":12.79},{"city":"Hamilton","state_name":"Ohio","lat":39.42892,"lng":-84.50173,"zip":"45011","miles_from_dt":12.95},{"city":"Waynesville","state_name":"Ohio","lat":39.52813,"lng":-84.05922,"zip":"45068","miles_from_dt":12.97},{"city":"Dayton","state_name":"Ohio","lat":39.73427,"lng":-84.2844,"zip":"45417","miles_from_dt":13.79},{"city":"Oregonia","state_name":"Ohio","lat":39.43844,"lng":-84.07418,"zip":"45054","miles_from_dt":13.86},{"city":"Bellbrook","state_name":"Ohio","lat":39.63628,"lng":-84.07769,"zip":"45305","miles_from_dt":13.86},{"city":"Seven Mile","state_name":"Ohio","lat":39.48501,"lng":-84.55371,"zip":"45062","miles_from_dt":13.89},{"city":"West Elkton","state_name":"Ohio","lat":39.58968,"lng":-84.55804,"zip":"45070","miles_from_dt":14.2},{"city":"Dayton","state_name":"Ohio","lat":39.72334,"lng":-84.19039,"zip":"45409","miles_from_dt":14.3},{"city":"Dayton","state_name":"Ohio","lat":39.72396,"lng":-84.1924,"zip":"45479","miles_from_dt":14.3},{"city":"Dayton","state_name":"Ohio","lat":39.71436,"lng":-84.1676,"zip":"45419","miles_from_dt":14.31},{"city":"Gratis","state_name":"Ohio","lat":39.64821,"lng":-84.5282,"zip":"45330","miles_from_dt":14.4},{"city":"Dayton","state_name":"Ohio","lat":39.67498,"lng":-84.10001,"zip":"45440","miles_from_dt":14.47},{"city":"Dayton","state_name":"Ohio","lat":39.74211,"lng":-84.25954,"zip":"45428","miles_from_dt":14.48},{"city":"West Chester","state_name":"Ohio","lat":39.34213,"lng":-84.4105,"zip":"45069","miles_from_dt":14.51},{"city":"Maineville","state_name":"Ohio","lat":39.32655,"lng":-84.23586,"zip":"45039","miles_from_dt":14.79},{"city":"Spring Valley","state_name":"Ohio","lat":39.60853,"lng":-84.04015,"zip":"45370","miles_from_dt":14.87},{"city":"West Chester","state_name":"Ohio","lat":39.3338,"lng":-84.40562,"zip":"45071","miles_from_dt":14.94},{"city":"New Lebanon","state_name":"Ohio","lat":39.7392,"lng":-84.39926,"zip":"45345","miles_from_dt":15.03},{"city":"Dayton","state_name":"Ohio","lat":39.74033,"lng":-84.17911,"zip":"45469","miles_from_dt":15.62},{"city":"Dayton","state_name":"Ohio","lat":39.719,"lng":-84.13045,"zip":"45420","miles_from_dt":15.66},{"city":"Harveysburg","state_name":"Ohio","lat":39.50268,"lng":-84.00811,"zip":"45032","miles_from_dt":15.85},{"city":"Morrow","state_name":"Ohio","lat":39.35005,"lng":-84.12316,"zip":"45152","miles_from_dt":15.93},{"city":"Somerville","state_name":"Ohio","lat":39.56806,"lng":-84.59785,"zip":"45064","miles_from_dt":15.98},{"city":"Dayton","state_name":"Ohio","lat":39.75983,"lng":-84.20751,"zip":"45402","miles_from_dt":16.32},{"city":"Dayton","state_name":"Ohio","lat":39.74757,"lng":-84.15907,"zip":"45410","miles_from_dt":16.54},{"city":"Dayton","state_name":"Ohio","lat":39.76081,"lng":-84.1934,"zip":"45412","miles_from_dt":16.63},{"city":"Collinsville","state_name":"Ohio","lat":39.51275,"lng":-84.61215,"zip":"45004","miles_from_dt":16.65},{"city":"Dayton","state_name":"Ohio","lat":39.7604,"lng":-84.19112,"zip":"45423","miles_from_dt":16.65},{"city":"Dayton","state_name":"Ohio","lat":39.75761,"lng":-84.1788,"zip":"45481","miles_from_dt":16.71},{"city":"Dayton","state_name":"Ohio","lat":39.7606,"lng":-84.18663,"zip":"45422","miles_from_dt":16.75},{"city":"Dayton","state_name":"Ohio","lat":39.72153,"lng":-84.10107,"zip":"45482","miles_from_dt":16.75},{"city":"Dayton","state_name":"Ohio","lat":39.71296,"lng":-84.08435,"zip":"45430","miles_from_dt":16.9},{"city":"Hamilton","state_name":"Ohio","lat":39.36273,"lng":-84.53785,"zip":"45015","miles_from_dt":17.33},{"city":"Dayton","state_name":"Ohio","lat":39.77463,"lng":-84.1984,"zip":"45401","miles_from_dt":17.44},{"city":"Dayton","state_name":"Ohio","lat":39.78442,"lng":-84.24178,"zip":"45406","miles_from_dt":17.52},{"city":"Dayton","state_name":"Ohio","lat":39.76303,"lng":-84.14978,"zip":"45403","miles_from_dt":17.71},{"city":"Cincinnati","state_name":"Ohio","lat":39.27617,"lng":-84.32777,"zip":"45249","miles_from_dt":17.89},{"city":"West Alexandria","state_name":"Ohio","lat":39.73223,"lng":-84.52433,"zip":"45381","miles_from_dt":18.07},{"city":"Dayton","state_name":"Ohio","lat":39.73934,"lng":-84.08627,"zip":"45432","miles_from_dt":18.2},{"city":"Dayton","state_name":"Ohio","lat":39.79241,"lng":-84.21592,"zip":"45405","miles_from_dt":18.35},{"city":"Dayton","state_name":"Ohio","lat":39.80094,"lng":-84.31461,"zip":"45426","miles_from_dt":18.38},{"city":"Dayton","state_name":"Ohio","lat":39.76708,"lng":-84.12512,"zip":"45437","miles_from_dt":18.59},{"city":"Cincinnati","state_name":"Ohio","lat":39.27659,"lng":-84.40175,"zip":"45241","miles_from_dt":18.6},{"city":"Cincinnati","state_name":"Ohio","lat":39.27441,"lng":-84.39891,"zip":"45235","miles_from_dt":18.7},{"city":"Cincinnati","state_name":"Ohio","lat":39.27342,"lng":-84.39979,"zip":"45234","miles_from_dt":18.78},{"city":"Dayton","state_name":"Ohio","lat":39.80754,"lng":-84.25774,"zip":"45416","miles_from_dt":18.96},{"city":"Cincinnati","state_name":"Ohio","lat":39.2906,"lng":-84.46612,"zip":"45246","miles_from_dt":19},{"city":"Alpha","state_name":"Ohio","lat":39.71098,"lng":-84.02301,"zip":"45301","miles_from_dt":19.21},{"city":"Clarksville","state_name":"Ohio","lat":39.39991,"lng":-83.98561,"zip":"45113","miles_from_dt":19.3},{"city":"Dayton","state_name":"Ohio","lat":39.79011,"lng":-84.15324,"zip":"45404","miles_from_dt":19.31},{"city":"Dayton","state_name":"Ohio","lat":39.72284,"lng":-84.03052,"zip":"45434","miles_from_dt":19.44},{"city":"Loveland","state_name":"Ohio","lat":39.25603,"lng":-84.24433,"zip":"45140","miles_from_dt":19.47},{"city":"Fairfield","state_name":"Ohio","lat":39.32822,"lng":-84.5521,"zip":"45014","miles_from_dt":19.55},{"city":"Dayton","state_name":"Ohio","lat":39.76488,"lng":-84.08012,"zip":"45431","miles_from_dt":19.79},{"city":"Cincinnati","state_name":"Ohio","lat":39.24348,"lng":-84.35621,"zip":"45242","miles_from_dt":20.31},{"city":"Camden","state_name":"Ohio","lat":39.62791,"lng":-84.66411,"zip":"45311","miles_from_dt":20.38},{"city":"Hamilton","state_name":"Ohio","lat":39.40649,"lng":-84.6501,"zip":"45013","miles_from_dt":20.62},{"city":"Hamilton","state_name":"Ohio","lat":39.47491,"lng":-84.68195,"zip":"45012","miles_from_dt":20.73},{"city":"Dayton","state_name":"Ohio","lat":39.83473,"lng":-84.2568,"zip":"45415","miles_from_dt":20.83},{"city":"Dayton","state_name":"Ohio","lat":39.82401,"lng":-84.1898,"zip":"45413","miles_from_dt":20.83},{"city":"Cincinnati","state_name":"Ohio","lat":39.28434,"lng":-84.52605,"zip":"45240","miles_from_dt":21.04},{"city":"Dayton","state_name":"Ohio","lat":39.78114,"lng":-84.06312,"zip":"45435","miles_from_dt":21.23},{"city":"Dayton","state_name":"Ohio","lat":39.84008,"lng":-84.21115,"zip":"45414","miles_from_dt":21.61},{"city":"Pleasant Plain","state_name":"Ohio","lat":39.26913,"lng":-84.07851,"zip":"45162","miles_from_dt":21.88},{"city":"Cincinnati","state_name":"Ohio","lat":39.26623,"lng":-84.51975,"zip":"45218","miles_from_dt":21.89},{"city":"Brookville","state_name":"Ohio","lat":39.84475,"lng":-84.42204,"zip":"45309","miles_from_dt":22.32},{"city":"Miamiville","state_name":"Ohio","lat":39.21114,"lng":-84.30192,"zip":"45147","miles_from_dt":22.33},{"city":"Clayton","state_name":"Ohio","lat":39.85772,"lng":-84.33875,"zip":"45315","miles_from_dt":22.37},{"city":"Cincinnati","state_name":"Ohio","lat":39.23536,"lng":-84.46221,"zip":"45215","miles_from_dt":22.37},{"city":"Xenia","state_name":"Ohio","lat":39.66813,"lng":-83.91457,"zip":"45385","miles_from_dt":22.62},{"city":"Cincinnati","state_name":"Ohio","lat":39.20949,"lng":-84.39701,"zip":"45236","miles_from_dt":23.01},{"city":"Camp Dennison","state_name":"Ohio","lat":39.20033,"lng":-84.28746,"zip":"45111","miles_from_dt":23.09},{"city":"Dayton","state_name":"Ohio","lat":39.81359,"lng":-84.05273,"zip":"45433","miles_from_dt":23.37},{"city":"Goshen","state_name":"Ohio","lat":39.22411,"lng":-84.12698,"zip":"45122","miles_from_dt":23.39},{"city":"Cincinnati","state_name":"Ohio","lat":39.24617,"lng":-84.5383,"zip":"45231","miles_from_dt":23.59},{"city":"Oxford","state_name":"Ohio","lat":39.49029,"lng":-84.74115,"zip":"45056","miles_from_dt":23.68},{"city":"Dayton","state_name":"Ohio","lat":39.84695,"lng":-84.11032,"zip":"45424","miles_from_dt":23.83},{"city":"Ross","state_name":"Ohio","lat":39.31163,"lng":-84.64507,"zip":"45061","miles_from_dt":23.96},{"city":"Cincinnati","state_name":"Ohio","lat":39.26789,"lng":-84.59422,"zip":"45251","miles_from_dt":24.16},{"city":"Cincinnati","state_name":"Ohio","lat":39.26912,"lng":-84.59929,"zip":"45253","miles_from_dt":24.28},{"city":"Cincinnati","state_name":"Ohio","lat":39.18381,"lng":-84.34171,"zip":"45243","miles_from_dt":24.31},{"city":"Blanchester","state_name":"Ohio","lat":39.28888,"lng":-83.96967,"zip":"45107","miles_from_dt":24.57},{"city":"Cincinnati","state_name":"Ohio","lat":39.19365,"lng":-84.44642,"zip":"45222","miles_from_dt":24.77},{"city":"Cincinnati","state_name":"Ohio","lat":39.19298,"lng":-84.45244,"zip":"45237","miles_from_dt":24.92},{"city":"Cincinnati","state_name":"Ohio","lat":39.20054,"lng":-84.48114,"zip":"45216","miles_from_dt":24.98},{"city":"Dayton","state_name":"Ohio","lat":39.89335,"lng":-84.21904,"zip":"45490","miles_from_dt":25.13},{"city":"Cincinnati","state_name":"Ohio","lat":39.18111,"lng":-84.42006,"zip":"45213","miles_from_dt":25.21},{"city":"Englewood","state_name":"Ohio","lat":39.89967,"lng":-84.33206,"zip":"45322","miles_from_dt":25.23},{"city":"Cincinnati","state_name":"Ohio","lat":39.27352,"lng":-84.63214,"zip":"45252","miles_from_dt":25.25},{"city":"Vandalia","state_name":"Ohio","lat":39.89636,"lng":-84.22774,"zip":"45377","miles_from_dt":25.26},{"city":"Eaton","state_name":"Ohio","lat":39.74673,"lng":-84.68932,"zip":"45320","miles_from_dt":25.32},{"city":"Wilmington","state_name":"Ohio","lat":39.46123,"lng":-83.83692,"zip":"45177","miles_from_dt":25.36},{"city":"Lewisburg","state_name":"Ohio","lat":39.85147,"lng":-84.54417,"zip":"45338","miles_from_dt":25.38},{"city":"Wilberforce","state_name":"Ohio","lat":39.71444,"lng":-83.88638,"zip":"45384","miles_from_dt":25.39},{"city":"Fairborn","state_name":"Ohio","lat":39.81986,"lng":-84.00026,"zip":"45324","miles_from_dt":25.4},{"city":"Milford","state_name":"Ohio","lat":39.16567,"lng":-84.23281,"zip":"45150","miles_from_dt":25.73},{"city":"College Corner","state_name":"Ohio","lat":39.58427,"lng":-84.77942,"zip":"45003","miles_from_dt":25.73},{"city":"Terrace Park","state_name":"Ohio","lat":39.1588,"lng":-84.31073,"zip":"45174","miles_from_dt":25.94},{"city":"Cincinnati","state_name":"Ohio","lat":39.20215,"lng":-84.53222,"zip":"45224","miles_from_dt":26.05},{"city":"Shandon","state_name":"Ohio","lat":39.32493,"lng":-84.71319,"zip":"45063","miles_from_dt":26.34},{"city":"Cuba","state_name":"Ohio","lat":39.36189,"lng":-83.86244,"zip":"45114","miles_from_dt":26.35},{"city":"Phillipsburg","state_name":"Ohio","lat":39.91033,"lng":-84.39983,"zip":"45354","miles_from_dt":26.43},{"city":"Cincinnati","state_name":"Ohio","lat":39.15403,"lng":-84.38524,"zip":"45227","miles_from_dt":26.64},{"city":"Cincinnati","state_name":"Ohio","lat":39.16403,"lng":-84.45173,"zip":"45212","miles_from_dt":26.81},{"city":"Cincinnati","state_name":"Ohio","lat":39.1818,"lng":-84.51673,"zip":"45232","miles_from_dt":26.93},{"city":"Newtonsville","state_name":"Ohio","lat":39.18229,"lng":-84.07769,"zip":"45158","miles_from_dt":27.12},{"city":"Cincinnati","state_name":"Ohio","lat":39.15336,"lng":-84.42762,"zip":"45209","miles_from_dt":27.16},{"city":"Cincinnati","state_name":"Ohio","lat":39.20439,"lng":-84.57979,"zip":"45239","miles_from_dt":27.22},{"city":"Cincinnati","state_name":"Ohio","lat":39.16,"lng":-84.46219,"zip":"45280","miles_from_dt":27.24},{"city":"Verona","state_name":"Ohio","lat":39.90291,"lng":-84.48781,"zip":"45378","miles_from_dt":27.26},{"city":"Cincinnati","state_name":"Ohio","lat":39.16718,"lng":-84.49792,"zip":"45217","miles_from_dt":27.45},{"city":"Port William","state_name":"Ohio","lat":39.55365,"lng":-83.78532,"zip":"45164","miles_from_dt":27.62},{"city":"Medway","state_name":"Ohio","lat":39.87589,"lng":-84.02045,"zip":"45341","miles_from_dt":27.9},{"city":"Cincinnati","state_name":"Ohio","lat":39.14856,"lng":-84.46149,"zip":"45277","miles_from_dt":27.98},{"city":"Midland","state_name":"Ohio","lat":39.28849,"lng":-83.88466,"zip":"45148","miles_from_dt":28.05},{"city":"Cincinnati","state_name":"Ohio","lat":39.15342,"lng":-84.48612,"zip":"45229","miles_from_dt":28.1},{"city":"Cincinnati","state_name":"Ohio","lat":39.13522,"lng":-84.43393,"zip":"45208","miles_from_dt":28.46},{"city":"Okeana","state_name":"Ohio","lat":39.35273,"lng":-84.78053,"zip":"45053","miles_from_dt":28.52},{"city":"Cincinnati","state_name":"Ohio","lat":39.1696,"lng":-84.55354,"zip":"45223","miles_from_dt":28.57},{"city":"Cincinnati","state_name":"Ohio","lat":39.14199,"lng":-84.4713,"zip":"45207","miles_from_dt":28.58},{"city":"Yellow Springs","state_name":"Ohio","lat":39.79754,"lng":-83.88622,"zip":"45387","miles_from_dt":28.63},{"city":"Cincinnati","state_name":"Ohio","lat":39.12009,"lng":-84.32764,"zip":"45244","miles_from_dt":28.64},{"city":"Cincinnati","state_name":"Ohio","lat":39.22048,"lng":-84.65172,"zip":"45247","miles_from_dt":28.66},{"city":"Tipp City","state_name":"Ohio","lat":39.93885,"lng":-84.16357,"zip":"45371","miles_from_dt":28.83},{"city":"Bath","state_name":"Indiana","lat":39.4981,"lng":-84.83925,"zip":"47010","miles_from_dt":28.83},{"city":"West College Corner","state_name":"Indiana","lat":39.55628,"lng":-84.84491,"zip":"47003","miles_from_dt":29.05},{"city":"Cincinnati","state_name":"Ohio","lat":39.14845,"lng":-84.5199,"zip":"45268","miles_from_dt":29.1},{"city":"Cincinnati","state_name":"Ohio","lat":39.14736,"lng":-84.52101,"zip":"45220","miles_from_dt":29.19},{"city":"West Milton","state_name":"Ohio","lat":39.9572,"lng":-84.3337,"zip":"45383","miles_from_dt":29.19},{"city":"Cincinnati","state_name":"Ohio","lat":39.13812,"lng":-84.5031,"zip":"45267","miles_from_dt":29.41},{"city":"Cincinnati","state_name":"Ohio","lat":39.13832,"lng":-84.50447,"zip":"45275","miles_from_dt":29.43},{"city":"Enon","state_name":"Ohio","lat":39.85131,"lng":-83.92794,"zip":"45323","miles_from_dt":29.56},{"city":"Owensville","state_name":"Ohio","lat":39.12358,"lng":-84.13725,"zip":"45160","miles_from_dt":29.71},{"city":"Cincinnati","state_name":"Ohio","lat":39.12736,"lng":-84.48451,"zip":"45206","miles_from_dt":29.76},{"city":"Cincinnati","state_name":"Ohio","lat":39.11149,"lng":-84.41989,"zip":"45226","miles_from_dt":29.88}],"targetCityZipCode":"45005","targetCityState":"Ohio"},"__N_SSG":true}