{"pageProps":{"stateName":"Ohio","cityName":"litchfield","nearbyCities":[{"city":"Spencer","state_name":"Ohio","lat":41.09976,"lng":-82.09927,"zip":"44275","miles_from_dt":5.57},{"city":"Medina","state_name":"Ohio","lat":41.1016,"lng":-82.12428,"zip":"44258","miles_from_dt":6.32},{"city":"Grafton","state_name":"Ohio","lat":41.26779,"lng":-82.04188,"zip":"44044","miles_from_dt":7.05},{"city":"Lagrange","state_name":"Ohio","lat":41.24853,"lng":-82.13119,"zip":"44050","miles_from_dt":7.51},{"city":"Valley City","state_name":"Ohio","lat":41.23812,"lng":-81.92339,"zip":"44280","miles_from_dt":7.77},{"city":"Lodi","state_name":"Ohio","lat":41.04522,"lng":-82.01282,"zip":"44254","miles_from_dt":8.42},{"city":"Medina","state_name":"Ohio","lat":41.14092,"lng":-81.85954,"zip":"44256","miles_from_dt":9.45},{"city":"Chippewa Lake","state_name":"Ohio","lat":41.07195,"lng":-81.8994,"zip":"44215","miles_from_dt":9.69},{"city":"Wellington","state_name":"Ohio","lat":41.16757,"lng":-82.22836,"zip":"44090","miles_from_dt":9.94},{"city":"Homerville","state_name":"Ohio","lat":41.0316,"lng":-82.12246,"zip":"44235","miles_from_dt":10.26},{"city":"Westfield Center","state_name":"Ohio","lat":41.02814,"lng":-81.92764,"zip":"44251","miles_from_dt":11.1},{"city":"Columbia Station","state_name":"Ohio","lat":41.30986,"lng":-81.93959,"zip":"44028","miles_from_dt":11.18},{"city":"Brunswick","state_name":"Ohio","lat":41.24386,"lng":-81.82863,"zip":"44212","miles_from_dt":12.16},{"city":"Seville","state_name":"Ohio","lat":41.0291,"lng":-81.87739,"zip":"44273","miles_from_dt":12.6},{"city":"Sullivan","state_name":"Ohio","lat":41.03352,"lng":-82.21993,"zip":"44880","miles_from_dt":13.18},{"city":"Oberlin","state_name":"Ohio","lat":41.28858,"lng":-82.23643,"zip":"44074","miles_from_dt":13.38},{"city":"Strongsville","state_name":"Ohio","lat":41.31223,"lng":-81.8563,"zip":"44149","miles_from_dt":13.84},{"city":"Elyria","state_name":"Ohio","lat":41.36776,"lng":-82.09851,"zip":"44036","miles_from_dt":14.3},{"city":"Elyria","state_name":"Ohio","lat":41.36539,"lng":-82.13025,"zip":"44035","miles_from_dt":14.6},{"city":"Burbank","state_name":"Ohio","lat":40.95081,"lng":-81.99935,"zip":"44214","miles_from_dt":14.96},{"city":"North Ridgeville","state_name":"Ohio","lat":41.38404,"lng":-82.02014,"zip":"44039","miles_from_dt":15.09},{"city":"Olmsted Falls","state_name":"Ohio","lat":41.37363,"lng":-81.92302,"zip":"44138","miles_from_dt":15.54},{"city":"Strongsville","state_name":"Ohio","lat":41.31265,"lng":-81.81064,"zip":"44136","miles_from_dt":15.58},{"city":"Kipton","state_name":"Ohio","lat":41.26626,"lng":-82.30553,"zip":"44049","miles_from_dt":15.59},{"city":"Creston","state_name":"Ohio","lat":40.95561,"lng":-81.9133,"zip":"44217","miles_from_dt":15.89},{"city":"West Salem","state_name":"Ohio","lat":40.94,"lng":-82.1005,"zip":"44287","miles_from_dt":15.92},{"city":"Hinckley","state_name":"Ohio","lat":41.23943,"lng":-81.73513,"zip":"44233","miles_from_dt":16.57},{"city":"Berea","state_name":"Ohio","lat":41.36867,"lng":-81.86303,"zip":"44017","miles_from_dt":16.7},{"city":"Sharon Center","state_name":"Ohio","lat":41.09944,"lng":-81.7285,"zip":"44274","miles_from_dt":16.77},{"city":"Wadsworth","state_name":"Ohio","lat":41.05851,"lng":-81.73854,"zip":"44281","miles_from_dt":17.28},{"city":"Nova","state_name":"Ohio","lat":41.02103,"lng":-82.32636,"zip":"44859","miles_from_dt":18.08},{"city":"Amherst","state_name":"Ohio","lat":41.36825,"lng":-82.25958,"zip":"44001","miles_from_dt":18.13},{"city":"North Olmsted","state_name":"Ohio","lat":41.41493,"lng":-81.91905,"zip":"44070","miles_from_dt":18.27},{"city":"North Royalton","state_name":"Ohio","lat":41.31388,"lng":-81.74497,"zip":"44133","miles_from_dt":18.36},{"city":"Wadsworth","state_name":"Ohio","lat":41.0276,"lng":-81.72765,"zip":"44282","miles_from_dt":18.78},{"city":"Polk","state_name":"Ohio","lat":40.92082,"lng":-82.19483,"zip":"44866","miles_from_dt":18.79},{"city":"Wakeman","state_name":"Ohio","lat":41.24661,"lng":-82.38195,"zip":"44889","miles_from_dt":18.79},{"city":"Sterling","state_name":"Ohio","lat":40.93667,"lng":-81.83502,"zip":"44276","miles_from_dt":19.02},{"city":"Lorain","state_name":"Ohio","lat":41.43309,"lng":-82.13354,"zip":"44055","miles_from_dt":19.11},{"city":"New London","state_name":"Ohio","lat":41.10577,"lng":-82.40166,"zip":"44851","miles_from_dt":19.44},{"city":"Rittman","state_name":"Ohio","lat":40.96317,"lng":-81.77696,"zip":"44270","miles_from_dt":19.51},{"city":"Avon","state_name":"Ohio","lat":41.44855,"lng":-82.0187,"zip":"44011","miles_from_dt":19.54},{"city":"Cleveland","state_name":"Ohio","lat":41.4005,"lng":-81.82678,"zip":"44188","miles_from_dt":19.57},{"city":"Cleveland","state_name":"Ohio","lat":41.378,"lng":-81.7868,"zip":"44130","miles_from_dt":19.63},{"city":"Brookpark","state_name":"Ohio","lat":41.40205,"lng":-81.82406,"zip":"44142","miles_from_dt":19.74},{"city":"Birmingham","state_name":"Ohio","lat":41.32996,"lng":-82.36113,"zip":"44816","miles_from_dt":20.3},{"city":"Lorain","state_name":"Ohio","lat":41.42694,"lng":-82.22138,"zip":"44053","miles_from_dt":20.41},{"city":"Westlake","state_name":"Ohio","lat":41.45245,"lng":-81.92944,"zip":"44145","miles_from_dt":20.57},{"city":"Akron","state_name":"Ohio","lat":41.09994,"lng":-81.65182,"zip":"44321","miles_from_dt":20.64},{"city":"Sheffield Lake","state_name":"Ohio","lat":41.46419,"lng":-82.0931,"zip":"44054","miles_from_dt":20.8},{"city":"Lorain","state_name":"Ohio","lat":41.45519,"lng":-82.16133,"zip":"44052","miles_from_dt":20.99},{"city":"Akron","state_name":"Ohio","lat":41.16195,"lng":-81.63419,"zip":"44333","miles_from_dt":21.04},{"city":"Cleveland","state_name":"Ohio","lat":41.42472,"lng":-81.82135,"zip":"44135","miles_from_dt":21.12},{"city":"Nankin","state_name":"Ohio","lat":40.92082,"lng":-82.28186,"zip":"44848","miles_from_dt":21.17},{"city":"Richfield","state_name":"Ohio","lat":41.23668,"lng":-81.64017,"zip":"44286","miles_from_dt":21.29},{"city":"Bath","state_name":"Ohio","lat":41.18892,"lng":-81.62975,"zip":"44210","miles_from_dt":21.33},{"city":"Cleveland","state_name":"Ohio","lat":41.44263,"lng":-81.85278,"zip":"44126","miles_from_dt":21.4},{"city":"Broadview Heights","state_name":"Ohio","lat":41.31956,"lng":-81.67797,"zip":"44147","miles_from_dt":21.53},{"city":"Savannah","state_name":"Ohio","lat":40.96859,"lng":-82.36631,"zip":"44874","miles_from_dt":21.9},{"city":"Cleveland","state_name":"Ohio","lat":41.39035,"lng":-81.73536,"zip":"44129","miles_from_dt":22.09},{"city":"Smithville","state_name":"Ohio","lat":40.87254,"lng":-81.85983,"zip":"44677","miles_from_dt":22.26},{"city":"Akron","state_name":"Ohio","lat":41.15087,"lng":-81.60889,"zip":"44372","miles_from_dt":22.39},{"city":"Avon Lake","state_name":"Ohio","lat":41.49443,"lng":-82.01594,"zip":"44012","miles_from_dt":22.71},{"city":"Bay Village","state_name":"Ohio","lat":41.48508,"lng":-81.93171,"zip":"44140","miles_from_dt":22.72},{"city":"Doylestown","state_name":"Ohio","lat":40.96237,"lng":-81.69064,"zip":"44230","miles_from_dt":22.92},{"city":"Vermilion","state_name":"Ohio","lat":41.38894,"lng":-82.36552,"zip":"44089","miles_from_dt":22.99},{"city":"Cleveland","state_name":"Ohio","lat":41.38496,"lng":-81.70459,"zip":"44134","miles_from_dt":23.01},{"city":"Rocky River","state_name":"Ohio","lat":41.47011,"lng":-81.85194,"zip":"44116","miles_from_dt":23.12},{"city":"Barberton","state_name":"Ohio","lat":41.02013,"lng":-81.62896,"zip":"44203","miles_from_dt":23.58},{"city":"Collins","state_name":"Ohio","lat":41.23993,"lng":-82.47931,"zip":"44826","miles_from_dt":23.58},{"city":"Cleveland","state_name":"Ohio","lat":41.45775,"lng":-81.78986,"zip":"44111","miles_from_dt":23.93},{"city":"Brecksville","state_name":"Ohio","lat":41.30139,"lng":-81.61439,"zip":"44141","miles_from_dt":23.96},{"city":"Cleveland","state_name":"Ohio","lat":41.46138,"lng":-81.78691,"zip":"44181","miles_from_dt":24.22},{"city":"Cleveland","state_name":"Ohio","lat":41.43738,"lng":-81.74272,"zip":"44144","miles_from_dt":24.23},{"city":"Marshallville","state_name":"Ohio","lat":40.90796,"lng":-81.71845,"zip":"44645","miles_from_dt":24.38},{"city":"Akron","state_name":"Ohio","lat":41.07818,"lng":-81.58379,"zip":"44320","miles_from_dt":24.44},{"city":"Akron","state_name":"Ohio","lat":41.13239,"lng":-81.56512,"zip":"44313","miles_from_dt":24.76},{"city":"Wooster","state_name":"Ohio","lat":40.80714,"lng":-81.97971,"zip":"44691","miles_from_dt":24.93},{"city":"Ashland","state_name":"Ohio","lat":40.87335,"lng":-82.32096,"zip":"44805","miles_from_dt":25.02},{"city":"Independence","state_name":"Ohio","lat":41.3835,"lng":-81.65349,"zip":"44131","miles_from_dt":25.02},{"city":"Berlin Heights","state_name":"Ohio","lat":41.32162,"lng":-82.4714,"zip":"44814","miles_from_dt":25.02},{"city":"Lakewood","state_name":"Ohio","lat":41.48263,"lng":-81.80025,"zip":"44107","miles_from_dt":25.12},{"city":"Greenwich","state_name":"Ohio","lat":41.01745,"lng":-82.48241,"zip":"44837","miles_from_dt":25.37},{"city":"Peninsula","state_name":"Ohio","lat":41.22966,"lng":-81.54311,"zip":"44264","miles_from_dt":26.15},{"city":"Cleveland","state_name":"Ohio","lat":41.44457,"lng":-81.69681,"zip":"44109","miles_from_dt":26.17},{"city":"Akron","state_name":"Ohio","lat":41.10448,"lng":-81.53732,"zip":"44303","miles_from_dt":26.44},{"city":"Cleveland","state_name":"Ohio","lat":41.4749,"lng":-81.73751,"zip":"44102","miles_from_dt":26.44},{"city":"Cuyahoga Falls","state_name":"Ohio","lat":41.16968,"lng":-81.53051,"zip":"44223","miles_from_dt":26.45},{"city":"Akron","state_name":"Ohio","lat":41.04048,"lng":-81.55838,"zip":"44314","miles_from_dt":26.47},{"city":"Akron","state_name":"Ohio","lat":41.07049,"lng":-81.546,"zip":"44307","miles_from_dt":26.49},{"city":"Akron","state_name":"Ohio","lat":41.08951,"lng":-81.53857,"zip":"44302","miles_from_dt":26.57},{"city":"Jeromesville","state_name":"Ohio","lat":40.79231,"lng":-82.17973,"zip":"44840","miles_from_dt":26.82},{"city":"Orrville","state_name":"Ohio","lat":40.83386,"lng":-81.76495,"zip":"44667","miles_from_dt":26.98},{"city":"Northfield","state_name":"Ohio","lat":41.31386,"lng":-81.5476,"zip":"44067","miles_from_dt":27.5},{"city":"Cleveland","state_name":"Ohio","lat":41.40658,"lng":-81.61548,"zip":"44125","miles_from_dt":27.55},{"city":"Akron","state_name":"Ohio","lat":41.09954,"lng":-81.51447,"zip":"44309","miles_from_dt":27.68},{"city":"Akron","state_name":"Ohio","lat":41.0831,"lng":-81.51749,"zip":"44326","miles_from_dt":27.74},{"city":"Akron","state_name":"Ohio","lat":41.0818,"lng":-81.51751,"zip":"44308","miles_from_dt":27.75},{"city":"Akron","state_name":"Ohio","lat":41.06564,"lng":-81.52082,"zip":"44396","miles_from_dt":27.84},{"city":"Fairlawn","state_name":"Ohio","lat":41.07934,"lng":-81.51662,"zip":"44334","miles_from_dt":27.84},{"city":"Akron","state_name":"Ohio","lat":41.06427,"lng":-81.52047,"zip":"44311","miles_from_dt":27.88},{"city":"Akron","state_name":"Ohio","lat":41.04507,"lng":-81.5262,"zip":"44317","miles_from_dt":27.96},{"city":"Cleveland","state_name":"Ohio","lat":41.48468,"lng":-81.70274,"zip":"44191","miles_from_dt":28.07},{"city":"Akron","state_name":"Ohio","lat":41.04398,"lng":-81.52449,"zip":"44301","miles_from_dt":28.07},{"city":"Akron","state_name":"Ohio","lat":41.07605,"lng":-81.51221,"zip":"44325","miles_from_dt":28.11},{"city":"Akron","state_name":"Ohio","lat":41.08585,"lng":-81.50908,"zip":"44304","miles_from_dt":28.13},{"city":"Cleveland","state_name":"Ohio","lat":41.48343,"lng":-81.69638,"zip":"44113","miles_from_dt":28.21},{"city":"Akron","state_name":"Ohio","lat":41.08716,"lng":-81.50691,"zip":"44328","miles_from_dt":28.22},{"city":"Akron","state_name":"Ohio","lat":41.08168,"lng":-81.50728,"zip":"44398","miles_from_dt":28.28},{"city":"Akron","state_name":"Ohio","lat":41.10771,"lng":-81.49948,"zip":"44310","miles_from_dt":28.36},{"city":"Clinton","state_name":"Ohio","lat":40.93848,"lng":-81.58397,"zip":"44216","miles_from_dt":28.42},{"city":"Cleveland","state_name":"Ohio","lat":41.481,"lng":-81.6817,"zip":"44197","miles_from_dt":28.57},{"city":"Norwalk","state_name":"Ohio","lat":41.21785,"lng":-82.58212,"zip":"44857","miles_from_dt":28.61},{"city":"Cleveland","state_name":"Ohio","lat":41.45069,"lng":-81.63032,"zip":"44105","miles_from_dt":28.91},{"city":"North Fairfield","state_name":"Ohio","lat":41.10414,"lng":-82.58664,"zip":"44855","miles_from_dt":28.95},{"city":"Cuyahoga Falls","state_name":"Ohio","lat":41.13534,"lng":-81.48311,"zip":"44222","miles_from_dt":29},{"city":"Shiloh","state_name":"Ohio","lat":40.95111,"lng":-82.51963,"zip":"44878","miles_from_dt":29.21},{"city":"Cleveland","state_name":"Ohio","lat":41.471,"lng":-81.64874,"zip":"44127","miles_from_dt":29.21},{"city":"Akron","state_name":"Ohio","lat":40.98402,"lng":-81.53169,"zip":"44319","miles_from_dt":29.25},{"city":"Cleveland","state_name":"Ohio","lat":41.50288,"lng":-81.69542,"zip":"44193","miles_from_dt":29.3},{"city":"Cuyahoga Falls","state_name":"Ohio","lat":41.13898,"lng":-81.47624,"zip":"44221","miles_from_dt":29.34},{"city":"Cleveland","state_name":"Ohio","lat":41.48988,"lng":-81.6717,"zip":"44101","miles_from_dt":29.37},{"city":"Cleveland","state_name":"Ohio","lat":41.49367,"lng":-81.67625,"zip":"44198","miles_from_dt":29.42},{"city":"Cleveland","state_name":"Ohio","lat":41.50535,"lng":-81.69343,"zip":"44199","miles_from_dt":29.49},{"city":"Cleveland","state_name":"Ohio","lat":41.50172,"lng":-81.68644,"zip":"44192","miles_from_dt":29.52},{"city":"Hayesville","state_name":"Ohio","lat":40.77186,"lng":-82.25947,"zip":"44838","miles_from_dt":29.55},{"city":"Cleveland","state_name":"Ohio","lat":41.49211,"lng":-81.66999,"zip":"44115","miles_from_dt":29.55},{"city":"Hudson","state_name":"Ohio","lat":41.25496,"lng":-81.48139,"zip":"44237","miles_from_dt":29.64},{"city":"Maple Heights","state_name":"Ohio","lat":41.40903,"lng":-81.56274,"zip":"44137","miles_from_dt":29.88},{"city":"Macedonia","state_name":"Ohio","lat":41.31465,"lng":-81.49868,"zip":"44056","miles_from_dt":29.9}],"targetCityZipCode":"44253","targetCityState":"Ohio"},"__N_SSG":true}