{"pageProps":{"stateName":"Ohio","cityName":"magnetic-springs","nearbyCities":[{"city":"Ostrander","state_name":"Ohio","lat":40.28775,"lng":-83.20256,"zip":"43061","miles_from_dt":5.49},{"city":"Radnor","state_name":"Ohio","lat":40.39877,"lng":-83.16313,"zip":"43066","miles_from_dt":6.18},{"city":"Richwood","state_name":"Ohio","lat":40.43219,"lng":-83.33832,"zip":"43344","miles_from_dt":6.78},{"city":"Broadway","state_name":"Ohio","lat":40.33154,"lng":-83.40595,"zip":"43007","miles_from_dt":7.67},{"city":"Marysville","state_name":"Ohio","lat":40.26115,"lng":-83.35812,"zip":"43040","miles_from_dt":8.05},{"city":"Prospect","state_name":"Ohio","lat":40.47533,"lng":-83.17994,"zip":"43342","miles_from_dt":9.55},{"city":"Marysville","state_name":"Ohio","lat":40.23827,"lng":-83.36802,"zip":"43041","miles_from_dt":9.63},{"city":"Delaware","state_name":"Ohio","lat":40.29812,"lng":-83.06049,"zip":"43015","miles_from_dt":11.34},{"city":"Raymond","state_name":"Ohio","lat":40.34368,"lng":-83.48388,"zip":"43067","miles_from_dt":11.66},{"city":"Green Camp","state_name":"Ohio","lat":40.5327,"lng":-83.20815,"zip":"43322","miles_from_dt":12.78},{"city":"Waldo","state_name":"Ohio","lat":40.45748,"lng":-83.04788,"zip":"43356","miles_from_dt":13.48},{"city":"West Mansfield","state_name":"Ohio","lat":40.41898,"lng":-83.53129,"zip":"43358","miles_from_dt":14.87},{"city":"Powell","state_name":"Ohio","lat":40.17655,"lng":-83.09445,"zip":"43065","miles_from_dt":15.06},{"city":"Unionville Center","state_name":"Ohio","lat":40.13675,"lng":-83.34165,"zip":"43077","miles_from_dt":15.45},{"city":"Milford Center","state_name":"Ohio","lat":40.16932,"lng":-83.44975,"zip":"43045","miles_from_dt":16.02},{"city":"Ashley","state_name":"Ohio","lat":40.41017,"lng":-82.96866,"zip":"43003","miles_from_dt":16.05},{"city":"Kilbourne","state_name":"Ohio","lat":40.32836,"lng":-82.95812,"zip":"43032","miles_from_dt":16.2},{"city":"Marion","state_name":"Ohio","lat":40.56569,"lng":-83.12487,"zip":"43301","miles_from_dt":16.42},{"city":"East Liberty","state_name":"Ohio","lat":40.30525,"lng":-83.57738,"zip":"43319","miles_from_dt":16.9},{"city":"New Bloomington","state_name":"Ohio","lat":40.59577,"lng":-83.31544,"zip":"43341","miles_from_dt":17.02},{"city":"La Rue","state_name":"Ohio","lat":40.58369,"lng":-83.37769,"zip":"43332","miles_from_dt":17.06},{"city":"Mount Victory","state_name":"Ohio","lat":40.53748,"lng":-83.48,"zip":"43340","miles_from_dt":17.14},{"city":"Middleburg","state_name":"Ohio","lat":40.28337,"lng":-83.57651,"zip":"43336","miles_from_dt":17.22},{"city":"Dublin","state_name":"Ohio","lat":40.1189,"lng":-83.13314,"zip":"43017","miles_from_dt":17.52},{"city":"Plain City","state_name":"Ohio","lat":40.09819,"lng":-83.28863,"zip":"43064","miles_from_dt":17.59},{"city":"Lewis Center","state_name":"Ohio","lat":40.18622,"lng":-82.9969,"zip":"43035","miles_from_dt":18.16},{"city":"Marion","state_name":"Ohio","lat":40.59995,"lng":-83.12967,"zip":"43302","miles_from_dt":18.47},{"city":"Dublin","state_name":"Ohio","lat":40.09732,"lng":-83.15535,"zip":"43016","miles_from_dt":18.5},{"city":"North Lewisburg","state_name":"Ohio","lat":40.21978,"lng":-83.57295,"zip":"43060","miles_from_dt":18.75},{"city":"Zanesfield","state_name":"Ohio","lat":40.33272,"lng":-83.63114,"zip":"43360","miles_from_dt":19.47},{"city":"Woodstock","state_name":"Ohio","lat":40.15764,"lng":-83.54223,"zip":"43084","miles_from_dt":19.95},{"city":"Ridgeway","state_name":"Ohio","lat":40.51341,"lng":-83.58167,"zip":"43345","miles_from_dt":20.13},{"city":"Irwin","state_name":"Ohio","lat":40.09598,"lng":-83.45408,"zip":"43029","miles_from_dt":20.37},{"city":"Columbus","state_name":"Ohio","lat":40.10298,"lng":-83.05599,"zip":"43234","miles_from_dt":20.4},{"city":"Columbus","state_name":"Ohio","lat":40.10193,"lng":-83.05442,"zip":"43235","miles_from_dt":20.51},{"city":"Columbus","state_name":"Ohio","lat":40.14501,"lng":-82.98209,"zip":"43240","miles_from_dt":20.63},{"city":"Amlin","state_name":"Ohio","lat":40.05982,"lng":-83.17305,"zip":"43002","miles_from_dt":20.74},{"city":"Columbus","state_name":"Ohio","lat":40.09959,"lng":-83.01639,"zip":"43085","miles_from_dt":21.79},{"city":"Mingo","state_name":"Ohio","lat":40.20795,"lng":-83.63797,"zip":"43047","miles_from_dt":22.17},{"city":"Cardington","state_name":"Ohio","lat":40.4841,"lng":-82.87872,"zip":"43315","miles_from_dt":22.22},{"city":"Sunbury","state_name":"Ohio","lat":40.28008,"lng":-82.84899,"zip":"43074","miles_from_dt":22.44},{"city":"Galena","state_name":"Ohio","lat":40.20301,"lng":-82.88476,"zip":"43021","miles_from_dt":22.5},{"city":"Rushsylvania","state_name":"Ohio","lat":40.47771,"lng":-83.65804,"zip":"43347","miles_from_dt":22.54},{"city":"Morral","state_name":"Ohio","lat":40.68336,"lng":-83.24107,"zip":"43337","miles_from_dt":22.87},{"city":"Hilliard","state_name":"Ohio","lat":40.02197,"lng":-83.18472,"zip":"43026","miles_from_dt":23.17},{"city":"Columbus","state_name":"Ohio","lat":40.04847,"lng":-83.07161,"zip":"43220","miles_from_dt":23.29},{"city":"Cable","state_name":"Ohio","lat":40.17188,"lng":-83.64234,"zip":"43009","miles_from_dt":23.59},{"city":"Columbus","state_name":"Ohio","lat":40.08569,"lng":-82.97636,"zip":"43229","miles_from_dt":23.85},{"city":"Fulton","state_name":"Ohio","lat":40.463,"lng":-82.82889,"zip":"43321","miles_from_dt":24.15},{"city":"Westerville","state_name":"Ohio","lat":40.15537,"lng":-82.88437,"zip":"43082","miles_from_dt":24.21},{"city":"Columbus","state_name":"Ohio","lat":40.0523,"lng":-83.01996,"zip":"43214","miles_from_dt":24.38},{"city":"Westerville","state_name":"Ohio","lat":40.11745,"lng":-82.91666,"zip":"43086","miles_from_dt":24.47},{"city":"Marengo","state_name":"Ohio","lat":40.39912,"lng":-82.79863,"zip":"43334","miles_from_dt":24.73},{"city":"Columbus","state_name":"Ohio","lat":40.02334,"lng":-83.07744,"zip":"43221","miles_from_dt":24.74},{"city":"Edison","state_name":"Ohio","lat":40.5886,"lng":-82.89994,"zip":"43320","miles_from_dt":25.14},{"city":"Columbus","state_name":"Ohio","lat":40.07843,"lng":-82.93914,"zip":"43231","miles_from_dt":25.52},{"city":"Columbus","state_name":"Ohio","lat":40.05642,"lng":-82.9682,"zip":"43266","miles_from_dt":25.7},{"city":"Westerville","state_name":"Ohio","lat":40.11064,"lng":-82.89083,"zip":"43081","miles_from_dt":25.81},{"city":"Caledonia","state_name":"Ohio","lat":40.6474,"lng":-82.96122,"zip":"43314","miles_from_dt":25.83},{"city":"Bellefontaine","state_name":"Ohio","lat":40.36427,"lng":-83.75812,"zip":"43311","miles_from_dt":26.13},{"city":"Harpster","state_name":"Ohio","lat":40.73116,"lng":-83.25211,"zip":"43323","miles_from_dt":26.14},{"city":"Mechanicsburg","state_name":"Ohio","lat":40.05145,"lng":-83.56423,"zip":"43044","miles_from_dt":26.17},{"city":"Columbus","state_name":"Ohio","lat":39.97857,"lng":-83.16337,"zip":"43226","miles_from_dt":26.33},{"city":"Columbus","state_name":"Ohio","lat":40.02126,"lng":-83.01394,"zip":"43202","miles_from_dt":26.38},{"city":"West Liberty","state_name":"Ohio","lat":40.25316,"lng":-83.74711,"zip":"43357","miles_from_dt":26.46},{"city":"Columbus","state_name":"Ohio","lat":40.04256,"lng":-82.9664,"zip":"43224","miles_from_dt":26.53},{"city":"Columbus","state_name":"Ohio","lat":40.00487,"lng":-83.02182,"zip":"43210","miles_from_dt":27.17},{"city":"Kenton","state_name":"Ohio","lat":40.64149,"lng":-83.61443,"zip":"43326","miles_from_dt":27.2},{"city":"Columbus","state_name":"Ohio","lat":39.98763,"lng":-83.04215,"zip":"43212","miles_from_dt":27.76},{"city":"Columbus","state_name":"Ohio","lat":39.96367,"lng":-83.12478,"zip":"43228","miles_from_dt":27.8},{"city":"Columbus","state_name":"Ohio","lat":40.01163,"lng":-82.97244,"zip":"43211","miles_from_dt":28.1},{"city":"West Jefferson","state_name":"Ohio","lat":39.94369,"lng":-83.30633,"zip":"43162","miles_from_dt":28.29},{"city":"Martel","state_name":"Ohio","lat":40.66365,"lng":-82.91045,"zip":"43335","miles_from_dt":28.4},{"city":"Columbus","state_name":"Ohio","lat":39.99114,"lng":-83.00056,"zip":"43201","miles_from_dt":28.54},{"city":"Columbus","state_name":"Ohio","lat":39.96135,"lng":-83.08052,"zip":"43204","miles_from_dt":28.66},{"city":"Galloway","state_name":"Ohio","lat":39.93487,"lng":-83.20059,"zip":"43119","miles_from_dt":29},{"city":"Columbus","state_name":"Ohio","lat":39.97093,"lng":-83.02627,"zip":"43271","miles_from_dt":29.16},{"city":"Columbus","state_name":"Ohio","lat":40.01765,"lng":-82.92367,"zip":"43218","miles_from_dt":29.26},{"city":"Columbus","state_name":"Ohio","lat":39.9661,"lng":-83.02545,"zip":"43279","miles_from_dt":29.48},{"city":"Columbus","state_name":"Ohio","lat":39.961,"lng":-83.03581,"zip":"43222","miles_from_dt":29.57},{"city":"Huntsville","state_name":"Ohio","lat":40.44632,"lng":-83.81207,"zip":"43324","miles_from_dt":29.67},{"city":"Columbus","state_name":"Ohio","lat":39.96633,"lng":-83.01262,"zip":"43215","miles_from_dt":29.76},{"city":"Columbus","state_name":"Ohio","lat":40.00774,"lng":-82.92233,"zip":"43219","miles_from_dt":29.85},{"city":"Sparta","state_name":"Ohio","lat":40.39557,"lng":-82.69977,"zip":"43350","miles_from_dt":29.88},{"city":"Columbus","state_name":"Ohio","lat":39.95972,"lng":-83.0208,"zip":"43251","miles_from_dt":29.98}],"targetCityZipCode":"43036","targetCityState":"Ohio"},"__N_SSG":true}