{"pageProps":{"stateName":"Ohio","cityName":"melmore","nearbyCities":[{"city":"Sycamore","state_name":"Ohio","lat":40.94759,"lng":-83.13734,"zip":"44882","miles_from_dt":5.77},{"city":"Tiffin","state_name":"Ohio","lat":41.12395,"lng":-83.17459,"zip":"44883","miles_from_dt":6.75},{"city":"McCutchenville","state_name":"Ohio","lat":40.9926,"lng":-83.25839,"zip":"44844","miles_from_dt":7.05},{"city":"Bloomville","state_name":"Ohio","lat":41.0002,"lng":-82.99645,"zip":"44818","miles_from_dt":7.47},{"city":"New Riegel","state_name":"Ohio","lat":41.05501,"lng":-83.30399,"zip":"44853","miles_from_dt":9.06},{"city":"Bascom","state_name":"Ohio","lat":41.13215,"lng":-83.29391,"zip":"44809","miles_from_dt":10.9},{"city":"Republic","state_name":"Ohio","lat":41.14755,"lng":-82.98963,"zip":"44867","miles_from_dt":11},{"city":"Chatfield","state_name":"Ohio","lat":40.95443,"lng":-82.94194,"zip":"44825","miles_from_dt":11.33},{"city":"Oceola","state_name":"Ohio","lat":40.85189,"lng":-83.0964,"zip":"44860","miles_from_dt":12.52},{"city":"Attica","state_name":"Ohio","lat":41.06508,"lng":-82.87533,"zip":"44807","miles_from_dt":13.69},{"city":"Carey","state_name":"Ohio","lat":40.95184,"lng":-83.38596,"zip":"43316","miles_from_dt":14.29},{"city":"Old Fort","state_name":"Ohio","lat":41.24254,"lng":-83.14626,"zip":"44861","miles_from_dt":14.6},{"city":"Green Springs","state_name":"Ohio","lat":41.23772,"lng":-83.05455,"zip":"44836","miles_from_dt":14.84},{"city":"Alvada","state_name":"Ohio","lat":41.04534,"lng":-83.41912,"zip":"44802","miles_from_dt":14.96},{"city":"Nevada","state_name":"Ohio","lat":40.80863,"lng":-83.13186,"zip":"44849","miles_from_dt":15.36},{"city":"New Washington","state_name":"Ohio","lat":40.94723,"lng":-82.85748,"zip":"44854","miles_from_dt":15.55},{"city":"Bettsville","state_name":"Ohio","lat":41.24697,"lng":-83.23947,"zip":"44815","miles_from_dt":15.89},{"city":"Fostoria","state_name":"Ohio","lat":41.16603,"lng":-83.40081,"zip":"44830","miles_from_dt":16.78},{"city":"Upper Sandusky","state_name":"Ohio","lat":40.82501,"lng":-83.30424,"zip":"43351","miles_from_dt":16.8},{"city":"Bucyrus","state_name":"Ohio","lat":40.81829,"lng":-82.97186,"zip":"44820","miles_from_dt":16.95},{"city":"Sulphur Springs","state_name":"Ohio","lat":40.8703,"lng":-82.87687,"zip":"44881","miles_from_dt":17.42},{"city":"Kansas","state_name":"Ohio","lat":41.25126,"lng":-83.31139,"zip":"44841","miles_from_dt":17.8},{"city":"Burgoon","state_name":"Ohio","lat":41.27717,"lng":-83.24994,"zip":"43407","miles_from_dt":18.03},{"city":"Vanlue","state_name":"Ohio","lat":40.97752,"lng":-83.49105,"zip":"45890","miles_from_dt":19.06},{"city":"Tiro","state_name":"Ohio","lat":40.9205,"lng":-82.788,"zip":"44887","miles_from_dt":19.61},{"city":"Flat Rock","state_name":"Ohio","lat":41.23367,"lng":-82.85957,"zip":"44828","miles_from_dt":19.99},{"city":"Wharton","state_name":"Ohio","lat":40.86977,"lng":-83.45319,"zip":"43359","miles_from_dt":20.1},{"city":"Bellevue","state_name":"Ohio","lat":41.24445,"lng":-82.84474,"zip":"44811","miles_from_dt":21.06},{"city":"Clyde","state_name":"Ohio","lat":41.30792,"lng":-82.95807,"zip":"43410","miles_from_dt":21.18},{"city":"Kirby","state_name":"Ohio","lat":40.81349,"lng":-83.41935,"zip":"43330","miles_from_dt":21.2},{"city":"Willard","state_name":"Ohio","lat":41.05676,"lng":-82.7219,"zip":"44888","miles_from_dt":21.57},{"city":"Harpster","state_name":"Ohio","lat":40.73116,"lng":-83.25211,"zip":"43323","miles_from_dt":21.61},{"city":"Arcadia","state_name":"Ohio","lat":41.10708,"lng":-83.53538,"zip":"44804","miles_from_dt":21.63},{"city":"North Robinson","state_name":"Ohio","lat":40.79398,"lng":-82.85627,"zip":"44856","miles_from_dt":21.87},{"city":"Willard","state_name":"Ohio","lat":41.0818,"lng":-82.71248,"zip":"44890","miles_from_dt":22.27},{"city":"Risingsun","state_name":"Ohio","lat":41.26788,"lng":-83.42508,"zip":"43457","miles_from_dt":22.32},{"city":"Helena","state_name":"Ohio","lat":41.32634,"lng":-83.31197,"zip":"43435","miles_from_dt":22.4},{"city":"Fremont","state_name":"Ohio","lat":41.35749,"lng":-83.11265,"zip":"43420","miles_from_dt":22.55},{"city":"Mount Blanchard","state_name":"Ohio","lat":40.89795,"lng":-83.53825,"zip":"45867","miles_from_dt":23.08},{"city":"New Haven","state_name":"Ohio","lat":41.03539,"lng":-82.68403,"zip":"44850","miles_from_dt":23.49},{"city":"West Millgrove","state_name":"Ohio","lat":41.24328,"lng":-83.49098,"zip":"43467","miles_from_dt":23.71},{"city":"Plymouth","state_name":"Ohio","lat":40.99165,"lng":-82.68168,"zip":"44865","miles_from_dt":23.77},{"city":"Crestline","state_name":"Ohio","lat":40.81921,"lng":-82.75923,"zip":"44827","miles_from_dt":24.44},{"city":"Bloomdale","state_name":"Ohio","lat":41.1987,"lng":-83.54676,"zip":"44817","miles_from_dt":24.47},{"city":"Morral","state_name":"Ohio","lat":40.68336,"lng":-83.24107,"zip":"43337","miles_from_dt":24.65},{"city":"Monroeville","state_name":"Ohio","lat":41.23025,"lng":-82.70821,"zip":"44847","miles_from_dt":26.1},{"city":"Bradner","state_name":"Ohio","lat":41.33605,"lng":-83.4372,"zip":"43406","miles_from_dt":26.33},{"city":"Arlington","state_name":"Ohio","lat":40.90119,"lng":-83.61545,"zip":"45814","miles_from_dt":26.76},{"city":"Wayne","state_name":"Ohio","lat":41.29234,"lng":-83.51394,"zip":"43466","miles_from_dt":26.81},{"city":"Findlay","state_name":"Ohio","lat":41.04436,"lng":-83.64804,"zip":"45839","miles_from_dt":26.9},{"city":"Findlay","state_name":"Ohio","lat":41.02626,"lng":-83.64943,"zip":"45840","miles_from_dt":26.96},{"city":"Gibsonburg","state_name":"Ohio","lat":41.38998,"lng":-83.33964,"zip":"43431","miles_from_dt":26.99},{"city":"Forest","state_name":"Ohio","lat":40.78202,"lng":-83.53513,"zip":"45843","miles_from_dt":27.16},{"city":"Shelby","state_name":"Ohio","lat":40.88645,"lng":-82.6489,"zip":"44875","miles_from_dt":27.24},{"city":"Van Buren","state_name":"Ohio","lat":41.14606,"lng":-83.64101,"zip":"45889","miles_from_dt":27.66},{"city":"Vickery","state_name":"Ohio","lat":41.40318,"lng":-82.93116,"zip":"43464","miles_from_dt":27.75},{"city":"Lindsey","state_name":"Ohio","lat":41.42911,"lng":-83.21496,"zip":"43442","miles_from_dt":27.79},{"city":"Martel","state_name":"Ohio","lat":40.66365,"lng":-82.91045,"zip":"43335","miles_from_dt":27.92},{"city":"Caledonia","state_name":"Ohio","lat":40.6474,"lng":-82.96122,"zip":"43314","miles_from_dt":27.98},{"city":"Galion","state_name":"Ohio","lat":40.71059,"lng":-82.79484,"zip":"44833","miles_from_dt":28.35},{"city":"Jerry City","state_name":"Ohio","lat":41.25396,"lng":-83.60176,"zip":"43437","miles_from_dt":28.87},{"city":"North Fairfield","state_name":"Ohio","lat":41.10414,"lng":-82.58664,"zip":"44855","miles_from_dt":29},{"city":"Castalia","state_name":"Ohio","lat":41.37952,"lng":-82.80422,"zip":"44824","miles_from_dt":29.54},{"city":"Iberia","state_name":"Ohio","lat":40.66939,"lng":-82.83102,"zip":"43325","miles_from_dt":29.57},{"city":"Marion","state_name":"Ohio","lat":40.59995,"lng":-83.12967,"zip":"43302","miles_from_dt":29.75}],"targetCityZipCode":"44845","targetCityState":"Ohio"},"__N_SSG":true}