{"pageProps":{"stateName":"Ohio","cityName":"milton-center","nearbyCities":[{"city":"Custar","state_name":"Ohio","lat":41.26384,"lng":-83.82376,"zip":"43511","miles_from_dt":2.56},{"city":"Weston","state_name":"Ohio","lat":41.3513,"lng":-83.78844,"zip":"43569","miles_from_dt":4.09},{"city":"Rudolph","state_name":"Ohio","lat":41.28352,"lng":-83.71887,"zip":"43462","miles_from_dt":5.88},{"city":"McClure","state_name":"Ohio","lat":41.35446,"lng":-83.92914,"zip":"43534","miles_from_dt":6.37},{"city":"Deshler","state_name":"Ohio","lat":41.21579,"lng":-83.91081,"zip":"43516","miles_from_dt":7.23},{"city":"Hoytville","state_name":"Ohio","lat":41.18998,"lng":-83.78431,"zip":"43529","miles_from_dt":8},{"city":"Grand Rapids","state_name":"Ohio","lat":41.42058,"lng":-83.84352,"zip":"43522","miles_from_dt":8.3},{"city":"Grelton","state_name":"Ohio","lat":41.33875,"lng":-83.99865,"zip":"43523","miles_from_dt":9.18},{"city":"Tontogany","state_name":"Ohio","lat":41.42044,"lng":-83.74011,"zip":"43565","miles_from_dt":9.48},{"city":"Cygnet","state_name":"Ohio","lat":41.24205,"lng":-83.65476,"zip":"43413","miles_from_dt":9.96},{"city":"Malinta","state_name":"Ohio","lat":41.30592,"lng":-84.02416,"zip":"43535","miles_from_dt":10.13},{"city":"North Baltimore","state_name":"Ohio","lat":41.18863,"lng":-83.68366,"zip":"45872","miles_from_dt":10.84},{"city":"Portage","state_name":"Ohio","lat":41.31551,"lng":-83.61614,"zip":"43451","miles_from_dt":11.15},{"city":"Bowling Green","state_name":"Ohio","lat":41.37784,"lng":-83.63653,"zip":"43403","miles_from_dt":11.36},{"city":"Belmore","state_name":"Ohio","lat":41.157,"lng":-83.94267,"zip":"45815","miles_from_dt":11.54},{"city":"Bowling Green","state_name":"Ohio","lat":41.40957,"lng":-83.65389,"zip":"43402","miles_from_dt":11.82},{"city":"Hamler","state_name":"Ohio","lat":41.22839,"lng":-84.039,"zip":"43524","miles_from_dt":12},{"city":"Jerry City","state_name":"Ohio","lat":41.25396,"lng":-83.60176,"zip":"43437","miles_from_dt":12.29},{"city":"Colton","state_name":"Ohio","lat":41.46484,"lng":-83.94712,"zip":"43510","miles_from_dt":12.87},{"city":"Liberty Center","state_name":"Ohio","lat":41.45486,"lng":-83.97008,"zip":"43532","miles_from_dt":12.9},{"city":"Haskins","state_name":"Ohio","lat":41.46663,"lng":-83.70098,"zip":"43525","miles_from_dt":13.25},{"city":"Neapolis","state_name":"Ohio","lat":41.49214,"lng":-83.87634,"zip":"43547","miles_from_dt":13.43},{"city":"McComb","state_name":"Ohio","lat":41.10688,"lng":-83.80338,"zip":"45858","miles_from_dt":13.45},{"city":"Waterville","state_name":"Ohio","lat":41.49467,"lng":-83.75838,"zip":"43566","miles_from_dt":13.88},{"city":"Van Buren","state_name":"Ohio","lat":41.14606,"lng":-83.64101,"zip":"45889","miles_from_dt":14.51},{"city":"Whitehouse","state_name":"Ohio","lat":41.51574,"lng":-83.81796,"zip":"43571","miles_from_dt":14.85},{"city":"Dunbridge","state_name":"Ohio","lat":41.45165,"lng":-83.61724,"zip":"43414","miles_from_dt":15.17},{"city":"Leipsic","state_name":"Ohio","lat":41.11452,"lng":-83.99917,"zip":"45856","miles_from_dt":15.6},{"city":"Bloomdale","state_name":"Ohio","lat":41.1987,"lng":-83.54676,"zip":"44817","miles_from_dt":16.32},{"city":"Wayne","state_name":"Ohio","lat":41.29234,"lng":-83.51394,"zip":"43466","miles_from_dt":16.43},{"city":"Okolona","state_name":"Ohio","lat":41.39221,"lng":-84.12302,"zip":"43550","miles_from_dt":16.52},{"city":"Napoleon","state_name":"Ohio","lat":41.39163,"lng":-84.12719,"zip":"43545","miles_from_dt":16.7},{"city":"Holgate","state_name":"Ohio","lat":41.25121,"lng":-84.1593,"zip":"43527","miles_from_dt":17.51},{"city":"West Millgrove","state_name":"Ohio","lat":41.24328,"lng":-83.49098,"zip":"43467","miles_from_dt":18.07},{"city":"Monclova","state_name":"Ohio","lat":41.56642,"lng":-83.76531,"zip":"43542","miles_from_dt":18.64},{"city":"Pemberville","state_name":"Ohio","lat":41.40013,"lng":-83.49324,"zip":"43450","miles_from_dt":18.78},{"city":"New Bavaria","state_name":"Ohio","lat":41.18867,"lng":-84.17296,"zip":"43548","miles_from_dt":19.49},{"city":"Findlay","state_name":"Ohio","lat":41.04436,"lng":-83.64804,"zip":"45839","miles_from_dt":20.06},{"city":"Perrysburg","state_name":"Ohio","lat":41.52095,"lng":-83.57503,"zip":"43551","miles_from_dt":20.14},{"city":"Maumee","state_name":"Ohio","lat":41.57433,"lng":-83.68542,"zip":"43537","miles_from_dt":20.31},{"city":"Arcadia","state_name":"Ohio","lat":41.10708,"lng":-83.53538,"zip":"44804","miles_from_dt":20.34},{"city":"Swanton","state_name":"Ohio","lat":41.5935,"lng":-83.8781,"zip":"43558","miles_from_dt":20.36},{"city":"Perrysburg","state_name":"Ohio","lat":41.55391,"lng":-83.62606,"zip":"43552","miles_from_dt":20.42},{"city":"Benton Ridge","state_name":"Ohio","lat":41.00452,"lng":-83.79392,"zip":"45816","miles_from_dt":20.53},{"city":"Bradner","state_name":"Ohio","lat":41.33605,"lng":-83.4372,"zip":"43406","miles_from_dt":20.56},{"city":"Findlay","state_name":"Ohio","lat":41.02626,"lng":-83.64943,"zip":"45840","miles_from_dt":21.14},{"city":"Risingsun","state_name":"Ohio","lat":41.26788,"lng":-83.42508,"zip":"43457","miles_from_dt":21.18},{"city":"Miller City","state_name":"Ohio","lat":41.09936,"lng":-84.14077,"zip":"45864","miles_from_dt":21.36},{"city":"Luckey","state_name":"Ohio","lat":41.46099,"lng":-83.46906,"zip":"43443","miles_from_dt":21.76},{"city":"Delta","state_name":"Ohio","lat":41.58656,"lng":-84.00746,"zip":"43515","miles_from_dt":21.78},{"city":"Stony Ridge","state_name":"Ohio","lat":41.51141,"lng":-83.50511,"zip":"43463","miles_from_dt":22.26},{"city":"Ottawa","state_name":"Ohio","lat":41.02271,"lng":-84.06118,"zip":"45875","miles_from_dt":22.67},{"city":"Mount Cory","state_name":"Ohio","lat":40.96986,"lng":-83.84839,"zip":"45868","miles_from_dt":22.86},{"city":"Holland","state_name":"Ohio","lat":41.62908,"lng":-83.74923,"zip":"43528","miles_from_dt":23.04},{"city":"Glandorf","state_name":"Ohio","lat":41.02421,"lng":-84.07695,"zip":"45848","miles_from_dt":23.04},{"city":"Lemoyne","state_name":"Ohio","lat":41.49804,"lng":-83.47193,"zip":"43441","miles_from_dt":23.04},{"city":"Toledo","state_name":"Ohio","lat":41.60336,"lng":-83.62715,"zip":"43614","miles_from_dt":23.38},{"city":"Jewell","state_name":"Ohio","lat":41.32794,"lng":-84.28933,"zip":"43530","miles_from_dt":24},{"city":"Ridgeville Corners","state_name":"Ohio","lat":41.43772,"lng":-84.25596,"zip":"43555","miles_from_dt":24.1},{"city":"Fostoria","state_name":"Ohio","lat":41.16603,"lng":-83.40081,"zip":"44830","miles_from_dt":24.19},{"city":"Rawson","state_name":"Ohio","lat":40.94976,"lng":-83.77426,"zip":"45881","miles_from_dt":24.39},{"city":"Pandora","state_name":"Ohio","lat":40.95393,"lng":-83.93779,"zip":"45877","miles_from_dt":24.59},{"city":"Walbridge","state_name":"Ohio","lat":41.56593,"lng":-83.50489,"zip":"43465","miles_from_dt":24.88},{"city":"Rossford","state_name":"Ohio","lat":41.60392,"lng":-83.56328,"zip":"43460","miles_from_dt":25.08},{"city":"Toledo","state_name":"Ohio","lat":41.63106,"lng":-83.61875,"zip":"43699","miles_from_dt":25.29},{"city":"Wauseon","state_name":"Ohio","lat":41.57592,"lng":-84.15248,"zip":"43567","miles_from_dt":25.34},{"city":"Toledo","state_name":"Ohio","lat":41.65045,"lng":-83.67255,"zip":"43615","miles_from_dt":25.47},{"city":"Continental","state_name":"Ohio","lat":41.11141,"lng":-84.24993,"zip":"45831","miles_from_dt":25.51},{"city":"Toledo","state_name":"Ohio","lat":41.66416,"lng":-83.72808,"zip":"43617","miles_from_dt":25.63},{"city":"Toledo","state_name":"Ohio","lat":41.65254,"lng":-83.67132,"zip":"43635","miles_from_dt":25.63},{"city":"Pettisville","state_name":"Ohio","lat":41.53096,"lng":-84.22382,"zip":"43553","miles_from_dt":25.92},{"city":"Toledo","state_name":"Ohio","lat":41.60596,"lng":-83.537,"zip":"43654","miles_from_dt":25.97},{"city":"Toledo","state_name":"Ohio","lat":41.62849,"lng":-83.57824,"zip":"43609","miles_from_dt":26.11},{"city":"Gibsonburg","state_name":"Ohio","lat":41.38998,"lng":-83.33964,"zip":"43431","miles_from_dt":26.21},{"city":"Woodville","state_name":"Ohio","lat":41.45947,"lng":-83.36474,"zip":"43469","miles_from_dt":26.53},{"city":"Toledo","state_name":"Ohio","lat":41.64761,"lng":-83.60582,"zip":"43607","miles_from_dt":26.6},{"city":"Toledo","state_name":"Ohio","lat":41.65288,"lng":-83.60469,"zip":"43661","miles_from_dt":26.96},{"city":"Helena","state_name":"Ohio","lat":41.32634,"lng":-83.31197,"zip":"43435","miles_from_dt":26.99},{"city":"Kansas","state_name":"Ohio","lat":41.25126,"lng":-83.31139,"zip":"44841","miles_from_dt":27.19},{"city":"Berkey","state_name":"Ohio","lat":41.69736,"lng":-83.8369,"zip":"43504","miles_from_dt":27.37},{"city":"Millbury","state_name":"Ohio","lat":41.56654,"lng":-83.43429,"zip":"43447","miles_from_dt":27.53},{"city":"Defiance","state_name":"Ohio","lat":41.30309,"lng":-84.35874,"zip":"43512","miles_from_dt":27.54},{"city":"Toledo","state_name":"Ohio","lat":41.63895,"lng":-83.54468,"zip":"43660","miles_from_dt":27.63},{"city":"Alvada","state_name":"Ohio","lat":41.04534,"lng":-83.41912,"zip":"44802","miles_from_dt":27.72},{"city":"Toledo","state_name":"Ohio","lat":41.64259,"lng":-83.544,"zip":"43682","miles_from_dt":27.86},{"city":"Metamora","state_name":"Ohio","lat":41.69545,"lng":-83.943,"zip":"43540","miles_from_dt":27.87},{"city":"Toledo","state_name":"Ohio","lat":41.64221,"lng":-83.54216,"zip":"43681","miles_from_dt":27.89},{"city":"Northwood","state_name":"Ohio","lat":41.60424,"lng":-83.47348,"zip":"43619","miles_from_dt":27.94},{"city":"Sylvania","state_name":"Ohio","lat":41.70067,"lng":-83.73799,"zip":"43560","miles_from_dt":28},{"city":"Toledo","state_name":"Ohio","lat":41.64478,"lng":-83.54344,"zip":"43697","miles_from_dt":28},{"city":"Toledo","state_name":"Ohio","lat":41.67178,"lng":-83.61085,"zip":"43606","miles_from_dt":28.01},{"city":"Toledo","state_name":"Ohio","lat":41.64729,"lng":-83.54763,"zip":"43601","miles_from_dt":28.04},{"city":"Genoa","state_name":"Ohio","lat":41.5238,"lng":-83.37329,"zip":"43430","miles_from_dt":28.26},{"city":"Vanlue","state_name":"Ohio","lat":40.97752,"lng":-83.49105,"zip":"45890","miles_from_dt":28.45},{"city":"Toledo","state_name":"Ohio","lat":41.64925,"lng":-83.53679,"zip":"43659","miles_from_dt":28.45},{"city":"Toledo","state_name":"Ohio","lat":41.65217,"lng":-83.53977,"zip":"43604","miles_from_dt":28.54},{"city":"Toledo","state_name":"Ohio","lat":41.65097,"lng":-83.53648,"zip":"43652","miles_from_dt":28.56},{"city":"Toledo","state_name":"Ohio","lat":41.65089,"lng":-83.53523,"zip":"43667","miles_from_dt":28.59},{"city":"Kalida","state_name":"Ohio","lat":40.98625,"lng":-84.19469,"zip":"45853","miles_from_dt":28.88},{"city":"Toledo","state_name":"Ohio","lat":41.66519,"lng":-83.5547,"zip":"43620","miles_from_dt":28.91},{"city":"Toledo","state_name":"Ohio","lat":41.65445,"lng":-83.53039,"zip":"43666","miles_from_dt":28.93},{"city":"Toledo","state_name":"Ohio","lat":41.64734,"lng":-83.50722,"zip":"43605","miles_from_dt":29.19},{"city":"Toledo","state_name":"Ohio","lat":41.65807,"lng":-83.52738,"zip":"43603","miles_from_dt":29.22},{"city":"Archbold","state_name":"Ohio","lat":41.53181,"lng":-84.30201,"zip":"43502","miles_from_dt":29.27},{"city":"Toledo","state_name":"Ohio","lat":41.70419,"lng":-83.65095,"zip":"43623","miles_from_dt":29.34},{"city":"Toledo","state_name":"Ohio","lat":41.70475,"lng":-83.6508,"zip":"43656","miles_from_dt":29.38},{"city":"Bluffton","state_name":"Ohio","lat":40.87691,"lng":-83.88279,"zip":"45817","miles_from_dt":29.38},{"city":"Toledo","state_name":"Ohio","lat":41.67683,"lng":-83.56178,"zip":"43657","miles_from_dt":29.44},{"city":"Jenera","state_name":"Ohio","lat":40.87955,"lng":-83.735,"zip":"45841","miles_from_dt":29.48},{"city":"Toledo","state_name":"Ohio","lat":41.67775,"lng":-83.5614,"zip":"43610","miles_from_dt":29.5},{"city":"Arlington","state_name":"Ohio","lat":40.90119,"lng":-83.61545,"zip":"45814","miles_from_dt":29.75},{"city":"Dupont","state_name":"Ohio","lat":41.05621,"lng":-84.30029,"zip":"45837","miles_from_dt":29.79}],"targetCityZipCode":"43541","targetCityState":"Ohio"},"__N_SSG":true}