{"pageProps":{"stateName":"Ohio","cityName":"moscow","nearbyCities":[{"city":"Neville","state_name":"Ohio","lat":38.80947,"lng":-84.21348,"zip":"45156","miles_from_dt":4.44},{"city":"Chilo","state_name":"Ohio","lat":38.79377,"lng":-84.14144,"zip":"45112","miles_from_dt":5.74},{"city":"Felicity","state_name":"Ohio","lat":38.82597,"lng":-84.09301,"zip":"45120","miles_from_dt":5.8},{"city":"New Richmond","state_name":"Ohio","lat":38.95599,"lng":-84.22824,"zip":"45157","miles_from_dt":6.39},{"city":"California","state_name":"Kentucky","lat":38.89289,"lng":-84.30788,"zip":"41007","miles_from_dt":6.83},{"city":"Foster","state_name":"Kentucky","lat":38.75644,"lng":-84.19832,"zip":"41043","miles_from_dt":7.85},{"city":"Bethel","state_name":"Ohio","lat":38.94633,"lng":-84.06831,"zip":"45106","miles_from_dt":8.2},{"city":"Feesburg","state_name":"Ohio","lat":38.8781,"lng":-83.99927,"zip":"45119","miles_from_dt":10.02},{"city":"Amelia","state_name":"Ohio","lat":39.01718,"lng":-84.20602,"zip":"45102","miles_from_dt":10.23},{"city":"Butler","state_name":"Kentucky","lat":38.78475,"lng":-84.34298,"zip":"41006","miles_from_dt":10.36},{"city":"Hamersville","state_name":"Ohio","lat":38.90886,"lng":-83.99897,"zip":"45130","miles_from_dt":10.37},{"city":"Alexandria","state_name":"Kentucky","lat":38.91409,"lng":-84.40256,"zip":"41001","miles_from_dt":12.13},{"city":"Higginsport","state_name":"Ohio","lat":38.78997,"lng":-83.96729,"zip":"45131","miles_from_dt":12.96},{"city":"Melbourne","state_name":"Kentucky","lat":39.00504,"lng":-84.35213,"zip":"41059","miles_from_dt":12.98},{"city":"Cincinnati","state_name":"Ohio","lat":39.06065,"lng":-84.27748,"zip":"45245","miles_from_dt":14.08},{"city":"Augusta","state_name":"Kentucky","lat":38.73002,"lng":-83.98282,"zip":"41002","miles_from_dt":14.55},{"city":"Kenton","state_name":"Kentucky","lat":38.86706,"lng":-84.45858,"zip":"41053","miles_from_dt":14.77},{"city":"Georgetown","state_name":"Ohio","lat":38.86769,"lng":-83.90911,"zip":"45121","miles_from_dt":14.86},{"city":"Cincinnati","state_name":"Ohio","lat":39.05862,"lng":-84.32675,"zip":"45255","miles_from_dt":15.11},{"city":"Brooksville","state_name":"Kentucky","lat":38.65549,"lng":-84.10134,"zip":"41004","miles_from_dt":15.45},{"city":"Batavia","state_name":"Ohio","lat":39.0946,"lng":-84.14006,"zip":"45103","miles_from_dt":15.69},{"city":"Silver Grove","state_name":"Kentucky","lat":39.03508,"lng":-84.39378,"zip":"41085","miles_from_dt":16.03},{"city":"De Mossville","state_name":"Kentucky","lat":38.77131,"lng":-84.46114,"zip":"41033","miles_from_dt":16.39},{"city":"Falmouth","state_name":"Kentucky","lat":38.65232,"lng":-84.33188,"zip":"41040","miles_from_dt":16.97},{"city":"Morning View","state_name":"Kentucky","lat":38.85323,"lng":-84.49983,"zip":"41063","miles_from_dt":17.03},{"city":"Newport","state_name":"Kentucky","lat":39.0178,"lng":-84.44084,"zip":"41076","miles_from_dt":17.16},{"city":"Williamsburg","state_name":"Ohio","lat":39.08438,"lng":-84.02205,"zip":"45176","miles_from_dt":17.2},{"city":"Owensville","state_name":"Ohio","lat":39.12358,"lng":-84.13725,"zip":"45160","miles_from_dt":17.69},{"city":"Latonia","state_name":"Kentucky","lat":38.97885,"lng":-84.48456,"zip":"41015","miles_from_dt":17.82},{"city":"Cincinnati","state_name":"Ohio","lat":39.07445,"lng":-84.39082,"zip":"45230","miles_from_dt":17.96},{"city":"Minerva","state_name":"Kentucky","lat":38.70378,"lng":-83.91717,"zip":"41062","miles_from_dt":18.43},{"city":"Newport","state_name":"Kentucky","lat":39.03231,"lng":-84.46336,"zip":"41099","miles_from_dt":18.73},{"city":"Cincinnati","state_name":"Ohio","lat":39.12009,"lng":-84.32764,"zip":"45244","miles_from_dt":18.9},{"city":"Dover","state_name":"Kentucky","lat":38.70104,"lng":-83.90426,"zip":"41034","miles_from_dt":19.1},{"city":"Mount Orab","state_name":"Ohio","lat":39.06137,"lng":-83.91997,"zip":"45154","miles_from_dt":19.44},{"city":"Independence","state_name":"Kentucky","lat":38.93233,"lng":-84.54451,"zip":"41051","miles_from_dt":19.87},{"city":"Milford","state_name":"Kentucky","lat":38.58265,"lng":-84.15486,"zip":"41061","miles_from_dt":19.87},{"city":"Fort Thomas","state_name":"Kentucky","lat":39.07838,"lng":-84.45248,"zip":"41075","miles_from_dt":20.37},{"city":"Milford","state_name":"Ohio","lat":39.16567,"lng":-84.23281,"zip":"45150","miles_from_dt":20.58},{"city":"Cincinnati","state_name":"Ohio","lat":39.11149,"lng":-84.41989,"zip":"45226","miles_from_dt":20.94},{"city":"Terrace Park","state_name":"Ohio","lat":39.1588,"lng":-84.31073,"zip":"45174","miles_from_dt":21.06},{"city":"Newport","state_name":"Kentucky","lat":39.0732,"lng":-84.48211,"zip":"41071","miles_from_dt":21.29},{"city":"Newport","state_name":"Kentucky","lat":39.07958,"lng":-84.48034,"zip":"41072","miles_from_dt":21.51},{"city":"Germantown","state_name":"Kentucky","lat":38.60513,"lng":-83.97265,"zip":"41044","miles_from_dt":21.55},{"city":"Ripley","state_name":"Ohio","lat":38.77234,"lng":-83.79943,"zip":"45167","miles_from_dt":21.85},{"city":"Covington","state_name":"Kentucky","lat":39.0655,"lng":-84.50464,"zip":"41014","miles_from_dt":21.89},{"city":"Dayton","state_name":"Kentucky","lat":39.11018,"lng":-84.4607,"zip":"41074","miles_from_dt":22.27},{"city":"Newtonsville","state_name":"Ohio","lat":39.18229,"lng":-84.07769,"zip":"45158","miles_from_dt":22.31},{"city":"Cincinnati","state_name":"Ohio","lat":39.15403,"lng":-84.38524,"zip":"45227","miles_from_dt":22.38},{"city":"Bellevue","state_name":"Kentucky","lat":39.10123,"lng":-84.47748,"zip":"41073","miles_from_dt":22.43},{"city":"Crittenden","state_name":"Kentucky","lat":38.78582,"lng":-84.58754,"zip":"41030","miles_from_dt":22.49},{"city":"Russellville","state_name":"Ohio","lat":38.85266,"lng":-83.76783,"zip":"45168","miles_from_dt":22.52},{"city":"Cincinnati","state_name":"Ohio","lat":39.13522,"lng":-84.43393,"zip":"45208","miles_from_dt":22.7},{"city":"Ft Mitchell","state_name":"Kentucky","lat":39.02893,"lng":-84.56177,"zip":"41017","miles_from_dt":23.09},{"city":"Covington","state_name":"Kentucky","lat":39.06802,"lng":-84.53065,"zip":"41011","miles_from_dt":23.11},{"city":"Covington","state_name":"Kentucky","lat":39.06964,"lng":-84.52981,"zip":"41019","miles_from_dt":23.14},{"city":"Sardinia","state_name":"Ohio","lat":39.01414,"lng":-83.7962,"zip":"45171","miles_from_dt":23.18},{"city":"Covington","state_name":"Kentucky","lat":39.06885,"lng":-84.53293,"zip":"41012","miles_from_dt":23.24},{"city":"Cincinnati","state_name":"Ohio","lat":39.18381,"lng":-84.34171,"zip":"45243","miles_from_dt":23.25},{"city":"Camp Dennison","state_name":"Ohio","lat":39.20033,"lng":-84.28746,"zip":"45111","miles_from_dt":23.46},{"city":"Cincinnati","state_name":"Ohio","lat":39.15336,"lng":-84.42762,"zip":"45209","miles_from_dt":23.53},{"city":"Cincinnati","state_name":"Ohio","lat":39.10547,"lng":-84.50184,"zip":"45254","miles_from_dt":23.58},{"city":"Walton","state_name":"Kentucky","lat":38.88213,"lng":-84.62292,"zip":"41094","miles_from_dt":23.64},{"city":"Cincinnati","state_name":"Ohio","lat":39.10879,"lng":-84.50125,"zip":"45201","miles_from_dt":23.71},{"city":"Cincinnati","state_name":"Ohio","lat":39.10383,"lng":-84.50755,"zip":"45299","miles_from_dt":23.72},{"city":"Cincinnati","state_name":"Ohio","lat":39.10885,"lng":-84.50243,"zip":"45202","miles_from_dt":23.76},{"city":"Cincinnati","state_name":"Ohio","lat":39.10106,"lng":-84.51407,"zip":"45273","miles_from_dt":23.85},{"city":"Cincinnati","state_name":"Ohio","lat":39.12736,"lng":-84.48451,"zip":"45206","miles_from_dt":24},{"city":"Cincinnati","state_name":"Ohio","lat":39.09951,"lng":-84.52467,"zip":"45298","miles_from_dt":24.21},{"city":"Cincinnati","state_name":"Ohio","lat":39.14199,"lng":-84.4713,"zip":"45207","miles_from_dt":24.3},{"city":"Cincinnati","state_name":"Ohio","lat":39.14856,"lng":-84.46149,"zip":"45277","miles_from_dt":24.32},{"city":"Miamiville","state_name":"Ohio","lat":39.21114,"lng":-84.30192,"zip":"45147","miles_from_dt":24.38},{"city":"Cincinnati","state_name":"Ohio","lat":39.10233,"lng":-84.52697,"zip":"45999","miles_from_dt":24.43},{"city":"Goshen","state_name":"Ohio","lat":39.22411,"lng":-84.12698,"zip":"45122","miles_from_dt":24.64},{"city":"Erlanger","state_name":"Kentucky","lat":39.01546,"lng":-84.60282,"zip":"41018","miles_from_dt":24.66},{"city":"Covington","state_name":"Kentucky","lat":39.08701,"lng":-84.5487,"zip":"41016","miles_from_dt":24.67},{"city":"Cincinnati","state_name":"Ohio","lat":39.1037,"lng":-84.53283,"zip":"45296","miles_from_dt":24.73},{"city":"Cincinnati","state_name":"Ohio","lat":39.10092,"lng":-84.53588,"zip":"45270","miles_from_dt":24.73},{"city":"Cincinnati","state_name":"Ohio","lat":39.10403,"lng":-84.53337,"zip":"45203","miles_from_dt":24.77},{"city":"Cincinnati","state_name":"Ohio","lat":39.16403,"lng":-84.45173,"zip":"45212","miles_from_dt":24.87},{"city":"Fayetteville","state_name":"Ohio","lat":39.17192,"lng":-83.93107,"zip":"45118","miles_from_dt":24.92},{"city":"Cincinnati","state_name":"Ohio","lat":39.18111,"lng":-84.42006,"zip":"45213","miles_from_dt":24.93},{"city":"Cincinnati","state_name":"Ohio","lat":39.10624,"lng":-84.53487,"zip":"45269","miles_from_dt":24.93},{"city":"Cincinnati","state_name":"Ohio","lat":39.10437,"lng":-84.53787,"zip":"45264","miles_from_dt":24.97},{"city":"Cincinnati","state_name":"Ohio","lat":39.16,"lng":-84.46219,"zip":"45280","miles_from_dt":24.98},{"city":"Cincinnati","state_name":"Ohio","lat":39.10798,"lng":-84.53418,"zip":"45263","miles_from_dt":24.98},{"city":"Cincinnati","state_name":"Ohio","lat":39.12668,"lng":-84.51201,"zip":"45219","miles_from_dt":24.99},{"city":"Cincinnati","state_name":"Ohio","lat":39.13812,"lng":-84.5031,"zip":"45267","miles_from_dt":25.22},{"city":"Mount Olivet","state_name":"Kentucky","lat":38.51462,"lng":-84.07106,"zip":"41064","miles_from_dt":25.26},{"city":"Cincinnati","state_name":"Ohio","lat":39.13832,"lng":-84.50447,"zip":"45275","miles_from_dt":25.29},{"city":"Cincinnati","state_name":"Ohio","lat":39.13032,"lng":-84.51693,"zip":"45221","miles_from_dt":25.35},{"city":"Cincinnati","state_name":"Ohio","lat":39.15342,"lng":-84.48612,"zip":"45229","miles_from_dt":25.42},{"city":"Berry","state_name":"Kentucky","lat":38.53181,"lng":-84.39164,"zip":"41003","miles_from_dt":25.86},{"city":"Cincinnati","state_name":"Ohio","lat":39.12209,"lng":-84.54413,"zip":"45262","miles_from_dt":26.02},{"city":"Florence","state_name":"Kentucky","lat":38.98976,"lng":-84.64282,"zip":"41022","miles_from_dt":26.03},{"city":"Cincinnati","state_name":"Ohio","lat":39.11899,"lng":-84.54792,"zip":"45250","miles_from_dt":26.03},{"city":"Cincinnati","state_name":"Ohio","lat":39.09536,"lng":-84.57225,"zip":"45204","miles_from_dt":26.03},{"city":"Cincinnati","state_name":"Ohio","lat":39.12271,"lng":-84.54442,"zip":"45214","miles_from_dt":26.06},{"city":"Cincinnati","state_name":"Ohio","lat":39.20949,"lng":-84.39701,"zip":"45236","miles_from_dt":26.07},{"city":"Decatur","state_name":"Ohio","lat":38.80818,"lng":-83.70728,"zip":"45115","miles_from_dt":26.11},{"city":"Mowrystown","state_name":"Ohio","lat":39.04057,"lng":-83.75181,"zip":"45155","miles_from_dt":26.13},{"city":"Florence","state_name":"Kentucky","lat":38.98595,"lng":-84.64906,"zip":"41042","miles_from_dt":26.27},{"city":"Cincinnati","state_name":"Ohio","lat":39.14736,"lng":-84.52101,"zip":"45220","miles_from_dt":26.35},{"city":"Cincinnati","state_name":"Ohio","lat":39.14845,"lng":-84.5199,"zip":"45268","miles_from_dt":26.36},{"city":"Cincinnati","state_name":"Ohio","lat":39.13618,"lng":-84.53686,"zip":"45271","miles_from_dt":26.4},{"city":"Cincinnati","state_name":"Ohio","lat":39.19365,"lng":-84.44642,"zip":"45222","miles_from_dt":26.41},{"city":"Cincinnati","state_name":"Ohio","lat":39.13814,"lng":-84.53632,"zip":"45274","miles_from_dt":26.47},{"city":"Cincinnati","state_name":"Ohio","lat":39.19298,"lng":-84.45244,"zip":"45237","miles_from_dt":26.54},{"city":"Cincinnati","state_name":"Ohio","lat":39.16718,"lng":-84.49792,"zip":"45217","miles_from_dt":26.55},{"city":"Cincinnati","state_name":"Ohio","lat":39.11057,"lng":-84.57518,"zip":"45205","miles_from_dt":26.79},{"city":"Loveland","state_name":"Ohio","lat":39.25603,"lng":-84.24433,"zip":"45140","miles_from_dt":26.84},{"city":"Washington","state_name":"Kentucky","lat":38.61585,"lng":-83.80616,"zip":"41096","miles_from_dt":26.93},{"city":"Aberdeen","state_name":"Ohio","lat":38.69164,"lng":-83.74024,"zip":"45101","miles_from_dt":26.96},{"city":"Cincinnati","state_name":"Ohio","lat":39.14341,"lng":-84.55267,"zip":"45225","miles_from_dt":27.36},{"city":"Cincinnati","state_name":"Ohio","lat":39.24348,"lng":-84.35621,"zip":"45242","miles_from_dt":27.38},{"city":"Williamstown","state_name":"Kentucky","lat":38.62088,"lng":-84.58033,"zip":"41097","miles_from_dt":27.41},{"city":"Erlanger","state_name":"Kentucky","lat":39.06016,"lng":-84.63269,"zip":"41025","miles_from_dt":27.47},{"city":"Cincinnati","state_name":"Ohio","lat":39.20054,"lng":-84.48114,"zip":"45216","miles_from_dt":27.84},{"city":"Cincinnati","state_name":"Ohio","lat":39.1818,"lng":-84.51673,"zip":"45232","miles_from_dt":27.97},{"city":"Verona","state_name":"Kentucky","lat":38.81811,"lng":-84.70115,"zip":"41092","miles_from_dt":28.08},{"city":"Pleasant Plain","state_name":"Ohio","lat":39.26913,"lng":-84.07851,"zip":"45162","miles_from_dt":28.13},{"city":"Dry Ridge","state_name":"Kentucky","lat":38.70322,"lng":-84.66141,"zip":"41035","miles_from_dt":28.18},{"city":"Cincinnati","state_name":"Ohio","lat":39.10927,"lng":-84.61053,"zip":"45238","miles_from_dt":28.26},{"city":"Winchester","state_name":"Ohio","lat":38.9352,"lng":-83.66525,"zip":"45697","miles_from_dt":28.36},{"city":"Cincinnati","state_name":"Ohio","lat":39.1696,"lng":-84.55354,"zip":"45223","miles_from_dt":28.66},{"city":"Maysville","state_name":"Kentucky","lat":38.59913,"lng":-83.77576,"zip":"41056","miles_from_dt":28.93},{"city":"Cincinnati","state_name":"Ohio","lat":39.27617,"lng":-84.32777,"zip":"45249","miles_from_dt":29.07},{"city":"Cincinnati","state_name":"Ohio","lat":39.23536,"lng":-84.46221,"zip":"45215","miles_from_dt":29.3},{"city":"Mason","state_name":"Kentucky","lat":38.57837,"lng":-84.58434,"zip":"41054","miles_from_dt":29.5},{"city":"Cincinnati","state_name":"Ohio","lat":39.20215,"lng":-84.53222,"zip":"45224","miles_from_dt":29.58},{"city":"Mayslick","state_name":"Kentucky","lat":38.51787,"lng":-83.86995,"zip":"41055","miles_from_dt":29.64},{"city":"Cincinnati","state_name":"Ohio","lat":39.15746,"lng":-84.59888,"zip":"45211","miles_from_dt":29.84},{"city":"Mount Saint Joseph","state_name":"Ohio","lat":39.09983,"lng":-84.65504,"zip":"45051","miles_from_dt":29.88}],"targetCityZipCode":"45153","targetCityState":"Ohio"},"__N_SSG":true}