{"pageProps":{"stateName":"Ohio","cityName":"sunbury","nearbyCities":[{"city":"Galena","state_name":"Ohio","lat":40.20301,"lng":-82.88476,"zip":"43021","miles_from_dt":5.64},{"city":"Kilbourne","state_name":"Ohio","lat":40.32836,"lng":-82.95812,"zip":"43032","miles_from_dt":6.66},{"city":"Marengo","state_name":"Ohio","lat":40.39912,"lng":-82.79863,"zip":"43334","miles_from_dt":8.63},{"city":"Westerville","state_name":"Ohio","lat":40.15537,"lng":-82.88437,"zip":"43082","miles_from_dt":8.81},{"city":"Centerburg","state_name":"Ohio","lat":40.30946,"lng":-82.68456,"zip":"43011","miles_from_dt":8.92},{"city":"Croton","state_name":"Ohio","lat":40.23101,"lng":-82.6895,"zip":"43013","miles_from_dt":9.09},{"city":"Lewis Center","state_name":"Ohio","lat":40.18622,"lng":-82.9969,"zip":"43035","miles_from_dt":10.15},{"city":"Ashley","state_name":"Ohio","lat":40.41017,"lng":-82.96866,"zip":"43003","miles_from_dt":10.98},{"city":"Sparta","state_name":"Ohio","lat":40.39557,"lng":-82.69977,"zip":"43350","miles_from_dt":11.21},{"city":"Delaware","state_name":"Ohio","lat":40.29812,"lng":-83.06049,"zip":"43015","miles_from_dt":11.24},{"city":"Columbus","state_name":"Ohio","lat":40.14501,"lng":-82.98209,"zip":"43240","miles_from_dt":11.68},{"city":"Westerville","state_name":"Ohio","lat":40.11745,"lng":-82.91666,"zip":"43086","miles_from_dt":11.78},{"city":"Westerville","state_name":"Ohio","lat":40.11064,"lng":-82.89083,"zip":"43081","miles_from_dt":11.9},{"city":"Mount Liberty","state_name":"Ohio","lat":40.35018,"lng":-82.63004,"zip":"43048","miles_from_dt":12.53},{"city":"Fulton","state_name":"Ohio","lat":40.463,"lng":-82.82889,"zip":"43321","miles_from_dt":12.67},{"city":"Johnstown","state_name":"Ohio","lat":40.16292,"lng":-82.66378,"zip":"43031","miles_from_dt":12.7},{"city":"New Albany","state_name":"Ohio","lat":40.07998,"lng":-82.79253,"zip":"43054","miles_from_dt":14.13},{"city":"Cardington","state_name":"Ohio","lat":40.4841,"lng":-82.87872,"zip":"43315","miles_from_dt":14.16},{"city":"Columbus","state_name":"Ohio","lat":40.07843,"lng":-82.93914,"zip":"43231","miles_from_dt":14.71},{"city":"Powell","state_name":"Ohio","lat":40.17655,"lng":-83.09445,"zip":"43065","miles_from_dt":14.82},{"city":"Columbus","state_name":"Ohio","lat":40.08569,"lng":-82.97636,"zip":"43229","miles_from_dt":15.01},{"city":"Columbus","state_name":"Ohio","lat":40.09959,"lng":-83.01639,"zip":"43085","miles_from_dt":15.28},{"city":"Waldo","state_name":"Ohio","lat":40.45748,"lng":-83.04788,"zip":"43356","miles_from_dt":16.12},{"city":"Chesterville","state_name":"Ohio","lat":40.47748,"lng":-82.68202,"zip":"43317","miles_from_dt":16.22},{"city":"Columbus","state_name":"Ohio","lat":40.10193,"lng":-83.05442,"zip":"43235","miles_from_dt":16.41},{"city":"Columbus","state_name":"Ohio","lat":40.10298,"lng":-83.05599,"zip":"43234","miles_from_dt":16.41},{"city":"Columbus","state_name":"Ohio","lat":40.05642,"lng":-82.9682,"zip":"43266","miles_from_dt":16.67},{"city":"Columbus","state_name":"Ohio","lat":40.03648,"lng":-82.87057,"zip":"43230","miles_from_dt":16.85},{"city":"Homer","state_name":"Ohio","lat":40.25375,"lng":-82.52253,"zip":"43027","miles_from_dt":17.35},{"city":"Columbus","state_name":"Ohio","lat":40.04256,"lng":-82.9664,"zip":"43224","miles_from_dt":17.53},{"city":"Columbus","state_name":"Ohio","lat":40.0523,"lng":-83.01996,"zip":"43214","miles_from_dt":18.14},{"city":"Alexandria","state_name":"Ohio","lat":40.08794,"lng":-82.61289,"zip":"43001","miles_from_dt":18.22},{"city":"Blacklick","state_name":"Ohio","lat":40.01664,"lng":-82.80025,"zip":"43004","miles_from_dt":18.36},{"city":"Radnor","state_name":"Ohio","lat":40.39877,"lng":-83.16313,"zip":"43066","miles_from_dt":18.5},{"city":"Columbus","state_name":"Ohio","lat":40.01765,"lng":-82.92367,"zip":"43218","miles_from_dt":18.53},{"city":"Ostrander","state_name":"Ohio","lat":40.28775,"lng":-83.20256,"zip":"43061","miles_from_dt":18.69},{"city":"Dublin","state_name":"Ohio","lat":40.1189,"lng":-83.13314,"zip":"43017","miles_from_dt":18.7},{"city":"Columbus","state_name":"Ohio","lat":40.00774,"lng":-82.92233,"zip":"43219","miles_from_dt":19.19},{"city":"Columbus","state_name":"Ohio","lat":40.00006,"lng":-82.88796,"zip":"43236","miles_from_dt":19.43},{"city":"Columbus","state_name":"Ohio","lat":40.01163,"lng":-82.97244,"zip":"43211","miles_from_dt":19.64},{"city":"Mount Vernon","state_name":"Ohio","lat":40.37188,"lng":-82.49536,"zip":"43050","miles_from_dt":19.72},{"city":"Columbus","state_name":"Ohio","lat":40.04847,"lng":-83.07161,"zip":"43220","miles_from_dt":19.86},{"city":"Summit Station","state_name":"Ohio","lat":40.00197,"lng":-82.75103,"zip":"43073","miles_from_dt":19.88},{"city":"Columbus","state_name":"Ohio","lat":40.02126,"lng":-83.01394,"zip":"43202","miles_from_dt":19.88},{"city":"Mount Gilead","state_name":"Ohio","lat":40.56207,"lng":-82.75958,"zip":"43338","miles_from_dt":20.02},{"city":"Dublin","state_name":"Ohio","lat":40.09732,"lng":-83.15535,"zip":"43016","miles_from_dt":20.54},{"city":"Fredericktown","state_name":"Ohio","lat":40.49527,"lng":-82.57831,"zip":"43019","miles_from_dt":20.6},{"city":"Columbus","state_name":"Ohio","lat":39.9766,"lng":-82.85683,"zip":"43291","miles_from_dt":20.94},{"city":"Pataskala","state_name":"Ohio","lat":40.00556,"lng":-82.67964,"zip":"43062","miles_from_dt":20.96},{"city":"Columbus","state_name":"Ohio","lat":40.00487,"lng":-83.02182,"zip":"43210","miles_from_dt":21.08},{"city":"Columbus","state_name":"Ohio","lat":39.97419,"lng":-82.89823,"zip":"43216","miles_from_dt":21.27},{"city":"Columbus","state_name":"Ohio","lat":39.97117,"lng":-82.86746,"zip":"43213","miles_from_dt":21.34},{"city":"Columbus","state_name":"Ohio","lat":40.02334,"lng":-83.07744,"zip":"43221","miles_from_dt":21.45},{"city":"Edison","state_name":"Ohio","lat":40.5886,"lng":-82.89994,"zip":"43320","miles_from_dt":21.46},{"city":"Columbus","state_name":"Ohio","lat":39.99114,"lng":-83.00056,"zip":"43201","miles_from_dt":21.49},{"city":"Granville","state_name":"Ohio","lat":40.07603,"lng":-82.53061,"zip":"43023","miles_from_dt":21.96},{"city":"Prospect","state_name":"Ohio","lat":40.47533,"lng":-83.17994,"zip":"43342","miles_from_dt":22.06},{"city":"Columbus","state_name":"Ohio","lat":39.9729,"lng":-82.96922,"zip":"43203","miles_from_dt":22.13},{"city":"Utica","state_name":"Ohio","lat":40.24284,"lng":-82.43126,"zip":"43080","miles_from_dt":22.23},{"city":"Magnetic Springs","state_name":"Ohio","lat":40.3524,"lng":-83.26325,"zip":"43036","miles_from_dt":22.44},{"city":"Reynoldsburg","state_name":"Ohio","lat":39.95667,"lng":-82.78468,"zip":"43068","miles_from_dt":22.57},{"city":"Columbus","state_name":"Ohio","lat":39.98763,"lng":-83.04215,"zip":"43212","miles_from_dt":22.62},{"city":"Columbus","state_name":"Ohio","lat":39.95462,"lng":-82.92992,"zip":"43209","miles_from_dt":22.86},{"city":"Reynoldsburg","state_name":"Ohio","lat":39.95,"lng":-82.81219,"zip":"43069","miles_from_dt":22.86},{"city":"Amlin","state_name":"Ohio","lat":40.05982,"lng":-83.17305,"zip":"43002","miles_from_dt":22.92},{"city":"Columbus","state_name":"Ohio","lat":39.9575,"lng":-82.96244,"zip":"43205","miles_from_dt":23.05},{"city":"Columbus","state_name":"Ohio","lat":39.9644,"lng":-82.99432,"zip":"43268","miles_from_dt":23.1},{"city":"Columbus","state_name":"Ohio","lat":39.96497,"lng":-83.00032,"zip":"43270","miles_from_dt":23.17},{"city":"Columbus","state_name":"Ohio","lat":39.94511,"lng":-82.88858,"zip":"43227","miles_from_dt":23.21},{"city":"Columbus","state_name":"Ohio","lat":39.96287,"lng":-82.99842,"zip":"43260","miles_from_dt":23.27},{"city":"Columbus","state_name":"Ohio","lat":39.97093,"lng":-83.02627,"zip":"43271","miles_from_dt":23.31},{"city":"Columbus","state_name":"Ohio","lat":39.96633,"lng":-83.01262,"zip":"43215","miles_from_dt":23.32},{"city":"Columbus","state_name":"Ohio","lat":39.96142,"lng":-82.99939,"zip":"43287","miles_from_dt":23.38},{"city":"Columbus","state_name":"Ohio","lat":39.96035,"lng":-83.00566,"zip":"43272","miles_from_dt":23.57},{"city":"Columbus","state_name":"Ohio","lat":39.9661,"lng":-83.02545,"zip":"43279","miles_from_dt":23.59},{"city":"Columbus","state_name":"Ohio","lat":39.95972,"lng":-83.0208,"zip":"43251","miles_from_dt":23.9},{"city":"Columbus","state_name":"Ohio","lat":39.961,"lng":-83.03581,"zip":"43222","miles_from_dt":24.14},{"city":"Columbus","state_name":"Ohio","lat":39.94205,"lng":-82.97346,"zip":"43206","miles_from_dt":24.24},{"city":"Etna","state_name":"Ohio","lat":39.95377,"lng":-82.67613,"zip":"43018","miles_from_dt":24.3},{"city":"Marion","state_name":"Ohio","lat":40.56569,"lng":-83.12487,"zip":"43301","miles_from_dt":24.49},{"city":"Columbus","state_name":"Ohio","lat":39.92189,"lng":-82.87053,"zip":"43232","miles_from_dt":24.74},{"city":"Hilliard","state_name":"Ohio","lat":40.02197,"lng":-83.18472,"zip":"43026","miles_from_dt":25.16},{"city":"Columbus","state_name":"Ohio","lat":39.96135,"lng":-83.08052,"zip":"43204","miles_from_dt":25.18},{"city":"Shauck","state_name":"Ohio","lat":40.61868,"lng":-82.66598,"zip":"43349","miles_from_dt":25.28},{"city":"Brice","state_name":"Ohio","lat":39.9127,"lng":-82.83385,"zip":"43109","miles_from_dt":25.36},{"city":"Kirkersville","state_name":"Ohio","lat":39.96098,"lng":-82.59984,"zip":"43033","miles_from_dt":25.67},{"city":"Green Camp","state_name":"Ohio","lat":40.5327,"lng":-83.20815,"zip":"43322","miles_from_dt":25.74},{"city":"Newark","state_name":"Ohio","lat":40.05817,"lng":-82.45232,"zip":"43093","miles_from_dt":25.99},{"city":"Caledonia","state_name":"Ohio","lat":40.6474,"lng":-82.96122,"zip":"43314","miles_from_dt":26.03},{"city":"Columbus","state_name":"Ohio","lat":39.96367,"lng":-83.12478,"zip":"43228","miles_from_dt":26.27},{"city":"Columbus","state_name":"Ohio","lat":39.92636,"lng":-83.03395,"zip":"43223","miles_from_dt":26.3},{"city":"Plain City","state_name":"Ohio","lat":40.09819,"lng":-83.28863,"zip":"43064","miles_from_dt":26.43},{"city":"Marion","state_name":"Ohio","lat":40.59995,"lng":-83.12967,"zip":"43302","miles_from_dt":26.57},{"city":"Columbus","state_name":"Ohio","lat":39.97857,"lng":-83.16337,"zip":"43226","miles_from_dt":26.65},{"city":"Martel","state_name":"Ohio","lat":40.66365,"lng":-82.91045,"zip":"43335","miles_from_dt":26.66},{"city":"Iberia","state_name":"Ohio","lat":40.66939,"lng":-82.83102,"zip":"43325","miles_from_dt":26.88},{"city":"Saint Louisville","state_name":"Ohio","lat":40.18479,"lng":-82.35509,"zip":"43071","miles_from_dt":26.93},{"city":"Marysville","state_name":"Ohio","lat":40.26115,"lng":-83.35812,"zip":"43040","miles_from_dt":26.94},{"city":"Pickerington","state_name":"Ohio","lat":39.8982,"lng":-82.74227,"zip":"43147","miles_from_dt":26.95},{"city":"Gambier","state_name":"Ohio","lat":40.33765,"lng":-82.34135,"zip":"43022","miles_from_dt":27.11},{"city":"Columbus","state_name":"Ohio","lat":39.89599,"lng":-82.96392,"zip":"43207","miles_from_dt":27.19},{"city":"Newark","state_name":"Ohio","lat":40.1168,"lng":-82.37672,"zip":"43055","miles_from_dt":27.41},{"city":"Marysville","state_name":"Ohio","lat":40.23827,"lng":-83.36802,"zip":"43041","miles_from_dt":27.59},{"city":"Unionville Center","state_name":"Ohio","lat":40.13675,"lng":-83.34165,"zip":"43077","miles_from_dt":27.87},{"city":"Bellville","state_name":"Ohio","lat":40.60135,"lng":-82.52814,"zip":"44813","miles_from_dt":27.88},{"city":"Richwood","state_name":"Ohio","lat":40.43219,"lng":-83.33832,"zip":"43344","miles_from_dt":27.88},{"city":"Hebron","state_name":"Ohio","lat":39.96653,"lng":-82.51529,"zip":"43025","miles_from_dt":27.94},{"city":"Newark","state_name":"Ohio","lat":40.05958,"lng":-82.40378,"zip":"43058","miles_from_dt":28.05},{"city":"Martinsburg","state_name":"Ohio","lat":40.28062,"lng":-82.31654,"zip":"43037","miles_from_dt":28.14},{"city":"Groveport","state_name":"Ohio","lat":39.86,"lng":-82.89219,"zip":"43195","miles_from_dt":29.07},{"city":"Groveport","state_name":"Ohio","lat":39.85969,"lng":-82.89441,"zip":"43199","miles_from_dt":29.1},{"city":"Mansfield","state_name":"Ohio","lat":40.66578,"lng":-82.61505,"zip":"44904","miles_from_dt":29.33},{"city":"Broadway","state_name":"Ohio","lat":40.33154,"lng":-83.40595,"zip":"43007","miles_from_dt":29.63},{"city":"Galion","state_name":"Ohio","lat":40.71059,"lng":-82.79484,"zip":"44833","miles_from_dt":29.84}],"targetCityZipCode":"43074","targetCityState":"Ohio"},"__N_SSG":true}