{"pageProps":{"stateName":"Ohio","cityName":"tiro","nearbyCities":[{"city":"New Washington","state_name":"Ohio","lat":40.94723,"lng":-82.85748,"zip":"44854","miles_from_dt":4.08},{"city":"Sulphur Springs","state_name":"Ohio","lat":40.8703,"lng":-82.87687,"zip":"44881","miles_from_dt":5.8},{"city":"Crestline","state_name":"Ohio","lat":40.81921,"lng":-82.75923,"zip":"44827","miles_from_dt":7.15},{"city":"Plymouth","state_name":"Ohio","lat":40.99165,"lng":-82.68168,"zip":"44865","miles_from_dt":7.42},{"city":"Shelby","state_name":"Ohio","lat":40.88645,"lng":-82.6489,"zip":"44875","miles_from_dt":7.65},{"city":"Chatfield","state_name":"Ohio","lat":40.95443,"lng":-82.94194,"zip":"44825","miles_from_dt":8.39},{"city":"North Robinson","state_name":"Ohio","lat":40.79398,"lng":-82.85627,"zip":"44856","miles_from_dt":9.43},{"city":"New Haven","state_name":"Ohio","lat":41.03539,"lng":-82.68403,"zip":"44850","miles_from_dt":9.61},{"city":"Willard","state_name":"Ohio","lat":41.05676,"lng":-82.7219,"zip":"44888","miles_from_dt":10.02},{"city":"Attica","state_name":"Ohio","lat":41.06508,"lng":-82.87533,"zip":"44807","miles_from_dt":10.97},{"city":"Willard","state_name":"Ohio","lat":41.0818,"lng":-82.71248,"zip":"44890","miles_from_dt":11.81},{"city":"Bucyrus","state_name":"Ohio","lat":40.81829,"lng":-82.97186,"zip":"44820","miles_from_dt":11.94},{"city":"Bloomville","state_name":"Ohio","lat":41.0002,"lng":-82.99645,"zip":"44818","miles_from_dt":12.21},{"city":"Ontario","state_name":"Ohio","lat":40.75786,"lng":-82.64614,"zip":"44862","miles_from_dt":13.46},{"city":"Shiloh","state_name":"Ohio","lat":40.95111,"lng":-82.51963,"zip":"44878","miles_from_dt":14.2},{"city":"Galion","state_name":"Ohio","lat":40.71059,"lng":-82.79484,"zip":"44833","miles_from_dt":14.49},{"city":"Mansfield","state_name":"Ohio","lat":40.76413,"lng":-82.57778,"zip":"44906","miles_from_dt":15.42},{"city":"North Fairfield","state_name":"Ohio","lat":41.10414,"lng":-82.58664,"zip":"44855","miles_from_dt":16.47},{"city":"Oceola","state_name":"Ohio","lat":40.85189,"lng":-83.0964,"zip":"44860","miles_from_dt":16.83},{"city":"Mansfield","state_name":"Ohio","lat":40.77624,"lng":-82.52655,"zip":"44903","miles_from_dt":16.93},{"city":"Greenwich","state_name":"Ohio","lat":41.01745,"lng":-82.48241,"zip":"44837","miles_from_dt":17.33},{"city":"Iberia","state_name":"Ohio","lat":40.66939,"lng":-82.83102,"zip":"43325","miles_from_dt":17.47},{"city":"Mansfield","state_name":"Ohio","lat":40.76391,"lng":-82.51247,"zip":"44901","miles_from_dt":18.03},{"city":"Mansfield","state_name":"Ohio","lat":40.7589,"lng":-82.51095,"zip":"44902","miles_from_dt":18.31},{"city":"Sycamore","state_name":"Ohio","lat":40.94759,"lng":-83.13734,"zip":"44882","miles_from_dt":18.38},{"city":"Martel","state_name":"Ohio","lat":40.66365,"lng":-82.91045,"zip":"43335","miles_from_dt":18.85},{"city":"Republic","state_name":"Ohio","lat":41.14755,"lng":-82.98963,"zip":"44867","miles_from_dt":18.88},{"city":"Mansfield","state_name":"Ohio","lat":40.72761,"lng":-82.52129,"zip":"44907","miles_from_dt":19.3},{"city":"Mansfield","state_name":"Ohio","lat":40.77753,"lng":-82.46915,"zip":"44905","miles_from_dt":19.4},{"city":"Nevada","state_name":"Ohio","lat":40.80863,"lng":-83.13186,"zip":"44849","miles_from_dt":19.6},{"city":"Melmore","state_name":"Ohio","lat":41.03115,"lng":-83.13346,"zip":"44845","miles_from_dt":19.61},{"city":"Mansfield","state_name":"Ohio","lat":40.66578,"lng":-82.61505,"zip":"44904","miles_from_dt":19.78},{"city":"Caledonia","state_name":"Ohio","lat":40.6474,"lng":-82.96122,"zip":"43314","miles_from_dt":20.92},{"city":"Monroeville","state_name":"Ohio","lat":41.23025,"lng":-82.70821,"zip":"44847","miles_from_dt":21.78},{"city":"Shauck","state_name":"Ohio","lat":40.61868,"lng":-82.66598,"zip":"43349","miles_from_dt":21.79},{"city":"Flat Rock","state_name":"Ohio","lat":41.23367,"lng":-82.85957,"zip":"44828","miles_from_dt":21.93},{"city":"Savannah","state_name":"Ohio","lat":40.96859,"lng":-82.36631,"zip":"44874","miles_from_dt":22.31},{"city":"Bellevue","state_name":"Ohio","lat":41.24445,"lng":-82.84474,"zip":"44811","miles_from_dt":22.55},{"city":"Norwalk","state_name":"Ohio","lat":41.21785,"lng":-82.58212,"zip":"44857","miles_from_dt":23.17},{"city":"Edison","state_name":"Ohio","lat":40.5886,"lng":-82.89994,"zip":"43320","miles_from_dt":23.64},{"city":"New London","state_name":"Ohio","lat":41.10577,"lng":-82.40166,"zip":"44851","miles_from_dt":23.9},{"city":"Tiffin","state_name":"Ohio","lat":41.12395,"lng":-83.17459,"zip":"44883","miles_from_dt":24.6},{"city":"Ashland","state_name":"Ohio","lat":40.87335,"lng":-82.32096,"zip":"44805","miles_from_dt":24.67},{"city":"Mount Gilead","state_name":"Ohio","lat":40.56207,"lng":-82.75958,"zip":"43338","miles_from_dt":24.78},{"city":"McCutchenville","state_name":"Ohio","lat":40.9926,"lng":-83.25839,"zip":"44844","miles_from_dt":25.11},{"city":"Nova","state_name":"Ohio","lat":41.02103,"lng":-82.32636,"zip":"44859","miles_from_dt":25.12},{"city":"Lucas","state_name":"Ohio","lat":40.6886,"lng":-82.40959,"zip":"44843","miles_from_dt":25.49},{"city":"Bellville","state_name":"Ohio","lat":40.60135,"lng":-82.52814,"zip":"44813","miles_from_dt":25.9},{"city":"Green Springs","state_name":"Ohio","lat":41.23772,"lng":-83.05455,"zip":"44836","miles_from_dt":25.94},{"city":"Nankin","state_name":"Ohio","lat":40.92082,"lng":-82.28186,"zip":"44848","miles_from_dt":26.49},{"city":"Collins","state_name":"Ohio","lat":41.23993,"lng":-82.47931,"zip":"44826","miles_from_dt":27.31},{"city":"Harpster","state_name":"Ohio","lat":40.73116,"lng":-83.25211,"zip":"43323","miles_from_dt":27.61},{"city":"Upper Sandusky","state_name":"Ohio","lat":40.82501,"lng":-83.30424,"zip":"43351","miles_from_dt":27.83},{"city":"Clyde","state_name":"Ohio","lat":41.30792,"lng":-82.95807,"zip":"43410","miles_from_dt":28.17},{"city":"Marion","state_name":"Ohio","lat":40.59995,"lng":-83.12967,"zip":"43302","miles_from_dt":28.47},{"city":"New Riegel","state_name":"Ohio","lat":41.05501,"lng":-83.30399,"zip":"44853","miles_from_dt":28.53},{"city":"Morral","state_name":"Ohio","lat":40.68336,"lng":-83.24107,"zip":"43337","miles_from_dt":28.85},{"city":"Milan","state_name":"Ohio","lat":41.31589,"lng":-82.60832,"zip":"44846","miles_from_dt":28.85},{"city":"Old Fort","state_name":"Ohio","lat":41.24254,"lng":-83.14626,"zip":"44861","miles_from_dt":29.05},{"city":"Hayesville","state_name":"Ohio","lat":40.77186,"lng":-82.25947,"zip":"44838","miles_from_dt":29.53}],"targetCityZipCode":"44887","targetCityState":"Ohio"},"__N_SSG":true}