{"pageProps":{"stateName":"Ohio","cityName":"unionville-center","nearbyCities":[{"city":"Plain City","state_name":"Ohio","lat":40.09819,"lng":-83.28863,"zip":"43064","miles_from_dt":3.87},{"city":"Milford Center","state_name":"Ohio","lat":40.16932,"lng":-83.44975,"zip":"43045","miles_from_dt":6.15},{"city":"Irwin","state_name":"Ohio","lat":40.09598,"lng":-83.45408,"zip":"43029","miles_from_dt":6.59},{"city":"Marysville","state_name":"Ohio","lat":40.23827,"lng":-83.36802,"zip":"43041","miles_from_dt":7.14},{"city":"Marysville","state_name":"Ohio","lat":40.26115,"lng":-83.35812,"zip":"43040","miles_from_dt":8.63},{"city":"Dublin","state_name":"Ohio","lat":40.09732,"lng":-83.15535,"zip":"43016","miles_from_dt":10.24},{"city":"Amlin","state_name":"Ohio","lat":40.05982,"lng":-83.17305,"zip":"43002","miles_from_dt":10.39},{"city":"Woodstock","state_name":"Ohio","lat":40.15764,"lng":-83.54223,"zip":"43084","miles_from_dt":10.72},{"city":"Dublin","state_name":"Ohio","lat":40.1189,"lng":-83.13314,"zip":"43017","miles_from_dt":11.11},{"city":"Hilliard","state_name":"Ohio","lat":40.02197,"lng":-83.18472,"zip":"43026","miles_from_dt":11.48},{"city":"Ostrander","state_name":"Ohio","lat":40.28775,"lng":-83.20256,"zip":"43061","miles_from_dt":12.75},{"city":"Mechanicsburg","state_name":"Ohio","lat":40.05145,"lng":-83.56423,"zip":"43044","miles_from_dt":13.18},{"city":"Powell","state_name":"Ohio","lat":40.17655,"lng":-83.09445,"zip":"43065","miles_from_dt":13.37},{"city":"West Jefferson","state_name":"Ohio","lat":39.94369,"lng":-83.30633,"zip":"43162","miles_from_dt":13.45},{"city":"North Lewisburg","state_name":"Ohio","lat":40.21978,"lng":-83.57295,"zip":"43060","miles_from_dt":13.52},{"city":"Broadway","state_name":"Ohio","lat":40.33154,"lng":-83.40595,"zip":"43007","miles_from_dt":13.86},{"city":"Columbus","state_name":"Ohio","lat":39.97857,"lng":-83.16337,"zip":"43226","miles_from_dt":14.44},{"city":"Columbus","state_name":"Ohio","lat":40.10298,"lng":-83.05599,"zip":"43234","miles_from_dt":15.31},{"city":"Columbus","state_name":"Ohio","lat":40.10193,"lng":-83.05442,"zip":"43235","miles_from_dt":15.4},{"city":"Magnetic Springs","state_name":"Ohio","lat":40.3524,"lng":-83.26325,"zip":"43036","miles_from_dt":15.45},{"city":"Columbus","state_name":"Ohio","lat":40.04847,"lng":-83.07161,"zip":"43220","miles_from_dt":15.55},{"city":"Galloway","state_name":"Ohio","lat":39.93487,"lng":-83.20059,"zip":"43119","miles_from_dt":15.81},{"city":"Middleburg","state_name":"Ohio","lat":40.28337,"lng":-83.57651,"zip":"43336","miles_from_dt":16.02},{"city":"Columbus","state_name":"Ohio","lat":40.02334,"lng":-83.07744,"zip":"43221","miles_from_dt":16.04},{"city":"Cable","state_name":"Ohio","lat":40.17188,"lng":-83.64234,"zip":"43009","miles_from_dt":16.1},{"city":"Raymond","state_name":"Ohio","lat":40.34368,"lng":-83.48388,"zip":"43067","miles_from_dt":16.14},{"city":"Mingo","state_name":"Ohio","lat":40.20795,"lng":-83.63797,"zip":"43047","miles_from_dt":16.43},{"city":"Columbus","state_name":"Ohio","lat":39.96367,"lng":-83.12478,"zip":"43228","miles_from_dt":16.58},{"city":"East Liberty","state_name":"Ohio","lat":40.30525,"lng":-83.57738,"zip":"43319","miles_from_dt":17.05},{"city":"Columbus","state_name":"Ohio","lat":40.09959,"lng":-83.01639,"zip":"43085","miles_from_dt":17.42},{"city":"Catawba","state_name":"Ohio","lat":39.99964,"lng":-83.6219,"zip":"43010","miles_from_dt":17.61},{"city":"Columbus","state_name":"Ohio","lat":40.0523,"lng":-83.01996,"zip":"43214","miles_from_dt":18.01},{"city":"London","state_name":"Ohio","lat":39.88406,"lng":-83.42946,"zip":"43140","miles_from_dt":18.05},{"city":"Columbus","state_name":"Ohio","lat":39.96135,"lng":-83.08052,"zip":"43204","miles_from_dt":18.39},{"city":"Lewis Center","state_name":"Ohio","lat":40.18622,"lng":-82.9969,"zip":"43035","miles_from_dt":18.57},{"city":"Delaware","state_name":"Ohio","lat":40.29812,"lng":-83.06049,"zip":"43015","miles_from_dt":18.58},{"city":"South Vienna","state_name":"Ohio","lat":39.95304,"lng":-83.60304,"zip":"45369","miles_from_dt":18.78},{"city":"Columbus","state_name":"Ohio","lat":39.98763,"lng":-83.04215,"zip":"43212","miles_from_dt":18.92},{"city":"Columbus","state_name":"Ohio","lat":40.14501,"lng":-82.98209,"zip":"43240","miles_from_dt":19.05},{"city":"Columbus","state_name":"Ohio","lat":40.02126,"lng":-83.01394,"zip":"43202","miles_from_dt":19.11},{"city":"Columbus","state_name":"Ohio","lat":40.00487,"lng":-83.02182,"zip":"43210","miles_from_dt":19.24},{"city":"Columbus","state_name":"Ohio","lat":40.08569,"lng":-82.97636,"zip":"43229","miles_from_dt":19.67},{"city":"Columbus","state_name":"Ohio","lat":39.961,"lng":-83.03581,"zip":"43222","miles_from_dt":20.25},{"city":"Columbus","state_name":"Ohio","lat":39.97093,"lng":-83.02627,"zip":"43271","miles_from_dt":20.26},{"city":"Richwood","state_name":"Ohio","lat":40.43219,"lng":-83.33832,"zip":"43344","miles_from_dt":20.39},{"city":"Radnor","state_name":"Ohio","lat":40.39877,"lng":-83.16313,"zip":"43066","miles_from_dt":20.39},{"city":"Zanesfield","state_name":"Ohio","lat":40.33272,"lng":-83.63114,"zip":"43360","miles_from_dt":20.42},{"city":"Columbus","state_name":"Ohio","lat":39.9661,"lng":-83.02545,"zip":"43279","miles_from_dt":20.49},{"city":"Columbus","state_name":"Ohio","lat":40.05642,"lng":-82.9682,"zip":"43266","miles_from_dt":20.55},{"city":"Columbus","state_name":"Ohio","lat":39.99114,"lng":-83.00056,"zip":"43201","miles_from_dt":20.69},{"city":"Columbus","state_name":"Ohio","lat":40.04256,"lng":-82.9664,"zip":"43224","miles_from_dt":20.92},{"city":"Columbus","state_name":"Ohio","lat":39.95972,"lng":-83.0208,"zip":"43251","miles_from_dt":20.94},{"city":"Columbus","state_name":"Ohio","lat":39.96633,"lng":-83.01262,"zip":"43215","miles_from_dt":21.04},{"city":"Columbus","state_name":"Ohio","lat":40.01163,"lng":-82.97244,"zip":"43211","miles_from_dt":21.39},{"city":"Columbus","state_name":"Ohio","lat":39.96035,"lng":-83.00566,"zip":"43272","miles_from_dt":21.58},{"city":"Columbus","state_name":"Ohio","lat":39.96497,"lng":-83.00032,"zip":"43270","miles_from_dt":21.63},{"city":"Columbus","state_name":"Ohio","lat":40.07843,"lng":-82.93914,"zip":"43231","miles_from_dt":21.7},{"city":"Columbus","state_name":"Ohio","lat":39.96287,"lng":-82.99842,"zip":"43260","miles_from_dt":21.8},{"city":"Columbus","state_name":"Ohio","lat":39.96142,"lng":-82.99939,"zip":"43287","miles_from_dt":21.81},{"city":"Columbus","state_name":"Ohio","lat":39.92636,"lng":-83.03395,"zip":"43223","miles_from_dt":21.84},{"city":"West Mansfield","state_name":"Ohio","lat":40.41898,"lng":-83.53129,"zip":"43358","miles_from_dt":21.9},{"city":"Columbus","state_name":"Ohio","lat":39.9644,"lng":-82.99432,"zip":"43268","miles_from_dt":21.92},{"city":"Grove City","state_name":"Ohio","lat":39.86801,"lng":-83.12088,"zip":"43123","miles_from_dt":21.93},{"city":"Westerville","state_name":"Ohio","lat":40.11745,"lng":-82.91666,"zip":"43086","miles_from_dt":22.55},{"city":"Columbus","state_name":"Ohio","lat":39.9729,"lng":-82.96922,"zip":"43203","miles_from_dt":22.75},{"city":"West Liberty","state_name":"Ohio","lat":40.25316,"lng":-83.74711,"zip":"43357","miles_from_dt":22.91},{"city":"Urbana","state_name":"Ohio","lat":40.11302,"lng":-83.77538,"zip":"43078","miles_from_dt":23.03},{"city":"Columbus","state_name":"Ohio","lat":39.9575,"lng":-82.96244,"zip":"43205","miles_from_dt":23.61},{"city":"Columbus","state_name":"Ohio","lat":40.01765,"lng":-82.92367,"zip":"43218","miles_from_dt":23.63},{"city":"Columbus","state_name":"Ohio","lat":39.94205,"lng":-82.97346,"zip":"43206","miles_from_dt":23.7},{"city":"Columbus","state_name":"Ohio","lat":40.00774,"lng":-82.92233,"zip":"43219","miles_from_dt":23.94},{"city":"Westerville","state_name":"Ohio","lat":40.11064,"lng":-82.89083,"zip":"43081","miles_from_dt":23.95},{"city":"Kilbourne","state_name":"Ohio","lat":40.32836,"lng":-82.95812,"zip":"43032","miles_from_dt":24.21},{"city":"Westerville","state_name":"Ohio","lat":40.15537,"lng":-82.88437,"zip":"43082","miles_from_dt":24.25},{"city":"Harrisburg","state_name":"Ohio","lat":39.81077,"lng":-83.16857,"zip":"43126","miles_from_dt":24.29},{"city":"Galena","state_name":"Ohio","lat":40.20301,"lng":-82.88476,"zip":"43021","miles_from_dt":24.61},{"city":"Prospect","state_name":"Ohio","lat":40.47533,"lng":-83.17994,"zip":"43342","miles_from_dt":24.87},{"city":"Columbus","state_name":"Ohio","lat":39.95462,"lng":-82.92992,"zip":"43209","miles_from_dt":25.19},{"city":"Springfield","state_name":"Ohio","lat":39.96073,"lng":-83.7682,"zip":"45503","miles_from_dt":25.67},{"city":"Columbus","state_name":"Ohio","lat":40.00006,"lng":-82.88796,"zip":"43236","miles_from_dt":25.83},{"city":"Columbus","state_name":"Ohio","lat":40.03648,"lng":-82.87057,"zip":"43230","miles_from_dt":25.91},{"city":"Columbus","state_name":"Ohio","lat":39.89599,"lng":-82.96392,"zip":"43207","miles_from_dt":26.03},{"city":"Columbus","state_name":"Ohio","lat":39.97419,"lng":-82.89823,"zip":"43216","miles_from_dt":26.05},{"city":"South Charleston","state_name":"Ohio","lat":39.84376,"lng":-83.65413,"zip":"45368","miles_from_dt":26.15},{"city":"Westville","state_name":"Ohio","lat":40.10838,"lng":-83.83623,"zip":"43083","miles_from_dt":26.27},{"city":"Derby","state_name":"Ohio","lat":39.76874,"lng":-83.20622,"zip":"43117","miles_from_dt":26.39},{"city":"Waldo","state_name":"Ohio","lat":40.45748,"lng":-83.04788,"zip":"43356","miles_from_dt":27.03},{"city":"Bellefontaine","state_name":"Ohio","lat":40.36427,"lng":-83.75812,"zip":"43311","miles_from_dt":27.04},{"city":"Orient","state_name":"Ohio","lat":39.77293,"lng":-83.14333,"zip":"43146","miles_from_dt":27.22},{"city":"Ashley","state_name":"Ohio","lat":40.41017,"lng":-82.96866,"zip":"43003","miles_from_dt":27.28},{"city":"Springfield","state_name":"Ohio","lat":39.90737,"lng":-83.7615,"zip":"45505","miles_from_dt":27.32},{"city":"Columbus","state_name":"Ohio","lat":39.94511,"lng":-82.88858,"zip":"43227","miles_from_dt":27.42},{"city":"Columbus","state_name":"Ohio","lat":39.97117,"lng":-82.86746,"zip":"43213","miles_from_dt":27.62},{"city":"Tremont City","state_name":"Ohio","lat":40.01471,"lng":-83.83862,"zip":"45372","miles_from_dt":27.65},{"city":"Sunbury","state_name":"Ohio","lat":40.28008,"lng":-82.84899,"zip":"43074","miles_from_dt":27.87},{"city":"Columbus","state_name":"Ohio","lat":39.9766,"lng":-82.85683,"zip":"43291","miles_from_dt":27.98},{"city":"Green Camp","state_name":"Ohio","lat":40.5327,"lng":-83.20815,"zip":"43322","miles_from_dt":28.21},{"city":"Mount Victory","state_name":"Ohio","lat":40.53748,"lng":-83.48,"zip":"43340","miles_from_dt":28.6},{"city":"Springfield","state_name":"Ohio","lat":39.92634,"lng":-83.80745,"zip":"45501","miles_from_dt":28.65},{"city":"Sedalia","state_name":"Ohio","lat":39.73317,"lng":-83.47661,"zip":"43151","miles_from_dt":28.75},{"city":"Rushsylvania","state_name":"Ohio","lat":40.47771,"lng":-83.65804,"zip":"43347","miles_from_dt":28.86},{"city":"Ridgeway","state_name":"Ohio","lat":40.51341,"lng":-83.58167,"zip":"43345","miles_from_dt":28.91},{"city":"Mount Sterling","state_name":"Ohio","lat":39.71801,"lng":-83.29672,"zip":"43143","miles_from_dt":28.99},{"city":"Springfield","state_name":"Ohio","lat":39.92791,"lng":-83.81703,"zip":"45502","miles_from_dt":29.04},{"city":"Columbus","state_name":"Ohio","lat":39.92189,"lng":-82.87053,"zip":"43232","miles_from_dt":29.05},{"city":"Commercial Point","state_name":"Ohio","lat":39.77284,"lng":-83.06275,"zip":"43116","miles_from_dt":29.15},{"city":"New Albany","state_name":"Ohio","lat":40.07998,"lng":-82.79253,"zip":"43054","miles_from_dt":29.35},{"city":"Lockbourne","state_name":"Ohio","lat":39.80486,"lng":-82.98694,"zip":"43137","miles_from_dt":29.65},{"city":"Lockbourne","state_name":"Ohio","lat":39.80927,"lng":-82.97473,"zip":"43194","miles_from_dt":29.83},{"city":"South Solon","state_name":"Ohio","lat":39.74071,"lng":-83.56781,"zip":"43153","miles_from_dt":29.85},{"city":"Blacklick","state_name":"Ohio","lat":40.01664,"lng":-82.80025,"zip":"43004","miles_from_dt":29.87}],"targetCityZipCode":"43077","targetCityState":"Ohio"},"__N_SSG":true}