{"pageProps":{"stateName":"Ohio","cityName":"vanlue","nearbyCities":[{"city":"Carey","state_name":"Ohio","lat":40.95184,"lng":-83.38596,"zip":"43316","miles_from_dt":5.78},{"city":"Alvada","state_name":"Ohio","lat":41.04534,"lng":-83.41912,"zip":"44802","miles_from_dt":6},{"city":"Mount Blanchard","state_name":"Ohio","lat":40.89795,"lng":-83.53825,"zip":"45867","miles_from_dt":6.02},{"city":"Wharton","state_name":"Ohio","lat":40.86977,"lng":-83.45319,"zip":"43359","miles_from_dt":7.69},{"city":"Arlington","state_name":"Ohio","lat":40.90119,"lng":-83.61545,"zip":"45814","miles_from_dt":8.37},{"city":"Findlay","state_name":"Ohio","lat":41.02626,"lng":-83.64943,"zip":"45840","miles_from_dt":8.94},{"city":"Arcadia","state_name":"Ohio","lat":41.10708,"lng":-83.53538,"zip":"44804","miles_from_dt":9.24},{"city":"Findlay","state_name":"Ohio","lat":41.04436,"lng":-83.64804,"zip":"45839","miles_from_dt":9.41},{"city":"New Riegel","state_name":"Ohio","lat":41.05501,"lng":-83.30399,"zip":"44853","miles_from_dt":11.14},{"city":"Kirby","state_name":"Ohio","lat":40.81349,"lng":-83.41935,"zip":"43330","miles_from_dt":11.93},{"city":"McCutchenville","state_name":"Ohio","lat":40.9926,"lng":-83.25839,"zip":"44844","miles_from_dt":12.21},{"city":"Williamstown","state_name":"Ohio","lat":40.83434,"lng":-83.65676,"zip":"45897","miles_from_dt":13.15},{"city":"Forest","state_name":"Ohio","lat":40.78202,"lng":-83.53513,"zip":"45843","miles_from_dt":13.69},{"city":"Fostoria","state_name":"Ohio","lat":41.16603,"lng":-83.40081,"zip":"44830","miles_from_dt":13.84},{"city":"Van Buren","state_name":"Ohio","lat":41.14606,"lng":-83.64101,"zip":"45889","miles_from_dt":14.02},{"city":"Upper Sandusky","state_name":"Ohio","lat":40.82501,"lng":-83.30424,"zip":"43351","miles_from_dt":14.37},{"city":"Jenera","state_name":"Ohio","lat":40.87955,"lng":-83.735,"zip":"45841","miles_from_dt":14.45},{"city":"Bascom","state_name":"Ohio","lat":41.13215,"lng":-83.29391,"zip":"44809","miles_from_dt":14.83},{"city":"Rawson","state_name":"Ohio","lat":40.94976,"lng":-83.77426,"zip":"45881","miles_from_dt":14.94},{"city":"Dunkirk","state_name":"Ohio","lat":40.79304,"lng":-83.64311,"zip":"45836","miles_from_dt":15.02},{"city":"Bloomdale","state_name":"Ohio","lat":41.1987,"lng":-83.54676,"zip":"44817","miles_from_dt":15.54},{"city":"Benton Ridge","state_name":"Ohio","lat":41.00452,"lng":-83.79392,"zip":"45816","miles_from_dt":15.95},{"city":"North Baltimore","state_name":"Ohio","lat":41.18863,"lng":-83.68366,"zip":"45872","miles_from_dt":17.7},{"city":"West Millgrove","state_name":"Ohio","lat":41.24328,"lng":-83.49098,"zip":"43467","miles_from_dt":18.34},{"city":"McComb","state_name":"Ohio","lat":41.10688,"lng":-83.80338,"zip":"45858","miles_from_dt":18.6},{"city":"Sycamore","state_name":"Ohio","lat":40.94759,"lng":-83.13734,"zip":"44882","miles_from_dt":18.62},{"city":"Dola","state_name":"Ohio","lat":40.75898,"lng":-83.70076,"zip":"45835","miles_from_dt":18.66},{"city":"Mount Cory","state_name":"Ohio","lat":40.96986,"lng":-83.84839,"zip":"45868","miles_from_dt":18.7},{"city":"Melmore","state_name":"Ohio","lat":41.03115,"lng":-83.13346,"zip":"44845","miles_from_dt":19.06},{"city":"Tiffin","state_name":"Ohio","lat":41.12395,"lng":-83.17459,"zip":"44883","miles_from_dt":19.38},{"city":"Jerry City","state_name":"Ohio","lat":41.25396,"lng":-83.60176,"zip":"43437","miles_from_dt":19.93},{"city":"Cygnet","state_name":"Ohio","lat":41.24205,"lng":-83.65476,"zip":"43413","miles_from_dt":20.16},{"city":"Risingsun","state_name":"Ohio","lat":41.26788,"lng":-83.42508,"zip":"43457","miles_from_dt":20.33},{"city":"Kansas","state_name":"Ohio","lat":41.25126,"lng":-83.31139,"zip":"44841","miles_from_dt":21.09},{"city":"Harpster","state_name":"Ohio","lat":40.73116,"lng":-83.25211,"zip":"43323","miles_from_dt":21.11},{"city":"Hoytville","state_name":"Ohio","lat":41.18998,"lng":-83.78431,"zip":"43529","miles_from_dt":21.2},{"city":"Bluffton","state_name":"Ohio","lat":40.87691,"lng":-83.88279,"zip":"45817","miles_from_dt":21.65},{"city":"Ada","state_name":"Ohio","lat":40.77721,"lng":-83.81097,"zip":"45810","miles_from_dt":21.72},{"city":"Wayne","state_name":"Ohio","lat":41.29234,"lng":-83.51394,"zip":"43466","miles_from_dt":21.76},{"city":"Nevada","state_name":"Ohio","lat":40.80863,"lng":-83.13186,"zip":"44849","miles_from_dt":22.13},{"city":"Oceola","state_name":"Ohio","lat":40.85189,"lng":-83.0964,"zip":"44860","miles_from_dt":22.4},{"city":"Bettsville","state_name":"Ohio","lat":41.24697,"lng":-83.23947,"zip":"44815","miles_from_dt":22.76},{"city":"Pandora","state_name":"Ohio","lat":40.95393,"lng":-83.93779,"zip":"45877","miles_from_dt":23.42},{"city":"Kenton","state_name":"Ohio","lat":40.64149,"lng":-83.61443,"zip":"43326","miles_from_dt":24.07},{"city":"Morral","state_name":"Ohio","lat":40.68336,"lng":-83.24107,"zip":"43337","miles_from_dt":24.16},{"city":"Burgoon","state_name":"Ohio","lat":41.27717,"lng":-83.24994,"zip":"43407","miles_from_dt":24.2},{"city":"Portage","state_name":"Ohio","lat":41.31551,"lng":-83.61614,"zip":"43451","miles_from_dt":24.22},{"city":"Rudolph","state_name":"Ohio","lat":41.28352,"lng":-83.71887,"zip":"43462","miles_from_dt":24.23},{"city":"Bradner","state_name":"Ohio","lat":41.33605,"lng":-83.4372,"zip":"43406","miles_from_dt":24.9},{"city":"McGuffey","state_name":"Ohio","lat":40.69305,"lng":-83.78574,"zip":"45859","miles_from_dt":24.98},{"city":"Old Fort","state_name":"Ohio","lat":41.24254,"lng":-83.14626,"zip":"44861","miles_from_dt":25.66},{"city":"Helena","state_name":"Ohio","lat":41.32634,"lng":-83.31197,"zip":"43435","miles_from_dt":25.82},{"city":"Bloomville","state_name":"Ohio","lat":41.0002,"lng":-82.99645,"zip":"44818","miles_from_dt":25.91},{"city":"Custar","state_name":"Ohio","lat":41.26384,"lng":-83.82376,"zip":"43511","miles_from_dt":26.3},{"city":"Alger","state_name":"Ohio","lat":40.68341,"lng":-83.8135,"zip":"45812","miles_from_dt":26.41},{"city":"Belmore","state_name":"Ohio","lat":41.157,"lng":-83.94267,"zip":"45815","miles_from_dt":26.64},{"city":"Beaverdam","state_name":"Ohio","lat":40.83178,"lng":-83.9729,"zip":"45808","miles_from_dt":27.16},{"city":"Deshler","state_name":"Ohio","lat":41.21579,"lng":-83.91081,"zip":"43516","miles_from_dt":27.4},{"city":"La Rue","state_name":"Ohio","lat":40.58369,"lng":-83.37769,"zip":"43332","miles_from_dt":27.82},{"city":"New Bloomington","state_name":"Ohio","lat":40.59577,"lng":-83.31544,"zip":"43341","miles_from_dt":27.91},{"city":"Leipsic","state_name":"Ohio","lat":41.11452,"lng":-83.99917,"zip":"45856","miles_from_dt":28.18},{"city":"Milton Center","state_name":"Ohio","lat":41.30075,"lng":-83.82953,"zip":"43541","miles_from_dt":28.45},{"city":"Lafayette","state_name":"Ohio","lat":40.7582,"lng":-83.95231,"zip":"45854","miles_from_dt":28.51},{"city":"Bowling Green","state_name":"Ohio","lat":41.37784,"lng":-83.63653,"zip":"43403","miles_from_dt":28.65},{"city":"Republic","state_name":"Ohio","lat":41.14755,"lng":-82.98963,"zip":"44867","miles_from_dt":28.7},{"city":"Chatfield","state_name":"Ohio","lat":40.95443,"lng":-82.94194,"zip":"44825","miles_from_dt":28.77},{"city":"Green Springs","state_name":"Ohio","lat":41.23772,"lng":-83.05455,"zip":"44836","miles_from_dt":29.01},{"city":"Pemberville","state_name":"Ohio","lat":41.40013,"lng":-83.49324,"zip":"43450","miles_from_dt":29.16},{"city":"Harrod","state_name":"Ohio","lat":40.70382,"lng":-83.91817,"zip":"45850","miles_from_dt":29.29},{"city":"Bucyrus","state_name":"Ohio","lat":40.81829,"lng":-82.97186,"zip":"44820","miles_from_dt":29.32},{"city":"Gibsonburg","state_name":"Ohio","lat":41.38998,"lng":-83.33964,"zip":"43431","miles_from_dt":29.54},{"city":"Ottawa","state_name":"Ohio","lat":41.02271,"lng":-84.06118,"zip":"45875","miles_from_dt":29.97}],"targetCityZipCode":"45890","targetCityState":"Ohio"},"__N_SSG":true}