{"pageProps":{"stateName":"Ohio","cityName":"willoughby","nearbyCities":[{"city":"Willoughby","state_name":"Ohio","lat":41.64662,"lng":-81.40873,"zip":"44096","miles_from_dt":2.97},{"city":"Eastlake","state_name":"Ohio","lat":41.65223,"lng":-81.44209,"zip":"44095","miles_from_dt":4.38},{"city":"Eastlake","state_name":"Ohio","lat":41.65145,"lng":-81.44878,"zip":"44097","miles_from_dt":4.61},{"city":"Wickliffe","state_name":"Ohio","lat":41.59797,"lng":-81.46867,"zip":"44092","miles_from_dt":4.71},{"city":"Mentor","state_name":"Ohio","lat":41.67742,"lng":-81.32806,"zip":"44060","miles_from_dt":5.36},{"city":"Gates Mills","state_name":"Ohio","lat":41.53128,"lng":-81.4112,"zip":"44040","miles_from_dt":5.67},{"city":"Mentor","state_name":"Ohio","lat":41.68824,"lng":-81.33282,"zip":"44061","miles_from_dt":5.92},{"city":"Chesterland","state_name":"Ohio","lat":41.53182,"lng":-81.3305,"zip":"44026","miles_from_dt":5.94},{"city":"Euclid","state_name":"Ohio","lat":41.60484,"lng":-81.49958,"zip":"44132","miles_from_dt":6.25},{"city":"Cleveland","state_name":"Ohio","lat":41.55358,"lng":-81.47513,"zip":"44143","miles_from_dt":6.31},{"city":"Euclid","state_name":"Ohio","lat":41.60365,"lng":-81.52441,"zip":"44123","miles_from_dt":7.54},{"city":"Euclid","state_name":"Ohio","lat":41.57145,"lng":-81.52695,"zip":"44117","miles_from_dt":8.11},{"city":"Cleveland","state_name":"Ohio","lat":41.49999,"lng":-81.46774,"zip":"44124","miles_from_dt":8.87},{"city":"Cleveland","state_name":"Ohio","lat":41.58673,"lng":-81.54748,"zip":"44119","miles_from_dt":8.87},{"city":"Cleveland","state_name":"Ohio","lat":41.52626,"lng":-81.53246,"zip":"44121","miles_from_dt":9.82},{"city":"Novelty","state_name":"Ohio","lat":41.47196,"lng":-81.32917,"zip":"44072","miles_from_dt":9.86},{"city":"Chardon","state_name":"Ohio","lat":41.57668,"lng":-81.19112,"zip":"44024","miles_from_dt":10},{"city":"Novelty","state_name":"Ohio","lat":41.46685,"lng":-81.33989,"zip":"44073","miles_from_dt":10.08},{"city":"Cleveland","state_name":"Ohio","lat":41.56365,"lng":-81.57111,"zip":"44110","miles_from_dt":10.45},{"city":"Grand River","state_name":"Ohio","lat":41.7461,"lng":-81.28512,"zip":"44045","miles_from_dt":10.59},{"city":"Painesville","state_name":"Ohio","lat":41.69933,"lng":-81.21142,"zip":"44077","miles_from_dt":10.65},{"city":"Chagrin Falls","state_name":"Ohio","lat":41.44747,"lng":-81.4045,"zip":"44022","miles_from_dt":11.28},{"city":"Cleveland","state_name":"Ohio","lat":41.53562,"lng":-81.57369,"zip":"44112","miles_from_dt":11.31},{"city":"Cleveland","state_name":"Ohio","lat":41.5016,"lng":-81.55653,"zip":"44118","miles_from_dt":11.85},{"city":"Beachwood","state_name":"Ohio","lat":41.4701,"lng":-81.51272,"zip":"44122","miles_from_dt":11.88},{"city":"Newbury","state_name":"Ohio","lat":41.46308,"lng":-81.24408,"zip":"44065","miles_from_dt":12.31},{"city":"Cleveland","state_name":"Ohio","lat":41.53992,"lng":-81.60988,"zip":"44108","miles_from_dt":12.9},{"city":"Cleveland","state_name":"Ohio","lat":41.5062,"lng":-81.60679,"zip":"44106","miles_from_dt":13.8},{"city":"Cleveland","state_name":"Ohio","lat":41.47337,"lng":-81.58015,"zip":"44120","miles_from_dt":14.05},{"city":"Cleveland","state_name":"Ohio","lat":41.50218,"lng":-81.61965,"zip":"44195","miles_from_dt":14.52},{"city":"Cleveland","state_name":"Ohio","lat":41.43766,"lng":-81.54036,"zip":"44128","miles_from_dt":14.53},{"city":"Cleveland","state_name":"Ohio","lat":41.5035,"lng":-81.62116,"zip":"44190","miles_from_dt":14.54},{"city":"East Claridon","state_name":"Ohio","lat":41.54698,"lng":-81.10173,"zip":"44033","miles_from_dt":15.01},{"city":"Cleveland","state_name":"Ohio","lat":41.51559,"lng":-81.64301,"zip":"44103","miles_from_dt":15.15},{"city":"Cleveland","state_name":"Ohio","lat":41.48238,"lng":-81.62702,"zip":"44104","miles_from_dt":15.58},{"city":"Solon","state_name":"Ohio","lat":41.38325,"lng":-81.44439,"zip":"44139","miles_from_dt":16},{"city":"Chagrin Falls","state_name":"Ohio","lat":41.38732,"lng":-81.28858,"zip":"44023","miles_from_dt":16.06},{"city":"Perry","state_name":"Ohio","lat":41.76589,"lng":-81.14551,"zip":"44081","miles_from_dt":16.19},{"city":"Cleveland","state_name":"Ohio","lat":41.51603,"lng":-81.67229,"zip":"44194","miles_from_dt":16.52},{"city":"Huntsburg","state_name":"Ohio","lat":41.54157,"lng":-81.07227,"zip":"44046","miles_from_dt":16.58},{"city":"Cleveland","state_name":"Ohio","lat":41.5137,"lng":-81.67625,"zip":"44114","miles_from_dt":16.77},{"city":"Burton","state_name":"Ohio","lat":41.44141,"lng":-81.14579,"zip":"44021","miles_from_dt":16.78},{"city":"Maple Heights","state_name":"Ohio","lat":41.40903,"lng":-81.56274,"zip":"44137","miles_from_dt":16.82},{"city":"Cleveland","state_name":"Ohio","lat":41.471,"lng":-81.64874,"zip":"44127","miles_from_dt":16.95},{"city":"Cleveland","state_name":"Ohio","lat":41.45069,"lng":-81.63032,"zip":"44105","miles_from_dt":17.04},{"city":"Cleveland","state_name":"Ohio","lat":41.49211,"lng":-81.66999,"zip":"44115","miles_from_dt":17.13},{"city":"Montville","state_name":"Ohio","lat":41.60567,"lng":-81.0477,"zip":"44064","miles_from_dt":17.17},{"city":"Cleveland","state_name":"Ohio","lat":41.48988,"lng":-81.6717,"zip":"44101","miles_from_dt":17.28},{"city":"Thompson","state_name":"Ohio","lat":41.67443,"lng":-81.05599,"zip":"44086","miles_from_dt":17.31},{"city":"Cleveland","state_name":"Ohio","lat":41.49367,"lng":-81.67625,"zip":"44198","miles_from_dt":17.37},{"city":"Cleveland","state_name":"Ohio","lat":41.50172,"lng":-81.68644,"zip":"44192","miles_from_dt":17.59},{"city":"Bedford","state_name":"Ohio","lat":41.38161,"lng":-81.53018,"zip":"44146","miles_from_dt":17.59},{"city":"Cleveland","state_name":"Ohio","lat":41.50535,"lng":-81.69343,"zip":"44199","miles_from_dt":17.82},{"city":"Cleveland","state_name":"Ohio","lat":41.50288,"lng":-81.69542,"zip":"44193","miles_from_dt":17.98},{"city":"Cleveland","state_name":"Ohio","lat":41.481,"lng":-81.6817,"zip":"44197","miles_from_dt":18.03},{"city":"Cleveland","state_name":"Ohio","lat":41.48343,"lng":-81.69638,"zip":"44113","miles_from_dt":18.62},{"city":"Cleveland","state_name":"Ohio","lat":41.40658,"lng":-81.61548,"zip":"44125","miles_from_dt":18.63},{"city":"Cleveland","state_name":"Ohio","lat":41.48468,"lng":-81.70274,"zip":"44191","miles_from_dt":18.87},{"city":"Madison","state_name":"Ohio","lat":41.76675,"lng":-81.05965,"zip":"44057","miles_from_dt":19.76},{"city":"Cleveland","state_name":"Ohio","lat":41.44457,"lng":-81.69681,"zip":"44109","miles_from_dt":20.04},{"city":"Aurora","state_name":"Ohio","lat":41.31645,"lng":-81.34243,"zip":"44202","miles_from_dt":20.34},{"city":"Twinsburg","state_name":"Ohio","lat":41.31706,"lng":-81.44106,"zip":"44087","miles_from_dt":20.46},{"city":"Cleveland","state_name":"Ohio","lat":41.4749,"lng":-81.73751,"zip":"44102","miles_from_dt":20.79},{"city":"Middlefield","state_name":"Ohio","lat":41.45899,"lng":-81.02698,"zip":"44062","miles_from_dt":21.02},{"city":"Independence","state_name":"Ohio","lat":41.3835,"lng":-81.65349,"zip":"44131","miles_from_dt":21.14},{"city":"Macedonia","state_name":"Ohio","lat":41.31465,"lng":-81.49868,"zip":"44056","miles_from_dt":21.3},{"city":"Windsor","state_name":"Ohio","lat":41.55125,"lng":-80.97446,"zip":"44099","miles_from_dt":21.35},{"city":"Hiram","state_name":"Ohio","lat":41.33454,"lng":-81.15822,"zip":"44234","miles_from_dt":22.19},{"city":"Northfield","state_name":"Ohio","lat":41.31386,"lng":-81.5476,"zip":"44067","miles_from_dt":22.22},{"city":"Cleveland","state_name":"Ohio","lat":41.43738,"lng":-81.74272,"zip":"44144","miles_from_dt":22.3},{"city":"Unionville","state_name":"Ohio","lat":41.77935,"lng":-81.00765,"zip":"44088","miles_from_dt":22.49},{"city":"Cleveland","state_name":"Ohio","lat":41.38496,"lng":-81.70459,"zip":"44134","miles_from_dt":22.94},{"city":"Parkman","state_name":"Ohio","lat":41.36886,"lng":-81.05966,"zip":"44080","miles_from_dt":23.48},{"city":"Cleveland","state_name":"Ohio","lat":41.46138,"lng":-81.78691,"zip":"44181","miles_from_dt":23.5},{"city":"Lakewood","state_name":"Ohio","lat":41.48263,"lng":-81.80025,"zip":"44107","miles_from_dt":23.53},{"city":"Mantua","state_name":"Ohio","lat":41.28658,"lng":-81.22982,"zip":"44255","miles_from_dt":23.62},{"city":"Cleveland","state_name":"Ohio","lat":41.45775,"lng":-81.78986,"zip":"44111","miles_from_dt":23.75},{"city":"Cleveland","state_name":"Ohio","lat":41.39035,"lng":-81.73536,"zip":"44129","miles_from_dt":23.9},{"city":"Mesopotamia","state_name":"Ohio","lat":41.45436,"lng":-80.95552,"zip":"44439","miles_from_dt":24.45},{"city":"Brecksville","state_name":"Ohio","lat":41.30139,"lng":-81.61439,"zip":"44141","miles_from_dt":24.54},{"city":"Geneva","state_name":"Ohio","lat":41.77579,"lng":-80.95223,"zip":"44041","miles_from_dt":24.87},{"city":"Hudson","state_name":"Ohio","lat":41.25496,"lng":-81.48139,"zip":"44237","miles_from_dt":25.06},{"city":"Hudson","state_name":"Ohio","lat":41.24669,"lng":-81.44775,"zip":"44236","miles_from_dt":25.31},{"city":"Broadview Heights","state_name":"Ohio","lat":41.31956,"lng":-81.67797,"zip":"44147","miles_from_dt":25.34},{"city":"Rock Creek","state_name":"Ohio","lat":41.67242,"lng":-80.89605,"zip":"44084","miles_from_dt":25.38},{"city":"Streetsboro","state_name":"Ohio","lat":41.23945,"lng":-81.34728,"zip":"44241","miles_from_dt":25.61},{"city":"Cleveland","state_name":"Ohio","lat":41.42472,"lng":-81.82135,"zip":"44135","miles_from_dt":26.26},{"city":"Garrettsville","state_name":"Ohio","lat":41.30692,"lng":-81.07197,"zip":"44231","miles_from_dt":26.29},{"city":"Rome","state_name":"Ohio","lat":41.60463,"lng":-80.87128,"zip":"44085","miles_from_dt":26.31},{"city":"Rocky River","state_name":"Ohio","lat":41.47011,"lng":-81.85194,"zip":"44116","miles_from_dt":26.35},{"city":"Cleveland","state_name":"Ohio","lat":41.378,"lng":-81.7868,"zip":"44130","miles_from_dt":26.52},{"city":"West Farmington","state_name":"Ohio","lat":41.37368,"lng":-80.96478,"zip":"44491","miles_from_dt":26.98},{"city":"Cleveland","state_name":"Ohio","lat":41.44263,"lng":-81.85278,"zip":"44126","miles_from_dt":27.14},{"city":"Brookpark","state_name":"Ohio","lat":41.40205,"lng":-81.82406,"zip":"44142","miles_from_dt":27.18},{"city":"Cleveland","state_name":"Ohio","lat":41.4005,"lng":-81.82678,"zip":"44188","miles_from_dt":27.35},{"city":"Peninsula","state_name":"Ohio","lat":41.22966,"lng":-81.54311,"zip":"44264","miles_from_dt":27.59},{"city":"North Royalton","state_name":"Ohio","lat":41.31388,"lng":-81.74497,"zip":"44133","miles_from_dt":27.89},{"city":"Richfield","state_name":"Ohio","lat":41.23668,"lng":-81.64017,"zip":"44286","miles_from_dt":29.1},{"city":"Austinburg","state_name":"Ohio","lat":41.76087,"lng":-80.85152,"zip":"44010","miles_from_dt":29.22},{"city":"Orwell","state_name":"Ohio","lat":41.52728,"lng":-80.81867,"zip":"44076","miles_from_dt":29.6},{"city":"Windham","state_name":"Ohio","lat":41.2392,"lng":-81.08354,"zip":"44288","miles_from_dt":29.83},{"city":"Bay Village","state_name":"Ohio","lat":41.48508,"lng":-81.93171,"zip":"44140","miles_from_dt":29.92}],"targetCityZipCode":"44094","targetCityState":"Ohio"},"__N_SSG":true}