{"pageProps":{"stateName":"New-hampshire","cityName":"mirror-lake","nearbyCities":[{"city":"Melvin Village","state_name":"New Hampshire","lat":43.69739,"lng":-71.29983,"zip":"03850","miles_from_dt":4.1},{"city":"Center Tuftonboro","state_name":"New Hampshire","lat":43.69753,"lng":-71.24218,"zip":"03816","miles_from_dt":4.84},{"city":"Wolfeboro Falls","state_name":"New Hampshire","lat":43.58788,"lng":-71.20765,"zip":"03896","miles_from_dt":5.54},{"city":"Wolfeboro","state_name":"New Hampshire","lat":43.61109,"lng":-71.17788,"zip":"03894","miles_from_dt":6.1},{"city":"Gilford","state_name":"New Hampshire","lat":43.55806,"lng":-71.38505,"zip":"03249","miles_from_dt":7.18},{"city":"Moultonborough","state_name":"New Hampshire","lat":43.72505,"lng":-71.37782,"zip":"03254","miles_from_dt":7.33},{"city":"Alton Bay","state_name":"New Hampshire","lat":43.52692,"lng":-71.27941,"zip":"03810","miles_from_dt":7.71},{"city":"Laconia","state_name":"New Hampshire","lat":43.5475,"lng":-71.40722,"zip":"03247","miles_from_dt":8.46},{"city":"Ossipee","state_name":"New Hampshire","lat":43.69044,"lng":-71.10631,"zip":"03864","miles_from_dt":10.06},{"city":"Meredith","state_name":"New Hampshire","lat":43.63193,"lng":-71.49749,"zip":"03253","miles_from_dt":10.23},{"city":"Laconia","state_name":"New Hampshire","lat":43.57239,"lng":-71.4775,"zip":"03246","miles_from_dt":10.28},{"city":"Center Ossipee","state_name":"New Hampshire","lat":43.77341,"lng":-71.18717,"zip":"03814","miles_from_dt":10.75},{"city":"Tilton","state_name":"New Hampshire","lat":43.63945,"lng":-71.52626,"zip":"03299","miles_from_dt":11.66},{"city":"Center Harbor","state_name":"New Hampshire","lat":43.70259,"lng":-71.51086,"zip":"03226","miles_from_dt":11.76},{"city":"Tilton","state_name":"New Hampshire","lat":43.63486,"lng":-71.53151,"zip":"03298","miles_from_dt":11.93},{"city":"South Tamworth","state_name":"New Hampshire","lat":43.81252,"lng":-71.30789,"zip":"03883","miles_from_dt":12.06},{"city":"West Ossipee","state_name":"New Hampshire","lat":43.81528,"lng":-71.20581,"zip":"03890","miles_from_dt":12.99},{"city":"Sanbornville","state_name":"New Hampshire","lat":43.57225,"lng":-71.04249,"zip":"03872","miles_from_dt":13.4},{"city":"Alton","state_name":"New Hampshire","lat":43.45321,"lng":-71.21184,"zip":"03809","miles_from_dt":13.42},{"city":"New Durham","state_name":"New Hampshire","lat":43.46343,"lng":-71.14172,"zip":"03855","miles_from_dt":14.28},{"city":"Center Sandwich","state_name":"New Hampshire","lat":43.81419,"lng":-71.45712,"zip":"03227","miles_from_dt":14.65},{"city":"Effingham","state_name":"New Hampshire","lat":43.74727,"lng":-71.04254,"zip":"03882","miles_from_dt":14.66},{"city":"Belmont","state_name":"New Hampshire","lat":43.46793,"lng":-71.4758,"zip":"03220","miles_from_dt":14.89},{"city":"East Wakefield","state_name":"New Hampshire","lat":43.63549,"lng":-70.99568,"zip":"03830","miles_from_dt":14.94},{"city":"Gilmanton Iron Works","state_name":"New Hampshire","lat":43.42271,"lng":-71.32766,"zip":"03837","miles_from_dt":14.97},{"city":"Gilmanton","state_name":"New Hampshire","lat":43.42997,"lng":-71.38233,"zip":"03237","miles_from_dt":15.05},{"city":"Union","state_name":"New Hampshire","lat":43.48485,"lng":-71.0662,"zip":"03887","miles_from_dt":15.57},{"city":"Tamworth","state_name":"New Hampshire","lat":43.86399,"lng":-71.28783,"zip":"03886","miles_from_dt":15.59},{"city":"Winnisquam","state_name":"New Hampshire","lat":43.48801,"lng":-71.52721,"zip":"03289","miles_from_dt":15.65},{"city":"Holderness","state_name":"New Hampshire","lat":43.75026,"lng":-71.58852,"zip":"03245","miles_from_dt":16.67},{"city":"Lochmere","state_name":"New Hampshire","lat":43.47134,"lng":-71.53854,"zip":"03252","miles_from_dt":16.85},{"city":"Freedom","state_name":"New Hampshire","lat":43.82608,"lng":-71.07118,"zip":"03836","miles_from_dt":17.1},{"city":"New Hampton","state_name":"New Hampshire","lat":43.62425,"lng":-71.63514,"zip":"03256","miles_from_dt":17.15},{"city":"Sanbornton","state_name":"New Hampshire","lat":43.53,"lng":-71.60219,"zip":"03269","miles_from_dt":17.19},{"city":"Chocorua","state_name":"New Hampshire","lat":43.8885,"lng":-71.23358,"zip":"03817","miles_from_dt":17.54},{"city":"Ashland","state_name":"New Hampshire","lat":43.71492,"lng":-71.63033,"zip":"03217","miles_from_dt":17.68},{"city":"North Sandwich","state_name":"New Hampshire","lat":43.87921,"lng":-71.44527,"zip":"03259","miles_from_dt":18.29},{"city":"Milton Mills","state_name":"New Hampshire","lat":43.4982,"lng":-70.97547,"zip":"03852","miles_from_dt":18.67},{"city":"Wonalancet","state_name":"New Hampshire","lat":43.90841,"lng":-71.32453,"zip":"03897","miles_from_dt":18.72},{"city":"Silver Lake","state_name":"New Hampshire","lat":43.89944,"lng":-71.18636,"zip":"03875","miles_from_dt":18.82},{"city":"West Newfield","state_name":"Maine","lat":43.63925,"lng":-70.90749,"zip":"04095","miles_from_dt":19.36},{"city":"Center Barnstead","state_name":"New Hampshire","lat":43.36001,"lng":-71.23828,"zip":"03225","miles_from_dt":19.4},{"city":"Madison","state_name":"New Hampshire","lat":43.89454,"lng":-71.13101,"zip":"03849","miles_from_dt":19.48},{"city":"Milton","state_name":"New Hampshire","lat":43.43606,"lng":-71.01633,"zip":"03851","miles_from_dt":19.72},{"city":"Acton","state_name":"Maine","lat":43.52991,"lng":-70.92078,"zip":"04001","miles_from_dt":20.15},{"city":"Tilton","state_name":"New Hampshire","lat":43.42783,"lng":-71.57514,"zip":"03276","miles_from_dt":20.27},{"city":"Parsonsfield","state_name":"Maine","lat":43.73552,"lng":-70.91152,"zip":"04047","miles_from_dt":20.29},{"city":"East Parsonsfield","state_name":"Maine","lat":43.76527,"lng":-70.91794,"zip":"04028","miles_from_dt":20.77},{"city":"Barnstead","state_name":"New Hampshire","lat":43.33465,"lng":-71.28803,"zip":"03218","miles_from_dt":20.96},{"city":"Newfield","state_name":"Maine","lat":43.66066,"lng":-70.85875,"zip":"04056","miles_from_dt":21.86},{"city":"Plymouth","state_name":"New Hampshire","lat":43.72967,"lng":-71.71159,"zip":"03264","miles_from_dt":21.87},{"city":"Farmington","state_name":"New Hampshire","lat":43.36319,"lng":-71.07605,"zip":"03835","miles_from_dt":21.91},{"city":"Eaton Center","state_name":"New Hampshire","lat":43.90249,"lng":-71.04859,"zip":"03832","miles_from_dt":21.99},{"city":"Porter","state_name":"Maine","lat":43.84009,"lng":-70.9409,"zip":"04068","miles_from_dt":22.5},{"city":"Loudon","state_name":"New Hampshire","lat":43.32257,"lng":-71.44265,"zip":"03307","miles_from_dt":23.04},{"city":"Franklin","state_name":"New Hampshire","lat":43.44831,"lng":-71.67208,"zip":"03235","miles_from_dt":23.08},{"city":"Conway","state_name":"New Hampshire","lat":43.97302,"lng":-71.25261,"zip":"03818","miles_from_dt":23.21},{"city":"Canterbury","state_name":"New Hampshire","lat":43.35171,"lng":-71.54691,"zip":"03224","miles_from_dt":23.52},{"city":"Shapleigh","state_name":"Maine","lat":43.55248,"lng":-70.83793,"zip":"04076","miles_from_dt":23.62},{"city":"Pittsfield","state_name":"New Hampshire","lat":43.29483,"lng":-71.31133,"zip":"03263","miles_from_dt":23.72},{"city":"Campton","state_name":"New Hampshire","lat":43.84784,"lng":-71.67597,"zip":"03223","miles_from_dt":23.99},{"city":"Bristol","state_name":"New Hampshire","lat":43.62895,"lng":-71.78234,"zip":"03222","miles_from_dt":24.51},{"city":"Hill","state_name":"New Hampshire","lat":43.5276,"lng":-71.7644,"zip":"03243","miles_from_dt":24.82},{"city":"Lebanon","state_name":"Maine","lat":43.40333,"lng":-70.91155,"zip":"04027","miles_from_dt":25.13},{"city":"Limerick","state_name":"Maine","lat":43.68862,"lng":-70.78642,"zip":"04048","miles_from_dt":25.66},{"city":"Strafford","state_name":"New Hampshire","lat":43.28018,"lng":-71.14885,"zip":"03884","miles_from_dt":25.77},{"city":"Cornish","state_name":"Maine","lat":43.76811,"lng":-70.81028,"zip":"04020","miles_from_dt":25.82},{"city":"Thornton","state_name":"New Hampshire","lat":43.92408,"lng":-71.64359,"zip":"03285","miles_from_dt":26.38},{"city":"East Andover","state_name":"New Hampshire","lat":43.45555,"lng":-71.75551,"zip":"03231","miles_from_dt":26.4},{"city":"Hebron","state_name":"New Hampshire","lat":43.71149,"lng":-71.81915,"zip":"03241","miles_from_dt":26.81},{"city":"Chichester","state_name":"New Hampshire","lat":43.25744,"lng":-71.39956,"zip":"03258","miles_from_dt":26.82},{"city":"Springvale","state_name":"Maine","lat":43.46728,"lng":-70.81359,"zip":"04083","miles_from_dt":26.84},{"city":"North Waterboro","state_name":"Maine","lat":43.63409,"lng":-70.74312,"zip":"04061","miles_from_dt":27.61},{"city":"Center Strafford","state_name":"New Hampshire","lat":43.25826,"lng":-71.11509,"zip":"03815","miles_from_dt":27.72},{"city":"Rochester","state_name":"New Hampshire","lat":43.3031,"lng":-70.98891,"zip":"03867","miles_from_dt":27.75},{"city":"Brownfield","state_name":"Maine","lat":43.93341,"lng":-70.91718,"zip":"04010","miles_from_dt":27.75},{"city":"Waterboro","state_name":"Maine","lat":43.56234,"lng":-70.74529,"zip":"04087","miles_from_dt":28.01},{"city":"Hiram","state_name":"Maine","lat":43.86416,"lng":-70.82631,"zip":"04041","miles_from_dt":28.12},{"city":"Rochester","state_name":"New Hampshire","lat":43.30101,"lng":-70.97734,"zip":"03866","miles_from_dt":28.19},{"city":"Rochester","state_name":"New Hampshire","lat":43.31879,"lng":-70.9415,"zip":"03868","miles_from_dt":28.28},{"city":"Andover","state_name":"New Hampshire","lat":43.44656,"lng":-71.79374,"zip":"03216","miles_from_dt":28.38},{"city":"Waterville Valley","state_name":"New Hampshire","lat":44.03605,"lng":-71.48109,"zip":"03215","miles_from_dt":29.02},{"city":"Salisbury","state_name":"New Hampshire","lat":43.38505,"lng":-71.7574,"zip":"03268","miles_from_dt":29.12},{"city":"North Conway","state_name":"New Hampshire","lat":44.0427,"lng":-71.12422,"zip":"03860","miles_from_dt":29.18},{"city":"Epsom","state_name":"New Hampshire","lat":43.21484,"lng":-71.33914,"zip":"03234","miles_from_dt":29.31},{"city":"Danbury","state_name":"New Hampshire","lat":43.52685,"lng":-71.8622,"zip":"03230","miles_from_dt":29.55},{"city":"Northwood","state_name":"New Hampshire","lat":43.21322,"lng":-71.20966,"zip":"03261","miles_from_dt":29.64}],"targetCityZipCode":"03853","targetCityState":"New Hampshire"},"__N_SSG":true}