{"pageProps":{"stateName":"Maine","cityName":"andover","nearbyCities":[{"city":"East Andover","state_name":"Maine","lat":44.62555,"lng":-70.70823,"zip":"04226","miles_from_dt":7.35},{"city":"Roxbury","state_name":"Maine","lat":44.68966,"lng":-70.63729,"zip":"04275","miles_from_dt":8.75},{"city":"Newry","state_name":"Maine","lat":44.5631,"lng":-70.91907,"zip":"04261","miles_from_dt":10.8},{"city":"Hanover","state_name":"Maine","lat":44.49665,"lng":-70.7256,"zip":"04237","miles_from_dt":14.74},{"city":"Rumford","state_name":"Maine","lat":44.53469,"lng":-70.61541,"zip":"04276","miles_from_dt":15.07},{"city":"Oquossoc","state_name":"Maine","lat":44.9355,"lng":-70.83584,"zip":"04964","miles_from_dt":16.26},{"city":"Mexico","state_name":"Maine","lat":44.57347,"lng":-70.51358,"zip":"04257","miles_from_dt":17.22},{"city":"Weld","state_name":"Maine","lat":44.70625,"lng":-70.4523,"zip":"04285","miles_from_dt":17.83},{"city":"Phillips","state_name":"Maine","lat":44.82476,"lng":-70.47877,"zip":"04966","miles_from_dt":18.6},{"city":"West Bethel","state_name":"Maine","lat":44.4032,"lng":-70.86019,"zip":"04286","miles_from_dt":20.65},{"city":"Errol","state_name":"New Hampshire","lat":44.95234,"lng":-71.04182,"zip":"03579","miles_from_dt":20.68},{"city":"Milan","state_name":"New Hampshire","lat":44.60545,"lng":-71.23204,"zip":"03588","miles_from_dt":21.61},{"city":"Dixfield","state_name":"Maine","lat":44.58001,"lng":-70.40058,"zip":"04224","miles_from_dt":22.02},{"city":"Rangeley","state_name":"Maine","lat":45.00032,"lng":-70.63519,"zip":"04970","miles_from_dt":22.5},{"city":"Bryant Pond","state_name":"Maine","lat":44.40924,"lng":-70.59285,"zip":"04219","miles_from_dt":22.89},{"city":"Bethel","state_name":"Maine","lat":44.36726,"lng":-70.83364,"zip":"04217","miles_from_dt":23.03},{"city":"Berlin","state_name":"New Hampshire","lat":44.49953,"lng":-71.20396,"zip":"03570","miles_from_dt":23.71},{"city":"Peru","state_name":"Maine","lat":44.47354,"lng":-70.45058,"zip":"04290","miles_from_dt":23.82},{"city":"Greenwood","state_name":"Maine","lat":44.33505,"lng":-70.66863,"zip":"04255","miles_from_dt":26.24},{"city":"Temple","state_name":"Maine","lat":44.69648,"lng":-70.28054,"zip":"04984","miles_from_dt":26.28},{"city":"East Dixfield","state_name":"Maine","lat":44.56866,"lng":-70.29471,"zip":"04227","miles_from_dt":27.18},{"city":"Wilton","state_name":"Maine","lat":44.62346,"lng":-70.27075,"zip":"04294","miles_from_dt":27.3},{"city":"West Stewartstown","state_name":"New Hampshire","lat":44.73439,"lng":-71.38243,"zip":"03597","miles_from_dt":28.07},{"city":"Sumner","state_name":"Maine","lat":44.37461,"lng":-70.44674,"zip":"04292","miles_from_dt":28.91},{"city":"Strong","state_name":"Maine","lat":44.92171,"lng":-70.30599,"zip":"04983","miles_from_dt":29.28},{"city":"Gorham","state_name":"New Hampshire","lat":44.34227,"lng":-71.13413,"zip":"03581","miles_from_dt":29.35},{"city":"West Paris","state_name":"Maine","lat":44.32108,"lng":-70.53248,"zip":"04289","miles_from_dt":29.66},{"city":"Canton","state_name":"Maine","lat":44.47242,"lng":-70.29857,"zip":"04221","miles_from_dt":29.92}],"targetCityZipCode":"04216","targetCityState":"Maine"},"__N_SSG":true}