{"pageProps":{"stateName":"Maine","cityName":"bethel","nearbyCities":[{"city":"West Bethel","state_name":"Maine","lat":44.4032,"lng":-70.86019,"zip":"04286","miles_from_dt":2.81},{"city":"Stoneham","state_name":"Maine","lat":44.26438,"lng":-70.88777,"zip":"04231","miles_from_dt":7.59},{"city":"Greenwood","state_name":"Maine","lat":44.33505,"lng":-70.66863,"zip":"04255","miles_from_dt":8.47},{"city":"North Waterford","state_name":"Maine","lat":44.22478,"lng":-70.77084,"zip":"04267","miles_from_dt":10.32},{"city":"Hanover","state_name":"Maine","lat":44.49665,"lng":-70.7256,"zip":"04237","miles_from_dt":10.41},{"city":"Bryant Pond","state_name":"Maine","lat":44.40924,"lng":-70.59285,"zip":"04219","miles_from_dt":12.27},{"city":"Lovell","state_name":"Maine","lat":44.18945,"lng":-70.88477,"zip":"04051","miles_from_dt":12.54},{"city":"Waterford","state_name":"Maine","lat":44.19352,"lng":-70.71906,"zip":"04088","miles_from_dt":13.27},{"city":"Center Lovell","state_name":"Maine","lat":44.17235,"lng":-70.87315,"zip":"04016","miles_from_dt":13.6},{"city":"Newry","state_name":"Maine","lat":44.5631,"lng":-70.91907,"zip":"04261","miles_from_dt":14.17},{"city":"Norway","state_name":"Maine","lat":44.22842,"lng":-70.60651,"zip":"04268","miles_from_dt":14.79},{"city":"Gorham","state_name":"New Hampshire","lat":44.34227,"lng":-71.13413,"zip":"03581","miles_from_dt":14.99},{"city":"West Paris","state_name":"Maine","lat":44.32108,"lng":-70.53248,"zip":"04289","miles_from_dt":15.26},{"city":"Rumford","state_name":"Maine","lat":44.53469,"lng":-70.61541,"zip":"04276","miles_from_dt":15.82},{"city":"Paris","state_name":"Maine","lat":44.26099,"lng":-70.49871,"zip":"04271","miles_from_dt":18.15},{"city":"Harrison","state_name":"Maine","lat":44.10922,"lng":-70.71784,"zip":"04040","miles_from_dt":18.72},{"city":"East Andover","state_name":"Maine","lat":44.62555,"lng":-70.70823,"zip":"04226","miles_from_dt":18.88},{"city":"South Paris","state_name":"Maine","lat":44.2445,"lng":-70.48832,"zip":"04281","miles_from_dt":19.1},{"city":"Sumner","state_name":"Maine","lat":44.37461,"lng":-70.44674,"zip":"04292","miles_from_dt":19.17},{"city":"North Bridgton","state_name":"Maine","lat":44.09563,"lng":-70.70177,"zip":"04057","miles_from_dt":19.86},{"city":"Fryeburg","state_name":"Maine","lat":44.09129,"lng":-70.94942,"zip":"04037","miles_from_dt":19.9},{"city":"Peru","state_name":"Maine","lat":44.47354,"lng":-70.45058,"zip":"04290","miles_from_dt":20.33},{"city":"Berlin","state_name":"New Hampshire","lat":44.49953,"lng":-71.20396,"zip":"03570","miles_from_dt":20.47},{"city":"Mexico","state_name":"Maine","lat":44.57347,"lng":-70.51358,"zip":"04257","miles_from_dt":21.29},{"city":"Center Conway","state_name":"New Hampshire","lat":44.09408,"lng":-71.04573,"zip":"03813","miles_from_dt":21.6},{"city":"Jackson","state_name":"New Hampshire","lat":44.18445,"lng":-71.18899,"zip":"03846","miles_from_dt":21.68},{"city":"Bridgton","state_name":"Maine","lat":44.04791,"lng":-70.73632,"zip":"04009","miles_from_dt":22.57},{"city":"Andover","state_name":"Maine","lat":44.70046,"lng":-70.8142,"zip":"04216","miles_from_dt":23.03},{"city":"Intervale","state_name":"New Hampshire","lat":44.10317,"lng":-71.1271,"zip":"03845","miles_from_dt":23.34},{"city":"Oxford","state_name":"Maine","lat":44.11241,"lng":-70.51559,"zip":"04270","miles_from_dt":23.64},{"city":"Buckfield","state_name":"Maine","lat":44.33511,"lng":-70.35286,"zip":"04220","miles_from_dt":23.92},{"city":"Roxbury","state_name":"Maine","lat":44.68966,"lng":-70.63729,"zip":"04275","miles_from_dt":24.28},{"city":"Randolph","state_name":"New Hampshire","lat":44.29816,"lng":-71.31774,"zip":"03593","miles_from_dt":24.46},{"city":"Hebron","state_name":"Maine","lat":44.20785,"lng":-70.37937,"zip":"04238","miles_from_dt":25.07},{"city":"Kearsarge","state_name":"New Hampshire","lat":44.06875,"lng":-71.12162,"zip":"03847","miles_from_dt":25.09},{"city":"Milan","state_name":"New Hampshire","lat":44.60545,"lng":-71.23204,"zip":"03588","miles_from_dt":25.66},{"city":"Dixfield","state_name":"Maine","lat":44.58001,"lng":-70.40058,"zip":"04224","miles_from_dt":25.97},{"city":"North Conway","state_name":"New Hampshire","lat":44.0427,"lng":-71.12422,"zip":"03860","miles_from_dt":26.65},{"city":"Denmark","state_name":"Maine","lat":43.98055,"lng":-70.80718,"zip":"04022","miles_from_dt":26.73},{"city":"Glen","state_name":"New Hampshire","lat":44.11257,"lng":-71.24036,"zip":"03838","miles_from_dt":26.77},{"city":"Canton","state_name":"Maine","lat":44.47242,"lng":-70.29857,"zip":"04221","miles_from_dt":27.46},{"city":"Mechanic Falls","state_name":"Maine","lat":44.10294,"lng":-70.40733,"zip":"04256","miles_from_dt":27.94},{"city":"North Turner","state_name":"Maine","lat":44.32973,"lng":-70.25716,"zip":"04266","miles_from_dt":28.68},{"city":"Minot","state_name":"Maine","lat":44.14829,"lng":-70.33794,"zip":"04258","miles_from_dt":28.87},{"city":"Bretton Woods","state_name":"New Hampshire","lat":44.28946,"lng":-71.41722,"zip":"03575","miles_from_dt":29.42},{"city":"Naples","state_name":"Maine","lat":43.97065,"lng":-70.61444,"zip":"04055","miles_from_dt":29.47},{"city":"West Poland","state_name":"Maine","lat":44.04066,"lng":-70.4446,"zip":"04291","miles_from_dt":29.7},{"city":"West Minot","state_name":"Maine","lat":44.05699,"lng":-70.41347,"zip":"04288","miles_from_dt":29.9}],"targetCityZipCode":"04217","targetCityState":"Maine"},"__N_SSG":true}