{"pageProps":{"stateName":"Maine","cityName":"eastport","nearbyCities":[{"city":"Perry","state_name":"Maine","lat":44.97853,"lng":-67.10413,"zip":"04667","miles_from_dt":6.14},{"city":"Lubec","state_name":"Maine","lat":44.82234,"lng":-67.07457,"zip":"04652","miles_from_dt":6.89},{"city":"Pembroke","state_name":"Maine","lat":44.97646,"lng":-67.22204,"zip":"04666","miles_from_dt":10.89},{"city":"Robbinston","state_name":"Maine","lat":45.06618,"lng":-67.16247,"zip":"04671","miles_from_dt":12.68},{"city":"Dennysville","state_name":"Maine","lat":44.87275,"lng":-67.28238,"zip":"04628","miles_from_dt":13.27},{"city":"Whiting","state_name":"Maine","lat":44.76178,"lng":-67.25217,"zip":"04691","miles_from_dt":15.56},{"city":"Calais","state_name":"Maine","lat":45.13397,"lng":-67.22401,"zip":"04619","miles_from_dt":18.24},{"city":"Cutler","state_name":"Maine","lat":44.68494,"lng":-67.22169,"zip":"04626","miles_from_dt":18.7},{"city":"Meddybemps","state_name":"Maine","lat":44.97624,"lng":-67.41965,"zip":"04657","miles_from_dt":20.15},{"city":"East Machias","state_name":"Maine","lat":44.8471,"lng":-67.47287,"zip":"04630","miles_from_dt":22.78},{"city":"Machiasport","state_name":"Maine","lat":44.66467,"lng":-67.39318,"zip":"04655","miles_from_dt":25.21},{"city":"Baileyville","state_name":"Maine","lat":45.09987,"lng":-67.46518,"zip":"04694","miles_from_dt":25.38},{"city":"Machias","state_name":"Maine","lat":44.78128,"lng":-67.57716,"zip":"04654","miles_from_dt":28.93}],"targetCityZipCode":"04631","targetCityState":"Maine"},"__N_SSG":true}