{"pageProps":{"stateName":"Maine","cityName":"franklin","nearbyCities":[{"city":"Hancock","state_name":"Maine","lat":44.53803,"lng":-68.30573,"zip":"04640","miles_from_dt":7.83},{"city":"Sullivan","state_name":"Maine","lat":44.53906,"lng":-68.12797,"zip":"04664","miles_from_dt":8.08},{"city":"Ellsworth","state_name":"Maine","lat":44.66038,"lng":-68.41623,"zip":"04605","miles_from_dt":9.71},{"city":"Sorrento","state_name":"Maine","lat":44.49016,"lng":-68.17945,"zip":"04677","miles_from_dt":10.2},{"city":"Gouldsboro","state_name":"Maine","lat":44.47689,"lng":-68.05228,"zip":"04607","miles_from_dt":13.75},{"city":"Salsbury Cove","state_name":"Maine","lat":44.43057,"lng":-68.28396,"zip":"04672","miles_from_dt":14.41},{"city":"Hulls Cove","state_name":"Maine","lat":44.4144,"lng":-68.25084,"zip":"04644","miles_from_dt":15.27},{"city":"Cherryfield","state_name":"Maine","lat":44.75555,"lng":-67.95143,"zip":"04622","miles_from_dt":15.75},{"city":"Steuben","state_name":"Maine","lat":44.50699,"lng":-67.94485,"zip":"04680","miles_from_dt":16.29},{"city":"Bar Harbor","state_name":"Maine","lat":44.38518,"lng":-68.27108,"zip":"04609","miles_from_dt":17.39},{"city":"Surry","state_name":"Maine","lat":44.49335,"lng":-68.52796,"zip":"04684","miles_from_dt":17.96},{"city":"Milbridge","state_name":"Maine","lat":44.53873,"lng":-67.87257,"zip":"04658","miles_from_dt":18.49},{"city":"Corea","state_name":"Maine","lat":44.42438,"lng":-67.9877,"zip":"04624","miles_from_dt":18.58},{"city":"Winter Harbor","state_name":"Maine","lat":44.38479,"lng":-68.07828,"zip":"04693","miles_from_dt":18.66},{"city":"Prospect Harbor","state_name":"Maine","lat":44.40014,"lng":-68.01841,"zip":"04669","miles_from_dt":19.07},{"city":"Birch Harbor","state_name":"Maine","lat":44.37498,"lng":-68.03593,"zip":"04613","miles_from_dt":20.16},{"city":"Eddington","state_name":"Maine","lat":44.80643,"lng":-68.55584,"zip":"04428","miles_from_dt":20.25},{"city":"Holden","state_name":"Maine","lat":44.72039,"lng":-68.6171,"zip":"04429","miles_from_dt":20.32},{"city":"Harrington","state_name":"Maine","lat":44.57876,"lng":-67.80562,"zip":"04643","miles_from_dt":20.92},{"city":"Mount Desert","state_name":"Maine","lat":44.34026,"lng":-68.33231,"zip":"04660","miles_from_dt":21.03},{"city":"East Blue Hill","state_name":"Maine","lat":44.41551,"lng":-68.52147,"zip":"04629","miles_from_dt":21.14},{"city":"East Orland","state_name":"Maine","lat":44.56453,"lng":-68.6678,"zip":"04431","miles_from_dt":22.49},{"city":"Northeast Harbor","state_name":"Maine","lat":44.30766,"lng":-68.28735,"zip":"04662","miles_from_dt":22.8},{"city":"Orland","state_name":"Maine","lat":44.57334,"lng":-68.67736,"zip":"04472","miles_from_dt":22.83},{"city":"Seal Harbor","state_name":"Maine","lat":44.30083,"lng":-68.24223,"zip":"04675","miles_from_dt":23.06},{"city":"Blue Hill","state_name":"Maine","lat":44.41819,"lng":-68.58223,"zip":"04614","miles_from_dt":23.21},{"city":"Bradley","state_name":"Maine","lat":44.88634,"lng":-68.56672,"zip":"04411","miles_from_dt":24.27},{"city":"Aurora","state_name":"Maine","lat":44.9877,"lng":-68.23246,"zip":"04408","miles_from_dt":24.39},{"city":"Southwest Harbor","state_name":"Maine","lat":44.27843,"lng":-68.33247,"zip":"04679","miles_from_dt":25.18},{"city":"Seal Cove","state_name":"Maine","lat":44.29347,"lng":-68.40883,"zip":"04674","miles_from_dt":25.29},{"city":"Columbia Falls","state_name":"Maine","lat":44.70786,"lng":-67.70824,"zip":"04623","miles_from_dt":25.84},{"city":"Islesford","state_name":"Maine","lat":44.26007,"lng":-68.22812,"zip":"04646","miles_from_dt":25.86},{"city":"Addison","state_name":"Maine","lat":44.57697,"lng":-67.70281,"zip":"04606","miles_from_dt":25.94},{"city":"Bucksport","state_name":"Maine","lat":44.62725,"lng":-68.75286,"zip":"04416","miles_from_dt":26.15},{"city":"Penobscot","state_name":"Maine","lat":44.47474,"lng":-68.70521,"zip":"04476","miles_from_dt":26.26},{"city":"Cranberry Isles","state_name":"Maine","lat":44.25041,"lng":-68.25503,"zip":"04625","miles_from_dt":26.57},{"city":"Bernard","state_name":"Maine","lat":44.25954,"lng":-68.37722,"zip":"04612","miles_from_dt":27},{"city":"Brewer","state_name":"Maine","lat":44.78354,"lng":-68.73517,"zip":"04412","miles_from_dt":27.26},{"city":"Orrington","state_name":"Maine","lat":44.71501,"lng":-68.77901,"zip":"04474","miles_from_dt":27.97},{"city":"Bass Harbor","state_name":"Maine","lat":44.23705,"lng":-68.3431,"zip":"04653","miles_from_dt":28.09},{"city":"Orono","state_name":"Maine","lat":44.90251,"lng":-68.66624,"zip":"04469","miles_from_dt":28.61},{"city":"Sedgwick","state_name":"Maine","lat":44.34741,"lng":-68.64238,"zip":"04676","miles_from_dt":28.7},{"city":"Milford","state_name":"Maine","lat":44.98057,"lng":-68.57243,"zip":"04461","miles_from_dt":29.44},{"city":"Brooklin","state_name":"Maine","lat":44.28346,"lng":-68.57069,"zip":"04616","miles_from_dt":29.73},{"city":"Stillwater","state_name":"Maine","lat":44.91074,"lng":-68.69119,"zip":"04489","miles_from_dt":29.92},{"city":"Orono","state_name":"Maine","lat":44.88594,"lng":-68.71888,"zip":"04473","miles_from_dt":29.96}],"targetCityZipCode":"04634","targetCityState":"Maine"},"__N_SSG":true}