{"pageProps":{"stateName":"Maine","cityName":"milford","nearbyCities":[{"city":"Bradley","state_name":"Maine","lat":44.88634,"lng":-68.56672,"zip":"04411","miles_from_dt":6.51},{"city":"Orono","state_name":"Maine","lat":44.90251,"lng":-68.66624,"zip":"04469","miles_from_dt":7.09},{"city":"Greenbush","state_name":"Maine","lat":45.07572,"lng":-68.50689,"zip":"04418","miles_from_dt":7.31},{"city":"Stillwater","state_name":"Maine","lat":44.91074,"lng":-68.69119,"zip":"04489","miles_from_dt":7.56},{"city":"Old Town","state_name":"Maine","lat":45.0263,"lng":-68.72323,"zip":"04468","miles_from_dt":8.03},{"city":"Orono","state_name":"Maine","lat":44.88594,"lng":-68.71888,"zip":"04473","miles_from_dt":9.71},{"city":"Eddington","state_name":"Maine","lat":44.80643,"lng":-68.55584,"zip":"04428","miles_from_dt":12.05},{"city":"Passadumkeag","state_name":"Maine","lat":45.1845,"lng":-68.58681,"zip":"04475","miles_from_dt":14.1},{"city":"Bangor","state_name":"Maine","lat":44.83297,"lng":-68.78927,"zip":"04402","miles_from_dt":14.73},{"city":"Hudson","state_name":"Maine","lat":44.99761,"lng":-68.88357,"zip":"04449","miles_from_dt":15.29},{"city":"Brewer","state_name":"Maine","lat":44.78354,"lng":-68.73517,"zip":"04412","miles_from_dt":15.78},{"city":"Bangor","state_name":"Maine","lat":44.84711,"lng":-68.84654,"zip":"04401","miles_from_dt":16.3},{"city":"Aurora","state_name":"Maine","lat":44.9877,"lng":-68.23246,"zip":"04408","miles_from_dt":16.67},{"city":"Lagrange","state_name":"Maine","lat":45.18229,"lng":-68.78244,"zip":"04453","miles_from_dt":17.31},{"city":"West Enfield","state_name":"Maine","lat":45.23853,"lng":-68.53301,"zip":"04493","miles_from_dt":17.92},{"city":"Bradford","state_name":"Maine","lat":45.08821,"lng":-68.90696,"zip":"04410","miles_from_dt":17.99},{"city":"Kenduskeag","state_name":"Maine","lat":44.91593,"lng":-68.92797,"zip":"04450","miles_from_dt":18},{"city":"Holden","state_name":"Maine","lat":44.72039,"lng":-68.6171,"zip":"04429","miles_from_dt":18.1},{"city":"Burlington","state_name":"Maine","lat":45.19923,"lng":-68.36728,"zip":"04417","miles_from_dt":18.13},{"city":"Orrington","state_name":"Maine","lat":44.71501,"lng":-68.77901,"zip":"04474","miles_from_dt":20.96},{"city":"Corinth","state_name":"Maine","lat":44.9805,"lng":-69.01063,"zip":"04427","miles_from_dt":21.48},{"city":"Levant","state_name":"Maine","lat":44.88645,"lng":-68.9977,"zip":"04456","miles_from_dt":21.85},{"city":"Ellsworth","state_name":"Maine","lat":44.66038,"lng":-68.41623,"zip":"04605","miles_from_dt":23.4},{"city":"Charleston","state_name":"Maine","lat":45.07097,"lng":-69.03408,"zip":"04422","miles_from_dt":23.45},{"city":"Howland","state_name":"Maine","lat":45.31208,"lng":-68.71977,"zip":"04448","miles_from_dt":24},{"city":"Hampden","state_name":"Maine","lat":44.72591,"lng":-68.94585,"zip":"04444","miles_from_dt":25.41},{"city":"Carmel","state_name":"Maine","lat":44.7969,"lng":-69.03154,"zip":"04419","miles_from_dt":25.86},{"city":"Bucksport","state_name":"Maine","lat":44.62725,"lng":-68.75286,"zip":"04416","miles_from_dt":25.96},{"city":"Milo","state_name":"Maine","lat":45.28117,"lng":-68.90569,"zip":"04463","miles_from_dt":26.39},{"city":"Stetson","state_name":"Maine","lat":44.87586,"lng":-69.11143,"zip":"04488","miles_from_dt":27.41},{"city":"Exeter","state_name":"Maine","lat":44.96435,"lng":-69.13539,"zip":"04435","miles_from_dt":27.62},{"city":"Lee","state_name":"Maine","lat":45.3223,"lng":-68.27511,"zip":"04455","miles_from_dt":27.71},{"city":"Winterport","state_name":"Maine","lat":44.65839,"lng":-68.91189,"zip":"04496","miles_from_dt":27.81},{"city":"Orland","state_name":"Maine","lat":44.57334,"lng":-68.67736,"zip":"04472","miles_from_dt":28.59},{"city":"East Orland","state_name":"Maine","lat":44.56453,"lng":-68.6678,"zip":"04431","miles_from_dt":29.11},{"city":"Garland","state_name":"Maine","lat":45.05436,"lng":-69.15859,"zip":"04939","miles_from_dt":29.16},{"city":"Franklin","state_name":"Maine","lat":44.63457,"lng":-68.22253,"zip":"04634","miles_from_dt":29.44}],"targetCityZipCode":"04461","targetCityState":"Maine"},"__N_SSG":true}