{"pageProps":{"stateName":"Iowa","cityName":"adair","nearbyCities":[{"city":"Casey","state_name":"Iowa","lat":41.51167,"lng":-94.51936,"zip":"50048","miles_from_dt":6.67},{"city":"Anita","state_name":"Iowa","lat":41.43364,"lng":-94.75215,"zip":"50020","miles_from_dt":7.66},{"city":"Menlo","state_name":"Iowa","lat":41.49921,"lng":-94.42176,"zip":"50164","miles_from_dt":11.77},{"city":"Exira","state_name":"Iowa","lat":41.595,"lng":-94.8576,"zip":"50076","miles_from_dt":12.27},{"city":"Guthrie Center","state_name":"Iowa","lat":41.68765,"lng":-94.55501,"zip":"50115","miles_from_dt":13.02},{"city":"Brayton","state_name":"Iowa","lat":41.53326,"lng":-94.90004,"zip":"50042","miles_from_dt":13.15},{"city":"Wiota","state_name":"Iowa","lat":41.38261,"lng":-94.85756,"zip":"50274","miles_from_dt":14.09},{"city":"Fontanelle","state_name":"Iowa","lat":41.31081,"lng":-94.56839,"zip":"50846","miles_from_dt":14.51},{"city":"Hamlin","state_name":"Iowa","lat":41.66903,"lng":-94.85419,"zip":"50117","miles_from_dt":15.2},{"city":"Stuart","state_name":"Iowa","lat":41.48088,"lng":-94.34062,"zip":"50250","miles_from_dt":16.1},{"city":"Greenfield","state_name":"Iowa","lat":41.30004,"lng":-94.40176,"zip":"50849","miles_from_dt":19.45},{"city":"Atlantic","state_name":"Iowa","lat":41.41737,"lng":-95.00352,"zip":"50022","miles_from_dt":19.58},{"city":"Bridgewater","state_name":"Iowa","lat":41.22878,"lng":-94.68367,"zip":"50837","miles_from_dt":19.66},{"city":"Massena","state_name":"Iowa","lat":41.23869,"lng":-94.77455,"zip":"50853","miles_from_dt":20},{"city":"Panora","state_name":"Iowa","lat":41.69798,"lng":-94.35023,"zip":"50216","miles_from_dt":20.05},{"city":"Dexter","state_name":"Iowa","lat":41.45402,"lng":-94.23745,"zip":"50070","miles_from_dt":21.68},{"city":"Audubon","state_name":"Iowa","lat":41.75628,"lng":-94.92034,"zip":"50025","miles_from_dt":21.96},{"city":"Bayard","state_name":"Iowa","lat":41.82497,"lng":-94.55075,"zip":"50029","miles_from_dt":22.15},{"city":"Cumberland","state_name":"Iowa","lat":41.24057,"lng":-94.88913,"zip":"50843","miles_from_dt":22.56},{"city":"Elk Horn","state_name":"Iowa","lat":41.58751,"lng":-95.08837,"zip":"51531","miles_from_dt":23.41},{"city":"Redfield","state_name":"Iowa","lat":41.61221,"lng":-94.21095,"zip":"50233","miles_from_dt":23.68},{"city":"Linden","state_name":"Iowa","lat":41.68038,"lng":-94.24905,"zip":"50146","miles_from_dt":23.7},{"city":"Coon Rapids","state_name":"Iowa","lat":41.85773,"lng":-94.69044,"zip":"50058","miles_from_dt":23.94},{"city":"Yale","state_name":"Iowa","lat":41.77867,"lng":-94.347,"zip":"50277","miles_from_dt":24.1},{"city":"Kimballton","state_name":"Iowa","lat":41.65792,"lng":-95.07317,"zip":"51543","miles_from_dt":24.21},{"city":"Marne","state_name":"Iowa","lat":41.48613,"lng":-95.11439,"zip":"51552","miles_from_dt":24.26},{"city":"Orient","state_name":"Iowa","lat":41.20961,"lng":-94.40902,"zip":"50858","miles_from_dt":24.31},{"city":"Bagley","state_name":"Iowa","lat":41.85823,"lng":-94.44958,"zip":"50026","miles_from_dt":25.98},{"city":"Earlham","state_name":"Iowa","lat":41.46984,"lng":-94.12115,"zip":"50072","miles_from_dt":27.5},{"city":"Lewis","state_name":"Iowa","lat":41.31316,"lng":-95.10817,"zip":"51544","miles_from_dt":27.58},{"city":"Gray","state_name":"Iowa","lat":41.84424,"lng":-94.98612,"zip":"50110","miles_from_dt":28.82},{"city":"Dedham","state_name":"Iowa","lat":41.9117,"lng":-94.81379,"zip":"51440","miles_from_dt":28.86},{"city":"Walnut","state_name":"Iowa","lat":41.4644,"lng":-95.20296,"zip":"51577","miles_from_dt":28.99},{"city":"Jamaica","state_name":"Iowa","lat":41.85173,"lng":-94.29853,"zip":"50128","miles_from_dt":29.59},{"city":"Dawson","state_name":"Iowa","lat":41.8051,"lng":-94.22708,"zip":"50066","miles_from_dt":29.71}],"targetCityZipCode":"50002","targetCityState":"Iowa"},"__N_SSG":true}