{"pageProps":{"stateName":"Iowa","cityName":"buffalo","nearbyCities":[{"city":"Andalusia","state_name":"Illinois","lat":41.43168,"lng":-90.72734,"zip":"61232","miles_from_dt":1.89},{"city":"Blue Grass","state_name":"Iowa","lat":41.50092,"lng":-90.78419,"zip":"52726","miles_from_dt":4.18},{"city":"Montpelier","state_name":"Iowa","lat":41.46043,"lng":-90.80989,"zip":"52759","miles_from_dt":4.36},{"city":"Taylor Ridge","state_name":"Illinois","lat":41.3927,"lng":-90.74874,"zip":"61284","miles_from_dt":4.73},{"city":"Davenport","state_name":"Iowa","lat":41.49908,"lng":-90.63621,"zip":"52802","miles_from_dt":5.41},{"city":"Davenport","state_name":"Iowa","lat":41.50318,"lng":-90.63399,"zip":"52808","miles_from_dt":5.66},{"city":"Davenport","state_name":"Iowa","lat":41.53584,"lng":-90.68081,"zip":"52804","miles_from_dt":5.79},{"city":"Rock Island","state_name":"Illinois","lat":41.47799,"lng":-90.57608,"zip":"61201","miles_from_dt":7.89},{"city":"Milan","state_name":"Illinois","lat":41.39765,"lng":-90.59452,"zip":"61264","miles_from_dt":8.03},{"city":"Rock Island","state_name":"Illinois","lat":41.49074,"lng":-90.56973,"zip":"61204","miles_from_dt":8.4},{"city":"Davenport","state_name":"Iowa","lat":41.5601,"lng":-90.63254,"zip":"52809","miles_from_dt":8.49},{"city":"Davenport","state_name":"Iowa","lat":41.52082,"lng":-90.57483,"zip":"52801","miles_from_dt":8.92},{"city":"Reynolds","state_name":"Illinois","lat":41.32574,"lng":-90.72863,"zip":"61279","miles_from_dt":9.2},{"city":"Davenport","state_name":"Iowa","lat":41.57263,"lng":-90.60231,"zip":"52805","miles_from_dt":10.13},{"city":"Davenport","state_name":"Iowa","lat":41.53871,"lng":-90.55623,"zip":"52803","miles_from_dt":10.38},{"city":"Davenport","state_name":"Iowa","lat":41.58918,"lng":-90.62553,"zip":"52806","miles_from_dt":10.38},{"city":"Buffalo Prairie","state_name":"Illinois","lat":41.34175,"lng":-90.86221,"zip":"61237","miles_from_dt":10.76},{"city":"Rock Island","state_name":"Illinois","lat":41.51746,"lng":-90.53115,"zip":"61299","miles_from_dt":10.88},{"city":"Walcott","state_name":"Iowa","lat":41.62187,"lng":-90.75529,"zip":"52773","miles_from_dt":11.34},{"city":"Moline","state_name":"Illinois","lat":41.50586,"lng":-90.51407,"zip":"61266","miles_from_dt":11.46},{"city":"Illinois City","state_name":"Illinois","lat":41.38839,"lng":-90.92733,"zip":"61259","miles_from_dt":11.54},{"city":"Stockton","state_name":"Iowa","lat":41.60836,"lng":-90.8416,"zip":"52769","miles_from_dt":11.92},{"city":"Moline","state_name":"Illinois","lat":41.48195,"lng":-90.48895,"zip":"61265","miles_from_dt":12.4},{"city":"Preemption","state_name":"Illinois","lat":41.31667,"lng":-90.57638,"zip":"61276","miles_from_dt":12.53},{"city":"Durant","state_name":"Iowa","lat":41.59758,"lng":-90.91147,"zip":"52747","miles_from_dt":13.56},{"city":"Matherville","state_name":"Illinois","lat":41.26409,"lng":-90.59878,"zip":"61263","miles_from_dt":14.99},{"city":"Davenport","state_name":"Iowa","lat":41.61061,"lng":-90.51634,"zip":"52807","miles_from_dt":15.08},{"city":"Sherrard","state_name":"Illinois","lat":41.3009,"lng":-90.51992,"zip":"61281","miles_from_dt":15.29},{"city":"Bettendorf","state_name":"Iowa","lat":41.56633,"lng":-90.4673,"zip":"52722","miles_from_dt":15.32},{"city":"Coal Valley","state_name":"Illinois","lat":41.42579,"lng":-90.4325,"zip":"61240","miles_from_dt":15.41},{"city":"Silvis","state_name":"Illinois","lat":41.49673,"lng":-90.41172,"zip":"61282","miles_from_dt":16.51},{"city":"Eldridge","state_name":"Iowa","lat":41.66471,"lng":-90.55713,"zip":"52748","miles_from_dt":16.67},{"city":"Aledo","state_name":"Illinois","lat":41.2128,"lng":-90.72294,"zip":"61231","miles_from_dt":17},{"city":"Joy","state_name":"Illinois","lat":41.24141,"lng":-90.88407,"zip":"61260","miles_from_dt":17.12},{"city":"Muscatine","state_name":"Iowa","lat":41.43798,"lng":-91.05802,"zip":"52761","miles_from_dt":17.3},{"city":"Pleasant Valley","state_name":"Iowa","lat":41.57356,"lng":-90.42326,"zip":"52767","miles_from_dt":17.57},{"city":"Carbon Cliff","state_name":"Illinois","lat":41.49479,"lng":-90.38966,"zip":"61239","miles_from_dt":17.63},{"city":"Wilton","state_name":"Iowa","lat":41.61115,"lng":-91.00066,"zip":"52778","miles_from_dt":17.69},{"city":"East Moline","state_name":"Illinois","lat":41.52138,"lng":-90.39424,"zip":"61244","miles_from_dt":17.74},{"city":"Dixon","state_name":"Iowa","lat":41.71502,"lng":-90.75783,"zip":"52745","miles_from_dt":17.74},{"city":"Donahue","state_name":"Iowa","lat":41.71945,"lng":-90.67172,"zip":"52746","miles_from_dt":18.19},{"city":"Orion","state_name":"Illinois","lat":41.36426,"lng":-90.39907,"zip":"61273","miles_from_dt":18.2},{"city":"Hampton","state_name":"Illinois","lat":41.56017,"lng":-90.40151,"zip":"61256","miles_from_dt":18.22},{"city":"Barstow","state_name":"Illinois","lat":41.51242,"lng":-90.35586,"zip":"61236","miles_from_dt":19.55},{"city":"New Liberty","state_name":"Iowa","lat":41.72182,"lng":-90.87274,"zip":"52765","miles_from_dt":19.66},{"city":"Viola","state_name":"Illinois","lat":41.19609,"lng":-90.57614,"zip":"61486","miles_from_dt":19.75},{"city":"New Boston","state_name":"Illinois","lat":41.24817,"lng":-91.00865,"zip":"61272","miles_from_dt":20.69},{"city":"Le Claire","state_name":"Iowa","lat":41.62544,"lng":-90.38989,"zip":"52753","miles_from_dt":20.87},{"city":"Long Grove","state_name":"Iowa","lat":41.72966,"lng":-90.54084,"zip":"52756","miles_from_dt":20.99},{"city":"Moscow","state_name":"Iowa","lat":41.58255,"lng":-91.09853,"zip":"52760","miles_from_dt":21.12},{"city":"Colona","state_name":"Illinois","lat":41.48782,"lng":-90.31997,"zip":"61241","miles_from_dt":21.16},{"city":"Rapids City","state_name":"Illinois","lat":41.57938,"lng":-90.34138,"zip":"61278","miles_from_dt":21.6},{"city":"New Windsor","state_name":"Illinois","lat":41.20618,"lng":-90.46744,"zip":"61465","miles_from_dt":22.03},{"city":"Fruitland","state_name":"Iowa","lat":41.34608,"lng":-91.13112,"zip":"52749","miles_from_dt":22.45},{"city":"Ophiem","state_name":"Illinois","lat":41.2565,"lng":-90.38751,"zip":"61468","miles_from_dt":22.47},{"city":"Lynn Center","state_name":"Illinois","lat":41.27799,"lng":-90.35699,"zip":"61262","miles_from_dt":22.89},{"city":"Calamus","state_name":"Iowa","lat":41.80063,"lng":-90.74312,"zip":"52729","miles_from_dt":23.59},{"city":"Bennett","state_name":"Iowa","lat":41.75588,"lng":-90.9633,"zip":"52721","miles_from_dt":23.89},{"city":"Princeton","state_name":"Iowa","lat":41.69906,"lng":-90.38977,"zip":"52768","miles_from_dt":24.04},{"city":"Osco","state_name":"Illinois","lat":41.37031,"lng":-90.27666,"zip":"61274","miles_from_dt":24.13},{"city":"Port Byron","state_name":"Illinois","lat":41.60016,"lng":-90.29781,"zip":"61275","miles_from_dt":24.24},{"city":"Atalissa","state_name":"Iowa","lat":41.59064,"lng":-91.16578,"zip":"52720","miles_from_dt":24.55},{"city":"McCausland","state_name":"Iowa","lat":41.74405,"lng":-90.44104,"zip":"52758","miles_from_dt":24.59},{"city":"Andover","state_name":"Illinois","lat":41.29464,"lng":-90.29129,"zip":"61233","miles_from_dt":25.28},{"city":"Seaton","state_name":"Illinois","lat":41.09191,"lng":-90.83259,"zip":"61476","miles_from_dt":25.94},{"city":"Alpha","state_name":"Illinois","lat":41.19135,"lng":-90.37227,"zip":"61413","miles_from_dt":26.07},{"city":"Keithsburg","state_name":"Illinois","lat":41.10237,"lng":-90.92303,"zip":"61442","miles_from_dt":26.67},{"city":"North Henderson","state_name":"Illinois","lat":41.11103,"lng":-90.48222,"zip":"61466","miles_from_dt":27.16},{"city":"Grand Mound","state_name":"Iowa","lat":41.8519,"lng":-90.68398,"zip":"52751","miles_from_dt":27.2},{"city":"Grandview","state_name":"Iowa","lat":41.27465,"lng":-91.1911,"zip":"52752","miles_from_dt":27.33},{"city":"Hillsdale","state_name":"Illinois","lat":41.59025,"lng":-90.22322,"zip":"61257","miles_from_dt":27.6},{"city":"Wheatland","state_name":"Iowa","lat":41.84739,"lng":-90.85529,"zip":"52777","miles_from_dt":27.62},{"city":"Alexis","state_name":"Illinois","lat":41.07092,"lng":-90.58853,"zip":"61412","miles_from_dt":27.72},{"city":"Letts","state_name":"Iowa","lat":41.34254,"lng":-91.24144,"zip":"52754","miles_from_dt":27.97},{"city":"De Witt","state_name":"Iowa","lat":41.83616,"lng":-90.51076,"zip":"52742","miles_from_dt":28.31},{"city":"Cordova","state_name":"Illinois","lat":41.70363,"lng":-90.27858,"zip":"61242","miles_from_dt":28.67},{"city":"Camanche","state_name":"Iowa","lat":41.77366,"lng":-90.34364,"zip":"52730","miles_from_dt":29.38},{"city":"Tipton","state_name":"Iowa","lat":41.75006,"lng":-91.14083,"zip":"52772","miles_from_dt":29.41},{"city":"Geneseo","state_name":"Illinois","lat":41.46692,"lng":-90.15551,"zip":"61254","miles_from_dt":29.62},{"city":"West Liberty","state_name":"Iowa","lat":41.5795,"lng":-91.275,"zip":"52776","miles_from_dt":29.67},{"city":"Nichols","state_name":"Iowa","lat":41.46407,"lng":-91.30061,"zip":"52766","miles_from_dt":29.84}],"targetCityZipCode":"52728","targetCityState":"Iowa"},"__N_SSG":true}