{"pageProps":{"stateName":"Iowa","cityName":"cedar-rapids","nearbyCities":[{"city":"Cedar Rapids","state_name":"Iowa","lat":41.97584,"lng":-91.65536,"zip":"52407","miles_from_dt":0.18},{"city":"Cedar Rapids","state_name":"Iowa","lat":41.97494,"lng":-91.6551,"zip":"52499","miles_from_dt":0.19},{"city":"Cedar Rapids","state_name":"Iowa","lat":42.00587,"lng":-91.64172,"zip":"52497","miles_from_dt":2.28},{"city":"Cedar Rapids","state_name":"Iowa","lat":41.9879,"lng":-91.71311,"zip":"52408","miles_from_dt":2.93},{"city":"Cedar Rapids","state_name":"Iowa","lat":41.98957,"lng":-91.71433,"zip":"52409","miles_from_dt":3.03},{"city":"Cedar Rapids","state_name":"Iowa","lat":42.02126,"lng":-91.65851,"zip":"52410","miles_from_dt":3.17},{"city":"Cedar Rapids","state_name":"Iowa","lat":42.02179,"lng":-91.66109,"zip":"52498","miles_from_dt":3.21},{"city":"Cedar Rapids","state_name":"Iowa","lat":42.02272,"lng":-91.66001,"zip":"52402","miles_from_dt":3.27},{"city":"Cedar Rapids","state_name":"Iowa","lat":41.9199,"lng":-91.67799,"zip":"52406","miles_from_dt":3.95},{"city":"Cedar Rapids","state_name":"Iowa","lat":41.92153,"lng":-91.69077,"zip":"52404","miles_from_dt":4.06},{"city":"Cedar Rapids","state_name":"Iowa","lat":41.96813,"lng":-91.57964,"zip":"52403","miles_from_dt":4.1},{"city":"Cedar Rapids","state_name":"Iowa","lat":41.98644,"lng":-91.74774,"zip":"52405","miles_from_dt":4.65},{"city":"Hiawatha","state_name":"Iowa","lat":42.04934,"lng":-91.68732,"zip":"52233","miles_from_dt":5.32},{"city":"Cedar Rapids","state_name":"Iowa","lat":42.05093,"lng":-91.72723,"zip":"52411","miles_from_dt":6.3},{"city":"Robins","state_name":"Iowa","lat":42.07195,"lng":-91.66641,"zip":"52328","miles_from_dt":6.68},{"city":"Ely","state_name":"Iowa","lat":41.89647,"lng":-91.5626,"zip":"52227","miles_from_dt":7.36},{"city":"Marion","state_name":"Iowa","lat":42.0656,"lng":-91.57091,"zip":"52302","miles_from_dt":7.7},{"city":"Fairfax","state_name":"Iowa","lat":41.90282,"lng":-91.79132,"zip":"52228","miles_from_dt":8.47},{"city":"Palo","state_name":"Iowa","lat":42.06421,"lng":-91.80583,"zip":"52324","miles_from_dt":9.74},{"city":"Toddville","state_name":"Iowa","lat":42.10535,"lng":-91.7341,"zip":"52341","miles_from_dt":9.78},{"city":"Swisher","state_name":"Iowa","lat":41.82904,"lng":-91.70858,"zip":"52338","miles_from_dt":10.42},{"city":"Mount Vernon","state_name":"Iowa","lat":41.93439,"lng":-91.44985,"zip":"52314","miles_from_dt":11.12},{"city":"Walford","state_name":"Iowa","lat":41.87496,"lng":-91.83529,"zip":"52351","miles_from_dt":11.44},{"city":"Atkins","state_name":"Iowa","lat":41.99187,"lng":-91.88718,"zip":"52206","miles_from_dt":11.82},{"city":"Alburnett","state_name":"Iowa","lat":42.15836,"lng":-91.63792,"zip":"52202","miles_from_dt":12.68},{"city":"Springville","state_name":"Iowa","lat":42.0689,"lng":-91.44111,"zip":"52336","miles_from_dt":12.93},{"city":"Norway","state_name":"Iowa","lat":41.89012,"lng":-91.89656,"zip":"52318","miles_from_dt":13.6},{"city":"Shellsburg","state_name":"Iowa","lat":42.09861,"lng":-91.88772,"zip":"52332","miles_from_dt":14.53},{"city":"North Liberty","state_name":"Iowa","lat":41.76277,"lng":-91.63142,"zip":"52317","miles_from_dt":14.74},{"city":"Solon","state_name":"Iowa","lat":41.80376,"lng":-91.48685,"zip":"52333","miles_from_dt":14.79},{"city":"Newhall","state_name":"Iowa","lat":42.00181,"lng":-91.96985,"zip":"52315","miles_from_dt":16.12},{"city":"Amana","state_name":"Iowa","lat":41.79852,"lng":-91.87065,"zip":"52204","miles_from_dt":16.38},{"city":"Amana","state_name":"Iowa","lat":41.81035,"lng":-91.8906,"zip":"52203","miles_from_dt":16.51},{"city":"Center Point","state_name":"Iowa","lat":42.1995,"lng":-91.77222,"zip":"52213","miles_from_dt":16.54},{"city":"Martelle","state_name":"Iowa","lat":42.01801,"lng":-91.34207,"zip":"52305","miles_from_dt":16.57},{"city":"Lisbon","state_name":"Iowa","lat":41.89713,"lng":-91.35154,"zip":"52253","miles_from_dt":16.72},{"city":"Central City","state_name":"Iowa","lat":42.19056,"lng":-91.50704,"zip":"52214","miles_from_dt":16.78},{"city":"Watkins","state_name":"Iowa","lat":41.91883,"lng":-91.98856,"zip":"52354","miles_from_dt":17.44},{"city":"Middle Amana","state_name":"Iowa","lat":41.79158,"lng":-91.90244,"zip":"52307","miles_from_dt":17.86},{"city":"Tiffin","state_name":"Iowa","lat":41.70615,"lng":-91.68019,"zip":"52340","miles_from_dt":18.61},{"city":"Coralville","state_name":"Iowa","lat":41.69708,"lng":-91.59746,"zip":"52241","miles_from_dt":19.46},{"city":"Homestead","state_name":"Iowa","lat":41.73143,"lng":-91.87647,"zip":"52236","miles_from_dt":20.24},{"city":"Oxford","state_name":"Iowa","lat":41.69221,"lng":-91.76284,"zip":"52322","miles_from_dt":20.27},{"city":"Urbana","state_name":"Iowa","lat":42.22239,"lng":-91.89177,"zip":"52345","miles_from_dt":20.84},{"city":"Iowa City","state_name":"Iowa","lat":41.68504,"lng":-91.51708,"zip":"52244","miles_from_dt":21.33},{"city":"Morley","state_name":"Iowa","lat":42.00617,"lng":-91.24526,"zip":"52312","miles_from_dt":21.39},{"city":"Anamosa","state_name":"Iowa","lat":42.11754,"lng":-91.28806,"zip":"52205","miles_from_dt":21.45},{"city":"Mechanicsville","state_name":"Iowa","lat":41.89729,"lng":-91.25296,"zip":"52306","miles_from_dt":21.59},{"city":"Prairieburg","state_name":"Iowa","lat":42.23758,"lng":-91.42576,"zip":"52219","miles_from_dt":21.7},{"city":"Troy Mills","state_name":"Iowa","lat":42.29202,"lng":-91.68325,"zip":"52344","miles_from_dt":21.89},{"city":"Van Horne","state_name":"Iowa","lat":42.01298,"lng":-92.08119,"zip":"52346","miles_from_dt":21.91},{"city":"South Amana","state_name":"Iowa","lat":41.73084,"lng":-91.94355,"zip":"52334","miles_from_dt":22.38},{"city":"Walker","state_name":"Iowa","lat":42.28706,"lng":-91.77897,"zip":"52352","miles_from_dt":22.38},{"city":"Iowa City","state_name":"Iowa","lat":41.66195,"lng":-91.54317,"zip":"52242","miles_from_dt":22.44},{"city":"Iowa City","state_name":"Iowa","lat":41.67071,"lng":-91.50666,"zip":"52245","miles_from_dt":22.44},{"city":"Vinton","state_name":"Iowa","lat":42.17246,"lng":-92.00566,"zip":"52349","miles_from_dt":22.44},{"city":"Iowa City","state_name":"Iowa","lat":41.64903,"lng":-91.59718,"zip":"52246","miles_from_dt":22.74},{"city":"Coggon","state_name":"Iowa","lat":42.2946,"lng":-91.53826,"zip":"52218","miles_from_dt":22.89},{"city":"Iowa City","state_name":"Iowa","lat":41.6566,"lng":-91.53555,"zip":"52243","miles_from_dt":22.9},{"city":"Blairstown","state_name":"Iowa","lat":41.90809,"lng":-92.09462,"zip":"52209","miles_from_dt":22.94},{"city":"Conroy","state_name":"Iowa","lat":41.72661,"lng":-91.99853,"zip":"52220","miles_from_dt":24.54},{"city":"Iowa City","state_name":"Iowa","lat":41.63143,"lng":-91.49924,"zip":"52240","miles_from_dt":25.12},{"city":"Marengo","state_name":"Iowa","lat":41.78658,"lng":-92.09013,"zip":"52301","miles_from_dt":25.78},{"city":"West Branch","state_name":"Iowa","lat":41.69644,"lng":-91.32097,"zip":"52358","miles_from_dt":25.97},{"city":"Olin","state_name":"Iowa","lat":41.99997,"lng":-91.14643,"zip":"52320","miles_from_dt":26.43},{"city":"Langworthy","state_name":"Iowa","lat":42.19712,"lng":-91.22727,"zip":"52252","miles_from_dt":26.95},{"city":"Luzerne","state_name":"Iowa","lat":41.91836,"lng":-92.17742,"zip":"52257","miles_from_dt":27.01},{"city":"Ryan","state_name":"Iowa","lat":42.35261,"lng":-91.50076,"zip":"52330","miles_from_dt":27.27},{"city":"Stanwood","state_name":"Iowa","lat":41.88217,"lng":-91.14282,"zip":"52337","miles_from_dt":27.35},{"city":"Keystone","state_name":"Iowa","lat":42.01202,"lng":-92.20517,"zip":"52249","miles_from_dt":28.25},{"city":"Rowley","state_name":"Iowa","lat":42.35894,"lng":-91.85405,"zip":"52329","miles_from_dt":28.31},{"city":"Hills","state_name":"Iowa","lat":41.57024,"lng":-91.53281,"zip":"52235","miles_from_dt":28.7},{"city":"Garrison","state_name":"Iowa","lat":42.14609,"lng":-92.16884,"zip":"52229","miles_from_dt":28.76},{"city":"Monticello","state_name":"Iowa","lat":42.21983,"lng":-91.19737,"zip":"52310","miles_from_dt":29.1},{"city":"Williamsburg","state_name":"Iowa","lat":41.6446,"lng":-92.0154,"zip":"52361","miles_from_dt":29.33},{"city":"Quasqueton","state_name":"Iowa","lat":42.39513,"lng":-91.75641,"zip":"52326","miles_from_dt":29.4},{"city":"Mount Auburn","state_name":"Iowa","lat":42.25955,"lng":-92.09726,"zip":"52313","miles_from_dt":29.88}],"targetCityZipCode":"52401","targetCityState":"Iowa"},"__N_SSG":true}