{"pageProps":{"stateName":"Iowa","cityName":"clive","nearbyCities":[{"city":"Urbandale","state_name":"Iowa","lat":41.63894,"lng":-93.8185,"zip":"50323","miles_from_dt":1.96},{"city":"Des Moines","state_name":"Iowa","lat":41.59851,"lng":-93.76677,"zip":"50368","miles_from_dt":2},{"city":"Des Moines","state_name":"Iowa","lat":41.59563,"lng":-93.76633,"zip":"50367","miles_from_dt":2.13},{"city":"Des Moines","state_name":"Iowa","lat":41.59727,"lng":-93.76435,"zip":"50361","miles_from_dt":2.15},{"city":"Des Moines","state_name":"Iowa","lat":41.5967,"lng":-93.76491,"zip":"50364","miles_from_dt":2.15},{"city":"Des Moines","state_name":"Iowa","lat":41.59649,"lng":-93.76501,"zip":"50362","miles_from_dt":2.15},{"city":"Des Moines","state_name":"Iowa","lat":41.59584,"lng":-93.76498,"zip":"50359","miles_from_dt":2.18},{"city":"Des Moines","state_name":"Iowa","lat":41.59516,"lng":-93.76498,"zip":"50363","miles_from_dt":2.21},{"city":"Des Moines","state_name":"Iowa","lat":41.5949,"lng":-93.76456,"zip":"50360","miles_from_dt":2.23},{"city":"Des Moines","state_name":"Iowa","lat":41.59716,"lng":-93.74644,"zip":"50339","miles_from_dt":2.96},{"city":"Des Moines","state_name":"Iowa","lat":41.59594,"lng":-93.7462,"zip":"50369","miles_from_dt":3.01},{"city":"Urbandale","state_name":"Iowa","lat":41.63383,"lng":-93.73589,"zip":"50322","miles_from_dt":3.51},{"city":"West Des Moines","state_name":"Iowa","lat":41.56323,"lng":-93.81107,"zip":"50266","miles_from_dt":3.61},{"city":"Waukee","state_name":"Iowa","lat":41.60391,"lng":-93.87989,"zip":"50263","miles_from_dt":4.27},{"city":"Windsor Heights","state_name":"Iowa","lat":41.60471,"lng":-93.71273,"zip":"50324","miles_from_dt":4.5},{"city":"Des Moines","state_name":"Iowa","lat":41.62711,"lng":-93.71089,"zip":"50334","miles_from_dt":4.62},{"city":"Urbandale","state_name":"Iowa","lat":41.57758,"lng":-93.70871,"zip":"50398","miles_from_dt":5.32},{"city":"West Des Moines","state_name":"Iowa","lat":41.55129,"lng":-93.73821,"zip":"50265","miles_from_dt":5.38},{"city":"Des Moines","state_name":"Iowa","lat":41.56853,"lng":-93.7145,"zip":"50336","miles_from_dt":5.4},{"city":"Grimes","state_name":"Iowa","lat":41.69353,"lng":-93.80358,"zip":"50111","miles_from_dt":5.44},{"city":"Des Moines","state_name":"Iowa","lat":41.62897,"lng":-93.67441,"zip":"50394","miles_from_dt":6.51},{"city":"Des Moines","state_name":"Iowa","lat":41.601,"lng":-93.67335,"zip":"50311","miles_from_dt":6.56},{"city":"Des Moines","state_name":"Iowa","lat":41.62777,"lng":-93.67297,"zip":"50310","miles_from_dt":6.57},{"city":"Des Moines","state_name":"Iowa","lat":41.58064,"lng":-93.67622,"zip":"50312","miles_from_dt":6.76},{"city":"Johnston","state_name":"Iowa","lat":41.69749,"lng":-93.72021,"zip":"50131","miles_from_dt":7.01},{"city":"Booneville","state_name":"Iowa","lat":41.52186,"lng":-93.90064,"zip":"50038","miles_from_dt":8.31},{"city":"Des Moines","state_name":"Iowa","lat":41.53997,"lng":-93.67184,"zip":"50321","miles_from_dt":8.36},{"city":"Des Moines","state_name":"Iowa","lat":41.58564,"lng":-93.64015,"zip":"50381","miles_from_dt":8.45},{"city":"Des Moines","state_name":"Iowa","lat":41.6058,"lng":-93.63488,"zip":"50302","miles_from_dt":8.5},{"city":"Des Moines","state_name":"Iowa","lat":41.58283,"lng":-93.63937,"zip":"50981","miles_from_dt":8.54},{"city":"Des Moines","state_name":"Iowa","lat":41.58914,"lng":-93.63728,"zip":"50333","miles_from_dt":8.54},{"city":"Des Moines","state_name":"Iowa","lat":41.58914,"lng":-93.63728,"zip":"50332","miles_from_dt":8.54},{"city":"Des Moines","state_name":"Iowa","lat":41.5825,"lng":-93.6393,"zip":"50380","miles_from_dt":8.55},{"city":"Des Moines","state_name":"Iowa","lat":41.58706,"lng":-93.63729,"zip":"50330","miles_from_dt":8.57},{"city":"Des Moines","state_name":"Iowa","lat":41.58204,"lng":-93.63889,"zip":"50936","miles_from_dt":8.58},{"city":"Des Moines","state_name":"Iowa","lat":41.58174,"lng":-93.639,"zip":"50980","miles_from_dt":8.58},{"city":"Des Moines","state_name":"Iowa","lat":41.60698,"lng":-93.6326,"zip":"50304","miles_from_dt":8.62},{"city":"Des Moines","state_name":"Iowa","lat":41.58209,"lng":-93.63795,"zip":"50328","miles_from_dt":8.62},{"city":"Des Moines","state_name":"Iowa","lat":41.58594,"lng":-93.63598,"zip":"50983","miles_from_dt":8.66},{"city":"Des Moines","state_name":"Iowa","lat":41.58594,"lng":-93.63598,"zip":"50982","miles_from_dt":8.66},{"city":"Des Moines","state_name":"Iowa","lat":41.60503,"lng":-93.6318,"zip":"50306","miles_from_dt":8.67},{"city":"Des Moines","state_name":"Iowa","lat":41.60379,"lng":-93.63166,"zip":"50301","miles_from_dt":8.68},{"city":"Des Moines","state_name":"Iowa","lat":41.60319,"lng":-93.63137,"zip":"50303","miles_from_dt":8.7},{"city":"Des Moines","state_name":"Iowa","lat":41.58593,"lng":-93.63521,"zip":"50329","miles_from_dt":8.7},{"city":"Des Moines","state_name":"Iowa","lat":41.6049,"lng":-93.63102,"zip":"50314","miles_from_dt":8.71},{"city":"Des Moines","state_name":"Iowa","lat":41.58716,"lng":-93.6346,"zip":"50331","miles_from_dt":8.71},{"city":"Des Moines","state_name":"Iowa","lat":41.60215,"lng":-93.63109,"zip":"50305","miles_from_dt":8.72},{"city":"Des Moines","state_name":"Iowa","lat":41.60096,"lng":-93.63077,"zip":"50395","miles_from_dt":8.75},{"city":"Des Moines","state_name":"Iowa","lat":41.59037,"lng":-93.62966,"zip":"50392","miles_from_dt":8.91},{"city":"Des Moines","state_name":"Iowa","lat":41.58536,"lng":-93.62901,"zip":"50940","miles_from_dt":9.02},{"city":"Des Moines","state_name":"Iowa","lat":41.58204,"lng":-93.62933,"zip":"50947","miles_from_dt":9.06},{"city":"Dallas Center","state_name":"Iowa","lat":41.69669,"lng":-93.93677,"zip":"50063","miles_from_dt":9.12},{"city":"Boone","state_name":"Iowa","lat":41.58027,"lng":-93.62842,"zip":"50950","miles_from_dt":9.13},{"city":"Cumming","state_name":"Iowa","lat":41.48022,"lng":-93.79343,"zip":"50061","miles_from_dt":9.29},{"city":"Des Moines","state_name":"Iowa","lat":41.59564,"lng":-93.62105,"zip":"50335","miles_from_dt":9.29},{"city":"Des Moines","state_name":"Iowa","lat":41.58625,"lng":-93.62299,"zip":"50318","miles_from_dt":9.31},{"city":"Des Moines","state_name":"Iowa","lat":41.58546,"lng":-93.62242,"zip":"50391","miles_from_dt":9.35},{"city":"Des Moines","state_name":"Iowa","lat":41.58448,"lng":-93.62152,"zip":"50309","miles_from_dt":9.41},{"city":"Des Moines","state_name":"Iowa","lat":41.58221,"lng":-93.62221,"zip":"50393","miles_from_dt":9.41},{"city":"Des Moines","state_name":"Iowa","lat":41.58392,"lng":-93.62155,"zip":"50308","miles_from_dt":9.42},{"city":"Des Moines","state_name":"Iowa","lat":41.65538,"lng":-93.62287,"zip":"50313","miles_from_dt":9.52},{"city":"Des Moines","state_name":"Iowa","lat":41.58724,"lng":-93.61754,"zip":"50340","miles_from_dt":9.57},{"city":"Des Moines","state_name":"Iowa","lat":41.588,"lng":-93.6098,"zip":"50396","miles_from_dt":9.95},{"city":"Des Moines","state_name":"Iowa","lat":41.59115,"lng":-93.60314,"zip":"50319","miles_from_dt":10.26},{"city":"Des Moines","state_name":"Iowa","lat":41.59405,"lng":-93.60239,"zip":"50307","miles_from_dt":10.27},{"city":"Des Moines","state_name":"Iowa","lat":41.60877,"lng":-93.59775,"zip":"50316","miles_from_dt":10.41},{"city":"Des Moines","state_name":"Iowa","lat":41.5449,"lng":-93.62063,"zip":"50315","miles_from_dt":10.41},{"city":"Granger","state_name":"Iowa","lat":41.76802,"lng":-93.80775,"zip":"50109","miles_from_dt":10.59},{"city":"Ankeny","state_name":"Iowa","lat":41.72768,"lng":-93.63412,"zip":"50023","miles_from_dt":11.54},{"city":"Van Meter","state_name":"Iowa","lat":41.47014,"lng":-93.92286,"zip":"50261","miles_from_dt":11.88},{"city":"Norwalk","state_name":"Iowa","lat":41.45614,"lng":-93.6887,"zip":"50211","miles_from_dt":12.34},{"city":"Adel","state_name":"Iowa","lat":41.61192,"lng":-94.04352,"zip":"50003","miles_from_dt":12.68},{"city":"Des Moines","state_name":"Iowa","lat":41.61572,"lng":-93.54881,"zip":"50317","miles_from_dt":12.94},{"city":"Des Moines","state_name":"Iowa","lat":41.53208,"lng":-93.57217,"zip":"50320","miles_from_dt":13.05},{"city":"Polk City","state_name":"Iowa","lat":41.79716,"lng":-93.70566,"zip":"50226","miles_from_dt":13.48},{"city":"De Soto","state_name":"Iowa","lat":41.52104,"lng":-94.02993,"zip":"50069","miles_from_dt":13.62},{"city":"Berwick","state_name":"Iowa","lat":41.66591,"lng":-93.54301,"zip":"50032","miles_from_dt":13.7},{"city":"Ankeny","state_name":"Iowa","lat":41.7207,"lng":-93.56838,"zip":"50021","miles_from_dt":13.98},{"city":"Minburn","state_name":"Iowa","lat":41.74613,"lng":-94.04871,"zip":"50167","miles_from_dt":15.8},{"city":"Pleasant Hill","state_name":"Iowa","lat":41.58402,"lng":-93.48856,"zip":"50327","miles_from_dt":16.2},{"city":"Alleman","state_name":"Iowa","lat":41.80365,"lng":-93.60043,"zip":"50007","miles_from_dt":16.58},{"city":"Prole","state_name":"Iowa","lat":41.37416,"lng":-93.77906,"zip":"50229","miles_from_dt":16.63},{"city":"Martensdale","state_name":"Iowa","lat":41.37385,"lng":-93.7387,"zip":"50160","miles_from_dt":16.91},{"city":"Bevington","state_name":"Iowa","lat":41.36048,"lng":-93.79416,"zip":"50033","miles_from_dt":17.55},{"city":"Altoona","state_name":"Iowa","lat":41.64313,"lng":-93.45945,"zip":"50009","miles_from_dt":17.67},{"city":"Slater","state_name":"Iowa","lat":41.85083,"lng":-93.65126,"zip":"50244","miles_from_dt":17.99},{"city":"Sheldahl","state_name":"Iowa","lat":41.86457,"lng":-93.6967,"zip":"50243","miles_from_dt":18.03},{"city":"Woodward","state_name":"Iowa","lat":41.85997,"lng":-93.923,"zip":"50276","miles_from_dt":18.1},{"city":"Bouton","state_name":"Iowa","lat":41.82615,"lng":-94.00653,"zip":"50039","miles_from_dt":18.12},{"city":"Elkhart","state_name":"Iowa","lat":41.79234,"lng":-93.52463,"zip":"50073","miles_from_dt":18.74},{"city":"Patterson","state_name":"Iowa","lat":41.34844,"lng":-93.87755,"zip":"50218","miles_from_dt":18.83},{"city":"Bondurant","state_name":"Iowa","lat":41.7248,"lng":-93.45957,"zip":"50035","miles_from_dt":19.12},{"city":"Earlham","state_name":"Iowa","lat":41.46984,"lng":-94.12115,"zip":"50072","miles_from_dt":19.48},{"city":"Carlisle","state_name":"Iowa","lat":41.47551,"lng":-93.46556,"zip":"50047","miles_from_dt":19.76},{"city":"Madrid","state_name":"Iowa","lat":41.90349,"lng":-93.80001,"zip":"50156","miles_from_dt":19.93},{"city":"Huxley","state_name":"Iowa","lat":41.88516,"lng":-93.60446,"zip":"50124","miles_from_dt":21.19},{"city":"Redfield","state_name":"Iowa","lat":41.61221,"lng":-94.21095,"zip":"50233","miles_from_dt":21.35},{"city":"Saint Marys","state_name":"Iowa","lat":41.30771,"lng":-93.73368,"zip":"50241","miles_from_dt":21.46},{"city":"Saint Charles","state_name":"Iowa","lat":41.29368,"lng":-93.796,"zip":"50240","miles_from_dt":22.16},{"city":"Indianola","state_name":"Iowa","lat":41.33286,"lng":-93.57957,"zip":"50125","miles_from_dt":22.53},{"city":"Perry","state_name":"Iowa","lat":41.8366,"lng":-94.12293,"zip":"50220","miles_from_dt":22.71},{"city":"Runnells","state_name":"Iowa","lat":41.54238,"lng":-93.36859,"zip":"50237","miles_from_dt":22.84},{"city":"Kelley","state_name":"Iowa","lat":41.93992,"lng":-93.67429,"zip":"50134","miles_from_dt":23.34},{"city":"Mitchellville","state_name":"Iowa","lat":41.65617,"lng":-93.35062,"zip":"50169","miles_from_dt":23.37},{"city":"Cambridge","state_name":"Iowa","lat":41.88974,"lng":-93.5234,"zip":"50046","miles_from_dt":23.72},{"city":"Linden","state_name":"Iowa","lat":41.68038,"lng":-94.24905,"zip":"50146","miles_from_dt":23.75},{"city":"Winterset","state_name":"Iowa","lat":41.32838,"lng":-94.05606,"zip":"50273","miles_from_dt":23.86},{"city":"Hartford","state_name":"Iowa","lat":41.45957,"lng":-93.37673,"zip":"50118","miles_from_dt":24.36},{"city":"Luther","state_name":"Iowa","lat":41.96873,"lng":-93.81765,"zip":"50152","miles_from_dt":24.45},{"city":"Dexter","state_name":"Iowa","lat":41.45402,"lng":-94.23745,"zip":"50070","miles_from_dt":25.31},{"city":"Dawson","state_name":"Iowa","lat":41.8051,"lng":-94.22708,"zip":"50066","miles_from_dt":25.76},{"city":"Ackworth","state_name":"Iowa","lat":41.3611,"lng":-93.43321,"zip":"50001","miles_from_dt":25.81},{"city":"Maxwell","state_name":"Iowa","lat":41.84764,"lng":-93.39914,"zip":"50161","miles_from_dt":26.17},{"city":"Swan","state_name":"Iowa","lat":41.45881,"lng":-93.31518,"zip":"50252","miles_from_dt":27.28},{"city":"Peru","state_name":"Iowa","lat":41.21701,"lng":-93.95369,"zip":"50222","miles_from_dt":28.61},{"city":"Ames","state_name":"Iowa","lat":42.01732,"lng":-93.64809,"zip":"50013","miles_from_dt":28.85},{"city":"Prairie City","state_name":"Iowa","lat":41.57008,"lng":-93.24154,"zip":"50228","miles_from_dt":29.03},{"city":"Panora","state_name":"Iowa","lat":41.69798,"lng":-94.35023,"zip":"50216","miles_from_dt":29.12},{"city":"Ames","state_name":"Iowa","lat":42.02222,"lng":-93.63948,"zip":"50011","miles_from_dt":29.3},{"city":"Truro","state_name":"Iowa","lat":41.19092,"lng":-93.85048,"zip":"50257","miles_from_dt":29.37},{"city":"Mingo","state_name":"Iowa","lat":41.77725,"lng":-93.27248,"zip":"50168","miles_from_dt":29.44},{"city":"Stuart","state_name":"Iowa","lat":41.48088,"lng":-94.34062,"zip":"50250","miles_from_dt":29.58},{"city":"Ames","state_name":"Iowa","lat":42.02904,"lng":-93.65086,"zip":"50012","miles_from_dt":29.59},{"city":"Colfax","state_name":"Iowa","lat":41.68729,"lng":-93.23196,"zip":"50054","miles_from_dt":29.76},{"city":"New Virginia","state_name":"Iowa","lat":41.18998,"lng":-93.6978,"zip":"50210","miles_from_dt":29.78},{"city":"Milo","state_name":"Iowa","lat":41.28289,"lng":-93.42629,"zip":"50166","miles_from_dt":29.97}],"targetCityZipCode":"50325","targetCityState":"Iowa"},"__N_SSG":true}