{"pageProps":{"stateName":"Iowa","cityName":"dexter","nearbyCities":[{"city":"Stuart","state_name":"Iowa","lat":41.48088,"lng":-94.34062,"zip":"50250","miles_from_dt":5.67},{"city":"Earlham","state_name":"Iowa","lat":41.46984,"lng":-94.12115,"zip":"50072","miles_from_dt":6.14},{"city":"Menlo","state_name":"Iowa","lat":41.49921,"lng":-94.42176,"zip":"50164","miles_from_dt":10.06},{"city":"Redfield","state_name":"Iowa","lat":41.61221,"lng":-94.21095,"zip":"50233","miles_from_dt":11},{"city":"De Soto","state_name":"Iowa","lat":41.52104,"lng":-94.02993,"zip":"50069","miles_from_dt":11.72},{"city":"Winterset","state_name":"Iowa","lat":41.32838,"lng":-94.05606,"zip":"50273","miles_from_dt":12.81},{"city":"Greenfield","state_name":"Iowa","lat":41.30004,"lng":-94.40176,"zip":"50849","miles_from_dt":13.63},{"city":"Adel","state_name":"Iowa","lat":41.61192,"lng":-94.04352,"zip":"50003","miles_from_dt":14.83},{"city":"Casey","state_name":"Iowa","lat":41.51167,"lng":-94.51936,"zip":"50048","miles_from_dt":15.16},{"city":"Linden","state_name":"Iowa","lat":41.68038,"lng":-94.24905,"zip":"50146","miles_from_dt":15.63},{"city":"Van Meter","state_name":"Iowa","lat":41.47014,"lng":-93.92286,"zip":"50261","miles_from_dt":16.37},{"city":"Macksburg","state_name":"Iowa","lat":41.21288,"lng":-94.19713,"zip":"50155","miles_from_dt":16.77},{"city":"Panora","state_name":"Iowa","lat":41.69798,"lng":-94.35023,"zip":"50216","miles_from_dt":17.82},{"city":"Booneville","state_name":"Iowa","lat":41.52186,"lng":-93.90064,"zip":"50038","miles_from_dt":18.09},{"city":"Orient","state_name":"Iowa","lat":41.20961,"lng":-94.40902,"zip":"50858","miles_from_dt":19.08},{"city":"Fontanelle","state_name":"Iowa","lat":41.31081,"lng":-94.56839,"zip":"50846","miles_from_dt":19.84},{"city":"Patterson","state_name":"Iowa","lat":41.34844,"lng":-93.87755,"zip":"50218","miles_from_dt":20.07},{"city":"Waukee","state_name":"Iowa","lat":41.60391,"lng":-93.87989,"zip":"50263","miles_from_dt":21.23},{"city":"Adair","state_name":"Iowa","lat":41.51236,"lng":-94.64801,"zip":"50002","miles_from_dt":21.68},{"city":"Peru","state_name":"Iowa","lat":41.21701,"lng":-93.95369,"zip":"50222","miles_from_dt":22.03},{"city":"Lorimor","state_name":"Iowa","lat":41.1512,"lng":-94.08194,"zip":"50149","miles_from_dt":22.41},{"city":"Minburn","state_name":"Iowa","lat":41.74613,"lng":-94.04871,"zip":"50167","miles_from_dt":22.41},{"city":"Dallas Center","state_name":"Iowa","lat":41.69669,"lng":-93.93677,"zip":"50063","miles_from_dt":22.87},{"city":"Guthrie Center","state_name":"Iowa","lat":41.68765,"lng":-94.55501,"zip":"50115","miles_from_dt":23.04},{"city":"Yale","state_name":"Iowa","lat":41.77867,"lng":-94.347,"zip":"50277","miles_from_dt":23.11},{"city":"Cumming","state_name":"Iowa","lat":41.48022,"lng":-93.79343,"zip":"50061","miles_from_dt":23.12},{"city":"West Des Moines","state_name":"Iowa","lat":41.56323,"lng":-93.81107,"zip":"50266","miles_from_dt":23.37},{"city":"Bevington","state_name":"Iowa","lat":41.36048,"lng":-93.79416,"zip":"50033","miles_from_dt":23.92},{"city":"Dawson","state_name":"Iowa","lat":41.8051,"lng":-94.22708,"zip":"50066","miles_from_dt":24.24},{"city":"Prole","state_name":"Iowa","lat":41.37416,"lng":-93.77906,"zip":"50229","miles_from_dt":24.44},{"city":"Urbandale","state_name":"Iowa","lat":41.63894,"lng":-93.8185,"zip":"50323","miles_from_dt":25.19},{"city":"Clive","state_name":"Iowa","lat":41.61475,"lng":-93.79864,"zip":"50325","miles_from_dt":25.31},{"city":"Saint Charles","state_name":"Iowa","lat":41.29368,"lng":-93.796,"zip":"50240","miles_from_dt":25.48},{"city":"Des Moines","state_name":"Iowa","lat":41.59563,"lng":-93.76633,"zip":"50367","miles_from_dt":26.32},{"city":"Des Moines","state_name":"Iowa","lat":41.59516,"lng":-93.76498,"zip":"50363","miles_from_dt":26.37},{"city":"Des Moines","state_name":"Iowa","lat":41.59851,"lng":-93.76677,"zip":"50368","miles_from_dt":26.37},{"city":"Des Moines","state_name":"Iowa","lat":41.5949,"lng":-93.76456,"zip":"50360","miles_from_dt":26.38},{"city":"Des Moines","state_name":"Iowa","lat":41.59584,"lng":-93.76498,"zip":"50359","miles_from_dt":26.39},{"city":"Des Moines","state_name":"Iowa","lat":41.59649,"lng":-93.76501,"zip":"50362","miles_from_dt":26.4},{"city":"Des Moines","state_name":"Iowa","lat":41.5967,"lng":-93.76491,"zip":"50364","miles_from_dt":26.41},{"city":"Des Moines","state_name":"Iowa","lat":41.59727,"lng":-93.76435,"zip":"50361","miles_from_dt":26.45},{"city":"Martensdale","state_name":"Iowa","lat":41.37385,"lng":-93.7387,"zip":"50160","miles_from_dt":26.49},{"city":"Anita","state_name":"Iowa","lat":41.43364,"lng":-94.75215,"zip":"50020","miles_from_dt":26.76},{"city":"West Des Moines","state_name":"Iowa","lat":41.55129,"lng":-93.73821,"zip":"50265","miles_from_dt":26.76},{"city":"Perry","state_name":"Iowa","lat":41.8366,"lng":-94.12293,"zip":"50220","miles_from_dt":27.06},{"city":"Creston","state_name":"Iowa","lat":41.07959,"lng":-94.39224,"zip":"50801","miles_from_dt":27.07},{"city":"Truro","state_name":"Iowa","lat":41.19092,"lng":-93.85048,"zip":"50257","miles_from_dt":27.11},{"city":"Des Moines","state_name":"Iowa","lat":41.59594,"lng":-93.7462,"zip":"50369","miles_from_dt":27.29},{"city":"Des Moines","state_name":"Iowa","lat":41.59716,"lng":-93.74644,"zip":"50339","miles_from_dt":27.31},{"city":"Jamaica","state_name":"Iowa","lat":41.85173,"lng":-94.29853,"zip":"50128","miles_from_dt":27.63},{"city":"Grimes","state_name":"Iowa","lat":41.69353,"lng":-93.80358,"zip":"50111","miles_from_dt":27.91},{"city":"Bridgewater","state_name":"Iowa","lat":41.22878,"lng":-94.68367,"zip":"50837","miles_from_dt":27.93},{"city":"Saint Marys","state_name":"Iowa","lat":41.30771,"lng":-93.73368,"zip":"50241","miles_from_dt":28.06},{"city":"Des Moines","state_name":"Iowa","lat":41.56853,"lng":-93.7145,"zip":"50336","miles_from_dt":28.25},{"city":"Bouton","state_name":"Iowa","lat":41.82615,"lng":-94.00653,"zip":"50039","miles_from_dt":28.33},{"city":"Norwalk","state_name":"Iowa","lat":41.45614,"lng":-93.6887,"zip":"50211","miles_from_dt":28.49},{"city":"Urbandale","state_name":"Iowa","lat":41.57758,"lng":-93.70871,"zip":"50398","miles_from_dt":28.72},{"city":"Urbandale","state_name":"Iowa","lat":41.63383,"lng":-93.73589,"zip":"50322","miles_from_dt":28.81},{"city":"Windsor Heights","state_name":"Iowa","lat":41.60471,"lng":-93.71273,"zip":"50324","miles_from_dt":29.13},{"city":"Afton","state_name":"Iowa","lat":41.0242,"lng":-94.19037,"zip":"50830","miles_from_dt":29.76},{"city":"Des Moines","state_name":"Iowa","lat":41.62711,"lng":-93.71089,"zip":"50334","miles_from_dt":29.8},{"city":"Des Moines","state_name":"Iowa","lat":41.53997,"lng":-93.67184,"zip":"50321","miles_from_dt":29.94},{"city":"Bagley","state_name":"Iowa","lat":41.85823,"lng":-94.44958,"zip":"50026","miles_from_dt":29.98}],"targetCityZipCode":"50070","targetCityState":"Iowa"},"__N_SSG":true}