{"pageProps":{"stateName":"Iowa","cityName":"durango","nearbyCities":[{"city":"Dubuque","state_name":"Iowa","lat":42.52481,"lng":-90.77184,"zip":"52002","miles_from_dt":4.47},{"city":"Sherrill","state_name":"Iowa","lat":42.62331,"lng":-90.82069,"zip":"52073","miles_from_dt":6.18},{"city":"Epworth","state_name":"Iowa","lat":42.45485,"lng":-90.93113,"zip":"52045","miles_from_dt":6.87},{"city":"Holy Cross","state_name":"Iowa","lat":42.60656,"lng":-90.96399,"zip":"52053","miles_from_dt":7.2},{"city":"Peosta","state_name":"Iowa","lat":42.42382,"lng":-90.81128,"zip":"52068","miles_from_dt":8.23},{"city":"Dubuque","state_name":"Iowa","lat":42.54819,"lng":-90.69348,"zip":"52001","miles_from_dt":8.4},{"city":"Dubuque","state_name":"Iowa","lat":42.5001,"lng":-90.66775,"zip":"52004","miles_from_dt":10.03},{"city":"Dubuque","state_name":"Iowa","lat":42.49588,"lng":-90.66751,"zip":"52099","miles_from_dt":10.13},{"city":"Farley","state_name":"Iowa","lat":42.44024,"lng":-91.0119,"zip":"52046","miles_from_dt":10.39},{"city":"Dubuque","state_name":"Iowa","lat":42.43434,"lng":-90.67506,"zip":"52003","miles_from_dt":11.75},{"city":"Luxemburg","state_name":"Iowa","lat":42.60401,"lng":-91.07257,"zip":"52056","miles_from_dt":11.88},{"city":"North Buena Vista","state_name":"Iowa","lat":42.693,"lng":-90.96925,"zip":"52066","miles_from_dt":12.12},{"city":"New Vienna","state_name":"Iowa","lat":42.58353,"lng":-91.10202,"zip":"52065","miles_from_dt":12.87},{"city":"Potosi","state_name":"Wisconsin","lat":42.69649,"lng":-90.70984,"zip":"53820","miles_from_dt":13.27},{"city":"Kieler","state_name":"Wisconsin","lat":42.5808,"lng":-90.60239,"zip":"53812","miles_from_dt":13.35},{"city":"Cassville","state_name":"Wisconsin","lat":42.73554,"lng":-90.92544,"zip":"53806","miles_from_dt":14.06},{"city":"Dyersville","state_name":"Iowa","lat":42.51114,"lng":-91.13884,"zip":"52040","miles_from_dt":14.49},{"city":"Dickeyville","state_name":"Wisconsin","lat":42.63745,"lng":-90.59204,"zip":"53808","miles_from_dt":15.18},{"city":"East Dubuque","state_name":"Illinois","lat":42.46958,"lng":-90.55904,"zip":"61025","miles_from_dt":15.96},{"city":"Sinsinawa","state_name":"Wisconsin","lat":42.52378,"lng":-90.53785,"zip":"53824","miles_from_dt":16.35},{"city":"Worthington","state_name":"Iowa","lat":42.39506,"lng":-91.11534,"zip":"52078","miles_from_dt":16.47},{"city":"Bernard","state_name":"Iowa","lat":42.29006,"lng":-90.84317,"zip":"52032","miles_from_dt":17.13},{"city":"Hazel Green","state_name":"Wisconsin","lat":42.53576,"lng":-90.51541,"zip":"53811","miles_from_dt":17.46},{"city":"Beetown","state_name":"Wisconsin","lat":42.80538,"lng":-90.89358,"zip":"53802","miles_from_dt":18.54},{"city":"Zwingle","state_name":"Iowa","lat":42.28781,"lng":-90.71908,"zip":"52079","miles_from_dt":18.67},{"city":"Colesburg","state_name":"Iowa","lat":42.65996,"lng":-91.18784,"zip":"52035","miles_from_dt":18.83},{"city":"Cascade","state_name":"Iowa","lat":42.27941,"lng":-91.00177,"zip":"52033","miles_from_dt":19.32},{"city":"Guttenberg","state_name":"Iowa","lat":42.7411,"lng":-91.12083,"zip":"52052","miles_from_dt":19.41},{"city":"La Motte","state_name":"Iowa","lat":42.30569,"lng":-90.62811,"zip":"52054","miles_from_dt":19.87},{"city":"Saint Donatus","state_name":"Iowa","lat":42.36245,"lng":-90.54234,"zip":"52071","miles_from_dt":20.16},{"city":"Earlville","state_name":"Iowa","lat":42.5051,"lng":-91.25515,"zip":"52041","miles_from_dt":20.43},{"city":"Cuba City","state_name":"Wisconsin","lat":42.61123,"lng":-90.46668,"zip":"53807","miles_from_dt":20.56},{"city":"Glen Haven","state_name":"Wisconsin","lat":42.82144,"lng":-90.9984,"zip":"53810","miles_from_dt":20.84},{"city":"Lancaster","state_name":"Wisconsin","lat":42.84402,"lng":-90.71641,"zip":"53813","miles_from_dt":22.31},{"city":"Bloomington","state_name":"Wisconsin","lat":42.87645,"lng":-90.90798,"zip":"53804","miles_from_dt":23.5},{"city":"Platteville","state_name":"Wisconsin","lat":42.74725,"lng":-90.49177,"zip":"53818","miles_from_dt":23.57},{"city":"Hopkinton","state_name":"Iowa","lat":42.34368,"lng":-91.25193,"zip":"52237","miles_from_dt":24.22},{"city":"Garber","state_name":"Iowa","lat":42.73735,"lng":-91.25584,"zip":"52048","miles_from_dt":24.52},{"city":"Greeley","state_name":"Iowa","lat":42.60532,"lng":-91.33204,"zip":"52050","miles_from_dt":24.65},{"city":"Galena","state_name":"Illinois","lat":42.4172,"lng":-90.39816,"zip":"61036","miles_from_dt":24.91},{"city":"Delaware","state_name":"Iowa","lat":42.47285,"lng":-91.34086,"zip":"52036","miles_from_dt":25.1},{"city":"Delhi","state_name":"Iowa","lat":42.41315,"lng":-91.32408,"zip":"52223","miles_from_dt":25.35},{"city":"Benton","state_name":"Wisconsin","lat":42.55915,"lng":-90.35508,"zip":"53803","miles_from_dt":25.68},{"city":"Bellevue","state_name":"Iowa","lat":42.24874,"lng":-90.48922,"zip":"52031","miles_from_dt":27.45},{"city":"Edgewood","state_name":"Iowa","lat":42.68098,"lng":-91.36517,"zip":"52042","miles_from_dt":27.7},{"city":"Monticello","state_name":"Iowa","lat":42.21983,"lng":-91.19737,"zip":"52310","miles_from_dt":28.02},{"city":"Onslow","state_name":"Iowa","lat":42.14168,"lng":-90.98307,"zip":"52321","miles_from_dt":28.11},{"city":"Patch Grove","state_name":"Wisconsin","lat":42.94028,"lng":-90.97234,"zip":"53817","miles_from_dt":28.37},{"city":"Elkport","state_name":"Iowa","lat":42.76808,"lng":-91.32328,"zip":"52044","miles_from_dt":28.56},{"city":"Monmouth","state_name":"Iowa","lat":42.12415,"lng":-90.88733,"zip":"52309","miles_from_dt":28.61},{"city":"Bagley","state_name":"Wisconsin","lat":42.92505,"lng":-91.06959,"zip":"53801","miles_from_dt":28.81},{"city":"Stitzer","state_name":"Wisconsin","lat":42.91833,"lng":-90.58851,"zip":"53825","miles_from_dt":29.6},{"city":"Garnavillo","state_name":"Iowa","lat":42.8823,"lng":-91.20521,"zip":"52049","miles_from_dt":29.63},{"city":"Andrew","state_name":"Iowa","lat":42.15322,"lng":-90.59219,"zip":"52030","miles_from_dt":29.83}],"targetCityZipCode":"52039","targetCityState":"Iowa"},"__N_SSG":true}