{"pageProps":{"stateName":"Iowa","cityName":"elkader","nearbyCities":[{"city":"Saint Olaf","state_name":"Iowa","lat":42.92022,"lng":-91.38025,"zip":"52072","miles_from_dt":5.67},{"city":"Volga","state_name":"Iowa","lat":42.82258,"lng":-91.55393,"zip":"52077","miles_from_dt":6.86},{"city":"Elkport","state_name":"Iowa","lat":42.76808,"lng":-91.32328,"zip":"52044","miles_from_dt":7.26},{"city":"Farmersburg","state_name":"Iowa","lat":42.96401,"lng":-91.34301,"zip":"52047","miles_from_dt":9.2},{"city":"Strawberry Point","state_name":"Iowa","lat":42.69805,"lng":-91.50984,"zip":"52076","miles_from_dt":11.02},{"city":"Garber","state_name":"Iowa","lat":42.73735,"lng":-91.25584,"zip":"52048","miles_from_dt":11.21},{"city":"Garnavillo","state_name":"Iowa","lat":42.8823,"lng":-91.20521,"zip":"52049","miles_from_dt":11.32},{"city":"Edgewood","state_name":"Iowa","lat":42.68098,"lng":-91.36517,"zip":"52042","miles_from_dt":11.62},{"city":"Wadena","state_name":"Iowa","lat":42.84739,"lng":-91.65971,"zip":"52169","miles_from_dt":12.08},{"city":"Elgin","state_name":"Iowa","lat":42.93924,"lng":-91.63007,"zip":"52141","miles_from_dt":12.44},{"city":"Luana","state_name":"Iowa","lat":43.05316,"lng":-91.46534,"zip":"52156","miles_from_dt":14.6},{"city":"Arlington","state_name":"Iowa","lat":42.74669,"lng":-91.68299,"zip":"50606","miles_from_dt":14.87},{"city":"McGregor","state_name":"Iowa","lat":43.01661,"lng":-91.23216,"zip":"52157","miles_from_dt":15.32},{"city":"Monona","state_name":"Iowa","lat":43.07979,"lng":-91.36134,"zip":"52159","miles_from_dt":16.56},{"city":"Guttenberg","state_name":"Iowa","lat":42.7411,"lng":-91.12083,"zip":"52052","miles_from_dt":16.88},{"city":"Greeley","state_name":"Iowa","lat":42.60532,"lng":-91.33204,"zip":"52050","miles_from_dt":17.1},{"city":"Clermont","state_name":"Iowa","lat":43.01945,"lng":-91.66204,"zip":"52135","miles_from_dt":17.17},{"city":"Colesburg","state_name":"Iowa","lat":42.65996,"lng":-91.18784,"zip":"52035","miles_from_dt":17.42},{"city":"Marquette","state_name":"Iowa","lat":43.04388,"lng":-91.18647,"zip":"52158","miles_from_dt":18.25},{"city":"Bagley","state_name":"Wisconsin","lat":42.92505,"lng":-91.06959,"zip":"53801","miles_from_dt":18.74},{"city":"Fayette","state_name":"Iowa","lat":42.82752,"lng":-91.79441,"zip":"52142","miles_from_dt":18.95},{"city":"Dundee","state_name":"Iowa","lat":42.58586,"lng":-91.55685,"zip":"52038","miles_from_dt":19.1},{"city":"Lamont","state_name":"Iowa","lat":42.61915,"lng":-91.65429,"zip":"50650","miles_from_dt":19.51},{"city":"Postville","state_name":"Iowa","lat":43.11062,"lng":-91.55266,"zip":"52162","miles_from_dt":19.56},{"city":"Glen Haven","state_name":"Wisconsin","lat":42.82144,"lng":-90.9984,"zip":"53810","miles_from_dt":21.58},{"city":"Castalia","state_name":"Iowa","lat":43.10702,"lng":-91.66854,"zip":"52133","miles_from_dt":22.04},{"city":"West Union","state_name":"Iowa","lat":42.99372,"lng":-91.82389,"zip":"52175","miles_from_dt":22.86},{"city":"Prairie Du Chien","state_name":"Wisconsin","lat":43.04769,"lng":-91.06569,"zip":"53821","miles_from_dt":22.89},{"city":"Aurora","state_name":"Iowa","lat":42.60872,"lng":-91.74747,"zip":"50607","miles_from_dt":23.2},{"city":"Stanley","state_name":"Iowa","lat":42.6523,"lng":-91.7997,"zip":"50671","miles_from_dt":23.33},{"city":"Patch Grove","state_name":"Wisconsin","lat":42.94028,"lng":-90.97234,"zip":"53817","miles_from_dt":23.77},{"city":"Randalia","state_name":"Iowa","lat":42.85212,"lng":-91.89941,"zip":"52164","miles_from_dt":24.25},{"city":"New Vienna","state_name":"Iowa","lat":42.58353,"lng":-91.10202,"zip":"52065","miles_from_dt":24.26},{"city":"Luxemburg","state_name":"Iowa","lat":42.60401,"lng":-91.07257,"zip":"52056","miles_from_dt":24.31},{"city":"Manchester","state_name":"Iowa","lat":42.4916,"lng":-91.45333,"zip":"52057","miles_from_dt":24.38},{"city":"Maynard","state_name":"Iowa","lat":42.77232,"lng":-91.9016,"zip":"50655","miles_from_dt":24.87},{"city":"Earlville","state_name":"Iowa","lat":42.5051,"lng":-91.25515,"zip":"52041","miles_from_dt":24.89},{"city":"North Buena Vista","state_name":"Iowa","lat":42.693,"lng":-90.96925,"zip":"52066","miles_from_dt":25.28},{"city":"Ossian","state_name":"Iowa","lat":43.12733,"lng":-91.75623,"zip":"52161","miles_from_dt":25.87},{"city":"Delaware","state_name":"Iowa","lat":42.47285,"lng":-91.34086,"zip":"52036","miles_from_dt":25.95},{"city":"Bloomington","state_name":"Wisconsin","lat":42.87645,"lng":-90.90798,"zip":"53804","miles_from_dt":26.2},{"city":"Cassville","state_name":"Wisconsin","lat":42.73554,"lng":-90.92544,"zip":"53806","miles_from_dt":26.33},{"city":"Harpers Ferry","state_name":"Iowa","lat":43.18826,"lng":-91.19588,"zip":"52146","miles_from_dt":26.38},{"city":"Beetown","state_name":"Wisconsin","lat":42.80538,"lng":-90.89358,"zip":"53802","miles_from_dt":26.98},{"city":"Dyersville","state_name":"Iowa","lat":42.51114,"lng":-91.13884,"zip":"52040","miles_from_dt":27.13},{"city":"Waterville","state_name":"Iowa","lat":43.22886,"lng":-91.30485,"zip":"52170","miles_from_dt":27.22},{"city":"Oelwein","state_name":"Iowa","lat":42.68748,"lng":-91.93396,"zip":"50662","miles_from_dt":28.19},{"city":"Masonville","state_name":"Iowa","lat":42.45812,"lng":-91.60933,"zip":"50654","miles_from_dt":28.3},{"city":"Hawkeye","state_name":"Iowa","lat":42.94957,"lng":-91.96106,"zip":"52147","miles_from_dt":28.31},{"city":"Holy Cross","state_name":"Iowa","lat":42.60656,"lng":-90.96399,"zip":"52053","miles_from_dt":28.5},{"city":"Waukon","state_name":"Iowa","lat":43.27117,"lng":-91.48382,"zip":"52172","miles_from_dt":29.65}],"targetCityZipCode":"52043","targetCityState":"Iowa"},"__N_SSG":true}