{"pageProps":{"stateName":"Iowa","cityName":"fairfax","nearbyCities":[{"city":"Walford","state_name":"Iowa","lat":41.87496,"lng":-91.83529,"zip":"52351","miles_from_dt":2.97},{"city":"Cedar Rapids","state_name":"Iowa","lat":41.92153,"lng":-91.69077,"zip":"52404","miles_from_dt":5.34},{"city":"Norway","state_name":"Iowa","lat":41.89012,"lng":-91.89656,"zip":"52318","miles_from_dt":5.5},{"city":"Cedar Rapids","state_name":"Iowa","lat":41.9199,"lng":-91.67799,"zip":"52406","miles_from_dt":5.96},{"city":"Cedar Rapids","state_name":"Iowa","lat":41.98644,"lng":-91.74774,"zip":"52405","miles_from_dt":6.19},{"city":"Swisher","state_name":"Iowa","lat":41.82904,"lng":-91.70858,"zip":"52338","miles_from_dt":6.64},{"city":"Cedar Rapids","state_name":"Iowa","lat":41.9879,"lng":-91.71311,"zip":"52408","miles_from_dt":7.12},{"city":"Cedar Rapids","state_name":"Iowa","lat":41.98957,"lng":-91.71433,"zip":"52409","miles_from_dt":7.18},{"city":"Atkins","state_name":"Iowa","lat":41.99187,"lng":-91.88718,"zip":"52206","miles_from_dt":7.88},{"city":"Amana","state_name":"Iowa","lat":41.81035,"lng":-91.8906,"zip":"52203","miles_from_dt":8.18},{"city":"Amana","state_name":"Iowa","lat":41.79852,"lng":-91.87065,"zip":"52204","miles_from_dt":8.28},{"city":"Cedar Rapids","state_name":"Iowa","lat":41.97534,"lng":-91.65871,"zip":"52401","miles_from_dt":8.47},{"city":"Cedar Rapids","state_name":"Iowa","lat":41.97494,"lng":-91.6551,"zip":"52499","miles_from_dt":8.61},{"city":"Cedar Rapids","state_name":"Iowa","lat":41.97584,"lng":-91.65536,"zip":"52407","miles_from_dt":8.63},{"city":"Middle Amana","state_name":"Iowa","lat":41.79158,"lng":-91.90244,"zip":"52307","miles_from_dt":9.58},{"city":"Watkins","state_name":"Iowa","lat":41.91883,"lng":-91.98856,"zip":"52354","miles_from_dt":10.23},{"city":"Cedar Rapids","state_name":"Iowa","lat":42.00587,"lng":-91.64172,"zip":"52497","miles_from_dt":10.49},{"city":"Cedar Rapids","state_name":"Iowa","lat":42.02179,"lng":-91.66109,"zip":"52498","miles_from_dt":10.6},{"city":"Cedar Rapids","state_name":"Iowa","lat":42.02126,"lng":-91.65851,"zip":"52410","miles_from_dt":10.66},{"city":"Cedar Rapids","state_name":"Iowa","lat":42.02272,"lng":-91.66001,"zip":"52402","miles_from_dt":10.69},{"city":"Cedar Rapids","state_name":"Iowa","lat":42.05093,"lng":-91.72723,"zip":"52411","miles_from_dt":10.74},{"city":"Palo","state_name":"Iowa","lat":42.06421,"lng":-91.80583,"zip":"52324","miles_from_dt":11.16},{"city":"Hiawatha","state_name":"Iowa","lat":42.04934,"lng":-91.68732,"zip":"52233","miles_from_dt":11.44},{"city":"Newhall","state_name":"Iowa","lat":42.00181,"lng":-91.96985,"zip":"52315","miles_from_dt":11.46},{"city":"Cedar Rapids","state_name":"Iowa","lat":41.96813,"lng":-91.57964,"zip":"52403","miles_from_dt":11.8},{"city":"Ely","state_name":"Iowa","lat":41.89647,"lng":-91.5626,"zip":"52227","miles_from_dt":11.8},{"city":"Homestead","state_name":"Iowa","lat":41.73143,"lng":-91.87647,"zip":"52236","miles_from_dt":12.62},{"city":"North Liberty","state_name":"Iowa","lat":41.76277,"lng":-91.63142,"zip":"52317","miles_from_dt":12.71},{"city":"Robins","state_name":"Iowa","lat":42.07195,"lng":-91.66641,"zip":"52328","miles_from_dt":13.33},{"city":"South Amana","state_name":"Iowa","lat":41.73084,"lng":-91.94355,"zip":"52334","miles_from_dt":14.24},{"city":"Toddville","state_name":"Iowa","lat":42.10535,"lng":-91.7341,"zip":"52341","miles_from_dt":14.29},{"city":"Shellsburg","state_name":"Iowa","lat":42.09861,"lng":-91.88772,"zip":"52332","miles_from_dt":14.4},{"city":"Oxford","state_name":"Iowa","lat":41.69221,"lng":-91.76284,"zip":"52322","miles_from_dt":14.61},{"city":"Tiffin","state_name":"Iowa","lat":41.70615,"lng":-91.68019,"zip":"52340","miles_from_dt":14.74},{"city":"Blairstown","state_name":"Iowa","lat":41.90809,"lng":-92.09462,"zip":"52209","miles_from_dt":15.64},{"city":"Marion","state_name":"Iowa","lat":42.0656,"lng":-91.57091,"zip":"52302","miles_from_dt":15.97},{"city":"Conroy","state_name":"Iowa","lat":41.72661,"lng":-91.99853,"zip":"52220","miles_from_dt":16.2},{"city":"Van Horne","state_name":"Iowa","lat":42.01298,"lng":-92.08119,"zip":"52346","miles_from_dt":16.76},{"city":"Solon","state_name":"Iowa","lat":41.80376,"lng":-91.48685,"zip":"52333","miles_from_dt":17.13},{"city":"Coralville","state_name":"Iowa","lat":41.69708,"lng":-91.59746,"zip":"52241","miles_from_dt":17.37},{"city":"Marengo","state_name":"Iowa","lat":41.78658,"lng":-92.09013,"zip":"52301","miles_from_dt":17.38},{"city":"Mount Vernon","state_name":"Iowa","lat":41.93439,"lng":-91.44985,"zip":"52314","miles_from_dt":17.74},{"city":"Alburnett","state_name":"Iowa","lat":42.15836,"lng":-91.63792,"zip":"52202","miles_from_dt":19.32},{"city":"Luzerne","state_name":"Iowa","lat":41.91836,"lng":-92.17742,"zip":"52257","miles_from_dt":19.93},{"city":"Iowa City","state_name":"Iowa","lat":41.64903,"lng":-91.59718,"zip":"52246","miles_from_dt":20.18},{"city":"Center Point","state_name":"Iowa","lat":42.1995,"lng":-91.77222,"zip":"52213","miles_from_dt":20.5},{"city":"Iowa City","state_name":"Iowa","lat":41.68504,"lng":-91.51708,"zip":"52244","miles_from_dt":20.65},{"city":"Iowa City","state_name":"Iowa","lat":41.66195,"lng":-91.54317,"zip":"52242","miles_from_dt":20.99},{"city":"Williamsburg","state_name":"Iowa","lat":41.6446,"lng":-92.0154,"zip":"52361","miles_from_dt":21.25},{"city":"Springville","state_name":"Iowa","lat":42.0689,"lng":-91.44111,"zip":"52336","miles_from_dt":21.37},{"city":"Iowa City","state_name":"Iowa","lat":41.6566,"lng":-91.53555,"zip":"52243","miles_from_dt":21.53},{"city":"Vinton","state_name":"Iowa","lat":42.17246,"lng":-92.00566,"zip":"52349","miles_from_dt":21.63},{"city":"Iowa City","state_name":"Iowa","lat":41.67071,"lng":-91.50666,"zip":"52245","miles_from_dt":21.74},{"city":"Keystone","state_name":"Iowa","lat":42.01202,"lng":-92.20517,"zip":"52249","miles_from_dt":22.61},{"city":"Urbana","state_name":"Iowa","lat":42.22239,"lng":-91.89177,"zip":"52345","miles_from_dt":22.65},{"city":"Lisbon","state_name":"Iowa","lat":41.89713,"lng":-91.35154,"zip":"52253","miles_from_dt":22.68},{"city":"Parnell","state_name":"Iowa","lat":41.58028,"lng":-91.92305,"zip":"52325","miles_from_dt":23.28},{"city":"Iowa City","state_name":"Iowa","lat":41.63143,"lng":-91.49924,"zip":"52240","miles_from_dt":24.05},{"city":"Belle Plaine","state_name":"Iowa","lat":41.88568,"lng":-92.26475,"zip":"52208","miles_from_dt":24.44},{"city":"Martelle","state_name":"Iowa","lat":42.01801,"lng":-91.34207,"zip":"52305","miles_from_dt":24.47},{"city":"Central City","state_name":"Iowa","lat":42.19056,"lng":-91.50704,"zip":"52214","miles_from_dt":24.66},{"city":"Ladora","state_name":"Iowa","lat":41.71218,"lng":-92.20314,"zip":"52251","miles_from_dt":25.01},{"city":"Garrison","state_name":"Iowa","lat":42.14609,"lng":-92.16884,"zip":"52229","miles_from_dt":25.68},{"city":"Walker","state_name":"Iowa","lat":42.28706,"lng":-91.77897,"zip":"52352","miles_from_dt":26.53},{"city":"Hills","state_name":"Iowa","lat":41.57024,"lng":-91.53281,"zip":"52235","miles_from_dt":26.56},{"city":"Kalona","state_name":"Iowa","lat":41.51503,"lng":-91.71774,"zip":"52247","miles_from_dt":27.03},{"city":"Troy Mills","state_name":"Iowa","lat":42.29202,"lng":-91.68325,"zip":"52344","miles_from_dt":27.43},{"city":"Mechanicsville","state_name":"Iowa","lat":41.89729,"lng":-91.25296,"zip":"52306","miles_from_dt":27.76},{"city":"West Branch","state_name":"Iowa","lat":41.69644,"lng":-91.32097,"zip":"52358","miles_from_dt":28.16},{"city":"Elberon","state_name":"Iowa","lat":42.01289,"lng":-92.32636,"zip":"52225","miles_from_dt":28.59},{"city":"Victor","state_name":"Iowa","lat":41.71345,"lng":-92.28591,"zip":"52347","miles_from_dt":28.69},{"city":"Morley","state_name":"Iowa","lat":42.00617,"lng":-91.24526,"zip":"52312","miles_from_dt":29.02},{"city":"Hartwick","state_name":"Iowa","lat":41.80128,"lng":-92.34043,"zip":"52232","miles_from_dt":29.19},{"city":"Mount Auburn","state_name":"Iowa","lat":42.25955,"lng":-92.09726,"zip":"52313","miles_from_dt":29.22},{"city":"Millersburg","state_name":"Iowa","lat":41.5733,"lng":-92.1592,"zip":"52308","miles_from_dt":29.64},{"city":"Wellman","state_name":"Iowa","lat":41.4749,"lng":-91.84769,"zip":"52356","miles_from_dt":29.68},{"city":"North English","state_name":"Iowa","lat":41.53727,"lng":-92.09367,"zip":"52316","miles_from_dt":29.68},{"city":"Prairieburg","state_name":"Iowa","lat":42.23758,"lng":-91.42576,"zip":"52219","miles_from_dt":29.79},{"city":"Anamosa","state_name":"Iowa","lat":42.11754,"lng":-91.28806,"zip":"52205","miles_from_dt":29.84}],"targetCityZipCode":"52228","targetCityState":"Iowa"},"__N_SSG":true}