{"pageProps":{"stateName":"Iowa","cityName":"farragut","nearbyCities":[{"city":"Riverton","state_name":"Iowa","lat":40.673,"lng":-95.5492,"zip":"51650","miles_from_dt":5.06},{"city":"Shenandoah","state_name":"Iowa","lat":40.7667,"lng":-95.37171,"zip":"51603","miles_from_dt":6.29},{"city":"Shenandoah","state_name":"Iowa","lat":40.72938,"lng":-95.35037,"zip":"51601","miles_from_dt":6.51},{"city":"Sidney","state_name":"Iowa","lat":40.77032,"lng":-95.62815,"zip":"51652","miles_from_dt":8.86},{"city":"Randolph","state_name":"Iowa","lat":40.8518,"lng":-95.53565,"zip":"51649","miles_from_dt":9.75},{"city":"Northboro","state_name":"Iowa","lat":40.60539,"lng":-95.34509,"zip":"51647","miles_from_dt":10.33},{"city":"Imogene","state_name":"Iowa","lat":40.88206,"lng":-95.4229,"zip":"51645","miles_from_dt":11.59},{"city":"Hamburg","state_name":"Iowa","lat":40.62262,"lng":-95.6634,"zip":"51640","miles_from_dt":11.97},{"city":"Coin","state_name":"Iowa","lat":40.66713,"lng":-95.23519,"zip":"51636","miles_from_dt":13.02},{"city":"Essex","state_name":"Iowa","lat":40.83919,"lng":-95.26663,"zip":"51638","miles_from_dt":13.68},{"city":"Westboro","state_name":"Missouri","lat":40.54023,"lng":-95.31255,"zip":"64498","miles_from_dt":14.94},{"city":"Tabor","state_name":"Iowa","lat":40.88444,"lng":-95.67179,"zip":"51653","miles_from_dt":15.46},{"city":"Blanchard","state_name":"Iowa","lat":40.60101,"lng":-95.19427,"zip":"51630","miles_from_dt":16.77},{"city":"Yorktown","state_name":"Iowa","lat":40.73527,"lng":-95.15437,"zip":"51656","miles_from_dt":16.8},{"city":"Thurman","state_name":"Iowa","lat":40.831,"lng":-95.76038,"zip":"51654","miles_from_dt":16.92},{"city":"Watson","state_name":"Missouri","lat":40.49563,"lng":-95.62372,"zip":"64496","miles_from_dt":17.29},{"city":"Percival","state_name":"Iowa","lat":40.74215,"lng":-95.80325,"zip":"51648","miles_from_dt":17.38},{"city":"Rock Port","state_name":"Missouri","lat":40.45345,"lng":-95.54329,"zip":"64482","miles_from_dt":18.66},{"city":"Malvern","state_name":"Iowa","lat":40.99129,"lng":-95.58907,"zip":"51551","miles_from_dt":19.77},{"city":"Tarkio","state_name":"Missouri","lat":40.44868,"lng":-95.34499,"zip":"64491","miles_from_dt":19.82},{"city":"College Springs","state_name":"Iowa","lat":40.62046,"lng":-95.11832,"zip":"51637","miles_from_dt":19.86},{"city":"Peru","state_name":"Nebraska","lat":40.492,"lng":-95.74426,"zip":"68421","miles_from_dt":21.14},{"city":"Hastings","state_name":"Iowa","lat":41.02488,"lng":-95.49802,"zip":"51540","miles_from_dt":21.17},{"city":"Red Oak","state_name":"Iowa","lat":40.97836,"lng":-95.25775,"zip":"51591","miles_from_dt":21.2},{"city":"Elmo","state_name":"Missouri","lat":40.53533,"lng":-95.13881,"zip":"64445","miles_from_dt":21.67},{"city":"Clarinda","state_name":"Iowa","lat":40.7478,"lng":-95.04939,"zip":"51632","miles_from_dt":22.36},{"city":"Nebraska City","state_name":"Nebraska","lat":40.63729,"lng":-95.88584,"zip":"68410","miles_from_dt":22.37},{"city":"Emerson","state_name":"Iowa","lat":41.03606,"lng":-95.37933,"zip":"51533","miles_from_dt":22.46},{"city":"Shambaugh","state_name":"Iowa","lat":40.65652,"lng":-95.03473,"zip":"51651","miles_from_dt":23.45},{"city":"Union","state_name":"Nebraska","lat":40.82286,"lng":-95.90123,"zip":"68455","miles_from_dt":23.56},{"city":"Red Oak","state_name":"Iowa","lat":41.0151,"lng":-95.22994,"zip":"51566","miles_from_dt":24.12},{"city":"Julian","state_name":"Nebraska","lat":40.52908,"lng":-95.86979,"zip":"68379","miles_from_dt":24.59},{"city":"Brownville","state_name":"Nebraska","lat":40.39491,"lng":-95.69371,"zip":"68321","miles_from_dt":25.16},{"city":"Braddyville","state_name":"Iowa","lat":40.60267,"lng":-95.00918,"zip":"51631","miles_from_dt":25.68},{"city":"Glenwood","state_name":"Iowa","lat":41.04092,"lng":-95.71853,"zip":"51534","miles_from_dt":25.68},{"city":"Pacific Junction","state_name":"Iowa","lat":41.00571,"lng":-95.80992,"zip":"51561","miles_from_dt":26.51},{"city":"Stanton","state_name":"Iowa","lat":40.97949,"lng":-95.09451,"zip":"51573","miles_from_dt":26.81},{"city":"Fairfax","state_name":"Missouri","lat":40.32176,"lng":-95.40297,"zip":"64446","miles_from_dt":27.63},{"city":"Burlington Junction","state_name":"Missouri","lat":40.4418,"lng":-95.08836,"zip":"64428","miles_from_dt":27.85},{"city":"Murray","state_name":"Nebraska","lat":40.90906,"lng":-95.95074,"zip":"68409","miles_from_dt":28.26},{"city":"Clearmont","state_name":"Missouri","lat":40.53046,"lng":-94.99357,"zip":"64431","miles_from_dt":28.38},{"city":"Henderson","state_name":"Iowa","lat":41.13664,"lng":-95.41623,"zip":"51541","miles_from_dt":29},{"city":"Nehawka","state_name":"Nebraska","lat":40.83775,"lng":-96.01053,"zip":"68413","miles_from_dt":29.34},{"city":"Dunbar","state_name":"Nebraska","lat":40.66195,"lng":-96.03066,"zip":"68346","miles_from_dt":29.52},{"city":"Nemaha","state_name":"Nebraska","lat":40.31966,"lng":-95.6991,"zip":"68414","miles_from_dt":29.98}],"targetCityZipCode":"51639","targetCityState":"Iowa"},"__N_SSG":true}