{"pageProps":{"stateName":"Iowa","cityName":"harcourt","nearbyCities":[{"city":"Boxholm","state_name":"Iowa","lat":42.17363,"lng":-94.10121,"zip":"50040","miles_from_dt":6.57},{"city":"Dayton","state_name":"Iowa","lat":42.27021,"lng":-94.04173,"zip":"50530","miles_from_dt":6.7},{"city":"Paton","state_name":"Iowa","lat":42.17206,"lng":-94.24984,"zip":"50217","miles_from_dt":6.95},{"city":"Gowrie","state_name":"Iowa","lat":42.27434,"lng":-94.30666,"zip":"50543","miles_from_dt":7.13},{"city":"Burnside","state_name":"Iowa","lat":42.3462,"lng":-94.10276,"zip":"50521","miles_from_dt":7.27},{"city":"Pilot Mound","state_name":"Iowa","lat":42.17117,"lng":-94.02831,"zip":"50223","miles_from_dt":9.25},{"city":"Lehigh","state_name":"Iowa","lat":42.35544,"lng":-94.04409,"zip":"50557","miles_from_dt":9.55},{"city":"Callender","state_name":"Iowa","lat":42.36783,"lng":-94.29357,"zip":"50523","miles_from_dt":10.09},{"city":"Otho","state_name":"Iowa","lat":42.4032,"lng":-94.13841,"zip":"50569","miles_from_dt":10.45},{"city":"Dana","state_name":"Iowa","lat":42.10671,"lng":-94.229,"zip":"50064","miles_from_dt":10.58},{"city":"Farnhamville","state_name":"Iowa","lat":42.28422,"lng":-94.43024,"zip":"50538","miles_from_dt":13.48},{"city":"Stratford","state_name":"Iowa","lat":42.26991,"lng":-93.89973,"zip":"50249","miles_from_dt":13.92},{"city":"Beaver","state_name":"Iowa","lat":42.03881,"lng":-94.14003,"zip":"50031","miles_from_dt":14.91},{"city":"Moorland","state_name":"Iowa","lat":42.43925,"lng":-94.32889,"zip":"50566","miles_from_dt":15.16},{"city":"Grand Junction","state_name":"Iowa","lat":42.03547,"lng":-94.2191,"zip":"50107","miles_from_dt":15.27},{"city":"Ogden","state_name":"Iowa","lat":42.03515,"lng":-94.05996,"zip":"50212","miles_from_dt":16.12},{"city":"Fort Dodge","state_name":"Iowa","lat":42.49244,"lng":-94.18967,"zip":"50501","miles_from_dt":16.51},{"city":"Duncombe","state_name":"Iowa","lat":42.46212,"lng":-94.00175,"zip":"50532","miles_from_dt":16.78},{"city":"Somers","state_name":"Iowa","lat":42.40472,"lng":-94.43204,"zip":"50586","miles_from_dt":16.98},{"city":"Churdan","state_name":"Iowa","lat":42.16459,"lng":-94.51054,"zip":"50050","miles_from_dt":18.5},{"city":"Lohrville","state_name":"Iowa","lat":42.26366,"lng":-94.55155,"zip":"51453","miles_from_dt":19.55},{"city":"Jefferson","state_name":"Iowa","lat":42.01335,"lng":-94.3764,"zip":"50129","miles_from_dt":19.68},{"city":"Boone","state_name":"Iowa","lat":42.0892,"lng":-93.85378,"zip":"50036","miles_from_dt":19.83},{"city":"Boone","state_name":"Iowa","lat":42.05965,"lng":-93.88218,"zip":"50099","miles_from_dt":19.96},{"city":"Stanhope","state_name":"Iowa","lat":42.28411,"lng":-93.78198,"zip":"50246","miles_from_dt":20.02},{"city":"Boone","state_name":"Iowa","lat":42.05618,"lng":-93.88076,"zip":"50037","miles_from_dt":20.18},{"city":"Knierim","state_name":"Iowa","lat":42.45638,"lng":-94.46068,"zip":"50552","miles_from_dt":20.41},{"city":"Barnum","state_name":"Iowa","lat":42.51212,"lng":-94.38241,"zip":"50518","miles_from_dt":20.88},{"city":"Rippey","state_name":"Iowa","lat":41.92974,"lng":-94.20873,"zip":"50235","miles_from_dt":22.45},{"city":"Webster City","state_name":"Iowa","lat":42.46097,"lng":-93.82154,"zip":"50595","miles_from_dt":22.88},{"city":"Vincent","state_name":"Iowa","lat":42.58561,"lng":-94.03949,"zip":"50594","miles_from_dt":23.87},{"city":"Rockwell City","state_name":"Iowa","lat":42.39356,"lng":-94.6345,"zip":"50579","miles_from_dt":25.66},{"city":"Jewell","state_name":"Iowa","lat":42.30074,"lng":-93.67331,"zip":"50130","miles_from_dt":25.69},{"city":"Badger","state_name":"Iowa","lat":42.62566,"lng":-94.13545,"zip":"50516","miles_from_dt":25.74},{"city":"Clare","state_name":"Iowa","lat":42.59992,"lng":-94.35799,"zip":"50524","miles_from_dt":25.75},{"city":"Scranton","state_name":"Iowa","lat":42.01319,"lng":-94.55744,"zip":"51462","miles_from_dt":25.9},{"city":"Cooper","state_name":"Iowa","lat":41.89957,"lng":-94.33951,"zip":"50059","miles_from_dt":25.94},{"city":"Manson","state_name":"Iowa","lat":42.52802,"lng":-94.52515,"zip":"50563","miles_from_dt":26.23},{"city":"Luther","state_name":"Iowa","lat":41.96873,"lng":-93.81765,"zip":"50152","miles_from_dt":26.75},{"city":"Kamrar","state_name":"Iowa","lat":42.39392,"lng":-93.68256,"zip":"50132","miles_from_dt":26.8},{"city":"Lanesboro","state_name":"Iowa","lat":42.1846,"lng":-94.69471,"zip":"51451","miles_from_dt":27.32},{"city":"Ralston","state_name":"Iowa","lat":42.04495,"lng":-94.63779,"zip":"51459","miles_from_dt":28},{"city":"Ames","state_name":"Iowa","lat":42.04993,"lng":-93.69342,"zip":"50014","miles_from_dt":28.25},{"city":"Jamaica","state_name":"Iowa","lat":41.85173,"lng":-94.29853,"zip":"50128","miles_from_dt":28.52},{"city":"Gilbert","state_name":"Iowa","lat":42.11754,"lng":-93.63912,"zip":"50105","miles_from_dt":28.85},{"city":"Perry","state_name":"Iowa","lat":41.8366,"lng":-94.12293,"zip":"50220","miles_from_dt":28.89},{"city":"Story City","state_name":"Iowa","lat":42.19256,"lng":-93.61297,"zip":"50248","miles_from_dt":28.91},{"city":"Lake City","state_name":"Iowa","lat":42.26614,"lng":-94.73475,"zip":"51449","miles_from_dt":28.95},{"city":"Woolstock","state_name":"Iowa","lat":42.58089,"lng":-93.81471,"zip":"50599","miles_from_dt":29},{"city":"Randall","state_name":"Iowa","lat":42.23765,"lng":-93.60257,"zip":"50231","miles_from_dt":29.14},{"city":"Thor","state_name":"Iowa","lat":42.67683,"lng":-94.05478,"zip":"50591","miles_from_dt":29.8}],"targetCityZipCode":"50544","targetCityState":"Iowa"},"__N_SSG":true}