{"pageProps":{"stateName":"Iowa","cityName":"ladora","nearbyCities":[{"city":"Victor","state_name":"Iowa","lat":41.71345,"lng":-92.28591,"zip":"52347","miles_from_dt":4.28},{"city":"Marengo","state_name":"Iowa","lat":41.78658,"lng":-92.09013,"zip":"52301","miles_from_dt":7.78},{"city":"Guernsey","state_name":"Iowa","lat":41.64151,"lng":-92.33215,"zip":"52221","miles_from_dt":8.27},{"city":"Hartwick","state_name":"Iowa","lat":41.80128,"lng":-92.34043,"zip":"52232","miles_from_dt":9.39},{"city":"Millersburg","state_name":"Iowa","lat":41.5733,"lng":-92.1592,"zip":"52308","miles_from_dt":9.85},{"city":"Conroy","state_name":"Iowa","lat":41.72661,"lng":-91.99853,"zip":"52220","miles_from_dt":10.63},{"city":"Williamsburg","state_name":"Iowa","lat":41.6446,"lng":-92.0154,"zip":"52361","miles_from_dt":10.78},{"city":"Deep River","state_name":"Iowa","lat":41.57623,"lng":-92.33693,"zip":"52222","miles_from_dt":11.66},{"city":"Belle Plaine","state_name":"Iowa","lat":41.88568,"lng":-92.26475,"zip":"52208","miles_from_dt":12.39},{"city":"Brooklyn","state_name":"Iowa","lat":41.75978,"lng":-92.45062,"zip":"52211","miles_from_dt":13.21},{"city":"North English","state_name":"Iowa","lat":41.53727,"lng":-92.09367,"zip":"52316","miles_from_dt":13.34},{"city":"South Amana","state_name":"Iowa","lat":41.73084,"lng":-91.94355,"zip":"52334","miles_from_dt":13.48},{"city":"Luzerne","state_name":"Iowa","lat":41.91836,"lng":-92.17742,"zip":"52257","miles_from_dt":14.29},{"city":"Blairstown","state_name":"Iowa","lat":41.90809,"lng":-92.09462,"zip":"52209","miles_from_dt":14.64},{"city":"Middle Amana","state_name":"Iowa","lat":41.79158,"lng":-91.90244,"zip":"52307","miles_from_dt":16.48},{"city":"Homestead","state_name":"Iowa","lat":41.73143,"lng":-91.87647,"zip":"52236","miles_from_dt":16.94},{"city":"Chelsea","state_name":"Iowa","lat":41.91018,"lng":-92.40106,"zip":"52215","miles_from_dt":17.06},{"city":"Parnell","state_name":"Iowa","lat":41.58028,"lng":-91.92305,"zip":"52325","miles_from_dt":17.12},{"city":"Keswick","state_name":"Iowa","lat":41.46984,"lng":-92.28927,"zip":"50136","miles_from_dt":17.31},{"city":"Amana","state_name":"Iowa","lat":41.81035,"lng":-91.8906,"zip":"52203","miles_from_dt":17.51},{"city":"Webster","state_name":"Iowa","lat":41.4576,"lng":-92.18387,"zip":"52355","miles_from_dt":17.6},{"city":"Gibson","state_name":"Iowa","lat":41.49458,"lng":-92.38841,"zip":"50104","miles_from_dt":17.82},{"city":"Watkins","state_name":"Iowa","lat":41.91883,"lng":-91.98856,"zip":"52354","miles_from_dt":18.06},{"city":"Amana","state_name":"Iowa","lat":41.79852,"lng":-91.87065,"zip":"52204","miles_from_dt":18.19},{"city":"Malcom","state_name":"Iowa","lat":41.74545,"lng":-92.56183,"zip":"50157","miles_from_dt":18.69},{"city":"Montezuma","state_name":"Iowa","lat":41.58434,"lng":-92.52584,"zip":"50171","miles_from_dt":18.89},{"city":"Thornburg","state_name":"Iowa","lat":41.45593,"lng":-92.33207,"zip":"50255","miles_from_dt":18.9},{"city":"South English","state_name":"Iowa","lat":41.45935,"lng":-92.05895,"zip":"52335","miles_from_dt":18.98},{"city":"Norway","state_name":"Iowa","lat":41.89012,"lng":-91.89656,"zip":"52318","miles_from_dt":20.04},{"city":"Keystone","state_name":"Iowa","lat":42.01202,"lng":-92.20517,"zip":"52249","miles_from_dt":20.69},{"city":"Barnes City","state_name":"Iowa","lat":41.4739,"lng":-92.47194,"zip":"50027","miles_from_dt":21.55},{"city":"Vining","state_name":"Iowa","lat":41.99331,"lng":-92.38597,"zip":"52348","miles_from_dt":21.57},{"city":"Van Horne","state_name":"Iowa","lat":42.01298,"lng":-92.08119,"zip":"52346","miles_from_dt":21.69},{"city":"Elberon","state_name":"Iowa","lat":42.01289,"lng":-92.32636,"zip":"52225","miles_from_dt":21.71},{"city":"Walford","state_name":"Iowa","lat":41.87496,"lng":-91.83529,"zip":"52351","miles_from_dt":22.07},{"city":"What Cheer","state_name":"Iowa","lat":41.40695,"lng":-92.36227,"zip":"50268","miles_from_dt":22.62},{"city":"Oxford","state_name":"Iowa","lat":41.69221,"lng":-91.76284,"zip":"52322","miles_from_dt":22.81},{"city":"Newhall","state_name":"Iowa","lat":42.00181,"lng":-91.96985,"zip":"52315","miles_from_dt":23.33},{"city":"Tama","state_name":"Iowa","lat":41.92313,"lng":-92.58307,"zip":"52339","miles_from_dt":24.43},{"city":"Wellman","state_name":"Iowa","lat":41.4749,"lng":-91.84769,"zip":"52356","miles_from_dt":24.64},{"city":"Fairfax","state_name":"Iowa","lat":41.90282,"lng":-91.79132,"zip":"52228","miles_from_dt":25.01},{"city":"Harper","state_name":"Iowa","lat":41.36371,"lng":-92.05912,"zip":"52231","miles_from_dt":25.18},{"city":"Atkins","state_name":"Iowa","lat":41.99187,"lng":-91.88718,"zip":"52206","miles_from_dt":25.27},{"city":"Grinnell","state_name":"Iowa","lat":41.7319,"lng":-92.71591,"zip":"50112","miles_from_dt":26.55},{"city":"Swisher","state_name":"Iowa","lat":41.82904,"lng":-91.70858,"zip":"52338","miles_from_dt":26.79},{"city":"Tiffin","state_name":"Iowa","lat":41.70615,"lng":-91.68019,"zip":"52340","miles_from_dt":27.05},{"city":"Sigourney","state_name":"Iowa","lat":41.31988,"lng":-92.19465,"zip":"52591","miles_from_dt":27.08},{"city":"Searsboro","state_name":"Iowa","lat":41.56332,"lng":-92.69428,"zip":"50242","miles_from_dt":27.42},{"city":"Clutier","state_name":"Iowa","lat":42.07948,"lng":-92.41067,"zip":"52217","miles_from_dt":27.52},{"city":"Delta","state_name":"Iowa","lat":41.31635,"lng":-92.36254,"zip":"52550","miles_from_dt":28.54},{"city":"Kalona","state_name":"Iowa","lat":41.51503,"lng":-91.71774,"zip":"52247","miles_from_dt":28.59},{"city":"Rose Hill","state_name":"Iowa","lat":41.34573,"lng":-92.46694,"zip":"52586","miles_from_dt":28.75},{"city":"Keota","state_name":"Iowa","lat":41.34386,"lng":-91.93891,"zip":"52248","miles_from_dt":28.88},{"city":"New Sharon","state_name":"Iowa","lat":41.43344,"lng":-92.6381,"zip":"50207","miles_from_dt":29.63},{"city":"Toledo","state_name":"Iowa","lat":42.05047,"lng":-92.55849,"zip":"52342","miles_from_dt":29.68},{"city":"North Liberty","state_name":"Iowa","lat":41.76277,"lng":-91.63142,"zip":"52317","miles_from_dt":29.76},{"city":"Garrison","state_name":"Iowa","lat":42.14609,"lng":-92.16884,"zip":"52229","miles_from_dt":30}],"targetCityZipCode":"52251","targetCityState":"Iowa"},"__N_SSG":true}