{"pageProps":{"stateName":"Iowa","cityName":"lucas","nearbyCities":[{"city":"Woodburn","state_name":"Iowa","lat":41.04375,"lng":-93.58852,"zip":"50275","miles_from_dt":5.41},{"city":"Liberty Center","state_name":"Iowa","lat":41.20387,"lng":-93.48515,"zip":"50145","miles_from_dt":8.52},{"city":"Derby","state_name":"Iowa","lat":40.94229,"lng":-93.46704,"zip":"50068","miles_from_dt":9.68},{"city":"Lacona","state_name":"Iowa","lat":41.19237,"lng":-93.36683,"zip":"50139","miles_from_dt":10.28},{"city":"Chariton","state_name":"Iowa","lat":41.03741,"lng":-93.29566,"zip":"50049","miles_from_dt":10.94},{"city":"Williamson","state_name":"Iowa","lat":41.08809,"lng":-93.25682,"zip":"50272","miles_from_dt":12.56},{"city":"New Virginia","state_name":"Iowa","lat":41.18998,"lng":-93.6978,"zip":"50210","miles_from_dt":12.9},{"city":"Osceola","state_name":"Iowa","lat":41.03292,"lng":-93.76557,"zip":"50213","miles_from_dt":14.4},{"city":"Milo","state_name":"Iowa","lat":41.28289,"lng":-93.42629,"zip":"50166","miles_from_dt":14.43},{"city":"Weldon","state_name":"Iowa","lat":40.89919,"lng":-93.70071,"zip":"50264","miles_from_dt":16.44},{"city":"Melcher Dallas","state_name":"Iowa","lat":41.2223,"lng":-93.24101,"zip":"50163","miles_from_dt":16.55},{"city":"Humeston","state_name":"Iowa","lat":40.83938,"lng":-93.50634,"zip":"50123","miles_from_dt":16.66},{"city":"Melcher Dallas","state_name":"Iowa","lat":41.23499,"lng":-93.24425,"zip":"50062","miles_from_dt":16.95},{"city":"Indianola","state_name":"Iowa","lat":41.33286,"lng":-93.57957,"zip":"50125","miles_from_dt":17.92},{"city":"Russell","state_name":"Iowa","lat":40.97124,"lng":-93.17502,"zip":"50238","miles_from_dt":18.45},{"city":"Millerton","state_name":"Iowa","lat":40.84808,"lng":-93.30937,"zip":"50165","miles_from_dt":18.82},{"city":"Columbia","state_name":"Iowa","lat":41.17859,"lng":-93.14554,"zip":"50057","miles_from_dt":19.55},{"city":"Ackworth","state_name":"Iowa","lat":41.3611,"lng":-93.43321,"zip":"50001","miles_from_dt":19.63},{"city":"Saint Marys","state_name":"Iowa","lat":41.30771,"lng":-93.73368,"zip":"50241","miles_from_dt":19.93},{"city":"Truro","state_name":"Iowa","lat":41.19092,"lng":-93.85048,"zip":"50257","miles_from_dt":19.94},{"city":"Garden Grove","state_name":"Iowa","lat":40.79292,"lng":-93.61079,"zip":"50103","miles_from_dt":20.73},{"city":"Saint Charles","state_name":"Iowa","lat":41.29368,"lng":-93.796,"zip":"50240","miles_from_dt":21.42},{"city":"Van Wert","state_name":"Iowa","lat":40.85625,"lng":-93.82091,"zip":"50262","miles_from_dt":22.95},{"city":"Martensdale","state_name":"Iowa","lat":41.37385,"lng":-93.7387,"zip":"50160","miles_from_dt":23.82},{"city":"Pleasantville","state_name":"Iowa","lat":41.3823,"lng":-93.27103,"zip":"50225","miles_from_dt":23.91},{"city":"Corydon","state_name":"Iowa","lat":40.75508,"lng":-93.31922,"zip":"50060","miles_from_dt":24.33},{"city":"Melrose","state_name":"Iowa","lat":40.97968,"lng":-93.04939,"zip":"52569","miles_from_dt":24.42},{"city":"Murray","state_name":"Iowa","lat":41.03723,"lng":-93.96167,"zip":"50174","miles_from_dt":24.45},{"city":"Bevington","state_name":"Iowa","lat":41.36048,"lng":-93.79416,"zip":"50033","miles_from_dt":24.74},{"city":"Prole","state_name":"Iowa","lat":41.37416,"lng":-93.77906,"zip":"50229","miles_from_dt":25.01},{"city":"Knoxville","state_name":"Iowa","lat":41.30246,"lng":-93.10534,"zip":"50138","miles_from_dt":25.52},{"city":"Peru","state_name":"Iowa","lat":41.21701,"lng":-93.95369,"zip":"50222","miles_from_dt":25.6},{"city":"Promise City","state_name":"Iowa","lat":40.80284,"lng":-93.1555,"zip":"52583","miles_from_dt":26.22},{"city":"Hartford","state_name":"Iowa","lat":41.45957,"lng":-93.37673,"zip":"50118","miles_from_dt":26.88},{"city":"Leon","state_name":"Iowa","lat":40.73327,"lng":-93.73615,"zip":"50144","miles_from_dt":27.04},{"city":"Patterson","state_name":"Iowa","lat":41.34844,"lng":-93.87755,"zip":"50218","miles_from_dt":27.1},{"city":"Carlisle","state_name":"Iowa","lat":41.47551,"lng":-93.46556,"zip":"50047","miles_from_dt":27.29},{"city":"Lovilia","state_name":"Iowa","lat":41.12771,"lng":-92.97404,"zip":"50150","miles_from_dt":27.5},{"city":"Hamilton","state_name":"Iowa","lat":41.17812,"lng":-92.98247,"zip":"50116","miles_from_dt":27.68},{"city":"Swan","state_name":"Iowa","lat":41.45881,"lng":-93.31518,"zip":"50252","miles_from_dt":27.76},{"city":"Norwalk","state_name":"Iowa","lat":41.45614,"lng":-93.6887,"zip":"50211","miles_from_dt":27.76},{"city":"Allerton","state_name":"Iowa","lat":40.67847,"lng":-93.38549,"zip":"50008","miles_from_dt":28.37},{"city":"Plano","state_name":"Iowa","lat":40.80504,"lng":-93.06265,"zip":"52581","miles_from_dt":29.65},{"city":"Grand River","state_name":"Iowa","lat":40.82479,"lng":-93.9577,"zip":"50108","miles_from_dt":29.87}],"targetCityZipCode":"50151","targetCityState":"Iowa"},"__N_SSG":true}