{"pageProps":{"stateName":"Iowa","cityName":"mystic","nearbyCities":[{"city":"Plano","state_name":"Iowa","lat":40.80504,"lng":-93.06265,"zip":"52581","miles_from_dt":4.89},{"city":"Centerville","state_name":"Iowa","lat":40.71774,"lng":-92.90831,"zip":"52544","miles_from_dt":7.02},{"city":"Moravia","state_name":"Iowa","lat":40.87739,"lng":-92.83114,"zip":"52571","miles_from_dt":8.68},{"city":"Promise City","state_name":"Iowa","lat":40.80284,"lng":-93.1555,"zip":"52583","miles_from_dt":9.76},{"city":"Udell","state_name":"Iowa","lat":40.77363,"lng":-92.73955,"zip":"52593","miles_from_dt":12.29},{"city":"Melrose","state_name":"Iowa","lat":40.97968,"lng":-93.04939,"zip":"52569","miles_from_dt":12.55},{"city":"Seymour","state_name":"Iowa","lat":40.6654,"lng":-93.13594,"zip":"52590","miles_from_dt":13.17},{"city":"Cincinnati","state_name":"Iowa","lat":40.61392,"lng":-92.94602,"zip":"52549","miles_from_dt":13.46},{"city":"Exline","state_name":"Iowa","lat":40.63905,"lng":-92.81046,"zip":"52555","miles_from_dt":14.35},{"city":"Russell","state_name":"Iowa","lat":40.97124,"lng":-93.17502,"zip":"50238","miles_from_dt":15.57},{"city":"Unionville","state_name":"Iowa","lat":40.83561,"lng":-92.64957,"zip":"52594","miles_from_dt":16.88},{"city":"Albia","state_name":"Iowa","lat":41.02684,"lng":-92.81562,"zip":"52531","miles_from_dt":17.1},{"city":"Moulton","state_name":"Iowa","lat":40.67795,"lng":-92.69163,"zip":"52572","miles_from_dt":17.13},{"city":"Millerton","state_name":"Iowa","lat":40.84808,"lng":-93.30937,"zip":"50165","miles_from_dt":18.03},{"city":"Corydon","state_name":"Iowa","lat":40.75508,"lng":-93.31922,"zip":"50060","miles_from_dt":18.71},{"city":"Blakesburg","state_name":"Iowa","lat":40.95291,"lng":-92.61802,"zip":"52536","miles_from_dt":20.94},{"city":"Lovilia","state_name":"Iowa","lat":41.12771,"lng":-92.97404,"zip":"50150","miles_from_dt":22.05},{"city":"Coatsville","state_name":"Missouri","lat":40.57244,"lng":-92.67946,"zip":"63535","miles_from_dt":22.29},{"city":"Unionville","state_name":"Missouri","lat":40.48263,"lng":-92.95447,"zip":"63565","miles_from_dt":22.48},{"city":"Drakesville","state_name":"Iowa","lat":40.83552,"lng":-92.53633,"zip":"52552","miles_from_dt":22.78},{"city":"Chariton","state_name":"Iowa","lat":41.03741,"lng":-93.29566,"zip":"50049","miles_from_dt":23.27},{"city":"Allerton","state_name":"Iowa","lat":40.67847,"lng":-93.38549,"zip":"50008","miles_from_dt":23.6},{"city":"Powersville","state_name":"Missouri","lat":40.53869,"lng":-93.26015,"zip":"64672","miles_from_dt":24.06},{"city":"Livonia","state_name":"Missouri","lat":40.49921,"lng":-92.74252,"zip":"63551","miles_from_dt":24.43},{"city":"Williamson","state_name":"Iowa","lat":41.08809,"lng":-93.25682,"zip":"50272","miles_from_dt":24.47},{"city":"Hamilton","state_name":"Iowa","lat":41.17812,"lng":-92.98247,"zip":"50116","miles_from_dt":25.53},{"city":"Columbia","state_name":"Iowa","lat":41.17859,"lng":-93.14554,"zip":"50057","miles_from_dt":27.16},{"city":"Clio","state_name":"Iowa","lat":40.64417,"lng":-93.44538,"zip":"50052","miles_from_dt":27.43},{"city":"Glenwood","state_name":"Missouri","lat":40.50355,"lng":-92.63331,"zip":"63541","miles_from_dt":27.46},{"city":"Bussey","state_name":"Iowa","lat":41.20247,"lng":-92.88907,"zip":"50044","miles_from_dt":27.53},{"city":"Derby","state_name":"Iowa","lat":40.94229,"lng":-93.46704,"zip":"50068","miles_from_dt":27.65},{"city":"Humeston","state_name":"Iowa","lat":40.83938,"lng":-93.50634,"zip":"50123","miles_from_dt":28.22},{"city":"Eddyville","state_name":"Iowa","lat":41.14865,"lng":-92.65668,"zip":"52553","miles_from_dt":28.63},{"city":"Lucerne","state_name":"Missouri","lat":40.44017,"lng":-93.23684,"zip":"64655","miles_from_dt":29.03},{"city":"Bloomfield","state_name":"Iowa","lat":40.7355,"lng":-92.41426,"zip":"52537","miles_from_dt":29.56},{"city":"Chillicothe","state_name":"Iowa","lat":41.0855,"lng":-92.5306,"zip":"52548","miles_from_dt":29.89}],"targetCityZipCode":"52574","targetCityState":"Iowa"},"__N_SSG":true}