{"pageProps":{"stateName":"Iowa","cityName":"nemaha","nearbyCities":[{"city":"Early","state_name":"Iowa","lat":42.45138,"lng":-95.16167,"zip":"50535","miles_from_dt":6.09},{"city":"Sac City","state_name":"Iowa","lat":42.43049,"lng":-94.98595,"zip":"50583","miles_from_dt":8.21},{"city":"Newell","state_name":"Iowa","lat":42.62171,"lng":-94.99395,"zip":"50568","miles_from_dt":8.46},{"city":"Storm Lake","state_name":"Iowa","lat":42.65777,"lng":-95.16391,"zip":"50588","miles_from_dt":10.15},{"city":"Schaller","state_name":"Iowa","lat":42.4938,"lng":-95.28842,"zip":"51053","miles_from_dt":10.34},{"city":"Varina","state_name":"Iowa","lat":42.65796,"lng":-94.89832,"zip":"50593","miles_from_dt":13.55},{"city":"Fonda","state_name":"Iowa","lat":42.60019,"lng":-94.8407,"zip":"50540","miles_from_dt":13.8},{"city":"Lytton","state_name":"Iowa","lat":42.42122,"lng":-94.84794,"zip":"50561","miles_from_dt":14.14},{"city":"Lake View","state_name":"Iowa","lat":42.31205,"lng":-95.02722,"zip":"51450","miles_from_dt":14.8},{"city":"Truesdale","state_name":"Iowa","lat":42.72927,"lng":-95.18345,"zip":"50592","miles_from_dt":15.12},{"city":"Odebolt","state_name":"Iowa","lat":42.32141,"lng":-95.23524,"zip":"51458","miles_from_dt":15.69},{"city":"Galva","state_name":"Iowa","lat":42.51215,"lng":-95.41249,"zip":"51020","miles_from_dt":16.51},{"city":"Alta","state_name":"Iowa","lat":42.69859,"lng":-95.31863,"zip":"51002","miles_from_dt":16.92},{"city":"Jolley","state_name":"Iowa","lat":42.48242,"lng":-94.75484,"zip":"50551","miles_from_dt":17.3},{"city":"Albert City","state_name":"Iowa","lat":42.76084,"lng":-94.98216,"zip":"50510","miles_from_dt":17.4},{"city":"Arthur","state_name":"Iowa","lat":42.34446,"lng":-95.35146,"zip":"51431","miles_from_dt":18.13},{"city":"Wall Lake","state_name":"Iowa","lat":42.25302,"lng":-95.09837,"zip":"51466","miles_from_dt":18.53},{"city":"Rembrandt","state_name":"Iowa","lat":42.80267,"lng":-95.17727,"zip":"50576","miles_from_dt":19.92},{"city":"Pomeroy","state_name":"Iowa","lat":42.5588,"lng":-94.70065,"zip":"50575","miles_from_dt":20.01},{"city":"Auburn","state_name":"Iowa","lat":42.27635,"lng":-94.87057,"zip":"51433","miles_from_dt":20.29},{"city":"Aurelia","state_name":"Iowa","lat":42.72044,"lng":-95.42405,"zip":"51005","miles_from_dt":21.9},{"city":"Ida Grove","state_name":"Iowa","lat":42.32719,"lng":-95.46724,"zip":"51445","miles_from_dt":23.52},{"city":"Breda","state_name":"Iowa","lat":42.18254,"lng":-95.01247,"zip":"51436","miles_from_dt":23.72},{"city":"Marathon","state_name":"Iowa","lat":42.86118,"lng":-94.99698,"zip":"50565","miles_from_dt":23.92},{"city":"Holstein","state_name":"Iowa","lat":42.4973,"lng":-95.55853,"zip":"51025","miles_from_dt":24.02},{"city":"Pocahontas","state_name":"Iowa","lat":42.71891,"lng":-94.69967,"zip":"50574","miles_from_dt":24.09},{"city":"Kiron","state_name":"Iowa","lat":42.20238,"lng":-95.30839,"zip":"51448","miles_from_dt":24.71},{"city":"Rockwell City","state_name":"Iowa","lat":42.39356,"lng":-94.6345,"zip":"50579","miles_from_dt":24.87},{"city":"Lake City","state_name":"Iowa","lat":42.26614,"lng":-94.73475,"zip":"51449","miles_from_dt":25.29},{"city":"Laurens","state_name":"Iowa","lat":42.84648,"lng":-94.84118,"zip":"50554","miles_from_dt":25.75},{"city":"Sioux Rapids","state_name":"Iowa","lat":42.91154,"lng":-95.1407,"zip":"50585","miles_from_dt":27.05},{"city":"Palmer","state_name":"Iowa","lat":42.63485,"lng":-94.5806,"zip":"50571","miles_from_dt":27.11},{"city":"Linn Grove","state_name":"Iowa","lat":42.91653,"lng":-95.25324,"zip":"51033","miles_from_dt":28.52},{"city":"Cherokee","state_name":"Iowa","lat":42.74474,"lng":-95.56171,"zip":"51012","miles_from_dt":28.59},{"city":"Manson","state_name":"Iowa","lat":42.52802,"lng":-94.52515,"zip":"50563","miles_from_dt":28.81},{"city":"Quimby","state_name":"Iowa","lat":42.63005,"lng":-95.64463,"zip":"51049","miles_from_dt":29.3},{"city":"Havelock","state_name":"Iowa","lat":42.84388,"lng":-94.70347,"zip":"50546","miles_from_dt":29.69}],"targetCityZipCode":"50567","targetCityState":"Iowa"},"__N_SSG":true}