{"pageProps":{"stateName":"Iowa","cityName":"nevada","nearbyCities":[{"city":"Ames","state_name":"Iowa","lat":42.03316,"lng":-93.58761,"zip":"50010","miles_from_dt":7.37},{"city":"Colo","state_name":"Iowa","lat":42.01925,"lng":-93.29701,"zip":"50056","miles_from_dt":7.64},{"city":"Roland","state_name":"Iowa","lat":42.1675,"lng":-93.4834,"zip":"50236","miles_from_dt":9.47},{"city":"Ames","state_name":"Iowa","lat":42.02222,"lng":-93.63948,"zip":"50011","miles_from_dt":10.07},{"city":"McCallsburg","state_name":"Iowa","lat":42.17625,"lng":-93.39068,"zip":"50154","miles_from_dt":10.24},{"city":"Ames","state_name":"Iowa","lat":42.01732,"lng":-93.64809,"zip":"50013","miles_from_dt":10.54},{"city":"Ames","state_name":"Iowa","lat":42.02904,"lng":-93.65086,"zip":"50012","miles_from_dt":10.63},{"city":"Cambridge","state_name":"Iowa","lat":41.88974,"lng":-93.5234,"zip":"50046","miles_from_dt":10.72},{"city":"Zearing","state_name":"Iowa","lat":42.1528,"lng":-93.29926,"zip":"50278","miles_from_dt":11.12},{"city":"Gilbert","state_name":"Iowa","lat":42.11754,"lng":-93.63912,"zip":"50105","miles_from_dt":11.58},{"city":"Ames","state_name":"Iowa","lat":42.04993,"lng":-93.69342,"zip":"50014","miles_from_dt":12.87},{"city":"Collins","state_name":"Iowa","lat":41.88456,"lng":-93.2889,"zip":"50055","miles_from_dt":13.02},{"city":"Maxwell","state_name":"Iowa","lat":41.84764,"lng":-93.39914,"zip":"50161","miles_from_dt":13.03},{"city":"Huxley","state_name":"Iowa","lat":41.88516,"lng":-93.60446,"zip":"50124","miles_from_dt":13.14},{"city":"Kelley","state_name":"Iowa","lat":41.93992,"lng":-93.67429,"zip":"50134","miles_from_dt":13.48},{"city":"Story City","state_name":"Iowa","lat":42.19256,"lng":-93.61297,"zip":"50248","miles_from_dt":13.99},{"city":"State Center","state_name":"Iowa","lat":42.01832,"lng":-93.1665,"zip":"50247","miles_from_dt":14.34},{"city":"Saint Anthony","state_name":"Iowa","lat":42.14431,"lng":-93.20144,"zip":"50239","miles_from_dt":14.65},{"city":"Garden City","state_name":"Iowa","lat":42.24554,"lng":-93.40022,"zip":"50102","miles_from_dt":14.82},{"city":"Randall","state_name":"Iowa","lat":42.23765,"lng":-93.60257,"zip":"50231","miles_from_dt":16.27},{"city":"Slater","state_name":"Iowa","lat":41.85083,"lng":-93.65126,"zip":"50244","miles_from_dt":16.5},{"city":"Rhodes","state_name":"Iowa","lat":41.89165,"lng":-93.17916,"zip":"50234","miles_from_dt":16.8},{"city":"Elkhart","state_name":"Iowa","lat":41.79234,"lng":-93.52463,"zip":"50073","miles_from_dt":17.14},{"city":"Clemons","state_name":"Iowa","lat":42.13875,"lng":-93.13736,"zip":"50051","miles_from_dt":17.38},{"city":"Sheldahl","state_name":"Iowa","lat":41.86457,"lng":-93.6967,"zip":"50243","miles_from_dt":17.46},{"city":"Alleman","state_name":"Iowa","lat":41.80365,"lng":-93.60043,"zip":"50007","miles_from_dt":17.78},{"city":"Radcliffe","state_name":"Iowa","lat":42.30655,"lng":-93.44718,"zip":"50230","miles_from_dt":18.86},{"city":"Luther","state_name":"Iowa","lat":41.96873,"lng":-93.81765,"zip":"50152","miles_from_dt":19.73},{"city":"Mingo","state_name":"Iowa","lat":41.77725,"lng":-93.27248,"zip":"50168","miles_from_dt":19.77},{"city":"Hubbard","state_name":"Iowa","lat":42.30218,"lng":-93.3087,"zip":"50122","miles_from_dt":19.82},{"city":"New Providence","state_name":"Iowa","lat":42.25018,"lng":-93.18941,"zip":"50206","miles_from_dt":19.88},{"city":"Madrid","state_name":"Iowa","lat":41.90349,"lng":-93.80001,"zip":"50156","miles_from_dt":20.39},{"city":"Melbourne","state_name":"Iowa","lat":41.92563,"lng":-93.06781,"zip":"50162","miles_from_dt":20.77},{"city":"Ira","state_name":"Iowa","lat":41.78122,"lng":-93.21129,"zip":"50127","miles_from_dt":21.15},{"city":"Polk City","state_name":"Iowa","lat":41.79716,"lng":-93.70566,"zip":"50226","miles_from_dt":21.15},{"city":"Baxter","state_name":"Iowa","lat":41.81729,"lng":-93.15102,"zip":"50028","miles_from_dt":21.24},{"city":"Bondurant","state_name":"Iowa","lat":41.7248,"lng":-93.45957,"zip":"50035","miles_from_dt":21.31},{"city":"Boone","state_name":"Iowa","lat":42.0892,"lng":-93.85378,"zip":"50036","miles_from_dt":21.41},{"city":"Ellsworth","state_name":"Iowa","lat":42.33516,"lng":-93.56054,"zip":"50075","miles_from_dt":21.67},{"city":"Jewell","state_name":"Iowa","lat":42.30074,"lng":-93.67331,"zip":"50130","miles_from_dt":21.88},{"city":"Albion","state_name":"Iowa","lat":42.1295,"lng":-93.02683,"zip":"50005","miles_from_dt":22.47},{"city":"Ankeny","state_name":"Iowa","lat":41.7207,"lng":-93.56838,"zip":"50021","miles_from_dt":22.51},{"city":"Boone","state_name":"Iowa","lat":42.05618,"lng":-93.88076,"zip":"50037","miles_from_dt":22.51},{"city":"Boone","state_name":"Iowa","lat":42.05965,"lng":-93.88218,"zip":"50099","miles_from_dt":22.6},{"city":"Union","state_name":"Iowa","lat":42.22781,"lng":-93.07788,"zip":"50258","miles_from_dt":23.12},{"city":"Ankeny","state_name":"Iowa","lat":41.72768,"lng":-93.63412,"zip":"50023","miles_from_dt":23.26},{"city":"Stanhope","state_name":"Iowa","lat":42.28411,"lng":-93.78198,"zip":"50246","miles_from_dt":24.5},{"city":"Haverhill","state_name":"Iowa","lat":41.93373,"lng":-92.9828,"zip":"50120","miles_from_dt":24.74},{"city":"Gifford","state_name":"Iowa","lat":42.25334,"lng":-93.05992,"zip":"50259","miles_from_dt":24.91},{"city":"Liscomb","state_name":"Iowa","lat":42.18142,"lng":-92.99567,"zip":"50148","miles_from_dt":25.22},{"city":"Berwick","state_name":"Iowa","lat":41.66591,"lng":-93.54301,"zip":"50032","miles_from_dt":25.87},{"city":"Granger","state_name":"Iowa","lat":41.76802,"lng":-93.80775,"zip":"50109","miles_from_dt":26.2},{"city":"Colfax","state_name":"Iowa","lat":41.68729,"lng":-93.23196,"zip":"50054","miles_from_dt":26.28},{"city":"Mitchellville","state_name":"Iowa","lat":41.65617,"lng":-93.35062,"zip":"50169","miles_from_dt":26.48},{"city":"Altoona","state_name":"Iowa","lat":41.64313,"lng":-93.45945,"zip":"50009","miles_from_dt":26.94},{"city":"Johnston","state_name":"Iowa","lat":41.69749,"lng":-93.72021,"zip":"50131","miles_from_dt":27.2},{"city":"Whitten","state_name":"Iowa","lat":42.26236,"lng":-93.01064,"zip":"50269","miles_from_dt":27.31},{"city":"Woodward","state_name":"Iowa","lat":41.85997,"lng":-93.923,"zip":"50276","miles_from_dt":27.41},{"city":"Laurel","state_name":"Iowa","lat":41.86889,"lng":-92.95634,"zip":"50141","miles_from_dt":27.59},{"city":"Des Moines","state_name":"Iowa","lat":41.65538,"lng":-93.62287,"zip":"50313","miles_from_dt":27.67},{"city":"Kamrar","state_name":"Iowa","lat":42.39392,"lng":-93.68256,"zip":"50132","miles_from_dt":27.72},{"city":"Marshalltown","state_name":"Iowa","lat":42.05016,"lng":-92.90143,"zip":"50158","miles_from_dt":27.96},{"city":"Eldora","state_name":"Iowa","lat":42.34982,"lng":-93.095,"zip":"50627","miles_from_dt":28.26},{"city":"Stratford","state_name":"Iowa","lat":42.26991,"lng":-93.89973,"zip":"50249","miles_from_dt":28.52},{"city":"Des Moines","state_name":"Iowa","lat":41.61572,"lng":-93.54881,"zip":"50317","miles_from_dt":29.32},{"city":"Grimes","state_name":"Iowa","lat":41.69353,"lng":-93.80358,"zip":"50111","miles_from_dt":29.89}],"targetCityZipCode":"50201","targetCityState":"Iowa"},"__N_SSG":true}