{"pageProps":{"stateName":"Iowa","cityName":"ocheyedan","nearbyCities":[{"city":"Harris","state_name":"Iowa","lat":43.4181,"lng":-95.43209,"zip":"51345","miles_from_dt":5.62},{"city":"Melvin","state_name":"Iowa","lat":43.30752,"lng":-95.59827,"zip":"51350","miles_from_dt":7.77},{"city":"Sibley","state_name":"Iowa","lat":43.41068,"lng":-95.73203,"zip":"51249","miles_from_dt":9.49},{"city":"Bigelow","state_name":"Minnesota","lat":43.52662,"lng":-95.68607,"zip":"56117","miles_from_dt":10.64},{"city":"Lake Park","state_name":"Iowa","lat":43.42547,"lng":-95.31363,"zip":"51347","miles_from_dt":11.6},{"city":"Round Lake","state_name":"Minnesota","lat":43.55082,"lng":-95.40524,"zip":"56167","miles_from_dt":11.8},{"city":"Worthington","state_name":"Minnesota","lat":43.62357,"lng":-95.58507,"zip":"56187","miles_from_dt":14.71},{"city":"Sanborn","state_name":"Iowa","lat":43.20445,"lng":-95.65911,"zip":"51248","miles_from_dt":15.51},{"city":"Ashton","state_name":"Iowa","lat":43.30097,"lng":-95.8162,"zip":"51232","miles_from_dt":15.75},{"city":"Hartley","state_name":"Iowa","lat":43.18638,"lng":-95.45927,"zip":"51346","miles_from_dt":16.19},{"city":"Everly","state_name":"Iowa","lat":43.2065,"lng":-95.32378,"zip":"51338","miles_from_dt":18.04},{"city":"Little Rock","state_name":"Iowa","lat":43.4425,"lng":-95.90287,"zip":"51243","miles_from_dt":18.2},{"city":"Rushmore","state_name":"Minnesota","lat":43.61552,"lng":-95.80358,"zip":"56168","miles_from_dt":19.15},{"city":"Milford","state_name":"Iowa","lat":43.31656,"lng":-95.18626,"zip":"51351","miles_from_dt":19.18},{"city":"Okoboji","state_name":"Iowa","lat":43.38996,"lng":-95.14082,"zip":"51355","miles_from_dt":20.33},{"city":"Brewster","state_name":"Minnesota","lat":43.71159,"lng":-95.46702,"zip":"56119","miles_from_dt":20.99},{"city":"Arnolds Park","state_name":"Iowa","lat":43.36431,"lng":-95.13028,"zip":"51331","miles_from_dt":21.07},{"city":"Lakefield","state_name":"Minnesota","lat":43.63469,"lng":-95.21266,"zip":"56150","miles_from_dt":22.61},{"city":"Sheldon","state_name":"Iowa","lat":43.18331,"lng":-95.8657,"zip":"51201","miles_from_dt":22.68},{"city":"Fostoria","state_name":"Iowa","lat":43.2404,"lng":-95.15613,"zip":"51340","miles_from_dt":22.86},{"city":"Matlock","state_name":"Iowa","lat":43.2443,"lng":-95.93436,"zip":"51244","miles_from_dt":22.87},{"city":"Okabena","state_name":"Minnesota","lat":43.70637,"lng":-95.32519,"zip":"56161","miles_from_dt":23.05},{"city":"Spirit Lake","state_name":"Iowa","lat":43.43626,"lng":-95.08556,"zip":"51360","miles_from_dt":23.1},{"city":"Reading","state_name":"Minnesota","lat":43.7251,"lng":-95.7097,"zip":"56165","miles_from_dt":23.13},{"city":"Primghar","state_name":"Iowa","lat":43.07788,"lng":-95.60149,"zip":"51245","miles_from_dt":23.3},{"city":"Archer","state_name":"Iowa","lat":43.10567,"lng":-95.74131,"zip":"51231","miles_from_dt":23.43},{"city":"George","state_name":"Iowa","lat":43.33885,"lng":-96.0005,"zip":"51237","miles_from_dt":23.57},{"city":"Adrian","state_name":"Minnesota","lat":43.62115,"lng":-95.94093,"zip":"56110","miles_from_dt":24.61},{"city":"Ellsworth","state_name":"Minnesota","lat":43.52775,"lng":-96.04327,"zip":"56129","miles_from_dt":26.35},{"city":"Spencer","state_name":"Iowa","lat":43.15314,"lng":-95.14973,"zip":"51301","miles_from_dt":26.75},{"city":"Royal","state_name":"Iowa","lat":43.06215,"lng":-95.28762,"zip":"51357","miles_from_dt":27.43},{"city":"Boyden","state_name":"Iowa","lat":43.19412,"lng":-96.01992,"zip":"51234","miles_from_dt":28.36},{"city":"Hospers","state_name":"Iowa","lat":43.0758,"lng":-95.89071,"zip":"51238","miles_from_dt":29.12},{"city":"Sutherland","state_name":"Iowa","lat":42.98367,"lng":-95.46879,"zip":"51058","miles_from_dt":29.85},{"city":"Wilmont","state_name":"Minnesota","lat":43.7932,"lng":-95.82659,"zip":"56185","miles_from_dt":29.86}],"targetCityZipCode":"51354","targetCityState":"Iowa"},"__N_SSG":true}