{"pageProps":{"stateName":"Iowa","cityName":"paton","nearbyCities":[{"city":"Dana","state_name":"Iowa","lat":42.10671,"lng":-94.229,"zip":"50064","miles_from_dt":4.64},{"city":"Harcourt","state_name":"Iowa","lat":42.2537,"lng":-94.17042,"zip":"50544","miles_from_dt":6.95},{"city":"Boxholm","state_name":"Iowa","lat":42.17363,"lng":-94.10121,"zip":"50040","miles_from_dt":7.63},{"city":"Gowrie","state_name":"Iowa","lat":42.27434,"lng":-94.30666,"zip":"50543","miles_from_dt":7.64},{"city":"Grand Junction","state_name":"Iowa","lat":42.03547,"lng":-94.2191,"zip":"50107","miles_from_dt":9.56},{"city":"Beaver","state_name":"Iowa","lat":42.03881,"lng":-94.14003,"zip":"50031","miles_from_dt":10.79},{"city":"Pilot Mound","state_name":"Iowa","lat":42.17117,"lng":-94.02831,"zip":"50223","miles_from_dt":11.37},{"city":"Farnhamville","state_name":"Iowa","lat":42.28422,"lng":-94.43024,"zip":"50538","miles_from_dt":12.06},{"city":"Dayton","state_name":"Iowa","lat":42.27021,"lng":-94.04173,"zip":"50530","miles_from_dt":12.64},{"city":"Jefferson","state_name":"Iowa","lat":42.01335,"lng":-94.3764,"zip":"50129","miles_from_dt":12.74},{"city":"Churdan","state_name":"Iowa","lat":42.16459,"lng":-94.51054,"zip":"50050","miles_from_dt":13.4},{"city":"Ogden","state_name":"Iowa","lat":42.03515,"lng":-94.05996,"zip":"50212","miles_from_dt":13.58},{"city":"Callender","state_name":"Iowa","lat":42.36783,"lng":-94.29357,"zip":"50523","miles_from_dt":13.7},{"city":"Burnside","state_name":"Iowa","lat":42.3462,"lng":-94.10276,"zip":"50521","miles_from_dt":14.19},{"city":"Lehigh","state_name":"Iowa","lat":42.35544,"lng":-94.04409,"zip":"50557","miles_from_dt":16.48},{"city":"Lohrville","state_name":"Iowa","lat":42.26366,"lng":-94.55155,"zip":"51453","miles_from_dt":16.72},{"city":"Rippey","state_name":"Iowa","lat":41.92974,"lng":-94.20873,"zip":"50235","miles_from_dt":16.86},{"city":"Otho","state_name":"Iowa","lat":42.4032,"lng":-94.13841,"zip":"50569","miles_from_dt":16.94},{"city":"Somers","state_name":"Iowa","lat":42.40472,"lng":-94.43204,"zip":"50586","miles_from_dt":18.58},{"city":"Moorland","state_name":"Iowa","lat":42.43925,"lng":-94.32889,"zip":"50566","miles_from_dt":18.88},{"city":"Stratford","state_name":"Iowa","lat":42.26991,"lng":-93.89973,"zip":"50249","miles_from_dt":19.19},{"city":"Scranton","state_name":"Iowa","lat":42.01319,"lng":-94.55744,"zip":"51462","miles_from_dt":19.24},{"city":"Cooper","state_name":"Iowa","lat":41.89957,"lng":-94.33951,"zip":"50059","miles_from_dt":19.36},{"city":"Boone","state_name":"Iowa","lat":42.05965,"lng":-93.88218,"zip":"50099","miles_from_dt":20.42},{"city":"Boone","state_name":"Iowa","lat":42.05618,"lng":-93.88076,"zip":"50037","miles_from_dt":20.58},{"city":"Boone","state_name":"Iowa","lat":42.0892,"lng":-93.85378,"zip":"50036","miles_from_dt":21.14},{"city":"Ralston","state_name":"Iowa","lat":42.04495,"lng":-94.63779,"zip":"51459","miles_from_dt":21.78},{"city":"Jamaica","state_name":"Iowa","lat":41.85173,"lng":-94.29853,"zip":"50128","miles_from_dt":22.25},{"city":"Fort Dodge","state_name":"Iowa","lat":42.49244,"lng":-94.18967,"zip":"50501","miles_from_dt":22.33},{"city":"Knierim","state_name":"Iowa","lat":42.45638,"lng":-94.46068,"zip":"50552","miles_from_dt":22.4},{"city":"Lanesboro","state_name":"Iowa","lat":42.1846,"lng":-94.69471,"zip":"51451","miles_from_dt":22.85},{"city":"Duncombe","state_name":"Iowa","lat":42.46212,"lng":-94.00175,"zip":"50532","miles_from_dt":23.71},{"city":"Bagley","state_name":"Iowa","lat":41.85823,"lng":-94.44958,"zip":"50026","miles_from_dt":23.98},{"city":"Perry","state_name":"Iowa","lat":41.8366,"lng":-94.12293,"zip":"50220","miles_from_dt":24.06},{"city":"Glidden","state_name":"Iowa","lat":42.07748,"lng":-94.70517,"zip":"51443","miles_from_dt":24.29},{"city":"Barnum","state_name":"Iowa","lat":42.51212,"lng":-94.38241,"zip":"50518","miles_from_dt":24.43},{"city":"Rockwell City","state_name":"Iowa","lat":42.39356,"lng":-94.6345,"zip":"50579","miles_from_dt":24.95},{"city":"Stanhope","state_name":"Iowa","lat":42.28411,"lng":-93.78198,"zip":"50246","miles_from_dt":25.21},{"city":"Dawson","state_name":"Iowa","lat":41.8051,"lng":-94.22708,"zip":"50066","miles_from_dt":25.35},{"city":"Lake City","state_name":"Iowa","lat":42.26614,"lng":-94.73475,"zip":"51449","miles_from_dt":25.71},{"city":"Luther","state_name":"Iowa","lat":41.96873,"lng":-93.81765,"zip":"50152","miles_from_dt":26.28},{"city":"Bouton","state_name":"Iowa","lat":41.82615,"lng":-94.00653,"zip":"50039","miles_from_dt":26.96},{"city":"Woodward","state_name":"Iowa","lat":41.85997,"lng":-93.923,"zip":"50276","miles_from_dt":27.33},{"city":"Yale","state_name":"Iowa","lat":41.77867,"lng":-94.347,"zip":"50277","miles_from_dt":27.61},{"city":"Lidderdale","state_name":"Iowa","lat":42.12242,"lng":-94.78366,"zip":"51452","miles_from_dt":27.63},{"city":"Manson","state_name":"Iowa","lat":42.52802,"lng":-94.52515,"zip":"50563","miles_from_dt":28.33},{"city":"Bayard","state_name":"Iowa","lat":41.82497,"lng":-94.55075,"zip":"50029","miles_from_dt":28.53},{"city":"Webster City","state_name":"Iowa","lat":42.46097,"lng":-93.82154,"zip":"50595","miles_from_dt":29.65},{"city":"Madrid","state_name":"Iowa","lat":41.90349,"lng":-93.80001,"zip":"50156","miles_from_dt":29.65},{"city":"Ames","state_name":"Iowa","lat":42.04993,"lng":-93.69342,"zip":"50014","miles_from_dt":29.81}],"targetCityZipCode":"50217","targetCityState":"Iowa"},"__N_SSG":true}