{"pageProps":{"stateName":"Iowa","cityName":"pisgah","nearbyCities":[{"city":"Little Sioux","state_name":"Iowa","lat":41.83897,"lng":-96.02072,"zip":"51545","miles_from_dt":6.09},{"city":"Moorhead","state_name":"Iowa","lat":41.91497,"lng":-95.87023,"zip":"51558","miles_from_dt":7.3},{"city":"Mondamin","state_name":"Iowa","lat":41.72903,"lng":-96.00233,"zip":"51557","miles_from_dt":7.58},{"city":"Magnolia","state_name":"Iowa","lat":41.69203,"lng":-95.87399,"zip":"51550","miles_from_dt":8.54},{"city":"Blencoe","state_name":"Iowa","lat":41.9122,"lng":-96.07172,"zip":"51523","miles_from_dt":10.87},{"city":"Woodbine","state_name":"Iowa","lat":41.75171,"lng":-95.7069,"zip":"51579","miles_from_dt":11.22},{"city":"Soldier","state_name":"Iowa","lat":41.9896,"lng":-95.79053,"zip":"51572","miles_from_dt":13.6},{"city":"Logan","state_name":"Iowa","lat":41.6399,"lng":-95.77209,"zip":"51546","miles_from_dt":13.87},{"city":"Modale","state_name":"Iowa","lat":41.63548,"lng":-96.04198,"zip":"51556","miles_from_dt":14.08},{"city":"Dunlap","state_name":"Iowa","lat":41.8618,"lng":-95.62591,"zip":"51529","miles_from_dt":14.94},{"city":"Tekamah","state_name":"Nebraska","lat":41.80078,"lng":-96.21165,"zip":"68061","miles_from_dt":15.7},{"city":"Onawa","state_name":"Iowa","lat":42.03073,"lng":-96.0706,"zip":"51040","miles_from_dt":17.2},{"city":"Missouri Valley","state_name":"Iowa","lat":41.55937,"lng":-95.91398,"zip":"51555","miles_from_dt":17.51},{"city":"Ute","state_name":"Iowa","lat":42.04189,"lng":-95.69844,"zip":"51060","miles_from_dt":19.13},{"city":"Castana","state_name":"Iowa","lat":42.09309,"lng":-95.92044,"zip":"51010","miles_from_dt":19.34},{"city":"Decatur","state_name":"Nebraska","lat":41.9762,"lng":-96.25627,"zip":"68020","miles_from_dt":21.19},{"city":"Herman","state_name":"Nebraska","lat":41.65873,"lng":-96.27394,"zip":"68029","miles_from_dt":21.71},{"city":"Panama","state_name":"Iowa","lat":41.72591,"lng":-95.50128,"zip":"51562","miles_from_dt":21.86},{"city":"Dow City","state_name":"Iowa","lat":41.92724,"lng":-95.50185,"zip":"51528","miles_from_dt":22.38},{"city":"Portsmouth","state_name":"Iowa","lat":41.64555,"lng":-95.52391,"zip":"51565","miles_from_dt":22.98},{"city":"Persia","state_name":"Iowa","lat":41.5769,"lng":-95.59405,"zip":"51563","miles_from_dt":23.01},{"city":"Blair","state_name":"Nebraska","lat":41.54573,"lng":-96.17421,"zip":"68008","miles_from_dt":23.02},{"city":"Craig","state_name":"Nebraska","lat":41.77965,"lng":-96.37323,"zip":"68019","miles_from_dt":24.14},{"city":"Mapleton","state_name":"Iowa","lat":42.16241,"lng":-95.78947,"zip":"51034","miles_from_dt":24.87},{"city":"Fort Calhoun","state_name":"Nebraska","lat":41.46191,"lng":-96.02226,"zip":"68023","miles_from_dt":24.95},{"city":"Earling","state_name":"Iowa","lat":41.78247,"lng":-95.42613,"zip":"51530","miles_from_dt":24.98},{"city":"Charter Oak","state_name":"Iowa","lat":42.08298,"lng":-95.58347,"zip":"51439","miles_from_dt":25.03},{"city":"Arion","state_name":"Iowa","lat":41.9692,"lng":-95.4593,"zip":"51520","miles_from_dt":25.52},{"city":"Whiting","state_name":"Iowa","lat":42.13103,"lng":-96.18611,"zip":"51063","miles_from_dt":26.2},{"city":"Honey Creek","state_name":"Iowa","lat":41.43354,"lng":-95.84072,"zip":"51542","miles_from_dt":26.42},{"city":"Rodney","state_name":"Iowa","lat":42.20443,"lng":-95.96988,"zip":"51051","miles_from_dt":27.2},{"city":"Westphalia","state_name":"Iowa","lat":41.72002,"lng":-95.39508,"zip":"51578","miles_from_dt":27.27},{"city":"Neola","state_name":"Iowa","lat":41.46034,"lng":-95.66049,"zip":"51559","miles_from_dt":27.51},{"city":"Ricketts","state_name":"Iowa","lat":42.1324,"lng":-95.571,"zip":"51460","miles_from_dt":28.05},{"city":"Defiance","state_name":"Iowa","lat":41.82875,"lng":-95.348,"zip":"51527","miles_from_dt":28.93},{"city":"Smithland","state_name":"Iowa","lat":42.23443,"lng":-95.95391,"zip":"51056","miles_from_dt":29.18},{"city":"Lyons","state_name":"Nebraska","lat":41.95458,"lng":-96.4432,"zip":"68038","miles_from_dt":29.28},{"city":"Kennard","state_name":"Nebraska","lat":41.45558,"lng":-96.2203,"zip":"68034","miles_from_dt":29.5},{"city":"Omaha","state_name":"Nebraska","lat":41.38183,"lng":-95.95804,"zip":"68112","miles_from_dt":29.88}],"targetCityZipCode":"51564","targetCityState":"Iowa"},"__N_SSG":true}