{"pageProps":{"stateName":"Iowa","cityName":"riverside","nearbyCities":[{"city":"Hills","state_name":"Iowa","lat":41.57024,"lng":-91.53281,"zip":"52235","miles_from_dt":6.89},{"city":"Kalona","state_name":"Iowa","lat":41.51503,"lng":-91.71774,"zip":"52247","miles_from_dt":7.59},{"city":"Lone Tree","state_name":"Iowa","lat":41.48015,"lng":-91.43349,"zip":"52755","miles_from_dt":7.63},{"city":"Ainsworth","state_name":"Iowa","lat":41.33218,"lng":-91.54704,"zip":"52201","miles_from_dt":10.14},{"city":"Iowa City","state_name":"Iowa","lat":41.63143,"lng":-91.49924,"zip":"52240","miles_from_dt":11.46},{"city":"Iowa City","state_name":"Iowa","lat":41.64903,"lng":-91.59718,"zip":"52246","miles_from_dt":11.9},{"city":"Iowa City","state_name":"Iowa","lat":41.6566,"lng":-91.53555,"zip":"52243","miles_from_dt":12.61},{"city":"Iowa City","state_name":"Iowa","lat":41.66195,"lng":-91.54317,"zip":"52242","miles_from_dt":12.91},{"city":"Conesville","state_name":"Iowa","lat":41.3728,"lng":-91.36823,"zip":"52739","miles_from_dt":13.16},{"city":"Wellman","state_name":"Iowa","lat":41.4749,"lng":-91.84769,"zip":"52356","miles_from_dt":13.87},{"city":"Iowa City","state_name":"Iowa","lat":41.67071,"lng":-91.50666,"zip":"52245","miles_from_dt":13.9},{"city":"Washington","state_name":"Iowa","lat":41.29923,"lng":-91.71596,"zip":"52353","miles_from_dt":14.15},{"city":"Nichols","state_name":"Iowa","lat":41.46407,"lng":-91.30061,"zip":"52766","miles_from_dt":14.55},{"city":"West Chester","state_name":"Iowa","lat":41.35428,"lng":-91.81006,"zip":"52359","miles_from_dt":14.63},{"city":"Iowa City","state_name":"Iowa","lat":41.68504,"lng":-91.51708,"zip":"52244","miles_from_dt":14.73},{"city":"Coralville","state_name":"Iowa","lat":41.69708,"lng":-91.59746,"zip":"52241","miles_from_dt":15.21},{"city":"Tiffin","state_name":"Iowa","lat":41.70615,"lng":-91.68019,"zip":"52340","miles_from_dt":16.64},{"city":"West Liberty","state_name":"Iowa","lat":41.5795,"lng":-91.275,"zip":"52776","miles_from_dt":17.35},{"city":"Columbus Junction","state_name":"Iowa","lat":41.2736,"lng":-91.38072,"zip":"52738","miles_from_dt":17.46},{"city":"Oxford","state_name":"Iowa","lat":41.69221,"lng":-91.76284,"zip":"52322","miles_from_dt":17.6},{"city":"Columbus City","state_name":"Iowa","lat":41.25918,"lng":-91.37478,"zip":"52737","miles_from_dt":18.45},{"city":"Crawfordsville","state_name":"Iowa","lat":41.20821,"lng":-91.53209,"zip":"52621","miles_from_dt":18.72},{"city":"Parnell","state_name":"Iowa","lat":41.58028,"lng":-91.92305,"zip":"52325","miles_from_dt":19.14},{"city":"North Liberty","state_name":"Iowa","lat":41.76277,"lng":-91.63142,"zip":"52317","miles_from_dt":19.9},{"city":"Letts","state_name":"Iowa","lat":41.34254,"lng":-91.24144,"zip":"52754","miles_from_dt":19.91},{"city":"West Branch","state_name":"Iowa","lat":41.69644,"lng":-91.32097,"zip":"52358","miles_from_dt":20.25},{"city":"Keota","state_name":"Iowa","lat":41.34386,"lng":-91.93891,"zip":"52248","miles_from_dt":20.77},{"city":"Atalissa","state_name":"Iowa","lat":41.59064,"lng":-91.16578,"zip":"52720","miles_from_dt":22.89},{"city":"Solon","state_name":"Iowa","lat":41.80376,"lng":-91.48685,"zip":"52333","miles_from_dt":23.07},{"city":"Homestead","state_name":"Iowa","lat":41.73143,"lng":-91.87647,"zip":"52236","miles_from_dt":23.31},{"city":"Olds","state_name":"Iowa","lat":41.1342,"lng":-91.54506,"zip":"52647","miles_from_dt":23.73},{"city":"Wayland","state_name":"Iowa","lat":41.13581,"lng":-91.66898,"zip":"52654","miles_from_dt":23.99},{"city":"Grandview","state_name":"Iowa","lat":41.27465,"lng":-91.1911,"zip":"52752","miles_from_dt":24.59},{"city":"South English","state_name":"Iowa","lat":41.45935,"lng":-92.05895,"zip":"52335","miles_from_dt":24.87},{"city":"Winfield","state_name":"Iowa","lat":41.13285,"lng":-91.43658,"zip":"52659","miles_from_dt":24.9},{"city":"Fruitland","state_name":"Iowa","lat":41.34608,"lng":-91.13112,"zip":"52749","miles_from_dt":25.03},{"city":"Swisher","state_name":"Iowa","lat":41.82904,"lng":-91.70858,"zip":"52338","miles_from_dt":25.18},{"city":"Williamsburg","state_name":"Iowa","lat":41.6446,"lng":-92.0154,"zip":"52361","miles_from_dt":25.34},{"city":"Brighton","state_name":"Iowa","lat":41.15769,"lng":-91.82281,"zip":"52540","miles_from_dt":25.39},{"city":"South Amana","state_name":"Iowa","lat":41.73084,"lng":-91.94355,"zip":"52334","miles_from_dt":25.7},{"city":"Moscow","state_name":"Iowa","lat":41.58255,"lng":-91.09853,"zip":"52760","miles_from_dt":26.03},{"city":"Harper","state_name":"Iowa","lat":41.36371,"lng":-92.05912,"zip":"52231","miles_from_dt":26.06},{"city":"Swedesburg","state_name":"Iowa","lat":41.09796,"lng":-91.5542,"zip":"52652","miles_from_dt":26.19},{"city":"Amana","state_name":"Iowa","lat":41.79852,"lng":-91.87065,"zip":"52204","miles_from_dt":26.8},{"city":"North English","state_name":"Iowa","lat":41.53727,"lng":-92.09367,"zip":"52316","miles_from_dt":26.95},{"city":"Muscatine","state_name":"Iowa","lat":41.43798,"lng":-91.05802,"zip":"52761","miles_from_dt":27.26},{"city":"Middle Amana","state_name":"Iowa","lat":41.79158,"lng":-91.90244,"zip":"52307","miles_from_dt":27.37},{"city":"Conroy","state_name":"Iowa","lat":41.72661,"lng":-91.99853,"zip":"52220","miles_from_dt":27.67},{"city":"Amana","state_name":"Iowa","lat":41.81035,"lng":-91.8906,"zip":"52203","miles_from_dt":28.05},{"city":"Ely","state_name":"Iowa","lat":41.89647,"lng":-91.5626,"zip":"52227","miles_from_dt":28.96},{"city":"Richland","state_name":"Iowa","lat":41.18902,"lng":-91.98863,"zip":"52585","miles_from_dt":29.08},{"city":"Tipton","state_name":"Iowa","lat":41.75006,"lng":-91.14083,"zip":"52772","miles_from_dt":29.56}],"targetCityZipCode":"52327","targetCityState":"Iowa"},"__N_SSG":true}