{"pageProps":{"stateName":"Iowa","cityName":"sibley","nearbyCities":[{"city":"Bigelow","state_name":"Minnesota","lat":43.52662,"lng":-95.68607,"zip":"56117","miles_from_dt":8.33},{"city":"Ashton","state_name":"Iowa","lat":43.30097,"lng":-95.8162,"zip":"51232","miles_from_dt":8.68},{"city":"Little Rock","state_name":"Iowa","lat":43.4425,"lng":-95.90287,"zip":"51243","miles_from_dt":8.87},{"city":"Ocheyedan","state_name":"Iowa","lat":43.41267,"lng":-95.54352,"zip":"51354","miles_from_dt":9.49},{"city":"Melvin","state_name":"Iowa","lat":43.30752,"lng":-95.59827,"zip":"51350","miles_from_dt":9.8},{"city":"George","state_name":"Iowa","lat":43.33885,"lng":-96.0005,"zip":"51237","miles_from_dt":14.4},{"city":"Rushmore","state_name":"Minnesota","lat":43.61552,"lng":-95.80358,"zip":"56168","miles_from_dt":14.59},{"city":"Sanborn","state_name":"Iowa","lat":43.20445,"lng":-95.65911,"zip":"51248","miles_from_dt":14.7},{"city":"Harris","state_name":"Iowa","lat":43.4181,"lng":-95.43209,"zip":"51345","miles_from_dt":15.1},{"city":"Matlock","state_name":"Iowa","lat":43.2443,"lng":-95.93436,"zip":"51244","miles_from_dt":15.36},{"city":"Worthington","state_name":"Minnesota","lat":43.62357,"lng":-95.58507,"zip":"56187","miles_from_dt":16.45},{"city":"Sheldon","state_name":"Iowa","lat":43.18331,"lng":-95.8657,"zip":"51201","miles_from_dt":17.08},{"city":"Ellsworth","state_name":"Minnesota","lat":43.52775,"lng":-96.04327,"zip":"56129","miles_from_dt":17.61},{"city":"Adrian","state_name":"Minnesota","lat":43.62115,"lng":-95.94093,"zip":"56110","miles_from_dt":17.92},{"city":"Round Lake","state_name":"Minnesota","lat":43.55082,"lng":-95.40524,"zip":"56167","miles_from_dt":19.06},{"city":"Hartley","state_name":"Iowa","lat":43.18638,"lng":-95.45927,"zip":"51346","miles_from_dt":20.71},{"city":"Boyden","state_name":"Iowa","lat":43.19412,"lng":-96.01992,"zip":"51234","miles_from_dt":20.84},{"city":"Archer","state_name":"Iowa","lat":43.10567,"lng":-95.74131,"zip":"51231","miles_from_dt":21.06},{"city":"Lake Park","state_name":"Iowa","lat":43.42547,"lng":-95.31363,"zip":"51347","miles_from_dt":21.08},{"city":"Reading","state_name":"Minnesota","lat":43.7251,"lng":-95.7097,"zip":"56165","miles_from_dt":21.74},{"city":"Rock Rapids","state_name":"Iowa","lat":43.42764,"lng":-96.16564,"zip":"51246","miles_from_dt":21.85},{"city":"Kanaranzi","state_name":"Minnesota","lat":43.58006,"lng":-96.10343,"zip":"56146","miles_from_dt":22.03},{"city":"Magnolia","state_name":"Minnesota","lat":43.6337,"lng":-96.07465,"zip":"56158","miles_from_dt":23.09},{"city":"Primghar","state_name":"Iowa","lat":43.07788,"lng":-95.60149,"zip":"51245","miles_from_dt":23.9},{"city":"Hospers","state_name":"Iowa","lat":43.0758,"lng":-95.89071,"zip":"51238","miles_from_dt":24.47},{"city":"Brewster","state_name":"Minnesota","lat":43.71159,"lng":-95.46702,"zip":"56119","miles_from_dt":24.67},{"city":"Everly","state_name":"Iowa","lat":43.2065,"lng":-95.32378,"zip":"51338","miles_from_dt":24.95},{"city":"Hull","state_name":"Iowa","lat":43.20238,"lng":-96.14522,"zip":"51239","miles_from_dt":25.31},{"city":"Doon","state_name":"Iowa","lat":43.29488,"lng":-96.21531,"zip":"51235","miles_from_dt":25.62},{"city":"Lismore","state_name":"Minnesota","lat":43.76707,"lng":-95.94117,"zip":"56155","miles_from_dt":26.75},{"city":"Steen","state_name":"Minnesota","lat":43.52505,"lng":-96.24186,"zip":"56173","miles_from_dt":26.82},{"city":"Wilmont","state_name":"Minnesota","lat":43.7932,"lng":-95.82659,"zip":"56185","miles_from_dt":26.83},{"city":"Milford","state_name":"Iowa","lat":43.31656,"lng":-95.18626,"zip":"51351","miles_from_dt":28.25},{"city":"Okabena","state_name":"Minnesota","lat":43.70637,"lng":-95.32519,"zip":"56161","miles_from_dt":28.88},{"city":"Kenneth","state_name":"Minnesota","lat":43.75726,"lng":-96.05985,"zip":"56147","miles_from_dt":29.04},{"city":"Okoboji","state_name":"Iowa","lat":43.38996,"lng":-95.14082,"zip":"51355","miles_from_dt":29.79},{"city":"Alvord","state_name":"Iowa","lat":43.3562,"lng":-96.32217,"zip":"51230","miles_from_dt":29.95}],"targetCityZipCode":"51249","targetCityState":"Iowa"},"__N_SSG":true}