{"pageProps":{"stateName":"Iowa","cityName":"story-city","nearbyCities":[{"city":"Randall","state_name":"Iowa","lat":42.23765,"lng":-93.60257,"zip":"50231","miles_from_dt":3.16},{"city":"Gilbert","state_name":"Iowa","lat":42.11754,"lng":-93.63912,"zip":"50105","miles_from_dt":5.35},{"city":"Roland","state_name":"Iowa","lat":42.1675,"lng":-93.4834,"zip":"50236","miles_from_dt":6.87},{"city":"Jewell","state_name":"Iowa","lat":42.30074,"lng":-93.67331,"zip":"50130","miles_from_dt":8.08},{"city":"Ellsworth","state_name":"Iowa","lat":42.33516,"lng":-93.56054,"zip":"50075","miles_from_dt":10.2},{"city":"Ames","state_name":"Iowa","lat":42.04993,"lng":-93.69342,"zip":"50014","miles_from_dt":10.68},{"city":"Stanhope","state_name":"Iowa","lat":42.28411,"lng":-93.78198,"zip":"50246","miles_from_dt":10.73},{"city":"Ames","state_name":"Iowa","lat":42.03316,"lng":-93.58761,"zip":"50010","miles_from_dt":11.08},{"city":"Ames","state_name":"Iowa","lat":42.02904,"lng":-93.65086,"zip":"50012","miles_from_dt":11.45},{"city":"McCallsburg","state_name":"Iowa","lat":42.17625,"lng":-93.39068,"zip":"50154","miles_from_dt":11.47},{"city":"Garden City","state_name":"Iowa","lat":42.24554,"lng":-93.40022,"zip":"50102","miles_from_dt":11.51},{"city":"Radcliffe","state_name":"Iowa","lat":42.30655,"lng":-93.44718,"zip":"50230","miles_from_dt":11.58},{"city":"Ames","state_name":"Iowa","lat":42.02222,"lng":-93.63948,"zip":"50011","miles_from_dt":11.84},{"city":"Ames","state_name":"Iowa","lat":42.01732,"lng":-93.64809,"zip":"50013","miles_from_dt":12.23},{"city":"Nevada","state_name":"Iowa","lat":42.03337,"lng":-93.44434,"zip":"50201","miles_from_dt":13.99},{"city":"Boone","state_name":"Iowa","lat":42.0892,"lng":-93.85378,"zip":"50036","miles_from_dt":14.28},{"city":"Kamrar","state_name":"Iowa","lat":42.39392,"lng":-93.68256,"zip":"50132","miles_from_dt":14.35},{"city":"Stratford","state_name":"Iowa","lat":42.26991,"lng":-93.89973,"zip":"50249","miles_from_dt":15.65},{"city":"Zearing","state_name":"Iowa","lat":42.1528,"lng":-93.29926,"zip":"50278","miles_from_dt":16.34},{"city":"Boone","state_name":"Iowa","lat":42.05965,"lng":-93.88218,"zip":"50099","miles_from_dt":16.6},{"city":"Boone","state_name":"Iowa","lat":42.05618,"lng":-93.88076,"zip":"50037","miles_from_dt":16.67},{"city":"Hubbard","state_name":"Iowa","lat":42.30218,"lng":-93.3087,"zip":"50122","miles_from_dt":17.34},{"city":"Kelley","state_name":"Iowa","lat":41.93992,"lng":-93.67429,"zip":"50134","miles_from_dt":17.72},{"city":"Luther","state_name":"Iowa","lat":41.96873,"lng":-93.81765,"zip":"50152","miles_from_dt":18.69},{"city":"Colo","state_name":"Iowa","lat":42.01925,"lng":-93.29701,"zip":"50056","miles_from_dt":20.17},{"city":"Williams","state_name":"Iowa","lat":42.48444,"lng":-93.54489,"zip":"50271","miles_from_dt":20.45},{"city":"Huxley","state_name":"Iowa","lat":41.88516,"lng":-93.60446,"zip":"50124","miles_from_dt":21.22},{"city":"Pilot Mound","state_name":"Iowa","lat":42.17117,"lng":-94.02831,"zip":"50223","miles_from_dt":21.37},{"city":"Webster City","state_name":"Iowa","lat":42.46097,"lng":-93.82154,"zip":"50595","miles_from_dt":21.39},{"city":"Saint Anthony","state_name":"Iowa","lat":42.14431,"lng":-93.20144,"zip":"50239","miles_from_dt":21.39},{"city":"Cambridge","state_name":"Iowa","lat":41.88974,"lng":-93.5234,"zip":"50046","miles_from_dt":21.4},{"city":"New Providence","state_name":"Iowa","lat":42.25018,"lng":-93.18941,"zip":"50206","miles_from_dt":22.09},{"city":"Madrid","state_name":"Iowa","lat":41.90349,"lng":-93.80001,"zip":"50156","miles_from_dt":22.15},{"city":"Dayton","state_name":"Iowa","lat":42.27021,"lng":-94.04173,"zip":"50530","miles_from_dt":22.64},{"city":"Sheldahl","state_name":"Iowa","lat":41.86457,"lng":-93.6967,"zip":"50243","miles_from_dt":23.04},{"city":"Blairsburg","state_name":"Iowa","lat":42.52921,"lng":-93.65438,"zip":"50034","miles_from_dt":23.33},{"city":"Slater","state_name":"Iowa","lat":41.85083,"lng":-93.65126,"zip":"50244","miles_from_dt":23.67},{"city":"Alden","state_name":"Iowa","lat":42.51354,"lng":-93.40227,"zip":"50006","miles_from_dt":24.64},{"city":"Clemons","state_name":"Iowa","lat":42.13875,"lng":-93.13736,"zip":"50051","miles_from_dt":24.7},{"city":"Lehigh","state_name":"Iowa","lat":42.35544,"lng":-94.04409,"zip":"50557","miles_from_dt":24.79},{"city":"Boxholm","state_name":"Iowa","lat":42.17363,"lng":-94.10121,"zip":"50040","miles_from_dt":25.1},{"city":"Ogden","state_name":"Iowa","lat":42.03515,"lng":-94.05996,"zip":"50212","miles_from_dt":25.41},{"city":"Buckeye","state_name":"Iowa","lat":42.52028,"lng":-93.37583,"zip":"50043","miles_from_dt":25.67},{"city":"State Center","state_name":"Iowa","lat":42.01832,"lng":-93.1665,"zip":"50247","miles_from_dt":25.91},{"city":"Maxwell","state_name":"Iowa","lat":41.84764,"lng":-93.39914,"zip":"50161","miles_from_dt":26.23},{"city":"Alleman","state_name":"Iowa","lat":41.80365,"lng":-93.60043,"zip":"50007","miles_from_dt":26.85},{"city":"Collins","state_name":"Iowa","lat":41.88456,"lng":-93.2889,"zip":"50055","miles_from_dt":27.02},{"city":"Duncombe","state_name":"Iowa","lat":42.46212,"lng":-94.00175,"zip":"50532","miles_from_dt":27.25},{"city":"Burnside","state_name":"Iowa","lat":42.3462,"lng":-94.10276,"zip":"50521","miles_from_dt":27.26},{"city":"Union","state_name":"Iowa","lat":42.22781,"lng":-93.07788,"zip":"50258","miles_from_dt":27.56},{"city":"Polk City","state_name":"Iowa","lat":41.79716,"lng":-93.70566,"zip":"50226","miles_from_dt":27.7},{"city":"Woodward","state_name":"Iowa","lat":41.85997,"lng":-93.923,"zip":"50276","miles_from_dt":27.95},{"city":"Elkhart","state_name":"Iowa","lat":41.79234,"lng":-93.52463,"zip":"50073","miles_from_dt":27.99},{"city":"Eldora","state_name":"Iowa","lat":42.34982,"lng":-93.095,"zip":"50627","miles_from_dt":28.68},{"city":"Gifford","state_name":"Iowa","lat":42.25334,"lng":-93.05992,"zip":"50259","miles_from_dt":28.68},{"city":"Woolstock","state_name":"Iowa","lat":42.58089,"lng":-93.81471,"zip":"50599","miles_from_dt":28.72},{"city":"Iowa Falls","state_name":"Iowa","lat":42.50875,"lng":-93.24815,"zip":"50126","miles_from_dt":28.73},{"city":"Harcourt","state_name":"Iowa","lat":42.2537,"lng":-94.17042,"zip":"50544","miles_from_dt":28.91},{"city":"Beaver","state_name":"Iowa","lat":42.03881,"lng":-94.14003,"zip":"50031","miles_from_dt":29.09},{"city":"Popejoy","state_name":"Iowa","lat":42.59388,"lng":-93.42818,"zip":"50227","miles_from_dt":29.27}],"targetCityZipCode":"50248","targetCityState":"Iowa"},"__N_SSG":true}