{"pageProps":{"stateName":"Iowa","cityName":"wellsburg","nearbyCities":[{"city":"Holland","state_name":"Iowa","lat":42.44024,"lng":-92.81243,"zip":"50642","miles_from_dt":5.79},{"city":"Steamboat Rock","state_name":"Iowa","lat":42.4247,"lng":-93.06545,"zip":"50672","miles_from_dt":7.38},{"city":"Grundy Center","state_name":"Iowa","lat":42.35654,"lng":-92.79495,"zip":"50638","miles_from_dt":9.25},{"city":"Austinville","state_name":"Iowa","lat":42.58815,"lng":-92.96075,"zip":"50608","miles_from_dt":9.74},{"city":"Ackley","state_name":"Iowa","lat":42.56612,"lng":-93.05665,"zip":"50601","miles_from_dt":10.48},{"city":"Aplington","state_name":"Iowa","lat":42.60484,"lng":-92.90299,"zip":"50604","miles_from_dt":10.78},{"city":"Eldora","state_name":"Iowa","lat":42.34982,"lng":-93.095,"zip":"50627","miles_from_dt":11.09},{"city":"Parkersburg","state_name":"Iowa","lat":42.58078,"lng":-92.7717,"zip":"50665","miles_from_dt":11.97},{"city":"Stout","state_name":"Iowa","lat":42.52505,"lng":-92.7113,"zip":"50673","miles_from_dt":12.1},{"city":"Whitten","state_name":"Iowa","lat":42.26236,"lng":-93.01064,"zip":"50269","miles_from_dt":13.64},{"city":"Dike","state_name":"Iowa","lat":42.46874,"lng":-92.65879,"zip":"50624","miles_from_dt":13.67},{"city":"Conrad","state_name":"Iowa","lat":42.24738,"lng":-92.91904,"zip":"50621","miles_from_dt":13.96},{"city":"Kesley","state_name":"Iowa","lat":42.66249,"lng":-92.90973,"zip":"50649","miles_from_dt":14.72},{"city":"Morrison","state_name":"Iowa","lat":42.34454,"lng":-92.67399,"zip":"50657","miles_from_dt":14.75},{"city":"Gifford","state_name":"Iowa","lat":42.25334,"lng":-93.05992,"zip":"50259","miles_from_dt":15.2},{"city":"Beaman","state_name":"Iowa","lat":42.23066,"lng":-92.81046,"zip":"50609","miles_from_dt":16.21},{"city":"Iowa Falls","state_name":"Iowa","lat":42.50875,"lng":-93.24815,"zip":"50126","miles_from_dt":17.01},{"city":"Union","state_name":"Iowa","lat":42.22781,"lng":-93.07788,"zip":"50258","miles_from_dt":17.19},{"city":"New Hartford","state_name":"Iowa","lat":42.58099,"lng":-92.63752,"zip":"50660","miles_from_dt":17.26},{"city":"Lincoln","state_name":"Iowa","lat":42.26454,"lng":-92.69234,"zip":"50652","miles_from_dt":17.46},{"city":"Reinbeck","state_name":"Iowa","lat":42.33309,"lng":-92.6124,"zip":"50669","miles_from_dt":17.9},{"city":"Geneva","state_name":"Iowa","lat":42.67203,"lng":-93.12664,"zip":"50633","miles_from_dt":18.48},{"city":"Liscomb","state_name":"Iowa","lat":42.18142,"lng":-92.99567,"zip":"50148","miles_from_dt":18.86},{"city":"New Providence","state_name":"Iowa","lat":42.25018,"lng":-93.18941,"zip":"50206","miles_from_dt":19.3},{"city":"Bradford","state_name":"Iowa","lat":42.63429,"lng":-93.24662,"zip":"50041","miles_from_dt":20.78},{"city":"Gladbrook","state_name":"Iowa","lat":42.19886,"lng":-92.69896,"zip":"50635","miles_from_dt":20.82},{"city":"Allison","state_name":"Iowa","lat":42.74036,"lng":-92.80581,"zip":"50602","miles_from_dt":20.97},{"city":"Dumont","state_name":"Iowa","lat":42.75071,"lng":-92.98691,"zip":"50625","miles_from_dt":21.02},{"city":"Hubbard","state_name":"Iowa","lat":42.30218,"lng":-93.3087,"zip":"50122","miles_from_dt":22.11},{"city":"Shell Rock","state_name":"Iowa","lat":42.68425,"lng":-92.61586,"zip":"50670","miles_from_dt":22.61},{"city":"Albion","state_name":"Iowa","lat":42.1295,"lng":-93.02683,"zip":"50005","miles_from_dt":22.7},{"city":"Cedar Falls","state_name":"Iowa","lat":42.53358,"lng":-92.49069,"zip":"50613","miles_from_dt":22.93},{"city":"Buckeye","state_name":"Iowa","lat":42.52028,"lng":-93.37583,"zip":"50043","miles_from_dt":23.54},{"city":"Hudson","state_name":"Iowa","lat":42.36413,"lng":-92.47402,"zip":"50643","miles_from_dt":23.81},{"city":"Clemons","state_name":"Iowa","lat":42.13875,"lng":-93.13736,"zip":"50051","miles_from_dt":24.05},{"city":"Cedar Falls","state_name":"Iowa","lat":42.50928,"lng":-92.46075,"zip":"50614","miles_from_dt":24.08},{"city":"Alden","state_name":"Iowa","lat":42.51354,"lng":-93.40227,"zip":"50006","miles_from_dt":24.78},{"city":"Hampton","state_name":"Iowa","lat":42.73938,"lng":-93.22146,"zip":"50441","miles_from_dt":25.07},{"city":"Saint Anthony","state_name":"Iowa","lat":42.14431,"lng":-93.20144,"zip":"50239","miles_from_dt":25.39},{"city":"Bristow","state_name":"Iowa","lat":42.8193,"lng":-92.91114,"zip":"50611","miles_from_dt":25.53},{"city":"Janesville","state_name":"Iowa","lat":42.64787,"lng":-92.48026,"zip":"50647","miles_from_dt":26.51},{"city":"Aredale","state_name":"Iowa","lat":42.83559,"lng":-93.03276,"zip":"50605","miles_from_dt":27.21},{"city":"Clarksville","state_name":"Iowa","lat":42.79725,"lng":-92.66266,"zip":"50619","miles_from_dt":27.47},{"city":"Popejoy","state_name":"Iowa","lat":42.59388,"lng":-93.42818,"zip":"50227","miles_from_dt":27.55},{"city":"Marshalltown","state_name":"Iowa","lat":42.05016,"lng":-92.90143,"zip":"50158","miles_from_dt":27.59},{"city":"Zearing","state_name":"Iowa","lat":42.1528,"lng":-93.29926,"zip":"50278","miles_from_dt":28.06},{"city":"Traer","state_name":"Iowa","lat":42.19884,"lng":-92.4928,"zip":"50675","miles_from_dt":28.1},{"city":"Garden City","state_name":"Iowa","lat":42.24554,"lng":-93.40022,"zip":"50102","miles_from_dt":28.11},{"city":"Garwin","state_name":"Iowa","lat":42.07667,"lng":-92.70299,"zip":"50632","miles_from_dt":28.14},{"city":"Radcliffe","state_name":"Iowa","lat":42.30655,"lng":-93.44718,"zip":"50230","miles_from_dt":28.49},{"city":"Waterloo","state_name":"Iowa","lat":42.4171,"lng":-92.34448,"zip":"50701","miles_from_dt":29.77},{"city":"Buckingham","state_name":"Iowa","lat":42.28546,"lng":-92.38687,"zip":"50612","miles_from_dt":29.78}],"targetCityZipCode":"50680","targetCityState":"Iowa"},"__N_SSG":true}