{"pageProps":{"stateName":"Iowa","cityName":"wesley","nearbyCities":[{"city":"Britt","state_name":"Iowa","lat":43.11054,"lng":-93.81244,"zip":"50423","miles_from_dt":9.34},{"city":"Corwith","state_name":"Iowa","lat":42.97734,"lng":-93.95653,"zip":"50430","miles_from_dt":9.5},{"city":"Woden","state_name":"Iowa","lat":43.23609,"lng":-93.91084,"zip":"50484","miles_from_dt":9.63},{"city":"Titonka","state_name":"Iowa","lat":43.25097,"lng":-94.05272,"zip":"50480","miles_from_dt":10.01},{"city":"Burt","state_name":"Iowa","lat":43.18562,"lng":-94.18576,"zip":"50522","miles_from_dt":10.81},{"city":"Algona","state_name":"Iowa","lat":43.07483,"lng":-94.21894,"zip":"50511","miles_from_dt":11.5},{"city":"Lu Verne","state_name":"Iowa","lat":42.95581,"lng":-94.1043,"zip":"50560","miles_from_dt":12.05},{"city":"Crystal Lake","state_name":"Iowa","lat":43.22394,"lng":-93.79794,"zip":"50432","miles_from_dt":12.7},{"city":"Kanawha","state_name":"Iowa","lat":42.92719,"lng":-93.80118,"zip":"50447","miles_from_dt":16.15},{"city":"Renwick","state_name":"Iowa","lat":42.85774,"lng":-93.97902,"zip":"50577","miles_from_dt":17.56},{"city":"Bancroft","state_name":"Iowa","lat":43.30099,"lng":-94.23452,"zip":"50517","miles_from_dt":17.73},{"city":"Lone Rock","state_name":"Iowa","lat":43.20912,"lng":-94.32477,"zip":"50559","miles_from_dt":17.87},{"city":"Livermore","state_name":"Iowa","lat":42.86717,"lng":-94.16607,"zip":"50558","miles_from_dt":18.93},{"city":"Lakota","state_name":"Iowa","lat":43.37746,"lng":-94.09134,"zip":"50451","miles_from_dt":18.95},{"city":"Garner","state_name":"Iowa","lat":43.11018,"lng":-93.61841,"zip":"50438","miles_from_dt":19.16},{"city":"Bode","state_name":"Iowa","lat":42.90314,"lng":-94.26542,"zip":"50519","miles_from_dt":19.8},{"city":"Forest City","state_name":"Iowa","lat":43.26256,"lng":-93.66242,"zip":"50436","miles_from_dt":19.86},{"city":"Buffalo Center","state_name":"Iowa","lat":43.40366,"lng":-93.94939,"zip":"50424","miles_from_dt":20.3},{"city":"Whittemore","state_name":"Iowa","lat":43.08023,"lng":-94.41841,"zip":"50598","miles_from_dt":21.42},{"city":"Goodell","state_name":"Iowa","lat":42.94578,"lng":-93.6345,"zip":"50439","miles_from_dt":21.65},{"city":"Hardy","state_name":"Iowa","lat":42.79651,"lng":-94.08111,"zip":"50545","miles_from_dt":22.17},{"city":"Thompson","state_name":"Iowa","lat":43.40377,"lng":-93.78448,"zip":"50478","miles_from_dt":22.84},{"city":"Fenton","state_name":"Iowa","lat":43.23543,"lng":-94.41849,"zip":"50539","miles_from_dt":22.93},{"city":"Goldfield","state_name":"Iowa","lat":42.7794,"lng":-93.94594,"zip":"50542","miles_from_dt":23.09},{"city":"Klemme","state_name":"Iowa","lat":43.00129,"lng":-93.55629,"zip":"50449","miles_from_dt":23.59},{"city":"Ottosen","state_name":"Iowa","lat":42.89359,"lng":-94.36585,"zip":"50570","miles_from_dt":23.99},{"city":"Leland","state_name":"Iowa","lat":43.3664,"lng":-93.65258,"zip":"50453","miles_from_dt":24.73},{"city":"West Bend","state_name":"Iowa","lat":42.97379,"lng":-94.45048,"zip":"50597","miles_from_dt":24.85},{"city":"Swea City","state_name":"Iowa","lat":43.40647,"lng":-94.30303,"zip":"50590","miles_from_dt":25.54},{"city":"Ledyard","state_name":"Iowa","lat":43.45276,"lng":-94.20114,"zip":"50556","miles_from_dt":25.69},{"city":"Ventura","state_name":"Iowa","lat":43.12356,"lng":-93.48167,"zip":"50482","miles_from_dt":26.08},{"city":"Rake","state_name":"Iowa","lat":43.48703,"lng":-93.91056,"zip":"50465","miles_from_dt":26.27},{"city":"Belmond","state_name":"Iowa","lat":42.84246,"lng":-93.62148,"zip":"50421","miles_from_dt":26.61},{"city":"Rutland","state_name":"Iowa","lat":42.79338,"lng":-94.30217,"zip":"50582","miles_from_dt":26.87},{"city":"Cylinder","state_name":"Iowa","lat":43.13717,"lng":-94.54023,"zip":"50528","miles_from_dt":27.51},{"city":"Clarion","state_name":"Iowa","lat":42.73875,"lng":-93.74907,"zip":"50525","miles_from_dt":28.66},{"city":"Dakota City","state_name":"Iowa","lat":42.72216,"lng":-94.20101,"zip":"50529","miles_from_dt":28.81},{"city":"Elmore","state_name":"Minnesota","lat":43.51935,"lng":-94.12432,"zip":"56027","miles_from_dt":28.86},{"city":"Meservey","state_name":"Iowa","lat":42.91418,"lng":-93.4928,"zip":"50457","miles_from_dt":28.96},{"city":"Fertile","state_name":"Iowa","lat":43.25857,"lng":-93.45758,"zip":"50434","miles_from_dt":29.08},{"city":"Scarville","state_name":"Iowa","lat":43.46402,"lng":-93.67429,"zip":"50473","miles_from_dt":29.27},{"city":"Bradgate","state_name":"Iowa","lat":42.80524,"lng":-94.39772,"zip":"50520","miles_from_dt":29.33},{"city":"Clarion","state_name":"Iowa","lat":42.73289,"lng":-93.73254,"zip":"50526","miles_from_dt":29.4},{"city":"Humboldt","state_name":"Iowa","lat":42.71275,"lng":-94.22645,"zip":"50548","miles_from_dt":29.9}],"targetCityZipCode":"50483","targetCityState":"Iowa"},"__N_SSG":true}