{"pageProps":{"stateName":"Iowa","cityName":"west-branch","nearbyCities":[{"city":"West Liberty","state_name":"Iowa","lat":41.5795,"lng":-91.275,"zip":"52776","miles_from_dt":8.41},{"city":"Iowa City","state_name":"Iowa","lat":41.67071,"lng":-91.50666,"zip":"52245","miles_from_dt":9.77},{"city":"Tipton","state_name":"Iowa","lat":41.75006,"lng":-91.14083,"zip":"52772","miles_from_dt":10.02},{"city":"Iowa City","state_name":"Iowa","lat":41.68504,"lng":-91.51708,"zip":"52244","miles_from_dt":10.18},{"city":"Iowa City","state_name":"Iowa","lat":41.63143,"lng":-91.49924,"zip":"52240","miles_from_dt":10.26},{"city":"Atalissa","state_name":"Iowa","lat":41.59064,"lng":-91.16578,"zip":"52720","miles_from_dt":10.86},{"city":"Solon","state_name":"Iowa","lat":41.80376,"lng":-91.48685,"zip":"52333","miles_from_dt":11.33},{"city":"Iowa City","state_name":"Iowa","lat":41.6566,"lng":-91.53555,"zip":"52243","miles_from_dt":11.44},{"city":"Iowa City","state_name":"Iowa","lat":41.66195,"lng":-91.54317,"zip":"52242","miles_from_dt":11.74},{"city":"Moscow","state_name":"Iowa","lat":41.58255,"lng":-91.09853,"zip":"52760","miles_from_dt":13.94},{"city":"Lisbon","state_name":"Iowa","lat":41.89713,"lng":-91.35154,"zip":"52253","miles_from_dt":13.94},{"city":"Hills","state_name":"Iowa","lat":41.57024,"lng":-91.53281,"zip":"52235","miles_from_dt":14.01},{"city":"Mechanicsville","state_name":"Iowa","lat":41.89729,"lng":-91.25296,"zip":"52306","miles_from_dt":14.3},{"city":"Coralville","state_name":"Iowa","lat":41.69708,"lng":-91.59746,"zip":"52241","miles_from_dt":14.3},{"city":"Iowa City","state_name":"Iowa","lat":41.64903,"lng":-91.59718,"zip":"52246","miles_from_dt":14.66},{"city":"Stanwood","state_name":"Iowa","lat":41.88217,"lng":-91.14282,"zip":"52337","miles_from_dt":15.78},{"city":"Lone Tree","state_name":"Iowa","lat":41.48015,"lng":-91.43349,"zip":"52755","miles_from_dt":16.02},{"city":"Nichols","state_name":"Iowa","lat":41.46407,"lng":-91.30061,"zip":"52766","miles_from_dt":16.07},{"city":"North Liberty","state_name":"Iowa","lat":41.76277,"lng":-91.63142,"zip":"52317","miles_from_dt":16.69},{"city":"Wilton","state_name":"Iowa","lat":41.61115,"lng":-91.00066,"zip":"52778","miles_from_dt":17.59},{"city":"Mount Vernon","state_name":"Iowa","lat":41.93439,"lng":-91.44985,"zip":"52314","miles_from_dt":17.72},{"city":"Tiffin","state_name":"Iowa","lat":41.70615,"lng":-91.68019,"zip":"52340","miles_from_dt":18.59},{"city":"Ely","state_name":"Iowa","lat":41.89647,"lng":-91.5626,"zip":"52227","miles_from_dt":18.61},{"city":"Bennett","state_name":"Iowa","lat":41.75588,"lng":-90.9633,"zip":"52721","miles_from_dt":18.94},{"city":"Clarence","state_name":"Iowa","lat":41.89321,"lng":-91.0431,"zip":"52216","miles_from_dt":19.76},{"city":"Riverside","state_name":"Iowa","lat":41.477,"lng":-91.58046,"zip":"52327","miles_from_dt":20.25},{"city":"Morley","state_name":"Iowa","lat":42.00617,"lng":-91.24526,"zip":"52312","miles_from_dt":21.73},{"city":"Lowden","state_name":"Iowa","lat":41.86294,"lng":-90.96129,"zip":"52255","miles_from_dt":21.85},{"city":"Swisher","state_name":"Iowa","lat":41.82904,"lng":-91.70858,"zip":"52338","miles_from_dt":22.02},{"city":"Martelle","state_name":"Iowa","lat":42.01801,"lng":-91.34207,"zip":"52305","miles_from_dt":22.22},{"city":"Durant","state_name":"Iowa","lat":41.59758,"lng":-90.91147,"zip":"52747","miles_from_dt":22.27},{"city":"Muscatine","state_name":"Iowa","lat":41.43798,"lng":-91.05802,"zip":"52761","miles_from_dt":22.45},{"city":"Conesville","state_name":"Iowa","lat":41.3728,"lng":-91.36823,"zip":"52739","miles_from_dt":22.47},{"city":"Olin","state_name":"Iowa","lat":41.99997,"lng":-91.14643,"zip":"52320","miles_from_dt":22.8},{"city":"Oxford","state_name":"Iowa","lat":41.69221,"lng":-91.76284,"zip":"52322","miles_from_dt":22.86},{"city":"Cedar Rapids","state_name":"Iowa","lat":41.96813,"lng":-91.57964,"zip":"52403","miles_from_dt":23.02},{"city":"New Liberty","state_name":"Iowa","lat":41.72182,"lng":-90.87274,"zip":"52765","miles_from_dt":23.25},{"city":"Cedar Rapids","state_name":"Iowa","lat":41.9199,"lng":-91.67799,"zip":"52406","miles_from_dt":24.04},{"city":"Kalona","state_name":"Iowa","lat":41.51503,"lng":-91.71774,"zip":"52247","miles_from_dt":24.06},{"city":"Cedar Rapids","state_name":"Iowa","lat":41.92153,"lng":-91.69077,"zip":"52404","miles_from_dt":24.62},{"city":"Letts","state_name":"Iowa","lat":41.34254,"lng":-91.24144,"zip":"52754","miles_from_dt":24.77},{"city":"Stockton","state_name":"Iowa","lat":41.60836,"lng":-90.8416,"zip":"52769","miles_from_dt":25.55},{"city":"Cedar Rapids","state_name":"Iowa","lat":41.97494,"lng":-91.6551,"zip":"52499","miles_from_dt":25.82},{"city":"Cedar Rapids","state_name":"Iowa","lat":41.97584,"lng":-91.65536,"zip":"52407","miles_from_dt":25.88},{"city":"Cedar Rapids","state_name":"Iowa","lat":41.97534,"lng":-91.65871,"zip":"52401","miles_from_dt":25.97},{"city":"Fruitland","state_name":"Iowa","lat":41.34608,"lng":-91.13112,"zip":"52749","miles_from_dt":26.11},{"city":"Wheatland","state_name":"Iowa","lat":41.84739,"lng":-90.85529,"zip":"52777","miles_from_dt":26.22},{"city":"Springville","state_name":"Iowa","lat":42.0689,"lng":-91.44111,"zip":"52336","miles_from_dt":26.44},{"city":"Cedar Rapids","state_name":"Iowa","lat":42.00587,"lng":-91.64172,"zip":"52497","miles_from_dt":27.02},{"city":"Oxford Junction","state_name":"Iowa","lat":41.98445,"lng":-90.95344,"zip":"52323","miles_from_dt":27.48},{"city":"Ainsworth","state_name":"Iowa","lat":41.33218,"lng":-91.54704,"zip":"52201","miles_from_dt":27.74},{"city":"Fairfax","state_name":"Iowa","lat":41.90282,"lng":-91.79132,"zip":"52228","miles_from_dt":28.16},{"city":"Cedar Rapids","state_name":"Iowa","lat":42.02126,"lng":-91.65851,"zip":"52410","miles_from_dt":28.39},{"city":"Cedar Rapids","state_name":"Iowa","lat":42.02179,"lng":-91.66109,"zip":"52498","miles_from_dt":28.5},{"city":"Cedar Rapids","state_name":"Iowa","lat":42.02272,"lng":-91.66001,"zip":"52402","miles_from_dt":28.51},{"city":"Cedar Rapids","state_name":"Iowa","lat":41.9879,"lng":-91.71311,"zip":"52408","miles_from_dt":28.53},{"city":"Marion","state_name":"Iowa","lat":42.0656,"lng":-91.57091,"zip":"52302","miles_from_dt":28.55},{"city":"Cedar Rapids","state_name":"Iowa","lat":41.98957,"lng":-91.71433,"zip":"52409","miles_from_dt":28.66},{"city":"Homestead","state_name":"Iowa","lat":41.73143,"lng":-91.87647,"zip":"52236","miles_from_dt":28.83},{"city":"Anamosa","state_name":"Iowa","lat":42.11754,"lng":-91.28806,"zip":"52205","miles_from_dt":29.11},{"city":"Dixon","state_name":"Iowa","lat":41.71502,"lng":-90.75783,"zip":"52745","miles_from_dt":29.15},{"city":"Amana","state_name":"Iowa","lat":41.79852,"lng":-91.87065,"zip":"52204","miles_from_dt":29.27},{"city":"Walford","state_name":"Iowa","lat":41.87496,"lng":-91.83529,"zip":"52351","miles_from_dt":29.28},{"city":"Columbus Junction","state_name":"Iowa","lat":41.2736,"lng":-91.38072,"zip":"52738","miles_from_dt":29.35},{"city":"Illinois City","state_name":"Illinois","lat":41.38839,"lng":-90.92733,"zip":"61259","miles_from_dt":29.47},{"city":"Walcott","state_name":"Iowa","lat":41.62187,"lng":-90.75529,"zip":"52773","miles_from_dt":29.73},{"city":"Cedar Rapids","state_name":"Iowa","lat":41.98644,"lng":-91.74774,"zip":"52405","miles_from_dt":29.76},{"city":"Grandview","state_name":"Iowa","lat":41.27465,"lng":-91.1911,"zip":"52752","miles_from_dt":29.88},{"city":"Wyoming","state_name":"Iowa","lat":42.05881,"lng":-91.00258,"zip":"52362","miles_from_dt":29.92}],"targetCityZipCode":"52358","targetCityState":"Iowa"},"__N_SSG":true}