{"pageProps":{"stateName":"Rhode-island","cityName":"riverside","nearbyCities":[{"city":"East Providence","state_name":"Rhode Island","lat":41.81326,"lng":-71.36608,"zip":"02914","miles_from_dt":2.64},{"city":"Providence","state_name":"Rhode Island","lat":41.78769,"lng":-71.39886,"zip":"02905","miles_from_dt":2.67},{"city":"Barrington","state_name":"Rhode Island","lat":41.7443,"lng":-71.31453,"zip":"02806","miles_from_dt":2.89},{"city":"Warwick","state_name":"Rhode Island","lat":41.74909,"lng":-71.41123,"zip":"02888","miles_from_dt":3.75},{"city":"Providence","state_name":"Rhode Island","lat":41.79867,"lng":-71.42581,"zip":"02907","miles_from_dt":4.23},{"city":"Providence","state_name":"Rhode Island","lat":41.81902,"lng":-71.41003,"zip":"02903","miles_from_dt":4.27},{"city":"Providence","state_name":"Rhode Island","lat":41.82783,"lng":-71.39959,"zip":"02912","miles_from_dt":4.36},{"city":"Cranston","state_name":"Rhode Island","lat":41.77552,"lng":-71.43564,"zip":"02910","miles_from_dt":4.47},{"city":"Seekonk","state_name":"Massachusetts","lat":41.83787,"lng":-71.31736,"zip":"02771","miles_from_dt":4.49},{"city":"Providence","state_name":"Rhode Island","lat":41.82468,"lng":-71.41079,"zip":"02902","miles_from_dt":4.57},{"city":"Providence","state_name":"Rhode Island","lat":41.82682,"lng":-71.408,"zip":"02901","miles_from_dt":4.58},{"city":"Rumford","state_name":"Rhode Island","lat":41.84438,"lng":-71.35258,"zip":"02916","miles_from_dt":4.64},{"city":"Providence","state_name":"Rhode Island","lat":41.83964,"lng":-71.38963,"zip":"02906","miles_from_dt":4.79},{"city":"Providence","state_name":"Rhode Island","lat":41.82272,"lng":-71.42064,"zip":"02940","miles_from_dt":4.85},{"city":"Warwick","state_name":"Rhode Island","lat":41.70602,"lng":-71.39106,"zip":"02889","miles_from_dt":5.37},{"city":"Warren","state_name":"Rhode Island","lat":41.72821,"lng":-71.26287,"zip":"02885","miles_from_dt":5.59},{"city":"Providence","state_name":"Rhode Island","lat":41.81825,"lng":-71.45078,"zip":"02909","miles_from_dt":5.97},{"city":"Cranston","state_name":"Rhode Island","lat":41.76719,"lng":-71.4655,"zip":"02920","miles_from_dt":6.06},{"city":"Providence","state_name":"Rhode Island","lat":41.83877,"lng":-71.43926,"zip":"02908","miles_from_dt":6.3},{"city":"Providence","state_name":"Rhode Island","lat":41.84386,"lng":-71.43499,"zip":"02918","miles_from_dt":6.39},{"city":"Warwick","state_name":"Rhode Island","lat":41.70268,"lng":-71.42316,"zip":"02887","miles_from_dt":6.42},{"city":"Pawtucket","state_name":"Rhode Island","lat":41.87112,"lng":-71.37567,"zip":"02862","miles_from_dt":6.62},{"city":"Pawtucket","state_name":"Rhode Island","lat":41.87036,"lng":-71.38855,"zip":"02860","miles_from_dt":6.74},{"city":"Pawtucket","state_name":"Rhode Island","lat":41.87863,"lng":-71.35228,"zip":"02861","miles_from_dt":7},{"city":"Rehoboth","state_name":"Massachusetts","lat":41.84394,"lng":-71.24559,"zip":"02769","miles_from_dt":7.05},{"city":"Swansea","state_name":"Massachusetts","lat":41.75699,"lng":-71.21208,"zip":"02777","miles_from_dt":7.21},{"city":"Providence","state_name":"Rhode Island","lat":41.86058,"lng":-71.43539,"zip":"02904","miles_from_dt":7.28},{"city":"Warwick","state_name":"Rhode Island","lat":41.70493,"lng":-71.45892,"zip":"02886","miles_from_dt":7.56},{"city":"Bristol","state_name":"Rhode Island","lat":41.68266,"lng":-71.26938,"zip":"02809","miles_from_dt":7.72},{"city":"Central Falls","state_name":"Rhode Island","lat":41.89005,"lng":-71.39336,"zip":"02863","miles_from_dt":8.11},{"city":"North Providence","state_name":"Rhode Island","lat":41.85467,"lng":-71.47325,"zip":"02911","miles_from_dt":8.35},{"city":"Cranston","state_name":"Rhode Island","lat":41.76292,"lng":-71.51571,"zip":"02921","miles_from_dt":8.67},{"city":"Johnston","state_name":"Rhode Island","lat":41.82733,"lng":-71.52002,"zip":"02919","miles_from_dt":9.48},{"city":"Somerset","state_name":"Massachusetts","lat":41.71253,"lng":-71.18426,"zip":"02725","miles_from_dt":9.62},{"city":"West Warwick","state_name":"Rhode Island","lat":41.69856,"lng":-71.51566,"zip":"02893","miles_from_dt":10.18},{"city":"Fiskeville","state_name":"Rhode Island","lat":41.73328,"lng":-71.54479,"zip":"02823","miles_from_dt":10.56},{"city":"Dighton","state_name":"Massachusetts","lat":41.81681,"lng":-71.15064,"zip":"02715","miles_from_dt":10.6},{"city":"Somerset","state_name":"Massachusetts","lat":41.76073,"lng":-71.14444,"zip":"02726","miles_from_dt":10.63},{"city":"Lincoln","state_name":"Rhode Island","lat":41.91251,"lng":-71.44822,"zip":"02865","miles_from_dt":10.65},{"city":"Fall River","state_name":"Massachusetts","lat":41.68372,"lng":-71.17949,"zip":"02724","miles_from_dt":10.89},{"city":"Attleboro","state_name":"Massachusetts","lat":41.93108,"lng":-71.29499,"zip":"02703","miles_from_dt":10.98},{"city":"Prudence Island","state_name":"Rhode Island","lat":41.61718,"lng":-71.32886,"zip":"02872","miles_from_dt":11.1},{"city":"North Dighton","state_name":"Massachusetts","lat":41.8562,"lng":-71.16022,"zip":"02764","miles_from_dt":11.17},{"city":"Fall River","state_name":"Massachusetts","lat":41.69952,"lng":-71.15515,"zip":"02722","miles_from_dt":11.37},{"city":"East Greenwich","state_name":"Rhode Island","lat":41.64214,"lng":-71.49307,"zip":"02818","miles_from_dt":11.93},{"city":"Hope","state_name":"Rhode Island","lat":41.74461,"lng":-71.58442,"zip":"02831","miles_from_dt":12.37},{"city":"Fall River","state_name":"Massachusetts","lat":41.67451,"lng":-71.14869,"zip":"02721","miles_from_dt":12.55},{"city":"Smithfield","state_name":"Rhode Island","lat":41.90615,"lng":-71.52365,"zip":"02917","miles_from_dt":12.66},{"city":"Fall River","state_name":"Massachusetts","lat":41.69237,"lng":-71.1309,"zip":"02723","miles_from_dt":12.71},{"city":"Fall River","state_name":"Massachusetts","lat":41.73095,"lng":-71.10932,"zip":"02720","miles_from_dt":12.79},{"city":"Greenville","state_name":"Rhode Island","lat":41.87672,"lng":-71.56065,"zip":"02828","miles_from_dt":12.9},{"city":"Attleboro Falls","state_name":"Massachusetts","lat":41.96666,"lng":-71.30743,"zip":"02763","miles_from_dt":13.25},{"city":"Albion","state_name":"Rhode Island","lat":41.95221,"lng":-71.4559,"zip":"02802","miles_from_dt":13.27},{"city":"North Attleboro","state_name":"Massachusetts","lat":41.97004,"lng":-71.33586,"zip":"02760","miles_from_dt":13.32},{"city":"Cumberland","state_name":"Rhode Island","lat":41.97025,"lng":-71.41978,"zip":"02864","miles_from_dt":13.81},{"city":"North Attleboro","state_name":"Massachusetts","lat":41.9793,"lng":-71.33143,"zip":"02761","miles_from_dt":13.97},{"city":"Portsmouth","state_name":"Rhode Island","lat":41.58384,"lng":-71.2564,"zip":"02871","miles_from_dt":14.18},{"city":"Chartley","state_name":"Massachusetts","lat":41.96733,"lng":-71.24163,"zip":"02712","miles_from_dt":14.24},{"city":"North Kingstown","state_name":"Rhode Island","lat":41.58809,"lng":-71.46094,"zip":"02852","miles_from_dt":14.28},{"city":"Manville","state_name":"Rhode Island","lat":41.96552,"lng":-71.47628,"zip":"02838","miles_from_dt":14.56},{"city":"Berkley","state_name":"Massachusetts","lat":41.83492,"lng":-71.07543,"zip":"02779","miles_from_dt":14.68},{"city":"Tiverton","state_name":"Rhode Island","lat":41.60905,"lng":-71.17413,"zip":"02878","miles_from_dt":14.72},{"city":"Taunton","state_name":"Massachusetts","lat":41.90743,"lng":-71.11939,"zip":"02780","miles_from_dt":14.87},{"city":"Harmony","state_name":"Rhode Island","lat":41.89377,"lng":-71.59129,"zip":"02829","miles_from_dt":14.87},{"city":"Assonet","state_name":"Massachusetts","lat":41.78452,"lng":-71.06112,"zip":"02702","miles_from_dt":14.88},{"city":"North Scituate","state_name":"Rhode Island","lat":41.82705,"lng":-71.63083,"zip":"02857","miles_from_dt":14.95},{"city":"Coventry","state_name":"Rhode Island","lat":41.69035,"lng":-71.61954,"zip":"02816","miles_from_dt":15.21},{"city":"Norton","state_name":"Massachusetts","lat":41.96402,"lng":-71.18418,"zip":"02766","miles_from_dt":15.44},{"city":"Clayville","state_name":"Rhode Island","lat":41.77723,"lng":-71.66177,"zip":"02815","miles_from_dt":16.15},{"city":"Plainville","state_name":"Massachusetts","lat":42.01409,"lng":-71.33642,"zip":"02762","miles_from_dt":16.36},{"city":"North Smithfield","state_name":"Rhode Island","lat":41.97285,"lng":-71.55027,"zip":"02896","miles_from_dt":17.03},{"city":"Woonsocket","state_name":"Rhode Island","lat":42.00103,"lng":-71.49923,"zip":"02895","miles_from_dt":17.28},{"city":"Mansfield","state_name":"Massachusetts","lat":42.01626,"lng":-71.21868,"zip":"02048","miles_from_dt":17.81},{"city":"Sheldonville","state_name":"Massachusetts","lat":42.0348,"lng":-71.386,"zip":"02070","miles_from_dt":17.88},{"city":"Jamestown","state_name":"Rhode Island","lat":41.51479,"lng":-71.37742,"zip":"02835","miles_from_dt":18.17},{"city":"Newport","state_name":"Rhode Island","lat":41.51261,"lng":-71.32522,"zip":"02841","miles_from_dt":18.31},{"city":"Middletown","state_name":"Rhode Island","lat":41.51739,"lng":-71.27667,"zip":"02842","miles_from_dt":18.32},{"city":"Westport","state_name":"Massachusetts","lat":41.59967,"lng":-71.08266,"zip":"02790","miles_from_dt":18.44},{"city":"East Taunton","state_name":"Massachusetts","lat":41.86902,"lng":-71.01128,"zip":"02718","miles_from_dt":18.55},{"city":"Forestdale","state_name":"Rhode Island","lat":41.99934,"lng":-71.56322,"zip":"02824","miles_from_dt":18.89},{"city":"Wrentham","state_name":"Massachusetts","lat":42.05129,"lng":-71.35522,"zip":"02093","miles_from_dt":18.92},{"city":"Raynham","state_name":"Massachusetts","lat":41.93939,"lng":-71.05191,"zip":"02767","miles_from_dt":18.98},{"city":"East Freetown","state_name":"Massachusetts","lat":41.75405,"lng":-70.98312,"zip":"02717","miles_from_dt":18.98},{"city":"Slocum","state_name":"Rhode Island","lat":41.53651,"lng":-71.52724,"zip":"02877","miles_from_dt":19},{"city":"Raynham Center","state_name":"Massachusetts","lat":41.92912,"lng":-71.0417,"zip":"02768","miles_from_dt":19.01},{"city":"Saunderstown","state_name":"Rhode Island","lat":41.51543,"lng":-71.46985,"zip":"02874","miles_from_dt":19.12},{"city":"Mapleville","state_name":"Rhode Island","lat":41.9433,"lng":-71.64581,"zip":"02839","miles_from_dt":19.12},{"city":"North Dartmouth","state_name":"Massachusetts","lat":41.6577,"lng":-71.01202,"zip":"02747","miles_from_dt":19.28},{"city":"West Greenwich","state_name":"Rhode Island","lat":41.6291,"lng":-71.66711,"zip":"02817","miles_from_dt":19.37},{"city":"Slatersville","state_name":"Rhode Island","lat":41.99801,"lng":-71.58301,"zip":"02876","miles_from_dt":19.43},{"city":"Adamsville","state_name":"Rhode Island","lat":41.544,"lng":-71.13778,"zip":"02801","miles_from_dt":19.46},{"city":"Foster","state_name":"Rhode Island","lat":41.78212,"lng":-71.72596,"zip":"02825","miles_from_dt":19.47},{"city":"Chepachet","state_name":"Rhode Island","lat":41.89959,"lng":-71.69888,"zip":"02814","miles_from_dt":19.93},{"city":"Oakland","state_name":"Rhode Island","lat":41.96354,"lng":-71.64893,"zip":"02858","miles_from_dt":20.11},{"city":"Foxboro","state_name":"Massachusetts","lat":42.06266,"lng":-71.24613,"zip":"02035","miles_from_dt":20.4},{"city":"Blackstone","state_name":"Massachusetts","lat":42.0399,"lng":-71.53125,"zip":"01504","miles_from_dt":20.42},{"city":"Easton","state_name":"Massachusetts","lat":42.02385,"lng":-71.12922,"zip":"02334","miles_from_dt":20.45},{"city":"Little Compton","state_name":"Rhode Island","lat":41.51524,"lng":-71.16455,"zip":"02837","miles_from_dt":20.45},{"city":"Lakeville","state_name":"Massachusetts","lat":41.83101,"lng":-70.9594,"zip":"02347","miles_from_dt":20.46},{"city":"Exeter","state_name":"Rhode Island","lat":41.56736,"lng":-71.63348,"zip":"02822","miles_from_dt":20.65},{"city":"Newport","state_name":"Rhode Island","lat":41.47838,"lng":-71.31993,"zip":"02840","miles_from_dt":20.68},{"city":"Glendale","state_name":"Rhode Island","lat":41.98248,"lng":-71.64539,"zip":"02826","miles_from_dt":20.84},{"city":"Harrisville","state_name":"Rhode Island","lat":41.98016,"lng":-71.6484,"zip":"02830","miles_from_dt":20.84},{"city":"Greene","state_name":"Rhode Island","lat":41.69792,"lng":-71.73847,"zip":"02827","miles_from_dt":20.86},{"city":"South Easton","state_name":"Massachusetts","lat":42.01954,"lng":-71.10381,"zip":"02375","miles_from_dt":20.97},{"city":"New Bedford","state_name":"Massachusetts","lat":41.70284,"lng":-70.94695,"zip":"02745","miles_from_dt":21.41},{"city":"Franklin","state_name":"Massachusetts","lat":42.08622,"lng":-71.41126,"zip":"02038","miles_from_dt":21.56},{"city":"Millville","state_name":"Massachusetts","lat":42.03906,"lng":-71.57767,"zip":"01529","miles_from_dt":21.57},{"city":"Bellingham","state_name":"Massachusetts","lat":42.0777,"lng":-71.47407,"zip":"02019","miles_from_dt":21.71},{"city":"Lakeville","state_name":"Massachusetts","lat":41.87731,"lng":-70.94643,"zip":"02348","miles_from_dt":21.9},{"city":"New Bedford","state_name":"Massachusetts","lat":41.66474,"lng":-70.945,"zip":"02746","miles_from_dt":22.29},{"city":"Kingston","state_name":"Rhode Island","lat":41.4825,"lng":-71.52694,"zip":"02881","miles_from_dt":22.33},{"city":"Westport Point","state_name":"Massachusetts","lat":41.52262,"lng":-71.08266,"zip":"02791","miles_from_dt":22.34},{"city":"North Easton","state_name":"Massachusetts","lat":42.05519,"lng":-71.12071,"zip":"02356","miles_from_dt":22.51},{"city":"Dartmouth","state_name":"Massachusetts","lat":41.57117,"lng":-71.00266,"zip":"02714","miles_from_dt":22.88},{"city":"South Walpole","state_name":"Massachusetts","lat":42.10392,"lng":-71.27002,"zip":"02071","miles_from_dt":22.91},{"city":"West Kingston","state_name":"Rhode Island","lat":41.50226,"lng":-71.60174,"zip":"02892","miles_from_dt":23.05},{"city":"New Bedford","state_name":"Massachusetts","lat":41.63989,"lng":-70.94,"zip":"02741","miles_from_dt":23.18},{"city":"New Bedford","state_name":"Massachusetts","lat":41.63802,"lng":-70.93839,"zip":"02740","miles_from_dt":23.31},{"city":"Norfolk","state_name":"Massachusetts","lat":42.11632,"lng":-71.32952,"zip":"02056","miles_from_dt":23.42},{"city":"Middleboro","state_name":"Massachusetts","lat":41.89422,"lng":-70.92082,"zip":"02344","miles_from_dt":23.53},{"city":"Bridgewater","state_name":"Massachusetts","lat":41.97272,"lng":-70.97498,"zip":"02324","miles_from_dt":23.54},{"city":"Acushnet","state_name":"Massachusetts","lat":41.71323,"lng":-70.90054,"zip":"02743","miles_from_dt":23.6},{"city":"Middleboro","state_name":"Massachusetts","lat":41.87098,"lng":-70.90838,"zip":"02349","miles_from_dt":23.65},{"city":"West Bridgewater","state_name":"Massachusetts","lat":42.02139,"lng":-71.0267,"zip":"02379","miles_from_dt":23.67},{"city":"New Bedford","state_name":"Massachusetts","lat":41.63792,"lng":-70.92952,"zip":"02742","miles_from_dt":23.73},{"city":"Peace Dale","state_name":"Rhode Island","lat":41.45165,"lng":-71.50128,"zip":"02883","miles_from_dt":23.81},{"city":"Oneco","state_name":"Connecticut","lat":41.68394,"lng":-71.79881,"zip":"06373","miles_from_dt":24.13},{"city":"North Easton","state_name":"Massachusetts","lat":42.06224,"lng":-71.07751,"zip":"02357","miles_from_dt":24.14},{"city":"East Killingly","state_name":"Connecticut","lat":41.84743,"lng":-71.80701,"zip":"06243","miles_from_dt":24.14},{"city":"Mendon","state_name":"Massachusetts","lat":42.09301,"lng":-71.55146,"zip":"01756","miles_from_dt":24.16},{"city":"South Dartmouth","state_name":"Massachusetts","lat":41.56096,"lng":-70.97963,"zip":"02748","miles_from_dt":24.25},{"city":"Wyoming","state_name":"Rhode Island","lat":41.52184,"lng":-71.67166,"zip":"02898","miles_from_dt":24.28},{"city":"Pascoag","state_name":"Rhode Island","lat":41.9665,"lng":-71.7464,"zip":"02859","miles_from_dt":24.3},{"city":"Sharon","state_name":"Massachusetts","lat":42.10778,"lng":-71.18183,"zip":"02067","miles_from_dt":24.39},{"city":"Sterling","state_name":"Connecticut","lat":41.72708,"lng":-71.81679,"zip":"06377","miles_from_dt":24.42},{"city":"Uxbridge","state_name":"Massachusetts","lat":42.05895,"lng":-71.63741,"zip":"01569","miles_from_dt":24.47},{"city":"Bridgewater","state_name":"Massachusetts","lat":41.98875,"lng":-70.96449,"zip":"02325","miles_from_dt":24.63},{"city":"Narragansett","state_name":"Rhode Island","lat":41.4253,"lng":-71.46816,"zip":"02882","miles_from_dt":25.06},{"city":"New Bedford","state_name":"Massachusetts","lat":41.60789,"lng":-70.91286,"zip":"02744","miles_from_dt":25.41},{"city":"Wakefield","state_name":"Rhode Island","lat":41.42333,"lng":-71.48416,"zip":"02880","miles_from_dt":25.41},{"city":"Middleboro","state_name":"Massachusetts","lat":41.88034,"lng":-70.87446,"zip":"02346","miles_from_dt":25.51},{"city":"Elmwood","state_name":"Massachusetts","lat":42.01183,"lng":-70.96402,"zip":"02337","miles_from_dt":25.62},{"city":"Hopedale","state_name":"Massachusetts","lat":42.12477,"lng":-71.535,"zip":"01747","miles_from_dt":25.83},{"city":"Walpole","state_name":"Massachusetts","lat":42.14689,"lng":-71.25916,"zip":"02081","miles_from_dt":25.93},{"city":"Wakefield","state_name":"Rhode Island","lat":41.42865,"lng":-71.53837,"zip":"02879","miles_from_dt":25.98},{"city":"Brockton","state_name":"Massachusetts","lat":42.07791,"lng":-71.04223,"zip":"02301","miles_from_dt":26.09},{"city":"Danielson","state_name":"Connecticut","lat":41.79116,"lng":-71.85711,"zip":"06239","miles_from_dt":26.26},{"city":"North Uxbridge","state_name":"Massachusetts","lat":42.09026,"lng":-71.63989,"zip":"01538","miles_from_dt":26.29},{"city":"Medway","state_name":"Massachusetts","lat":42.15352,"lng":-71.42906,"zip":"02053","miles_from_dt":26.29},{"city":"Carolina","state_name":"Rhode Island","lat":41.47625,"lng":-71.66094,"zip":"02812","miles_from_dt":26.31},{"city":"Rochester","state_name":"Massachusetts","lat":41.75875,"lng":-70.84048,"zip":"02770","miles_from_dt":26.31},{"city":"Fairhaven","state_name":"Massachusetts","lat":41.63945,"lng":-70.87322,"zip":"02719","miles_from_dt":26.38},{"city":"Dayville","state_name":"Connecticut","lat":41.85635,"lng":-71.84904,"zip":"06241","miles_from_dt":26.38},{"city":"Moosup","state_name":"Connecticut","lat":41.69836,"lng":-71.85016,"zip":"06354","miles_from_dt":26.47},{"city":"Shannock","state_name":"Rhode Island","lat":41.46052,"lng":-71.63848,"zip":"02875","miles_from_dt":26.5},{"city":"Kenyon","state_name":"Rhode Island","lat":41.45145,"lng":-71.62027,"zip":"02836","miles_from_dt":26.51},{"city":"Brockton","state_name":"Massachusetts","lat":42.08167,"lng":-71.02597,"zip":"02304","miles_from_dt":26.81},{"city":"Stoughton","state_name":"Massachusetts","lat":42.1192,"lng":-71.10189,"zip":"02072","miles_from_dt":26.82},{"city":"Linwood","state_name":"Massachusetts","lat":42.09899,"lng":-71.64296,"zip":"01525","miles_from_dt":26.88},{"city":"Brockton","state_name":"Massachusetts","lat":42.08318,"lng":-71.02462,"zip":"02305","miles_from_dt":26.93},{"city":"East Walpole","state_name":"Massachusetts","lat":42.15489,"lng":-71.2155,"zip":"02032","miles_from_dt":26.96},{"city":"Millis","state_name":"Massachusetts","lat":42.1693,"lng":-71.36261,"zip":"02054","miles_from_dt":27.07},{"city":"Hope Valley","state_name":"Rhode Island","lat":41.50469,"lng":-71.72807,"zip":"02832","miles_from_dt":27.18},{"city":"Brockton","state_name":"Massachusetts","lat":42.08476,"lng":-71.01516,"zip":"02303","miles_from_dt":27.32},{"city":"Ballouville","state_name":"Connecticut","lat":41.87311,"lng":-71.8635,"zip":"06233","miles_from_dt":27.37},{"city":"East Bridgewater","state_name":"Massachusetts","lat":42.03521,"lng":-70.94235,"zip":"02333","miles_from_dt":27.51},{"city":"Milford","state_name":"Massachusetts","lat":42.15723,"lng":-71.51978,"zip":"01757","miles_from_dt":27.66},{"city":"Brockton","state_name":"Massachusetts","lat":42.08792,"lng":-70.99864,"zip":"02302","miles_from_dt":28.03},{"city":"Douglas","state_name":"Massachusetts","lat":42.0528,"lng":-71.75106,"zip":"01516","miles_from_dt":28.13},{"city":"Rockville","state_name":"Rhode Island","lat":41.5257,"lng":-71.77734,"zip":"02873","miles_from_dt":28.16},{"city":"Medfield","state_name":"Massachusetts","lat":42.1848,"lng":-71.30501,"zip":"02052","miles_from_dt":28.22},{"city":"Voluntown","state_name":"Connecticut","lat":41.58188,"lng":-71.83139,"zip":"06384","miles_from_dt":28.36},{"city":"Putnam","state_name":"Connecticut","lat":41.90898,"lng":-71.87181,"zip":"06260","miles_from_dt":28.47},{"city":"Mattapoisett","state_name":"Massachusetts","lat":41.6687,"lng":-70.81705,"zip":"02739","miles_from_dt":28.51},{"city":"West Millbury","state_name":"Massachusetts","lat":42.12631,"lng":-71.64613,"zip":"01586","miles_from_dt":28.54},{"city":"Thompson","state_name":"Connecticut","lat":41.96895,"lng":-71.83927,"zip":"06277","miles_from_dt":28.54},{"city":"Avon","state_name":"Massachusetts","lat":42.12666,"lng":-71.04922,"zip":"02322","miles_from_dt":28.64},{"city":"Whitinsville","state_name":"Massachusetts","lat":42.11837,"lng":-71.66836,"zip":"01588","miles_from_dt":28.72},{"city":"Rogers","state_name":"Connecticut","lat":41.83738,"lng":-71.90444,"zip":"06263","miles_from_dt":28.98},{"city":"Wood River Junction","state_name":"Rhode Island","lat":41.44761,"lng":-71.69759,"zip":"02894","miles_from_dt":29.04},{"city":"Wauregan","state_name":"Connecticut","lat":41.74418,"lng":-71.90981,"zip":"06387","miles_from_dt":29.07},{"city":"Halifax","state_name":"Massachusetts","lat":41.99138,"lng":-70.86326,"zip":"02338","miles_from_dt":29.09},{"city":"Central Village","state_name":"Connecticut","lat":41.72845,"lng":-71.91008,"zip":"06332","miles_from_dt":29.19},{"city":"North Scituate","state_name":"Massachusetts","lat":42.18687,"lng":-71.20406,"zip":"02060","miles_from_dt":29.24},{"city":"Norwood","state_name":"Massachusetts","lat":42.18563,"lng":-71.19464,"zip":"02062","miles_from_dt":29.29},{"city":"Northbridge","state_name":"Massachusetts","lat":42.13991,"lng":-71.64433,"zip":"01534","miles_from_dt":29.29},{"city":"Holliston","state_name":"Massachusetts","lat":42.19775,"lng":-71.44499,"zip":"01746","miles_from_dt":29.44},{"city":"Whitman","state_name":"Massachusetts","lat":42.08,"lng":-70.93993,"zip":"02382","miles_from_dt":29.69},{"city":"Manchaug","state_name":"Massachusetts","lat":42.08955,"lng":-71.74667,"zip":"01526","miles_from_dt":29.74},{"city":"Canton","state_name":"Massachusetts","lat":42.17504,"lng":-71.12645,"zip":"02021","miles_from_dt":29.75},{"city":"Plainfield","state_name":"Connecticut","lat":41.6798,"lng":-71.91441,"zip":"06374","miles_from_dt":29.99}],"targetCityZipCode":"02915","targetCityState":"Rhode Island"},"__N_SSG":true}