{"pageProps":{"stateName":"North-dakota","cityName":"buffalo","nearbyCities":[{"city":"Tower City","state_name":"North Dakota","lat":46.9436,"lng":-97.68278,"zip":"58071","miles_from_dt":6.63},{"city":"Absaraka","state_name":"North Dakota","lat":46.97562,"lng":-97.40785,"zip":"58002","miles_from_dt":7.29},{"city":"Ayr","state_name":"North Dakota","lat":47.02519,"lng":-97.45724,"zip":"58007","miles_from_dt":7.94},{"city":"Wheatland","state_name":"North Dakota","lat":46.86816,"lng":-97.34827,"zip":"58079","miles_from_dt":10.15},{"city":"Oriska","state_name":"North Dakota","lat":46.96773,"lng":-97.80471,"zip":"58063","miles_from_dt":12.62},{"city":"Fingal","state_name":"North Dakota","lat":46.76222,"lng":-97.6686,"zip":"58031","miles_from_dt":12.82},{"city":"Erie","state_name":"North Dakota","lat":47.11726,"lng":-97.39001,"zip":"58029","miles_from_dt":15.03},{"city":"Amenia","state_name":"North Dakota","lat":47.02713,"lng":-97.26212,"zip":"58004","miles_from_dt":15.04},{"city":"Page","state_name":"North Dakota","lat":47.15036,"lng":-97.62761,"zip":"58064","miles_from_dt":15.91},{"city":"Casselton","state_name":"North Dakota","lat":46.93639,"lng":-97.16113,"zip":"58012","miles_from_dt":18.16},{"city":"Arthur","state_name":"North Dakota","lat":47.09682,"lng":-97.20359,"zip":"58006","miles_from_dt":19.93},{"city":"Enderlin","state_name":"North Dakota","lat":46.63217,"lng":-97.61816,"zip":"58027","miles_from_dt":20.67},{"city":"Mapleton","state_name":"North Dakota","lat":46.83825,"lng":-97.11812,"zip":"58059","miles_from_dt":21.11},{"city":"Pillsbury","state_name":"North Dakota","lat":47.20035,"lng":-97.76612,"zip":"58065","miles_from_dt":21.58},{"city":"Valley City","state_name":"North Dakota","lat":46.92731,"lng":-98.00791,"zip":"58072","miles_from_dt":21.92},{"city":"Galesburg","state_name":"North Dakota","lat":47.25599,"lng":-97.41589,"zip":"58035","miles_from_dt":23.52},{"city":"Leonard","state_name":"North Dakota","lat":46.63552,"lng":-97.28011,"zip":"58052","miles_from_dt":23.73},{"city":"Nome","state_name":"North Dakota","lat":46.64361,"lng":-97.82937,"zip":"58062","miles_from_dt":23.79},{"city":"Hunter","state_name":"North Dakota","lat":47.19882,"lng":-97.22742,"zip":"58048","miles_from_dt":24.01},{"city":"Davenport","state_name":"North Dakota","lat":46.73837,"lng":-97.08102,"zip":"58021","miles_from_dt":25.55},{"city":"Sheldon","state_name":"North Dakota","lat":46.54619,"lng":-97.40896,"zip":"58068","miles_from_dt":27.09},{"city":"Harwood","state_name":"North Dakota","lat":46.96952,"lng":-96.95719,"zip":"58042","miles_from_dt":27.94},{"city":"Kathryn","state_name":"North Dakota","lat":46.66291,"lng":-98.00054,"zip":"58049","miles_from_dt":28.3},{"city":"Luverne","state_name":"North Dakota","lat":47.23868,"lng":-97.93621,"zip":"58056","miles_from_dt":28.37},{"city":"Hope","state_name":"North Dakota","lat":47.32203,"lng":-97.72747,"zip":"58046","miles_from_dt":28.61},{"city":"Argusville","state_name":"North Dakota","lat":47.05261,"lng":-96.951,"zip":"58005","miles_from_dt":29.37},{"city":"West Fargo","state_name":"North Dakota","lat":46.86276,"lng":-96.93125,"zip":"58078","miles_from_dt":29.38}],"targetCityZipCode":"58011","targetCityState":"North Dakota"},"__N_SSG":true}