{"pageProps":{"stateName":"North-dakota","cityName":"butte","nearbyCities":[{"city":"Ruso","state_name":"North Dakota","lat":47.78307,"lng":-100.91268,"zip":"58778","miles_from_dt":14.57},{"city":"Balfour","state_name":"North Dakota","lat":47.96799,"lng":-100.54559,"zip":"58712","miles_from_dt":15},{"city":"Drake","state_name":"North Dakota","lat":47.92804,"lng":-100.38732,"zip":"58736","miles_from_dt":15.64},{"city":"Voltaire","state_name":"North Dakota","lat":47.97385,"lng":-100.7424,"zip":"58792","miles_from_dt":16.5},{"city":"Anamoose","state_name":"North Dakota","lat":47.86959,"lng":-100.23912,"zip":"58710","miles_from_dt":18.71},{"city":"Mcclusky","state_name":"North Dakota","lat":47.49662,"lng":-100.46281,"zip":"58463","miles_from_dt":18.97},{"city":"Mercer","state_name":"North Dakota","lat":47.4849,"lng":-100.71295,"zip":"58559","miles_from_dt":19.31},{"city":"Turtle Lake","state_name":"North Dakota","lat":47.55749,"lng":-100.89971,"zip":"58575","miles_from_dt":19.42},{"city":"Benedict","state_name":"North Dakota","lat":47.80049,"lng":-101.06003,"zip":"58716","miles_from_dt":21.53},{"city":"Martin","state_name":"North Dakota","lat":47.76643,"lng":-100.10424,"zip":"58758","miles_from_dt":23.24},{"city":"Denhoff","state_name":"North Dakota","lat":47.50831,"lng":-100.25954,"zip":"58430","miles_from_dt":23.36},{"city":"Velva","state_name":"North Dakota","lat":48.03071,"lng":-100.93952,"zip":"58790","miles_from_dt":24.69},{"city":"Karlsruhe","state_name":"North Dakota","lat":48.12073,"lng":-100.58774,"zip":"58744","miles_from_dt":25.32},{"city":"Goodrich","state_name":"North Dakota","lat":47.48278,"lng":-100.13156,"zip":"58444","miles_from_dt":28.92}],"targetCityZipCode":"58723","targetCityState":"North Dakota"},"__N_SSG":true}