{"pageProps":{"stateName":"North-dakota","cityName":"hatton","nearbyCities":[{"city":"Portland","state_name":"North Dakota","lat":47.49158,"lng":-97.48989,"zip":"58274","miles_from_dt":9.92},{"city":"Northwood","state_name":"North Dakota","lat":47.75614,"lng":-97.62651,"zip":"58267","miles_from_dt":10.91},{"city":"Mayville","state_name":"North Dakota","lat":47.49033,"lng":-97.28505,"zip":"58257","miles_from_dt":13.42},{"city":"Sharon","state_name":"North Dakota","lat":47.61403,"lng":-97.83176,"zip":"58277","miles_from_dt":16.64},{"city":"Emerado","state_name":"North Dakota","lat":47.87394,"lng":-97.34278,"zip":"58228","miles_from_dt":17.65},{"city":"Reynolds","state_name":"North Dakota","lat":47.68956,"lng":-97.10609,"zip":"58275","miles_from_dt":17.71},{"city":"Clifford","state_name":"North Dakota","lat":47.36609,"lng":-97.46293,"zip":"58016","miles_from_dt":18.58},{"city":"Thompson","state_name":"North Dakota","lat":47.77761,"lng":-97.13084,"zip":"58278","miles_from_dt":18.9},{"city":"Finley","state_name":"North Dakota","lat":47.49097,"lng":-97.82622,"zip":"58230","miles_from_dt":19.13},{"city":"Buxton","state_name":"North Dakota","lat":47.59689,"lng":-97.05412,"zip":"58218","miles_from_dt":19.92},{"city":"Grand Forks","state_name":"North Dakota","lat":47.91674,"lng":-97.36727,"zip":"58207","miles_from_dt":20.13},{"city":"Arvilla","state_name":"North Dakota","lat":47.92694,"lng":-97.49747,"zip":"58214","miles_from_dt":20.2},{"city":"Grand Forks Afb","state_name":"North Dakota","lat":47.95475,"lng":-97.39525,"zip":"58205","miles_from_dt":22.42},{"city":"Grand Forks","state_name":"North Dakota","lat":47.86938,"lng":-97.14013,"zip":"58201","miles_from_dt":22.55},{"city":"Cummings","state_name":"North Dakota","lat":47.51384,"lng":-97.02573,"zip":"58223","miles_from_dt":22.68},{"city":"Grand Forks Afb","state_name":"North Dakota","lat":47.96046,"lng":-97.37079,"zip":"58204","miles_from_dt":23.03},{"city":"Larimore","state_name":"North Dakota","lat":47.94945,"lng":-97.6906,"zip":"58251","miles_from_dt":23.9},{"city":"Blanchard","state_name":"North Dakota","lat":47.32658,"lng":-97.24435,"zip":"58009","miles_from_dt":23.92},{"city":"Hope","state_name":"North Dakota","lat":47.32203,"lng":-97.72747,"zip":"58046","miles_from_dt":24.6},{"city":"Aneta","state_name":"North Dakota","lat":47.6987,"lng":-97.99541,"zip":"58212","miles_from_dt":24.6},{"city":"Grand Forks","state_name":"North Dakota","lat":47.88038,"lng":-97.06217,"zip":"58208","miles_from_dt":25.7},{"city":"Galesburg","state_name":"North Dakota","lat":47.25599,"lng":-97.41589,"zip":"58035","miles_from_dt":26.33},{"city":"Grand Forks","state_name":"North Dakota","lat":47.89929,"lng":-97.06762,"zip":"58206","miles_from_dt":26.4},{"city":"Mekinock","state_name":"North Dakota","lat":48.01142,"lng":-97.33984,"zip":"58258","miles_from_dt":26.78},{"city":"Grand Forks","state_name":"North Dakota","lat":47.92224,"lng":-97.07435,"zip":"58202","miles_from_dt":27.3},{"city":"Hillsboro","state_name":"North Dakota","lat":47.38241,"lng":-97.02686,"zip":"58045","miles_from_dt":27.35},{"city":"Grand Forks","state_name":"North Dakota","lat":47.97181,"lng":-97.15425,"zip":"58203","miles_from_dt":27.7}],"targetCityZipCode":"58240","targetCityState":"North Dakota"},"__N_SSG":true}