{"pageProps":{"stateName":"North-dakota","cityName":"jessie","nearbyCities":[{"city":"Binford","state_name":"North Dakota","lat":47.54767,"lng":-98.35694,"zip":"58416","miles_from_dt":6},{"city":"Cooperstown","state_name":"North Dakota","lat":47.45391,"lng":-98.12378,"zip":"58425","miles_from_dt":7.74},{"city":"Aneta","state_name":"North Dakota","lat":47.6987,"lng":-97.99541,"zip":"58212","miles_from_dt":15.46},{"city":"Sutton","state_name":"North Dakota","lat":47.37821,"lng":-98.4687,"zip":"58484","miles_from_dt":15.85},{"city":"Hannaford","state_name":"North Dakota","lat":47.30944,"lng":-98.21451,"zip":"58448","miles_from_dt":15.96},{"city":"Pekin","state_name":"North Dakota","lat":47.75841,"lng":-98.35458,"zip":"58361","miles_from_dt":16.17},{"city":"Mcville","state_name":"North Dakota","lat":47.77111,"lng":-98.14748,"zip":"58254","miles_from_dt":16.4},{"city":"Mchenry","state_name":"North Dakota","lat":47.60786,"lng":-98.58849,"zip":"58464","miles_from_dt":17.44},{"city":"Finley","state_name":"North Dakota","lat":47.49097,"lng":-97.82622,"zip":"58230","miles_from_dt":19.16},{"city":"Sharon","state_name":"North Dakota","lat":47.61403,"lng":-97.83176,"zip":"58277","miles_from_dt":19.26},{"city":"Glenfield","state_name":"North Dakota","lat":47.46374,"lng":-98.67239,"zip":"58443","miles_from_dt":21.41},{"city":"Tolna","state_name":"North Dakota","lat":47.82872,"lng":-98.52029,"zip":"58380","miles_from_dt":24.12},{"city":"Dazey","state_name":"North Dakota","lat":47.18768,"lng":-98.16282,"zip":"58429","miles_from_dt":24.55},{"city":"Luverne","state_name":"North Dakota","lat":47.23868,"lng":-97.93621,"zip":"58056","miles_from_dt":24.95},{"city":"Grace City","state_name":"North Dakota","lat":47.57036,"lng":-98.78869,"zip":"58445","miles_from_dt":26.25},{"city":"Courtenay","state_name":"North Dakota","lat":47.21972,"lng":-98.58075,"zip":"58426","miles_from_dt":27.61},{"city":"Hope","state_name":"North Dakota","lat":47.32203,"lng":-97.72747,"zip":"58046","miles_from_dt":27.93},{"city":"Wimbledon","state_name":"North Dakota","lat":47.15793,"lng":-98.43787,"zip":"58492","miles_from_dt":28.17},{"city":"Kensal","state_name":"North Dakota","lat":47.30094,"lng":-98.72667,"zip":"58455","miles_from_dt":28.59}],"targetCityZipCode":"58452","targetCityState":"North Dakota"},"__N_SSG":true}