{"pageProps":{"stateName":"North-dakota","cityName":"marshall","nearbyCities":[{"city":"Dodge","state_name":"North Dakota","lat":47.28146,"lng":-102.19748,"zip":"58625","miles_from_dt":12.32},{"city":"Taylor","state_name":"North Dakota","lat":46.95207,"lng":-102.46801,"zip":"58656","miles_from_dt":14.03},{"city":"Halliday","state_name":"North Dakota","lat":47.38924,"lng":-102.35351,"zip":"58636","miles_from_dt":17.15},{"city":"Richardton","state_name":"North Dakota","lat":46.88854,"lng":-102.27037,"zip":"58652","miles_from_dt":17.93},{"city":"Gladstone","state_name":"North Dakota","lat":46.91981,"lng":-102.57603,"zip":"58630","miles_from_dt":18.41},{"city":"Golden Valley","state_name":"North Dakota","lat":47.33929,"lng":-102.05177,"zip":"58541","miles_from_dt":19.9},{"city":"Dunn Center","state_name":"North Dakota","lat":47.37739,"lng":-102.60575,"zip":"58626","miles_from_dt":20.05},{"city":"Hebron","state_name":"North Dakota","lat":46.92201,"lng":-102.04867,"zip":"58638","miles_from_dt":21.05},{"city":"Zap","state_name":"North Dakota","lat":47.2665,"lng":-101.93301,"zip":"58580","miles_from_dt":21.84},{"city":"Manning","state_name":"North Dakota","lat":47.20145,"lng":-102.83667,"zip":"58642","miles_from_dt":22.9},{"city":"Dickinson","state_name":"North Dakota","lat":46.88493,"lng":-102.78373,"zip":"58602","miles_from_dt":26.76},{"city":"Dickinson","state_name":"North Dakota","lat":46.90964,"lng":-102.82766,"zip":"58601","miles_from_dt":27.31},{"city":"Beulah","state_name":"North Dakota","lat":47.26581,"lng":-101.78138,"zip":"58523","miles_from_dt":28.51}],"targetCityZipCode":"58644","targetCityState":"North Dakota"},"__N_SSG":true}