{"pageProps":{"stateName":"North-dakota","cityName":"mcville","nearbyCities":[{"city":"Aneta","state_name":"North Dakota","lat":47.6987,"lng":-97.99541,"zip":"58212","miles_from_dt":8.68},{"city":"Pekin","state_name":"North Dakota","lat":47.75841,"lng":-98.35458,"zip":"58361","miles_from_dt":9.69},{"city":"Jessie","state_name":"North Dakota","lat":47.54019,"lng":-98.22911,"zip":"58452","miles_from_dt":16.4},{"city":"Michigan","state_name":"North Dakota","lat":48.02053,"lng":-98.12168,"zip":"58259","miles_from_dt":17.27},{"city":"Tolna","state_name":"North Dakota","lat":47.82872,"lng":-98.52029,"zip":"58380","miles_from_dt":17.8},{"city":"Petersburg","state_name":"North Dakota","lat":48.00868,"lng":-97.9854,"zip":"58272","miles_from_dt":18.06},{"city":"Binford","state_name":"North Dakota","lat":47.54767,"lng":-98.35694,"zip":"58416","miles_from_dt":18.27},{"city":"Sharon","state_name":"North Dakota","lat":47.61403,"lng":-97.83176,"zip":"58277","miles_from_dt":18.29},{"city":"Lakota","state_name":"North Dakota","lat":48.01471,"lng":-98.33857,"zip":"58344","miles_from_dt":19.03},{"city":"Niagara","state_name":"North Dakota","lat":48.00127,"lng":-97.84967,"zip":"58266","miles_from_dt":21.08},{"city":"Cooperstown","state_name":"North Dakota","lat":47.45391,"lng":-98.12378,"zip":"58425","miles_from_dt":21.94},{"city":"Mchenry","state_name":"North Dakota","lat":47.60786,"lng":-98.58849,"zip":"58464","miles_from_dt":23.46},{"city":"Northwood","state_name":"North Dakota","lat":47.75614,"lng":-97.62651,"zip":"58267","miles_from_dt":24.29},{"city":"Finley","state_name":"North Dakota","lat":47.49097,"lng":-97.82622,"zip":"58230","miles_from_dt":24.49},{"city":"Larimore","state_name":"North Dakota","lat":47.94945,"lng":-97.6906,"zip":"58251","miles_from_dt":24.56},{"city":"Warwick","state_name":"North Dakota","lat":47.82731,"lng":-98.74476,"zip":"58381","miles_from_dt":28.07},{"city":"Dahlen","state_name":"North Dakota","lat":48.16777,"lng":-97.94307,"zip":"58224","miles_from_dt":29}],"targetCityZipCode":"58254","targetCityState":"North Dakota"},"__N_SSG":true}