{"pageProps":{"stateName":"North-dakota","cityName":"richardton","nearbyCities":[{"city":"Taylor","state_name":"North Dakota","lat":46.95207,"lng":-102.46801,"zip":"58656","miles_from_dt":10.33},{"city":"Hebron","state_name":"North Dakota","lat":46.92201,"lng":-102.04867,"zip":"58638","miles_from_dt":10.75},{"city":"Gladstone","state_name":"North Dakota","lat":46.91981,"lng":-102.57603,"zip":"58630","miles_from_dt":14.63},{"city":"Marshall","state_name":"North Dakota","lat":47.14095,"lng":-102.35867,"zip":"58644","miles_from_dt":17.93},{"city":"Lefor","state_name":"North Dakota","lat":46.66732,"lng":-102.48551,"zip":"58641","miles_from_dt":18.38},{"city":"Glen Ullin","state_name":"North Dakota","lat":46.7969,"lng":-101.82156,"zip":"58631","miles_from_dt":22.19},{"city":"Dickinson","state_name":"North Dakota","lat":46.88493,"lng":-102.78373,"zip":"58602","miles_from_dt":24.31},{"city":"Dickinson","state_name":"North Dakota","lat":46.90964,"lng":-102.82766,"zip":"58601","miles_from_dt":26.43},{"city":"Dodge","state_name":"North Dakota","lat":47.28146,"lng":-102.19748,"zip":"58625","miles_from_dt":27.36}],"targetCityZipCode":"58652","targetCityState":"North Dakota"},"__N_SSG":true}