{"pageProps":{"stateName":"North-dakota","cityName":"westhope","nearbyCities":[{"city":"Antler","state_name":"North Dakota","lat":48.93262,"lng":-101.2752,"zip":"58711","miles_from_dt":11.12},{"city":"Maxbass","state_name":"North Dakota","lat":48.69854,"lng":-101.14158,"zip":"58760","miles_from_dt":12.14},{"city":"Souris","state_name":"North Dakota","lat":48.88375,"lng":-100.75035,"zip":"58783","miles_from_dt":13.92},{"city":"Newburg","state_name":"North Dakota","lat":48.67409,"lng":-100.94225,"zip":"58762","miles_from_dt":14.11},{"city":"Mohall","state_name":"North Dakota","lat":48.78736,"lng":-101.53019,"zip":"58761","miles_from_dt":22.36},{"city":"Kramer","state_name":"North Dakota","lat":48.66895,"lng":-100.64487,"zip":"58748","miles_from_dt":23.07},{"city":"Lansford","state_name":"North Dakota","lat":48.6166,"lng":-101.39941,"zip":"58750","miles_from_dt":23.28},{"city":"Upham","state_name":"North Dakota","lat":48.54778,"lng":-100.81898,"zip":"58789","miles_from_dt":24.38},{"city":"Glenburn","state_name":"North Dakota","lat":48.4711,"lng":-101.22744,"zip":"58740","miles_from_dt":28.31},{"city":"Deering","state_name":"North Dakota","lat":48.44752,"lng":-100.98029,"zip":"58731","miles_from_dt":29.01},{"city":"Bottineau","state_name":"North Dakota","lat":48.85121,"lng":-100.40303,"zip":"58318","miles_from_dt":29.71}],"targetCityZipCode":"58793","targetCityState":"North Dakota"},"__N_SSG":true}