{"pageProps":{"stateName":"North-dakota","cityName":"woodworth","nearbyCities":[{"city":"Pettibone","state_name":"North Dakota","lat":47.14118,"lng":-99.53717,"zip":"58475","miles_from_dt":10.8},{"city":"Pingree","state_name":"North Dakota","lat":47.19398,"lng":-99.00263,"zip":"58476","miles_from_dt":14.85},{"city":"Sykeston","state_name":"North Dakota","lat":47.39421,"lng":-99.39279,"zip":"58486","miles_from_dt":17.97},{"city":"Medina","state_name":"North Dakota","lat":46.8746,"lng":-99.34103,"zip":"58467","miles_from_dt":18.44},{"city":"Robinson","state_name":"North Dakota","lat":47.16008,"lng":-99.74543,"zip":"58478","miles_from_dt":20.66},{"city":"Cleveland","state_name":"North Dakota","lat":46.87554,"lng":-99.10217,"zip":"58424","miles_from_dt":20.73},{"city":"Buchanan","state_name":"North Dakota","lat":47.06072,"lng":-98.86734,"zip":"58420","miles_from_dt":21.5},{"city":"Carrington","state_name":"North Dakota","lat":47.43974,"lng":-99.06968,"zip":"58421","miles_from_dt":23.5},{"city":"Tappen","state_name":"North Dakota","lat":46.85278,"lng":-99.60283,"zip":"58487","miles_from_dt":24.28},{"city":"Bowdon","state_name":"North Dakota","lat":47.41493,"lng":-99.63524,"zip":"58418","miles_from_dt":24.41},{"city":"Kensal","state_name":"North Dakota","lat":47.30094,"lng":-98.72667,"zip":"58455","miles_from_dt":29.51}],"targetCityZipCode":"58496","targetCityState":"North Dakota"},"__N_SSG":true}