{"pageProps":{"stateName":"West-virginia","cityName":"big-springs","nearbyCities":[{"city":"Smithville","state_name":"West Virginia","lat":39.06001,"lng":-81.02888,"zip":"26178","miles_from_dt":3.73},{"city":"Big Bend","state_name":"West Virginia","lat":38.96553,"lng":-81.11478,"zip":"26136","miles_from_dt":4.98},{"city":"Grantsville","state_name":"West Virginia","lat":38.91368,"lng":-81.07629,"zip":"26147","miles_from_dt":6.72},{"city":"Brohard","state_name":"West Virginia","lat":39.02114,"lng":-81.18155,"zip":"26138","miles_from_dt":7.76},{"city":"Munday","state_name":"West Virginia","lat":38.98355,"lng":-81.19308,"zip":"26152","miles_from_dt":8.47},{"city":"Macfarlan","state_name":"West Virginia","lat":39.07122,"lng":-81.18088,"zip":"26148","miles_from_dt":8.87},{"city":"Berea","state_name":"West Virginia","lat":39.12283,"lng":-80.9406,"zip":"26327","miles_from_dt":9.6},{"city":"Harrisville","state_name":"West Virginia","lat":39.15457,"lng":-81.05705,"zip":"26362","miles_from_dt":10.26},{"city":"Coxs Mills","state_name":"West Virginia","lat":39.0248,"lng":-80.84698,"zip":"26342","miles_from_dt":10.38},{"city":"Auburn","state_name":"West Virginia","lat":39.09749,"lng":-80.882,"zip":"26325","miles_from_dt":10.5},{"city":"Mount Zion","state_name":"West Virginia","lat":38.89493,"lng":-81.17503,"zip":"26151","miles_from_dt":10.64},{"city":"Normantown","state_name":"West Virginia","lat":38.85778,"lng":-80.94187,"zip":"25267","miles_from_dt":11.5},{"city":"Glenville","state_name":"West Virginia","lat":38.92846,"lng":-80.84479,"zip":"26351","miles_from_dt":11.74},{"city":"Millstone","state_name":"West Virginia","lat":38.83027,"lng":-81.08886,"zip":"25261","miles_from_dt":12.45},{"city":"Creston","state_name":"West Virginia","lat":38.92925,"lng":-81.26059,"zip":"26141","miles_from_dt":13.09},{"city":"Pullman","state_name":"West Virginia","lat":39.18412,"lng":-80.91607,"zip":"26421","miles_from_dt":13.91},{"city":"Arnoldsburg","state_name":"West Virginia","lat":38.81291,"lng":-81.12343,"zip":"25234","miles_from_dt":14.11},{"city":"Cedarville","state_name":"West Virginia","lat":38.84639,"lng":-80.83339,"zip":"26611","miles_from_dt":15.62},{"city":"Troy","state_name":"West Virginia","lat":39.06814,"lng":-80.7554,"zip":"26443","miles_from_dt":15.81},{"city":"Petroleum","state_name":"West Virginia","lat":39.16789,"lng":-81.2526,"zip":"26161","miles_from_dt":16.01},{"city":"Shock","state_name":"West Virginia","lat":38.77265,"lng":-80.99878,"zip":"26638","miles_from_dt":16.27},{"city":"Sand Fork","state_name":"West Virginia","lat":38.88475,"lng":-80.7598,"zip":"26430","miles_from_dt":17.2},{"city":"Cairo","state_name":"West Virginia","lat":39.23856,"lng":-81.16388,"zip":"26337","miles_from_dt":17.37},{"city":"Linn","state_name":"West Virginia","lat":38.97467,"lng":-80.7178,"zip":"26384","miles_from_dt":17.4},{"city":"Elizabeth","state_name":"West Virginia","lat":39.06338,"lng":-81.3764,"zip":"26143","miles_from_dt":18.6},{"city":"Orma","state_name":"West Virginia","lat":38.73969,"lng":-81.107,"zip":"25268","miles_from_dt":18.77},{"city":"Alum Bridge","state_name":"West Virginia","lat":39.05461,"lng":-80.68732,"zip":"26321","miles_from_dt":19.18},{"city":"Rosedale","state_name":"West Virginia","lat":38.73386,"lng":-80.96599,"zip":"26636","miles_from_dt":19.21},{"city":"Ellenboro","state_name":"West Virginia","lat":39.29247,"lng":-81.06294,"zip":"26346","miles_from_dt":19.77},{"city":"Palestine","state_name":"West Virginia","lat":38.98066,"lng":-81.41368,"zip":"26160","miles_from_dt":20.28},{"city":"Copen","state_name":"West Virginia","lat":38.83242,"lng":-80.73136,"zip":"26615","miles_from_dt":20.45},{"city":"Pennsboro","state_name":"West Virginia","lat":39.29808,"lng":-80.93499,"zip":"26415","miles_from_dt":20.87},{"city":"New Milton","state_name":"West Virginia","lat":39.18078,"lng":-80.70723,"zip":"26411","miles_from_dt":21.49},{"city":"Spencer","state_name":"West Virginia","lat":38.78803,"lng":-81.33203,"zip":"25276","miles_from_dt":21.85},{"city":"Walker","state_name":"West Virginia","lat":39.20016,"lng":-81.36699,"zip":"26180","miles_from_dt":22.14},{"city":"Burnsville","state_name":"West Virginia","lat":38.85364,"lng":-80.67683,"zip":"26335","miles_from_dt":22.16},{"city":"Exchange","state_name":"West Virginia","lat":38.77542,"lng":-80.73562,"zip":"26619","miles_from_dt":22.82},{"city":"Reedy","state_name":"West Virginia","lat":38.88174,"lng":-81.43395,"zip":"25270","miles_from_dt":22.97},{"city":"Camden","state_name":"West Virginia","lat":39.08503,"lng":-80.61941,"zip":"26338","miles_from_dt":23.19},{"city":"Gassaway","state_name":"West Virginia","lat":38.72071,"lng":-80.80883,"zip":"26624","miles_from_dt":23.28},{"city":"Chloe","state_name":"West Virginia","lat":38.66939,"lng":-81.08874,"zip":"25235","miles_from_dt":23.41},{"city":"West Union","state_name":"West Virginia","lat":39.28078,"lng":-80.77354,"zip":"26456","miles_from_dt":23.68},{"city":"Orlando","state_name":"West Virginia","lat":38.89164,"lng":-80.59457,"zip":"26412","miles_from_dt":25.19},{"city":"Saint Marys","state_name":"West Virginia","lat":39.36136,"lng":-81.17136,"zip":"26170","miles_from_dt":25.5},{"city":"Looneyville","state_name":"West Virginia","lat":38.67465,"lng":-81.24836,"zip":"25259","miles_from_dt":25.54},{"city":"Frametown","state_name":"West Virginia","lat":38.6576,"lng":-80.87714,"zip":"26623","miles_from_dt":25.59},{"city":"Nebo","state_name":"West Virginia","lat":38.6305,"lng":-81.03592,"zip":"25141","miles_from_dt":25.93},{"city":"Waverly","state_name":"West Virginia","lat":39.29739,"lng":-81.35086,"zip":"26184","miles_from_dt":26.16},{"city":"Smithburg","state_name":"West Virginia","lat":39.2965,"lng":-80.71683,"zip":"26436","miles_from_dt":26.43},{"city":"Davisville","state_name":"West Virginia","lat":39.21488,"lng":-81.45431,"zip":"26142","miles_from_dt":26.57},{"city":"Mineral Wells","state_name":"West Virginia","lat":39.16866,"lng":-81.49021,"zip":"26120","miles_from_dt":26.74},{"city":"Mineral Wells","state_name":"West Virginia","lat":39.17214,"lng":-81.49489,"zip":"26121","miles_from_dt":27.07},{"city":"Le Roy","state_name":"West Virginia","lat":38.88345,"lng":-81.53679,"zip":"25252","miles_from_dt":28.15},{"city":"Weston","state_name":"West Virginia","lat":39.03286,"lng":-80.51315,"zip":"26452","miles_from_dt":28.33},{"city":"Belmont","state_name":"West Virginia","lat":39.37686,"lng":-81.27544,"zip":"26134","miles_from_dt":28.54},{"city":"Left Hand","state_name":"West Virginia","lat":38.62119,"lng":-81.23173,"zip":"25251","miles_from_dt":28.55},{"city":"Newton","state_name":"West Virginia","lat":38.60224,"lng":-81.1589,"zip":"25266","miles_from_dt":28.63},{"city":"Mineral Wells","state_name":"West Virginia","lat":39.1566,"lng":-81.53697,"zip":"26150","miles_from_dt":28.73},{"city":"Rockport","state_name":"West Virginia","lat":39.07291,"lng":-81.57121,"zip":"26169","miles_from_dt":29.02},{"city":"Napier","state_name":"West Virginia","lat":38.79795,"lng":-80.56856,"zip":"26631","miles_from_dt":29.13},{"city":"Heaters","state_name":"West Virginia","lat":38.75578,"lng":-80.5943,"zip":"26627","miles_from_dt":29.54},{"city":"Parkersburg","state_name":"West Virginia","lat":39.27413,"lng":-81.47779,"zip":"26104","miles_from_dt":29.96}],"targetCityZipCode":"26137","targetCityState":"West Virginia"},"__N_SSG":true}