{"pageProps":{"stateName":"West-virginia","cityName":"blue-creek","nearbyCities":[{"city":"Pinch","state_name":"West Virginia","lat":38.41181,"lng":-81.48217,"zip":"25156","miles_from_dt":2.24},{"city":"Elkview","state_name":"West Virginia","lat":38.47732,"lng":-81.46756,"zip":"25071","miles_from_dt":2.65},{"city":"Falling Rock","state_name":"West Virginia","lat":38.47512,"lng":-81.38895,"zip":"25079","miles_from_dt":4.59},{"city":"Tad","state_name":"West Virginia","lat":38.3489,"lng":-81.48645,"zip":"25201","miles_from_dt":6.4},{"city":"Charleston","state_name":"West Virginia","lat":38.36396,"lng":-81.55201,"zip":"25361","miles_from_dt":7.2},{"city":"Charleston","state_name":"West Virginia","lat":38.36308,"lng":-81.55357,"zip":"25311","miles_from_dt":7.3},{"city":"Clendenin","state_name":"West Virginia","lat":38.45603,"lng":-81.32474,"zip":"25045","miles_from_dt":7.44},{"city":"Charleston","state_name":"West Virginia","lat":38.39695,"lng":-81.58675,"zip":"25362","miles_from_dt":7.46},{"city":"Charleston","state_name":"West Virginia","lat":38.36006,"lng":-81.57073,"zip":"25317","miles_from_dt":8.12},{"city":"Charleston","state_name":"West Virginia","lat":38.39053,"lng":-81.59879,"zip":"25302","miles_from_dt":8.24},{"city":"Charleston","state_name":"West Virginia","lat":38.31071,"lng":-81.49087,"zip":"25306","miles_from_dt":9.03},{"city":"Charleston","state_name":"West Virginia","lat":38.33313,"lng":-81.59841,"zip":"25326","miles_from_dt":10.48},{"city":"Blount","state_name":"West Virginia","lat":38.29378,"lng":-81.4018,"zip":"25025","miles_from_dt":10.53},{"city":"Charleston","state_name":"West Virginia","lat":38.46156,"lng":-81.656,"zip":"25312","miles_from_dt":10.73},{"city":"Charleston","state_name":"West Virginia","lat":38.35448,"lng":-81.62729,"zip":"25325","miles_from_dt":10.79},{"city":"Charleston","state_name":"West Virginia","lat":38.35379,"lng":-81.62809,"zip":"25332","miles_from_dt":10.85},{"city":"Charleston","state_name":"West Virginia","lat":38.34892,"lng":-81.62452,"zip":"25337","miles_from_dt":10.88},{"city":"Charleston","state_name":"West Virginia","lat":38.33682,"lng":-81.61313,"zip":"25305","miles_from_dt":10.9},{"city":"Charleston","state_name":"West Virginia","lat":38.35123,"lng":-81.62761,"zip":"25301","miles_from_dt":10.93},{"city":"Charleston","state_name":"West Virginia","lat":38.35198,"lng":-81.62843,"zip":"25392","miles_from_dt":10.94},{"city":"Charleston","state_name":"West Virginia","lat":38.35283,"lng":-81.62996,"zip":"25350","miles_from_dt":10.98},{"city":"Charleston","state_name":"West Virginia","lat":38.34949,"lng":-81.62731,"zip":"25334","miles_from_dt":10.98},{"city":"Charleston","state_name":"West Virginia","lat":38.35053,"lng":-81.62821,"zip":"25336","miles_from_dt":10.98},{"city":"Charleston","state_name":"West Virginia","lat":38.35123,"lng":-81.62918,"zip":"25329","miles_from_dt":11},{"city":"Charleston","state_name":"West Virginia","lat":38.35113,"lng":-81.62913,"zip":"25339","miles_from_dt":11},{"city":"Charleston","state_name":"West Virginia","lat":38.35103,"lng":-81.62941,"zip":"25396","miles_from_dt":11.02},{"city":"Charleston","state_name":"West Virginia","lat":38.3519,"lng":-81.63015,"zip":"25324","miles_from_dt":11.02},{"city":"Charleston","state_name":"West Virginia","lat":38.35,"lng":-81.62905,"zip":"25335","miles_from_dt":11.04},{"city":"Charleston","state_name":"West Virginia","lat":38.35001,"lng":-81.62932,"zip":"25331","miles_from_dt":11.05},{"city":"Charleston","state_name":"West Virginia","lat":38.35277,"lng":-81.63177,"zip":"25323","miles_from_dt":11.06},{"city":"Charleston","state_name":"West Virginia","lat":38.35036,"lng":-81.62982,"zip":"25328","miles_from_dt":11.06},{"city":"Charleston","state_name":"West Virginia","lat":38.35085,"lng":-81.63064,"zip":"25321","miles_from_dt":11.08},{"city":"Charleston","state_name":"West Virginia","lat":38.35311,"lng":-81.63244,"zip":"25327","miles_from_dt":11.08},{"city":"Charleston","state_name":"West Virginia","lat":38.35294,"lng":-81.6331,"zip":"25333","miles_from_dt":11.11},{"city":"Charleston","state_name":"West Virginia","lat":38.34992,"lng":-81.63045,"zip":"25338","miles_from_dt":11.11},{"city":"Charleston","state_name":"West Virginia","lat":38.34892,"lng":-81.63037,"zip":"25322","miles_from_dt":11.14},{"city":"Charleston","state_name":"West Virginia","lat":38.32264,"lng":-81.60265,"zip":"25364","miles_from_dt":11.16},{"city":"Charleston","state_name":"West Virginia","lat":38.34928,"lng":-81.63173,"zip":"25375","miles_from_dt":11.19},{"city":"Charleston","state_name":"West Virginia","lat":38.34774,"lng":-81.63052,"zip":"25330","miles_from_dt":11.2},{"city":"Charleston","state_name":"West Virginia","lat":38.45324,"lng":-81.66948,"zip":"25360","miles_from_dt":11.39},{"city":"Charleston","state_name":"West Virginia","lat":38.54124,"lng":-81.62706,"zip":"25320","miles_from_dt":11.45},{"city":"Charleston","state_name":"West Virginia","lat":38.30521,"lng":-81.59044,"zip":"25304","miles_from_dt":11.64},{"city":"Charleston","state_name":"West Virginia","lat":38.38523,"lng":-81.6642,"zip":"25387","miles_from_dt":11.68},{"city":"Mammoth","state_name":"West Virginia","lat":38.29328,"lng":-81.33441,"zip":"25132","miles_from_dt":12.18},{"city":"Charleston","state_name":"West Virginia","lat":38.42168,"lng":-81.68972,"zip":"25357","miles_from_dt":12.51},{"city":"Charleston","state_name":"West Virginia","lat":38.36828,"lng":-81.67332,"zip":"25389","miles_from_dt":12.56},{"city":"Bomont","state_name":"West Virginia","lat":38.45028,"lng":-81.22599,"zip":"25030","miles_from_dt":12.73},{"city":"Walton","state_name":"West Virginia","lat":38.62098,"lng":-81.39728,"zip":"25286","miles_from_dt":12.98},{"city":"Advent","state_name":"West Virginia","lat":38.60464,"lng":-81.591,"zip":"25231","miles_from_dt":13.42},{"city":"South Charleston","state_name":"West Virginia","lat":38.36033,"lng":-81.68679,"zip":"25303","miles_from_dt":13.45},{"city":"Belle","state_name":"West Virginia","lat":38.24293,"lng":-81.49226,"zip":"25015","miles_from_dt":13.66},{"city":"Glen","state_name":"West Virginia","lat":38.37963,"lng":-81.21551,"zip":"25088","miles_from_dt":13.91},{"city":"Pond Gap","state_name":"West Virginia","lat":38.29884,"lng":-81.27314,"zip":"25160","miles_from_dt":14.04},{"city":"Amma","state_name":"West Virginia","lat":38.58201,"lng":-81.26982,"zip":"25005","miles_from_dt":14.26},{"city":"Cedar Grove","state_name":"West Virginia","lat":38.24642,"lng":-81.36524,"zip":"25039","miles_from_dt":14.28},{"city":"Charleston","state_name":"West Virginia","lat":38.29705,"lng":-81.65463,"zip":"25314","miles_from_dt":14.41},{"city":"Procious","state_name":"West Virginia","lat":38.50406,"lng":-81.19373,"zip":"25164","miles_from_dt":15.13},{"city":"Charleston","state_name":"West Virginia","lat":38.23427,"lng":-81.57375,"zip":"25365","miles_from_dt":15.43},{"city":"Glasgow","state_name":"West Virginia","lat":38.21326,"lng":-81.41238,"zip":"25086","miles_from_dt":15.81},{"city":"East Bank","state_name":"West Virginia","lat":38.20963,"lng":-81.44018,"zip":"25067","miles_from_dt":15.88},{"city":"Charleston","state_name":"West Virginia","lat":38.44681,"lng":-81.75401,"zip":"25356","miles_from_dt":15.94},{"city":"Charleston","state_name":"West Virginia","lat":38.41547,"lng":-81.75704,"zip":"25313","miles_from_dt":16.19},{"city":"Dunbar","state_name":"West Virginia","lat":38.37631,"lng":-81.74764,"zip":"25064","miles_from_dt":16.19},{"city":"Kenna","state_name":"West Virginia","lat":38.64255,"lng":-81.61454,"zip":"25248","miles_from_dt":16.32},{"city":"Gandeeville","state_name":"West Virginia","lat":38.67841,"lng":-81.48216,"zip":"25243","miles_from_dt":16.53},{"city":"Pratt","state_name":"West Virginia","lat":38.20712,"lng":-81.38435,"zip":"25162","miles_from_dt":16.54},{"city":"Lizemores","state_name":"West Virginia","lat":38.31554,"lng":-81.19074,"zip":"25125","miles_from_dt":16.95},{"city":"Charleston","state_name":"West Virginia","lat":38.21032,"lng":-81.57992,"zip":"25315","miles_from_dt":17.08},{"city":"Institute","state_name":"West Virginia","lat":38.38103,"lng":-81.76633,"zip":"25112","miles_from_dt":17.09},{"city":"Charleston","state_name":"West Virginia","lat":38.33395,"lng":-81.74594,"zip":"25358","miles_from_dt":17.13},{"city":"Hugheston","state_name":"West Virginia","lat":38.21324,"lng":-81.3264,"zip":"25110","miles_from_dt":17.21},{"city":"Left Hand","state_name":"West Virginia","lat":38.62119,"lng":-81.23173,"zip":"25251","miles_from_dt":17.62},{"city":"Poca","state_name":"West Virginia","lat":38.50186,"lng":-81.7806,"zip":"25159","miles_from_dt":17.9},{"city":"Hernshaw","state_name":"West Virginia","lat":38.22427,"lng":-81.64493,"zip":"25107","miles_from_dt":17.91},{"city":"Winifrede","state_name":"West Virginia","lat":38.18947,"lng":-81.55127,"zip":"25214","miles_from_dt":17.93},{"city":"London","state_name":"West Virginia","lat":38.19058,"lng":-81.35382,"zip":"25126","miles_from_dt":18.11},{"city":"Hansford","state_name":"West Virginia","lat":38.18207,"lng":-81.38225,"zip":"25103","miles_from_dt":18.25},{"city":"Drybranch","state_name":"West Virginia","lat":38.1751,"lng":-81.43342,"zip":"25061","miles_from_dt":18.29},{"city":"South Charleston","state_name":"West Virginia","lat":38.31177,"lng":-81.75715,"zip":"25309","miles_from_dt":18.36},{"city":"Dixie","state_name":"West Virginia","lat":38.25422,"lng":-81.2153,"zip":"25059","miles_from_dt":18.44},{"city":"Maysel","state_name":"West Virginia","lat":38.47976,"lng":-81.11831,"zip":"25133","miles_from_dt":18.76},{"city":"Indore","state_name":"West Virginia","lat":38.34841,"lng":-81.12591,"zip":"25111","miles_from_dt":19.2},{"city":"Mount Olive","state_name":"West Virginia","lat":38.22149,"lng":-81.23587,"zip":"25185","miles_from_dt":19.35},{"city":"Cabin Creek","state_name":"West Virginia","lat":38.16339,"lng":-81.52399,"zip":"25035","miles_from_dt":19.35},{"city":"Handley","state_name":"West Virginia","lat":38.16735,"lng":-81.35192,"zip":"25102","miles_from_dt":19.66},{"city":"Nitro","state_name":"West Virginia","lat":38.42001,"lng":-81.82414,"zip":"25143","miles_from_dt":19.79},{"city":"Newton","state_name":"West Virginia","lat":38.60224,"lng":-81.1589,"zip":"25266","miles_from_dt":19.82},{"city":"Looneyville","state_name":"West Virginia","lat":38.67465,"lng":-81.24836,"zip":"25259","miles_from_dt":19.88},{"city":"Cannelton","state_name":"West Virginia","lat":38.19168,"lng":-81.26438,"zip":"25036","miles_from_dt":20.13},{"city":"Wallback","state_name":"West Virginia","lat":38.54723,"lng":-81.1129,"zip":"25285","miles_from_dt":20.25},{"city":"Belva","state_name":"West Virginia","lat":38.24358,"lng":-81.18082,"zip":"26656","miles_from_dt":20.32},{"city":"Smithers","state_name":"West Virginia","lat":38.17113,"lng":-81.29811,"zip":"25186","miles_from_dt":20.49},{"city":"Bickmore","state_name":"West Virginia","lat":38.37663,"lng":-81.08955,"zip":"25019","miles_from_dt":20.58},{"city":"Liberty","state_name":"West Virginia","lat":38.62006,"lng":-81.76536,"zip":"25124","miles_from_dt":20.7},{"city":"Montgomery","state_name":"West Virginia","lat":38.15864,"lng":-81.31977,"zip":"25136","miles_from_dt":20.81},{"city":"Miami","state_name":"West Virginia","lat":38.13596,"lng":-81.48553,"zip":"25134","miles_from_dt":20.97},{"city":"Bancroft","state_name":"West Virginia","lat":38.51169,"lng":-81.8363,"zip":"25011","miles_from_dt":20.99},{"city":"Bloomingrose","state_name":"West Virginia","lat":38.15744,"lng":-81.6266,"zip":"25024","miles_from_dt":21.44},{"city":"Alum Creek","state_name":"West Virginia","lat":38.25101,"lng":-81.77925,"zip":"25003","miles_from_dt":21.66},{"city":"Saint Albans","state_name":"West Virginia","lat":38.36928,"lng":-81.85021,"zip":"25177","miles_from_dt":21.71},{"city":"Dawes","state_name":"West Virginia","lat":38.12226,"lng":-81.45044,"zip":"25054","miles_from_dt":21.88},{"city":"Ashford","state_name":"West Virginia","lat":38.19237,"lng":-81.71301,"zip":"25009","miles_from_dt":21.88},{"city":"Boomer","state_name":"West Virginia","lat":38.14615,"lng":-81.2801,"zip":"25031","miles_from_dt":22.47},{"city":"Racine","state_name":"West Virginia","lat":38.14907,"lng":-81.65308,"zip":"25165","miles_from_dt":22.6},{"city":"Hometown","state_name":"West Virginia","lat":38.53097,"lng":-81.86062,"zip":"25109","miles_from_dt":22.6},{"city":"Comfort","state_name":"West Virginia","lat":38.11954,"lng":-81.57315,"zip":"25049","miles_from_dt":22.9},{"city":"Tornado","state_name":"West Virginia","lat":38.31593,"lng":-81.85372,"zip":"25202","miles_from_dt":23},{"city":"Gay","state_name":"West Virginia","lat":38.77068,"lng":-81.54237,"zip":"25244","miles_from_dt":23.28},{"city":"Kimberly","state_name":"West Virginia","lat":38.11882,"lng":-81.32294,"zip":"25118","miles_from_dt":23.34},{"city":"Given","state_name":"West Virginia","lat":38.69916,"lng":-81.7393,"zip":"25245","miles_from_dt":23.44},{"city":"Costa","state_name":"West Virginia","lat":38.15885,"lng":-81.70929,"zip":"25051","miles_from_dt":23.61},{"city":"Glen Ferris","state_name":"West Virginia","lat":38.15544,"lng":-81.21655,"zip":"25090","miles_from_dt":23.64},{"city":"Scott Depot","state_name":"West Virginia","lat":38.44736,"lng":-81.89908,"zip":"25560","miles_from_dt":23.81},{"city":"Gauley Bridge","state_name":"West Virginia","lat":38.16762,"lng":-81.18867,"zip":"25085","miles_from_dt":23.86},{"city":"Charlton Heights","state_name":"West Virginia","lat":38.13673,"lng":-81.24385,"zip":"25040","miles_from_dt":23.96},{"city":"Swiss","state_name":"West Virginia","lat":38.21757,"lng":-81.12069,"zip":"26690","miles_from_dt":23.97},{"city":"Alloy","state_name":"West Virginia","lat":38.13087,"lng":-81.25466,"zip":"25002","miles_from_dt":24.04},{"city":"Red House","state_name":"West Virginia","lat":38.56394,"lng":-81.87733,"zip":"25168","miles_from_dt":24.18},{"city":"Ivydale","state_name":"West Virginia","lat":38.55741,"lng":-81.03338,"zip":"25113","miles_from_dt":24.53},{"city":"Mount Carbon","state_name":"West Virginia","lat":38.11038,"lng":-81.2874,"zip":"25139","miles_from_dt":24.56},{"city":"Nellis","state_name":"West Virginia","lat":38.15001,"lng":-81.73066,"zip":"25142","miles_from_dt":24.79},{"city":"Spencer","state_name":"West Virginia","lat":38.78803,"lng":-81.33203,"zip":"25276","miles_from_dt":25.03},{"city":"Winfield","state_name":"West Virginia","lat":38.50776,"lng":-81.91796,"zip":"25213","miles_from_dt":25.26},{"city":"Clay","state_name":"West Virginia","lat":38.44092,"lng":-80.98981,"zip":"25043","miles_from_dt":25.52},{"city":"Chloe","state_name":"West Virginia","lat":38.66939,"lng":-81.08874,"zip":"25235","miles_from_dt":25.63},{"city":"Kanawha Falls","state_name":"West Virginia","lat":38.13065,"lng":-81.18997,"zip":"25115","miles_from_dt":25.87},{"city":"Deep Water","state_name":"West Virginia","lat":38.1078,"lng":-81.23783,"zip":"25057","miles_from_dt":25.87},{"city":"Peytona","state_name":"West Virginia","lat":38.11572,"lng":-81.70249,"zip":"25154","miles_from_dt":25.92},{"city":"Gallagher","state_name":"West Virginia","lat":38.06809,"lng":-81.36118,"zip":"25083","miles_from_dt":26.17},{"city":"Sod","state_name":"West Virginia","lat":38.26302,"lng":-81.88835,"zip":"25564","miles_from_dt":26.24},{"city":"Nebo","state_name":"West Virginia","lat":38.6305,"lng":-81.03592,"zip":"25141","miles_from_dt":26.5},{"city":"Eleanor","state_name":"West Virginia","lat":38.54667,"lng":-81.93179,"zip":"25070","miles_from_dt":26.61},{"city":"Teays","state_name":"West Virginia","lat":38.44254,"lng":-81.95203,"zip":"25569","miles_from_dt":26.68},{"city":"Eskdale","state_name":"West Virginia","lat":38.0526,"lng":-81.42915,"zip":"25075","miles_from_dt":26.73},{"city":"Ripley","state_name":"West Virginia","lat":38.78845,"lng":-81.68625,"zip":"25271","miles_from_dt":27.01},{"city":"Sumerco","state_name":"West Virginia","lat":38.21971,"lng":-81.87294,"zip":"25567","miles_from_dt":27.06},{"city":"Ridgeview","state_name":"West Virginia","lat":38.12788,"lng":-81.76288,"zip":"25169","miles_from_dt":27.06},{"city":"Powellton","state_name":"West Virginia","lat":38.06123,"lng":-81.3189,"zip":"25161","miles_from_dt":27.19},{"city":"Julian","state_name":"West Virginia","lat":38.15573,"lng":-81.8245,"zip":"25529","miles_from_dt":27.83},{"city":"Buffalo","state_name":"West Virginia","lat":38.61095,"lng":-81.92511,"zip":"25033","miles_from_dt":27.83},{"city":"Ansted","state_name":"West Virginia","lat":38.14048,"lng":-81.11512,"zip":"25812","miles_from_dt":27.88},{"city":"Orma","state_name":"West Virginia","lat":38.73969,"lng":-81.107,"zip":"25268","miles_from_dt":28.19},{"city":"Orgas","state_name":"West Virginia","lat":38.03511,"lng":-81.53695,"zip":"25148","miles_from_dt":28.19},{"city":"Robson","state_name":"West Virginia","lat":38.07519,"lng":-81.21898,"zip":"25173","miles_from_dt":28.34},{"city":"Hurricane","state_name":"West Virginia","lat":38.3984,"lng":-81.98279,"zip":"25526","miles_from_dt":28.49},{"city":"Seth","state_name":"West Virginia","lat":38.04962,"lng":-81.63476,"zip":"25181","miles_from_dt":28.51},{"city":"Drennen","state_name":"West Virginia","lat":38.2384,"lng":-80.99908,"zip":"26667","miles_from_dt":28.63},{"city":"Sylvester","state_name":"West Virginia","lat":38.01672,"lng":-81.55089,"zip":"25193","miles_from_dt":29.57},{"city":"Kincaid","state_name":"West Virginia","lat":38.03362,"lng":-81.27494,"zip":"25119","miles_from_dt":29.75},{"city":"Foster","state_name":"West Virginia","lat":38.08235,"lng":-81.76875,"zip":"25081","miles_from_dt":29.8},{"city":"Page","state_name":"West Virginia","lat":38.0411,"lng":-81.24004,"zip":"25152","miles_from_dt":29.97}],"targetCityZipCode":"25026","targetCityState":"West Virginia"},"__N_SSG":true}