{"pageProps":{"stateName":"West-virginia","cityName":"charles-town","nearbyCities":[{"city":"Rippon","state_name":"West Virginia","lat":39.2282,"lng":-77.92222,"zip":"25441","miles_from_dt":3.25},{"city":"Harpers Ferry","state_name":"West Virginia","lat":39.27613,"lng":-77.79184,"zip":"25425","miles_from_dt":4.52},{"city":"Ranson","state_name":"West Virginia","lat":39.31853,"lng":-77.86448,"zip":"25438","miles_from_dt":4.55},{"city":"Summit Point","state_name":"West Virginia","lat":39.24013,"lng":-77.95705,"zip":"25446","miles_from_dt":4.72},{"city":"Millville","state_name":"West Virginia","lat":39.29562,"lng":-77.78663,"zip":"25432","miles_from_dt":5.39},{"city":"Halltown","state_name":"West Virginia","lat":39.31449,"lng":-77.79823,"zip":"25423","miles_from_dt":5.76},{"city":"Bakerton","state_name":"West Virginia","lat":39.32699,"lng":-77.78005,"zip":"25410","miles_from_dt":7.06},{"city":"Kearneysville","state_name":"West Virginia","lat":39.34024,"lng":-77.93899,"zip":"25430","miles_from_dt":7.06},{"city":"Shenandoah Junction","state_name":"West Virginia","lat":39.37157,"lng":-77.83181,"zip":"25442","miles_from_dt":8.46},{"city":"Berryville","state_name":"Virginia","lat":39.16374,"lng":-77.98512,"zip":"22611","miles_from_dt":8.69},{"city":"Round Hill","state_name":"Virginia","lat":39.13504,"lng":-77.77179,"zip":"20142","miles_from_dt":9.7},{"city":"Purcellville","state_name":"Virginia","lat":39.16648,"lng":-77.72748,"zip":"20132","miles_from_dt":9.71},{"city":"Round Hill","state_name":"Virginia","lat":39.11675,"lng":-77.79159,"zip":"20141","miles_from_dt":10.29},{"city":"Brucetown","state_name":"Virginia","lat":39.25659,"lng":-78.06706,"zip":"22622","miles_from_dt":10.54},{"city":"Bunker Hill","state_name":"West Virginia","lat":39.31632,"lng":-78.053,"zip":"25413","miles_from_dt":10.72},{"city":"Ridgeway","state_name":"West Virginia","lat":39.29801,"lng":-78.07101,"zip":"25440","miles_from_dt":11.19},{"city":"Purcellville","state_name":"Virginia","lat":39.14233,"lng":-77.71139,"zip":"20134","miles_from_dt":11.45},{"city":"Bluemont","state_name":"Virginia","lat":39.08602,"lng":-77.87659,"zip":"20135","miles_from_dt":11.5},{"city":"Martinsburg","state_name":"West Virginia","lat":39.40892,"lng":-77.96235,"zip":"25405","miles_from_dt":11.84},{"city":"Inwood","state_name":"West Virginia","lat":39.37407,"lng":-78.02729,"zip":"25428","miles_from_dt":11.86},{"city":"Stephenson","state_name":"Virginia","lat":39.21723,"lng":-78.08901,"zip":"22656","miles_from_dt":11.97},{"city":"Clear Brook","state_name":"Virginia","lat":39.26535,"lng":-78.09507,"zip":"22624","miles_from_dt":12.07},{"city":"Lovettsville","state_name":"Virginia","lat":39.26775,"lng":-77.63804,"zip":"20180","miles_from_dt":12.51},{"city":"Knoxville","state_name":"Maryland","lat":39.34567,"lng":-77.66265,"zip":"21758","miles_from_dt":12.86},{"city":"Shepherdstown","state_name":"West Virginia","lat":39.43835,"lng":-77.81477,"zip":"25443","miles_from_dt":13.15},{"city":"Lincoln","state_name":"Virginia","lat":39.1162,"lng":-77.69397,"zip":"20160","miles_from_dt":13.36},{"city":"Hamilton","state_name":"Virginia","lat":39.13425,"lng":-77.66495,"zip":"20159","miles_from_dt":13.73},{"city":"Brunswick","state_name":"Maryland","lat":39.31798,"lng":-77.6262,"zip":"21716","miles_from_dt":13.85},{"city":"Hamilton","state_name":"Virginia","lat":39.14126,"lng":-77.65514,"zip":"20158","miles_from_dt":13.89},{"city":"Waterford","state_name":"Virginia","lat":39.19379,"lng":-77.62252,"zip":"20197","miles_from_dt":13.92},{"city":"Brownsville","state_name":"Maryland","lat":39.37879,"lng":-77.66063,"zip":"21715","miles_from_dt":14.22},{"city":"Martinsburg","state_name":"West Virginia","lat":39.45642,"lng":-77.97267,"zip":"25401","miles_from_dt":15.08},{"city":"Philomont","state_name":"Virginia","lat":39.05815,"lng":-77.74061,"zip":"20131","miles_from_dt":15.13},{"city":"Sharpsburg","state_name":"Maryland","lat":39.4552,"lng":-77.75995,"zip":"21782","miles_from_dt":15.17},{"city":"Martinsburg","state_name":"West Virginia","lat":39.46145,"lng":-77.96982,"zip":"25402","miles_from_dt":15.35},{"city":"Boyce","state_name":"Virginia","lat":39.06417,"lng":-78.03317,"zip":"22620","miles_from_dt":15.67},{"city":"Millwood","state_name":"Virginia","lat":39.07019,"lng":-78.04803,"zip":"22646","miles_from_dt":15.79},{"city":"Winchester","state_name":"Virginia","lat":39.18715,"lng":-78.15463,"zip":"22604","miles_from_dt":15.9},{"city":"Paeonian Springs","state_name":"Virginia","lat":39.16673,"lng":-77.59404,"zip":"20129","miles_from_dt":15.98},{"city":"Paris","state_name":"Virginia","lat":39.02756,"lng":-77.94243,"zip":"20130","miles_from_dt":16.01},{"city":"Gerrardstown","state_name":"West Virginia","lat":39.38095,"lng":-78.11969,"zip":"25420","miles_from_dt":16.01},{"city":"Martinsburg","state_name":"West Virginia","lat":39.48631,"lng":-77.89782,"zip":"25404","miles_from_dt":16.18},{"city":"Burkittsville","state_name":"Maryland","lat":39.39343,"lng":-77.62734,"zip":"21718","miles_from_dt":16.25},{"city":"Rohrersville","state_name":"Maryland","lat":39.42447,"lng":-77.65398,"zip":"21779","miles_from_dt":16.58},{"city":"Keedysville","state_name":"Maryland","lat":39.45758,"lng":-77.70118,"zip":"21756","miles_from_dt":16.79},{"city":"Winchester","state_name":"Virginia","lat":39.1743,"lng":-78.1743,"zip":"22601","miles_from_dt":17.18},{"city":"Upperville","state_name":"Virginia","lat":39.00143,"lng":-77.87874,"zip":"20184","miles_from_dt":17.34},{"city":"Martinsburg","state_name":"West Virginia","lat":39.4842,"lng":-78.00725,"zip":"25403","miles_from_dt":17.57},{"city":"Jefferson","state_name":"Maryland","lat":39.36101,"lng":-77.56887,"zip":"21755","miles_from_dt":17.81},{"city":"Upperville","state_name":"Virginia","lat":38.9945,"lng":-77.88181,"zip":"20185","miles_from_dt":17.82},{"city":"Glengary","state_name":"West Virginia","lat":39.37821,"lng":-78.16384,"zip":"25421","miles_from_dt":17.94},{"city":"Winchester","state_name":"Virginia","lat":39.28153,"lng":-78.2056,"zip":"22603","miles_from_dt":18.08},{"city":"Point Of Rocks","state_name":"Maryland","lat":39.27918,"lng":-77.5287,"zip":"21777","miles_from_dt":18.42},{"city":"Leesburg","state_name":"Virginia","lat":39.18147,"lng":-77.5345,"zip":"20176","miles_from_dt":18.69},{"city":"Leesburg","state_name":"Virginia","lat":39.11878,"lng":-77.56645,"zip":"20178","miles_from_dt":18.76},{"city":"Middleburg","state_name":"Virginia","lat":38.99473,"lng":-77.73851,"zip":"20117","miles_from_dt":19.16},{"city":"Leesburg","state_name":"Virginia","lat":39.10694,"lng":-77.56527,"zip":"20177","miles_from_dt":19.23},{"city":"White Post","state_name":"Virginia","lat":39.05,"lng":-78.11716,"zip":"22663","miles_from_dt":19.26},{"city":"Leesburg","state_name":"Virginia","lat":39.0641,"lng":-77.59939,"zip":"20175","miles_from_dt":19.53},{"city":"Tuscarora","state_name":"Maryland","lat":39.25908,"lng":-77.49559,"zip":"21790","miles_from_dt":20.11},{"city":"Middleburg","state_name":"Virginia","lat":38.96752,"lng":-77.73428,"zip":"20118","miles_from_dt":20.99},{"city":"Middletown","state_name":"Maryland","lat":39.44582,"lng":-77.56489,"zip":"21769","miles_from_dt":21.11},{"city":"Fairplay","state_name":"Maryland","lat":39.55004,"lng":-77.75838,"zip":"21733","miles_from_dt":21.37},{"city":"Boonsboro","state_name":"Maryland","lat":39.52618,"lng":-77.66933,"zip":"21713","miles_from_dt":21.72},{"city":"Braddock Heights","state_name":"Maryland","lat":39.41059,"lng":-77.51003,"zip":"21714","miles_from_dt":22.17},{"city":"Hedgesville","state_name":"West Virginia","lat":39.52608,"lng":-78.09098,"zip":"25427","miles_from_dt":22.24},{"city":"Winchester","state_name":"Virginia","lat":39.1508,"lng":-78.26555,"zip":"22602","miles_from_dt":22.34},{"city":"Stephens City","state_name":"Virginia","lat":39.06443,"lng":-78.21425,"zip":"22655","miles_from_dt":22.57},{"city":"Saint James","state_name":"Maryland","lat":39.57123,"lng":-77.75981,"zip":"21781","miles_from_dt":22.76},{"city":"Adamstown","state_name":"Maryland","lat":39.29652,"lng":-77.44941,"zip":"21710","miles_from_dt":22.78},{"city":"Falling Waters","state_name":"West Virginia","lat":39.58286,"lng":-77.88493,"zip":"25419","miles_from_dt":22.79},{"city":"Williamsport","state_name":"Maryland","lat":39.582,"lng":-77.82733,"zip":"21795","miles_from_dt":22.83},{"city":"Frederick","state_name":"Maryland","lat":39.36961,"lng":-77.47088,"zip":"21703","miles_from_dt":22.89},{"city":"Rectortown","state_name":"Virginia","lat":38.92037,"lng":-77.86292,"zip":"20140","miles_from_dt":22.93},{"city":"Delaplane","state_name":"Virginia","lat":38.92117,"lng":-77.93759,"zip":"20144","miles_from_dt":23.15},{"city":"Hagerstown","state_name":"Maryland","lat":39.56591,"lng":-77.71409,"zip":"21746","miles_from_dt":23.17},{"city":"Dickerson","state_name":"Maryland","lat":39.20831,"lng":-77.42473,"zip":"20842","miles_from_dt":24.11},{"city":"Buckeystown","state_name":"Maryland","lat":39.33865,"lng":-77.43147,"zip":"21717","miles_from_dt":24.27},{"city":"Aldie","state_name":"Virginia","lat":38.95949,"lng":-77.60829,"zip":"20105","miles_from_dt":24.66},{"city":"Beallsville","state_name":"Maryland","lat":39.17909,"lng":-77.41438,"zip":"20839","miles_from_dt":25},{"city":"Cross Junction","state_name":"Virginia","lat":39.37397,"lng":-78.31172,"zip":"22625","miles_from_dt":25.08},{"city":"Markham","state_name":"Virginia","lat":38.9034,"lng":-78.00801,"zip":"22643","miles_from_dt":25.21},{"city":"Ashburn","state_name":"Virginia","lat":39.04362,"lng":-77.48161,"zip":"20149","miles_from_dt":25.39},{"city":"Linden","state_name":"Virginia","lat":38.91532,"lng":-78.06538,"zip":"22642","miles_from_dt":25.52},{"city":"Ashburn","state_name":"Virginia","lat":39.04151,"lng":-77.47958,"zip":"20147","miles_from_dt":25.56},{"city":"Ashburn","state_name":"Virginia","lat":38.99062,"lng":-77.53284,"zip":"20148","miles_from_dt":25.62},{"city":"Funkstown","state_name":"Maryland","lat":39.60583,"lng":-77.70382,"zip":"21734","miles_from_dt":25.94},{"city":"Myersville","state_name":"Maryland","lat":39.53725,"lng":-77.55301,"zip":"21773","miles_from_dt":25.96},{"city":"Gore","state_name":"Virginia","lat":39.25057,"lng":-78.3605,"zip":"22637","miles_from_dt":26.28},{"city":"Marshall","state_name":"Virginia","lat":38.86836,"lng":-77.85245,"zip":"20116","miles_from_dt":26.53},{"city":"Poolesville","state_name":"Maryland","lat":39.11208,"lng":-77.40823,"zip":"20837","miles_from_dt":26.65},{"city":"The Plains","state_name":"Virginia","lat":38.87523,"lng":-77.76128,"zip":"20198","miles_from_dt":26.7},{"city":"Barnesville","state_name":"Maryland","lat":39.22341,"lng":-77.37223,"zip":"20838","miles_from_dt":26.81},{"city":"Frederick","state_name":"Maryland","lat":39.40887,"lng":-77.41002,"zip":"21705","miles_from_dt":26.92},{"city":"Middletown","state_name":"Virginia","lat":39.00518,"lng":-78.25833,"zip":"22649","miles_from_dt":26.94},{"city":"Middletown","state_name":"Virginia","lat":39.02152,"lng":-78.27457,"zip":"22645","miles_from_dt":26.94},{"city":"Frederick","state_name":"Maryland","lat":39.48019,"lng":-77.4578,"zip":"21702","miles_from_dt":27.11},{"city":"Hagerstown","state_name":"Maryland","lat":39.63233,"lng":-77.73902,"zip":"21740","miles_from_dt":27.12},{"city":"Hagerstown","state_name":"Maryland","lat":39.63447,"lng":-77.74596,"zip":"21747","miles_from_dt":27.17},{"city":"Frederick","state_name":"Maryland","lat":39.42776,"lng":-77.41549,"zip":"21709","miles_from_dt":27.2},{"city":"Ashburn","state_name":"Virginia","lat":39.01905,"lng":-77.46099,"zip":"20146","miles_from_dt":27.28},{"city":"Hagerstown","state_name":"Maryland","lat":39.63737,"lng":-77.74454,"zip":"21749","miles_from_dt":27.38},{"city":"Frederick","state_name":"Maryland","lat":39.3506,"lng":-77.3735,"zip":"21704","miles_from_dt":27.48},{"city":"Dulles","state_name":"Virginia","lat":38.99793,"lng":-77.46975,"zip":"20104","miles_from_dt":27.8},{"city":"Front Royal","state_name":"Virginia","lat":38.92909,"lng":-78.18052,"zip":"22630","miles_from_dt":27.86},{"city":"Berkeley Springs","state_name":"West Virginia","lat":39.55497,"lng":-78.22004,"zip":"25411","miles_from_dt":28.01},{"city":"Hagerstown","state_name":"Maryland","lat":39.64139,"lng":-77.71879,"zip":"21741","miles_from_dt":28.01},{"city":"Clear Spring","state_name":"Maryland","lat":39.66575,"lng":-77.91457,"zip":"21722","miles_from_dt":28.59},{"city":"Dulles","state_name":"Virginia","lat":38.99738,"lng":-77.45148,"zip":"20103","miles_from_dt":28.59},{"city":"Bloomery","state_name":"West Virginia","lat":39.35957,"lng":-78.39067,"zip":"26817","miles_from_dt":28.83},{"city":"Haymarket","state_name":"Virginia","lat":38.87172,"lng":-77.64627,"zip":"20169","miles_from_dt":28.92},{"city":"Dulles","state_name":"Virginia","lat":38.98835,"lng":-77.45192,"zip":"20101","miles_from_dt":28.96},{"city":"Sterling","state_name":"Virginia","lat":38.98799,"lng":-77.45013,"zip":"20163","miles_from_dt":29.05},{"city":"Sterling","state_name":"Virginia","lat":38.97146,"lng":-77.4637,"zip":"20166","miles_from_dt":29.23},{"city":"Sterling","state_name":"Virginia","lat":39.05058,"lng":-77.38854,"zip":"20165","miles_from_dt":29.41},{"city":"Boyds","state_name":"Maryland","lat":39.1858,"lng":-77.32581,"zip":"20841","miles_from_dt":29.59},{"city":"Big Pool","state_name":"Maryland","lat":39.66808,"lng":-78.01247,"zip":"21711","miles_from_dt":29.64},{"city":"Marshall","state_name":"Virginia","lat":38.82138,"lng":-77.89764,"zip":"20115","miles_from_dt":29.79},{"city":"Dulles","state_name":"Virginia","lat":38.96242,"lng":-77.45563,"zip":"20189","miles_from_dt":29.97}],"targetCityZipCode":"25414","targetCityState":"West Virginia"},"__N_SSG":true}