{"pageProps":{"stateName":"West-virginia","cityName":"farmington","nearbyCities":[{"city":"Idamay","state_name":"West Virginia","lat":39.49307,"lng":-80.25644,"zip":"26576","miles_from_dt":1.83},{"city":"Rachel","state_name":"West Virginia","lat":39.51606,"lng":-80.29751,"zip":"26587","miles_from_dt":2.01},{"city":"Carolina","state_name":"West Virginia","lat":39.48085,"lng":-80.27369,"zip":"26563","miles_from_dt":2.76},{"city":"Four States","state_name":"West Virginia","lat":39.4871,"lng":-80.31973,"zip":"26572","miles_from_dt":3.89},{"city":"Barrackville","state_name":"West Virginia","lat":39.52141,"lng":-80.18015,"zip":"26559","miles_from_dt":4.28},{"city":"Worthington","state_name":"West Virginia","lat":39.45499,"lng":-80.2903,"zip":"26591","miles_from_dt":4.73},{"city":"Grant Town","state_name":"West Virginia","lat":39.55926,"lng":-80.17741,"zip":"26574","miles_from_dt":5.2},{"city":"Baxter","state_name":"West Virginia","lat":39.54088,"lng":-80.14362,"zip":"26560","miles_from_dt":6.4},{"city":"Kingmont","state_name":"West Virginia","lat":39.44888,"lng":-80.179,"zip":"26578","miles_from_dt":6.52},{"city":"Enterprise","state_name":"West Virginia","lat":39.42542,"lng":-80.27729,"zip":"26568","miles_from_dt":6.55},{"city":"Fairmont","state_name":"West Virginia","lat":39.47026,"lng":-80.15026,"zip":"26555","miles_from_dt":6.78},{"city":"Rivesville","state_name":"West Virginia","lat":39.5738,"lng":-80.15339,"zip":"26588","miles_from_dt":6.82},{"city":"Mannington","state_name":"West Virginia","lat":39.53114,"lng":-80.38767,"zip":"26582","miles_from_dt":6.86},{"city":"Wyatt","state_name":"West Virginia","lat":39.43174,"lng":-80.35007,"zip":"26463","miles_from_dt":7.73},{"city":"Montana Mines","state_name":"West Virginia","lat":39.52786,"lng":-80.10952,"zip":"26586","miles_from_dt":8.07},{"city":"Fairview","state_name":"West Virginia","lat":39.64284,"lng":-80.23444,"zip":"26570","miles_from_dt":8.62},{"city":"Fairmont","state_name":"West Virginia","lat":39.46475,"lng":-80.11461,"zip":"26554","miles_from_dt":8.65},{"city":"Shinnston","state_name":"West Virginia","lat":39.39144,"lng":-80.28085,"zip":"26431","miles_from_dt":8.9},{"city":"Colfax","state_name":"West Virginia","lat":39.43521,"lng":-80.12954,"zip":"26566","miles_from_dt":9.08},{"city":"Haywood","state_name":"West Virginia","lat":39.38266,"lng":-80.33474,"zip":"26366","miles_from_dt":10.25},{"city":"Metz","state_name":"West Virginia","lat":39.6065,"lng":-80.42379,"zip":"26585","miles_from_dt":10.6},{"city":"Gypsy","state_name":"West Virginia","lat":39.36507,"lng":-80.31776,"zip":"26361","miles_from_dt":11.09},{"city":"Wana","state_name":"West Virginia","lat":39.67428,"lng":-80.31674,"zip":"26590","miles_from_dt":11.1},{"city":"Lumberport","state_name":"West Virginia","lat":39.39878,"lng":-80.40263,"zip":"26386","miles_from_dt":11.29},{"city":"Meadowbrook","state_name":"West Virginia","lat":39.34636,"lng":-80.30996,"zip":"26404","miles_from_dt":12.23},{"city":"Spelter","state_name":"West Virginia","lat":39.34315,"lng":-80.31631,"zip":"26438","miles_from_dt":12.53},{"city":"Burton","state_name":"West Virginia","lat":39.63957,"lng":-80.45072,"zip":"26562","miles_from_dt":13.12},{"city":"Hepzibah","state_name":"West Virginia","lat":39.33527,"lng":-80.33117,"zip":"26369","miles_from_dt":13.26},{"city":"Blacksville","state_name":"West Virginia","lat":39.71374,"lng":-80.23065,"zip":"26521","miles_from_dt":13.5},{"city":"Smithfield","state_name":"West Virginia","lat":39.53147,"lng":-80.5193,"zip":"26437","miles_from_dt":13.87},{"city":"Morgantown","state_name":"West Virginia","lat":39.62872,"lng":-80.04025,"zip":"26501","miles_from_dt":13.95},{"city":"Pentress","state_name":"West Virginia","lat":39.71233,"lng":-80.17064,"zip":"26544","miles_from_dt":14.14},{"city":"Wallace","state_name":"West Virginia","lat":39.40595,"lng":-80.49265,"zip":"26448","miles_from_dt":14.69},{"city":"Cassville","state_name":"West Virginia","lat":39.66712,"lng":-80.05637,"zip":"26527","miles_from_dt":14.9},{"city":"Maidsville","state_name":"West Virginia","lat":39.68179,"lng":-80.07458,"zip":"26541","miles_from_dt":14.95},{"city":"Folsom","state_name":"West Virginia","lat":39.46035,"lng":-80.53474,"zip":"26348","miles_from_dt":15.23},{"city":"Hundred","state_name":"West Virginia","lat":39.6978,"lng":-80.43256,"zip":"26575","miles_from_dt":15.36},{"city":"Pursglove","state_name":"West Virginia","lat":39.66099,"lng":-80.03115,"zip":"26546","miles_from_dt":15.64},{"city":"Bridgeport","state_name":"West Virginia","lat":39.28837,"lng":-80.22109,"zip":"26330","miles_from_dt":16.08},{"city":"Granville","state_name":"West Virginia","lat":39.64748,"lng":-79.99733,"zip":"26534","miles_from_dt":16.58},{"city":"Spraggs","state_name":"Pennsylvania","lat":39.75821,"lng":-80.21301,"zip":"15362","miles_from_dt":16.66},{"city":"Clarksburg","state_name":"West Virginia","lat":39.28189,"lng":-80.333,"zip":"26306","miles_from_dt":16.85},{"city":"Brave","state_name":"Pennsylvania","lat":39.76514,"lng":-80.26185,"zip":"15316","miles_from_dt":16.95},{"city":"Osage","state_name":"West Virginia","lat":39.66375,"lng":-80.00219,"zip":"26543","miles_from_dt":16.99},{"city":"Rosemont","state_name":"West Virginia","lat":39.28117,"lng":-80.17272,"zip":"26424","miles_from_dt":17.09},{"city":"Grafton","state_name":"West Virginia","lat":39.34847,"lng":-80.02866,"zip":"26354","miles_from_dt":17.1},{"city":"Clarksburg","state_name":"West Virginia","lat":39.28629,"lng":-80.37735,"zip":"26301","miles_from_dt":17.27},{"city":"Big Run","state_name":"West Virginia","lat":39.59139,"lng":-80.56981,"zip":"26561","miles_from_dt":17.27},{"city":"Morgantown","state_name":"West Virginia","lat":39.63444,"lng":-79.97,"zip":"26502","miles_from_dt":17.4},{"city":"Clarksburg","state_name":"West Virginia","lat":39.26636,"lng":-80.30966,"zip":"26302","miles_from_dt":17.66},{"city":"Morgantown","state_name":"West Virginia","lat":39.64677,"lng":-79.9701,"zip":"26506","miles_from_dt":17.8},{"city":"Anmoore","state_name":"West Virginia","lat":39.2623,"lng":-80.29057,"zip":"26323","miles_from_dt":17.81},{"city":"Morgantown","state_name":"West Virginia","lat":39.63037,"lng":-79.95785,"zip":"26504","miles_from_dt":17.86},{"city":"Reynoldsville","state_name":"West Virginia","lat":39.29797,"lng":-80.43323,"zip":"26422","miles_from_dt":17.87},{"city":"New Freeport","state_name":"Pennsylvania","lat":39.75418,"lng":-80.40253,"zip":"15352","miles_from_dt":17.89},{"city":"Flemington","state_name":"West Virginia","lat":39.26371,"lng":-80.1261,"zip":"26347","miles_from_dt":19.05},{"city":"Mount Morris","state_name":"Pennsylvania","lat":39.75885,"lng":-80.07795,"zip":"15349","miles_from_dt":19.16},{"city":"Morgantown","state_name":"West Virginia","lat":39.6511,"lng":-79.94306,"zip":"26505","miles_from_dt":19.21},{"city":"Littleton","state_name":"West Virginia","lat":39.66554,"lng":-80.56781,"zip":"26581","miles_from_dt":19.27},{"city":"Morgantown","state_name":"West Virginia","lat":39.61424,"lng":-79.91584,"zip":"26507","miles_from_dt":19.51},{"city":"Simpson","state_name":"West Virginia","lat":39.26743,"lng":-80.08875,"zip":"26435","miles_from_dt":19.66},{"city":"Center Point","state_name":"West Virginia","lat":39.42231,"lng":-80.60998,"zip":"26339","miles_from_dt":19.87},{"city":"Morgantown","state_name":"West Virginia","lat":39.59941,"lng":-79.89724,"zip":"26508","miles_from_dt":20.15},{"city":"Pine Grove","state_name":"West Virginia","lat":39.58469,"lng":-80.631,"zip":"26419","miles_from_dt":20.31},{"city":"Jacksonburg","state_name":"West Virginia","lat":39.49185,"lng":-80.64068,"zip":"26377","miles_from_dt":20.43},{"city":"Dellslow","state_name":"West Virginia","lat":39.60688,"lng":-79.89066,"zip":"26531","miles_from_dt":20.63},{"city":"Independence","state_name":"West Virginia","lat":39.44755,"lng":-79.88101,"zip":"26374","miles_from_dt":20.87},{"city":"Holbrook","state_name":"Pennsylvania","lat":39.82381,"lng":-80.34728,"zip":"15341","miles_from_dt":21.51},{"city":"Galloway","state_name":"West Virginia","lat":39.22757,"lng":-80.11098,"zip":"26349","miles_from_dt":21.66},{"city":"Mount Clare","state_name":"West Virginia","lat":39.20313,"lng":-80.28973,"zip":"26408","miles_from_dt":21.88},{"city":"Bobtown","state_name":"Pennsylvania","lat":39.75741,"lng":-79.98319,"zip":"15315","miles_from_dt":22.08},{"city":"Aleppo","state_name":"Pennsylvania","lat":39.79255,"lng":-80.48108,"zip":"15310","miles_from_dt":22.22},{"city":"Dilliner","state_name":"Pennsylvania","lat":39.75088,"lng":-79.96293,"zip":"15327","miles_from_dt":22.5},{"city":"Salem","state_name":"West Virginia","lat":39.28758,"lng":-80.56313,"zip":"26426","miles_from_dt":22.78},{"city":"Thornton","state_name":"West Virginia","lat":39.32947,"lng":-79.90625,"zip":"26440","miles_from_dt":23.03},{"city":"West Milford","state_name":"West Virginia","lat":39.20439,"lng":-80.40352,"zip":"26451","miles_from_dt":23.05},{"city":"Arthurdale","state_name":"West Virginia","lat":39.50105,"lng":-79.82393,"zip":"26520","miles_from_dt":23.34},{"city":"Reedsville","state_name":"West Virginia","lat":39.5133,"lng":-79.80757,"zip":"26547","miles_from_dt":24.19},{"city":"Bretz","state_name":"West Virginia","lat":39.54075,"lng":-79.80716,"zip":"26524","miles_from_dt":24.24},{"city":"Reader","state_name":"West Virginia","lat":39.53454,"lng":-80.71429,"zip":"26167","miles_from_dt":24.29},{"city":"Rogersville","state_name":"Pennsylvania","lat":39.87667,"lng":-80.27555,"zip":"15359","miles_from_dt":24.66},{"city":"Newburg","state_name":"West Virginia","lat":39.4032,"lng":-79.82389,"zip":"26410","miles_from_dt":24.67},{"city":"Waynesburg","state_name":"Pennsylvania","lat":39.8734,"lng":-80.17991,"zip":"15370","miles_from_dt":24.79},{"city":"Point Marion","state_name":"Pennsylvania","lat":39.75201,"lng":-79.90145,"zip":"15474","miles_from_dt":24.97},{"city":"Lost Creek","state_name":"West Virginia","lat":39.15895,"lng":-80.3517,"zip":"26385","miles_from_dt":25.35},{"city":"Masontown","state_name":"West Virginia","lat":39.573,"lng":-79.79041,"zip":"26542","miles_from_dt":25.36},{"city":"Garards Fort","state_name":"Pennsylvania","lat":39.81292,"lng":-79.9673,"zip":"15334","miles_from_dt":25.57},{"city":"Gans","state_name":"Pennsylvania","lat":39.73333,"lng":-79.86667,"zip":"15439","miles_from_dt":25.66},{"city":"Greensboro","state_name":"Pennsylvania","lat":39.81654,"lng":-79.96206,"zip":"15338","miles_from_dt":25.94},{"city":"New Geneva","state_name":"Pennsylvania","lat":39.78931,"lng":-79.90526,"zip":"15467","miles_from_dt":26.55},{"city":"Wind Ridge","state_name":"Pennsylvania","lat":39.8725,"lng":-80.4692,"zip":"15380","miles_from_dt":26.78},{"city":"Lake Lynn","state_name":"Pennsylvania","lat":39.74018,"lng":-79.84005,"zip":"15451","miles_from_dt":27.09},{"city":"Porters Falls","state_name":"West Virginia","lat":39.57231,"lng":-80.76572,"zip":"26162","miles_from_dt":27.25},{"city":"Cameron","state_name":"West Virginia","lat":39.8284,"lng":-80.57985,"zip":"26033","miles_from_dt":27.29},{"city":"Martin","state_name":"Pennsylvania","lat":39.80712,"lng":-79.90756,"zip":"15460","miles_from_dt":27.34},{"city":"Philippi","state_name":"West Virginia","lat":39.16349,"lng":-80.02245,"zip":"26416","miles_from_dt":27.66},{"city":"Moatsville","state_name":"West Virginia","lat":39.23093,"lng":-79.89076,"zip":"26405","miles_from_dt":28.06},{"city":"Carmichaels","state_name":"Pennsylvania","lat":39.87386,"lng":-79.99768,"zip":"15320","miles_from_dt":28.17},{"city":"New Martinsville","state_name":"West Virginia","lat":39.6333,"lng":-80.76707,"zip":"26155","miles_from_dt":28.18},{"city":"Shirley","state_name":"West Virginia","lat":39.39706,"lng":-80.76641,"zip":"26434","miles_from_dt":28.36},{"city":"Tunnelton","state_name":"West Virginia","lat":39.36861,"lng":-79.7626,"zip":"26444","miles_from_dt":28.57},{"city":"Smithburg","state_name":"West Virginia","lat":39.2965,"lng":-80.71683,"zip":"26436","miles_from_dt":28.88},{"city":"Jane Lew","state_name":"West Virginia","lat":39.12264,"lng":-80.44772,"zip":"26378","miles_from_dt":29.16},{"city":"Volga","state_name":"West Virginia","lat":39.10178,"lng":-80.1584,"zip":"26238","miles_from_dt":29.32},{"city":"Masontown","state_name":"Pennsylvania","lat":39.83978,"lng":-79.89843,"zip":"15461","miles_from_dt":29.33},{"city":"Kingwood","state_name":"West Virginia","lat":39.4846,"lng":-79.71189,"zip":"26537","miles_from_dt":29.4},{"city":"Sycamore","state_name":"Pennsylvania","lat":39.94557,"lng":-80.2849,"zip":"15364","miles_from_dt":29.43},{"city":"Glen Easton","state_name":"West Virginia","lat":39.81641,"lng":-80.66969,"zip":"26039","miles_from_dt":29.94},{"city":"Jefferson","state_name":"Pennsylvania","lat":39.92289,"lng":-80.05068,"zip":"15344","miles_from_dt":29.99}],"targetCityZipCode":"26571","targetCityState":"West Virginia"},"__N_SSG":true}