{"pageProps":{"stateName":"West-virginia","cityName":"franklin","nearbyCities":[{"city":"Brandywine","state_name":"West Virginia","lat":38.64454,"lng":-79.18706,"zip":"26802","miles_from_dt":9.5},{"city":"Sugar Grove","state_name":"West Virginia","lat":38.48923,"lng":-79.35884,"zip":"26815","miles_from_dt":9.64},{"city":"Circleville","state_name":"West Virginia","lat":38.63306,"lng":-79.54526,"zip":"26804","miles_from_dt":9.94},{"city":"Riverton","state_name":"West Virginia","lat":38.75176,"lng":-79.46648,"zip":"26814","miles_from_dt":10.19},{"city":"Upper Tract","state_name":"West Virginia","lat":38.80493,"lng":-79.2512,"zip":"26866","miles_from_dt":13.53},{"city":"Blue Grass","state_name":"Virginia","lat":38.50753,"lng":-79.55925,"zip":"24413","miles_from_dt":13.59},{"city":"Whitmer","state_name":"West Virginia","lat":38.75425,"lng":-79.56369,"zip":"26296","miles_from_dt":13.93},{"city":"Hinton","state_name":"Virginia","lat":38.56395,"lng":-79.10005,"zip":"22831","miles_from_dt":14.85},{"city":"Seneca Rocks","state_name":"West Virginia","lat":38.84273,"lng":-79.40118,"zip":"26884","miles_from_dt":14.9},{"city":"Doe Hill","state_name":"Virginia","lat":38.41817,"lng":-79.46461,"zip":"24433","miles_from_dt":15.57},{"city":"Onego","state_name":"West Virginia","lat":38.88742,"lng":-79.40064,"zip":"26886","miles_from_dt":17.95},{"city":"Harman","state_name":"West Virginia","lat":38.81229,"lng":-79.60034,"zip":"26270","miles_from_dt":18.07},{"city":"Head Waters","state_name":"Virginia","lat":38.35971,"lng":-79.39028,"zip":"24442","miles_from_dt":18.64},{"city":"Dayton","state_name":"Virginia","lat":38.46349,"lng":-79.0743,"zip":"22821","miles_from_dt":19.3},{"city":"Bartow","state_name":"West Virginia","lat":38.58918,"lng":-79.71723,"zip":"24920","miles_from_dt":19.44},{"city":"Milam","state_name":"West Virginia","lat":38.80492,"lng":-79.07237,"zip":"26838","miles_from_dt":19.79},{"city":"Criders","state_name":"Virginia","lat":38.74387,"lng":-79.00948,"zip":"22820","miles_from_dt":20.62},{"city":"Fulks Run","state_name":"Virginia","lat":38.65789,"lng":-78.97902,"zip":"22830","miles_from_dt":20.79},{"city":"Mount Solon","state_name":"Virginia","lat":38.36703,"lng":-79.16053,"zip":"22843","miles_from_dt":21.1},{"city":"McDowell","state_name":"Virginia","lat":38.33066,"lng":-79.51201,"zip":"24458","miles_from_dt":22.13},{"city":"Monterey","state_name":"Virginia","lat":38.39611,"lng":-79.64636,"zip":"24465","miles_from_dt":22.27},{"city":"Dryfork","state_name":"West Virginia","lat":38.95705,"lng":-79.43586,"zip":"26263","miles_from_dt":22.98},{"city":"Bergton","state_name":"Virginia","lat":38.79264,"lng":-78.9757,"zip":"22811","miles_from_dt":23.71},{"city":"Cabins","state_name":"West Virginia","lat":38.96933,"lng":-79.25935,"zip":"26855","miles_from_dt":24.12},{"city":"Singers Glen","state_name":"Virginia","lat":38.56668,"lng":-78.92048,"zip":"22850","miles_from_dt":24.26},{"city":"West Augusta","state_name":"Virginia","lat":38.27521,"lng":-79.33165,"zip":"24485","miles_from_dt":24.45},{"city":"Bridgewater","state_name":"Virginia","lat":38.37934,"lng":-79.03836,"zip":"22812","miles_from_dt":24.56},{"city":"Durbin","state_name":"West Virginia","lat":38.58923,"lng":-79.82277,"zip":"26264","miles_from_dt":25.11},{"city":"Bowden","state_name":"West Virginia","lat":38.91261,"lng":-79.65341,"zip":"26254","miles_from_dt":25.12},{"city":"Petersburg","state_name":"West Virginia","lat":38.95809,"lng":-79.15189,"zip":"26847","miles_from_dt":25.37},{"city":"Arbovale","state_name":"West Virginia","lat":38.4693,"lng":-79.78668,"zip":"24915","miles_from_dt":25.52},{"city":"Glady","state_name":"West Virginia","lat":38.71457,"lng":-79.82276,"zip":"26268","miles_from_dt":25.63},{"city":"Red Creek","state_name":"West Virginia","lat":38.98972,"lng":-79.51268,"zip":"26289","miles_from_dt":26.19},{"city":"Churchville","state_name":"Virginia","lat":38.26389,"lng":-79.20019,"zip":"24421","miles_from_dt":26.66},{"city":"Green Bank","state_name":"West Virginia","lat":38.39926,"lng":-79.77108,"zip":"24944","miles_from_dt":27.27},{"city":"Linville","state_name":"Virginia","lat":38.55709,"lng":-78.85769,"zip":"22834","miles_from_dt":27.72},{"city":"Harrisonburg","state_name":"Virginia","lat":38.50016,"lng":-78.8585,"zip":"22802","miles_from_dt":28.66},{"city":"Harrisonburg","state_name":"Virginia","lat":38.44951,"lng":-78.86953,"zip":"22803","miles_from_dt":29.39},{"city":"Beverly","state_name":"West Virginia","lat":38.80772,"lng":-79.85654,"zip":"26253","miles_from_dt":29.45},{"city":"Broadway","state_name":"Virginia","lat":38.63469,"lng":-78.80939,"zip":"22815","miles_from_dt":29.88},{"city":"Harrisonburg","state_name":"Virginia","lat":38.43495,"lng":-78.86736,"zip":"22807","miles_from_dt":29.93}],"targetCityZipCode":"26807","targetCityState":"West Virginia"},"__N_SSG":true}