{"pageProps":{"stateName":"West-virginia","cityName":"nallen","nearbyCities":[{"city":"Lookout","state_name":"West Virginia","lat":38.07172,"lng":-80.96461,"zip":"25868","miles_from_dt":5.08},{"city":"Pool","state_name":"West Virginia","lat":38.16324,"lng":-80.8544,"zip":"26684","miles_from_dt":5.17},{"city":"Mount Lookout","state_name":"West Virginia","lat":38.16883,"lng":-80.91085,"zip":"26678","miles_from_dt":5.8},{"city":"Hico","state_name":"West Virginia","lat":38.12629,"lng":-80.97537,"zip":"25854","miles_from_dt":6.06},{"city":"Mount Nebo","state_name":"West Virginia","lat":38.16509,"lng":-80.7971,"zip":"26679","miles_from_dt":6.67},{"city":"Winona","state_name":"West Virginia","lat":38.02691,"lng":-80.98836,"zip":"25942","miles_from_dt":7.59},{"city":"Charmco","state_name":"West Virginia","lat":38.02156,"lng":-80.76077,"zip":"25958","miles_from_dt":7.78},{"city":"Rainelle","state_name":"West Virginia","lat":37.97044,"lng":-80.8098,"zip":"25962","miles_from_dt":8.96},{"city":"Leslie","state_name":"West Virginia","lat":38.03576,"lng":-80.7222,"zip":"25972","miles_from_dt":9.09},{"city":"Edmond","state_name":"West Virginia","lat":38.06041,"lng":-81.0383,"zip":"25837","miles_from_dt":9.17},{"city":"Quinwood","state_name":"West Virginia","lat":38.08321,"lng":-80.70274,"zip":"25981","miles_from_dt":9.36},{"city":"Lansing","state_name":"West Virginia","lat":38.08448,"lng":-81.05192,"zip":"25862","miles_from_dt":9.69},{"city":"Danese","state_name":"West Virginia","lat":37.95645,"lng":-80.94037,"zip":"25831","miles_from_dt":9.89},{"city":"Victor","state_name":"West Virginia","lat":38.15993,"lng":-81.03447,"zip":"25938","miles_from_dt":9.98},{"city":"Keslers Cross Lanes","state_name":"West Virginia","lat":38.2347,"lng":-80.93623,"zip":"26675","miles_from_dt":10.54},{"city":"Drennen","state_name":"West Virginia","lat":38.2384,"lng":-80.99908,"zip":"26667","miles_from_dt":12.29},{"city":"Leivasy","state_name":"West Virginia","lat":38.16173,"lng":-80.65944,"zip":"26676","miles_from_dt":12.71},{"city":"Nettie","state_name":"West Virginia","lat":38.22983,"lng":-80.71905,"zip":"26681","miles_from_dt":12.83},{"city":"Canvas","state_name":"West Virginia","lat":38.25813,"lng":-80.7695,"zip":"26662","miles_from_dt":12.93},{"city":"Fayetteville","state_name":"West Virginia","lat":38.04001,"lng":-81.11442,"zip":"25840","miles_from_dt":13.54},{"city":"Ansted","state_name":"West Virginia","lat":38.14048,"lng":-81.11512,"zip":"25812","miles_from_dt":13.58},{"city":"Spring Dale","state_name":"West Virginia","lat":37.89395,"lng":-80.81741,"zip":"25986","miles_from_dt":13.87},{"city":"Thurmond","state_name":"West Virginia","lat":37.92917,"lng":-81.03105,"zip":"25936","miles_from_dt":14},{"city":"Minden","state_name":"West Virginia","lat":37.98048,"lng":-81.10453,"zip":"25879","miles_from_dt":14.66},{"city":"Rupert","state_name":"West Virginia","lat":38.01409,"lng":-80.6026,"zip":"25984","miles_from_dt":15.71},{"city":"Summersville","state_name":"West Virginia","lat":38.3185,"lng":-80.87902,"zip":"26651","miles_from_dt":15.77},{"city":"Gilboa","state_name":"West Virginia","lat":38.31978,"lng":-80.90929,"zip":"26671","miles_from_dt":15.97},{"city":"Swiss","state_name":"West Virginia","lat":38.21757,"lng":-81.12069,"zip":"26690","miles_from_dt":16.05},{"city":"Lochgelly","state_name":"West Virginia","lat":38.00883,"lng":-81.15738,"zip":"25866","miles_from_dt":16.42},{"city":"Fenwick","state_name":"West Virginia","lat":38.22657,"lng":-80.62639,"zip":"26202","miles_from_dt":16.46},{"city":"Layland","state_name":"West Virginia","lat":37.87948,"lng":-81.01781,"zip":"25864","miles_from_dt":16.49},{"city":"Smoot","state_name":"West Virginia","lat":37.90823,"lng":-80.67527,"zip":"24977","miles_from_dt":16.58},{"city":"Oak Hill","state_name":"West Virginia","lat":37.93575,"lng":-81.11242,"zip":"25901","miles_from_dt":16.79},{"city":"Meadow Bridge","state_name":"West Virginia","lat":37.84372,"lng":-80.86221,"zip":"25976","miles_from_dt":16.99},{"city":"Kanawha Falls","state_name":"West Virginia","lat":38.13065,"lng":-81.18997,"zip":"25115","miles_from_dt":17.43},{"city":"Gauley Bridge","state_name":"West Virginia","lat":38.16762,"lng":-81.18867,"zip":"25085","miles_from_dt":17.95},{"city":"Hilltop","state_name":"West Virginia","lat":37.94052,"lng":-81.15296,"zip":"25855","miles_from_dt":18.37},{"city":"Robson","state_name":"West Virginia","lat":38.07519,"lng":-81.21898,"zip":"25173","miles_from_dt":18.82},{"city":"Glen Ferris","state_name":"West Virginia","lat":38.15544,"lng":-81.21655,"zip":"25090","miles_from_dt":19.19},{"city":"Prince","state_name":"West Virginia","lat":37.8593,"lng":-81.07196,"zip":"25907","miles_from_dt":19.22},{"city":"Grassy Meadows","state_name":"West Virginia","lat":37.83632,"lng":-80.72709,"zip":"24943","miles_from_dt":19.25},{"city":"Meadow Creek","state_name":"West Virginia","lat":37.80819,"lng":-80.90571,"zip":"25977","miles_from_dt":19.51},{"city":"Crawley","state_name":"West Virginia","lat":37.91471,"lng":-80.59355,"zip":"24931","miles_from_dt":19.51},{"city":"Glen Jean","state_name":"West Virginia","lat":37.92476,"lng":-81.16628,"zip":"25846","miles_from_dt":19.59},{"city":"Dothan","state_name":"West Virginia","lat":37.98955,"lng":-81.21248,"zip":"25833","miles_from_dt":19.71},{"city":"Belva","state_name":"West Virginia","lat":38.24358,"lng":-81.18082,"zip":"26656","miles_from_dt":19.77},{"city":"Deep Water","state_name":"West Virginia","lat":38.1078,"lng":-81.23783,"zip":"25057","miles_from_dt":19.86},{"city":"Craigsville","state_name":"West Virginia","lat":38.32078,"lng":-80.64828,"zip":"26205","miles_from_dt":20.12},{"city":"Page","state_name":"West Virginia","lat":38.0411,"lng":-81.24004,"zip":"25152","miles_from_dt":20.23},{"city":"Charlton Heights","state_name":"West Virginia","lat":38.13673,"lng":-81.24385,"zip":"25040","miles_from_dt":20.4},{"city":"Calvin","state_name":"West Virginia","lat":38.35513,"lng":-80.70061,"zip":"26660","miles_from_dt":20.59},{"city":"Alloy","state_name":"West Virginia","lat":38.13087,"lng":-81.25466,"zip":"25002","miles_from_dt":20.92},{"city":"Green Sulphur Springs","state_name":"West Virginia","lat":37.7975,"lng":-80.76729,"zip":"25966","miles_from_dt":21},{"city":"Richwood","state_name":"West Virginia","lat":38.18881,"lng":-80.50454,"zip":"26261","miles_from_dt":21.26},{"city":"Mount Hope","state_name":"West Virginia","lat":37.90059,"lng":-81.18946,"zip":"25888","miles_from_dt":21.6},{"city":"Mount Olive","state_name":"West Virginia","lat":38.22149,"lng":-81.23587,"zip":"25185","miles_from_dt":21.69},{"city":"Williamsburg","state_name":"West Virginia","lat":38.00702,"lng":-80.48972,"zip":"24991","miles_from_dt":21.74},{"city":"Dixie","state_name":"West Virginia","lat":38.25422,"lng":-81.2153,"zip":"25059","miles_from_dt":21.76},{"city":"Scarbro","state_name":"West Virginia","lat":37.97944,"lng":-81.25021,"zip":"25917","miles_from_dt":21.88},{"city":"Kincaid","state_name":"West Virginia","lat":38.03362,"lng":-81.27494,"zip":"25119","miles_from_dt":22.19},{"city":"Piney View","state_name":"West Virginia","lat":37.83176,"lng":-81.12194,"zip":"25906","miles_from_dt":22.36},{"city":"Cannelton","state_name":"West Virginia","lat":38.19168,"lng":-81.26438,"zip":"25036","miles_from_dt":22.38},{"city":"Boomer","state_name":"West Virginia","lat":38.14615,"lng":-81.2801,"zip":"25031","miles_from_dt":22.45},{"city":"Indore","state_name":"West Virginia","lat":38.34841,"lng":-81.12591,"zip":"25111","miles_from_dt":22.48},{"city":"Mount Carbon","state_name":"West Virginia","lat":38.11038,"lng":-81.2874,"zip":"25139","miles_from_dt":22.56},{"city":"Bickmore","state_name":"West Virginia","lat":38.37663,"lng":-81.08955,"zip":"25019","miles_from_dt":22.98},{"city":"Sandstone","state_name":"West Virginia","lat":37.75752,"lng":-80.83044,"zip":"25985","miles_from_dt":23.05},{"city":"Mount Hope","state_name":"West Virginia","lat":37.87672,"lng":-81.20095,"zip":"25880","miles_from_dt":23.11},{"city":"Lizemores","state_name":"West Virginia","lat":38.31554,"lng":-81.19074,"zip":"25125","miles_from_dt":23.21},{"city":"Lanark","state_name":"West Virginia","lat":37.82703,"lng":-81.14653,"zip":"25860","miles_from_dt":23.45},{"city":"Bradley","state_name":"West Virginia","lat":37.8608,"lng":-81.19252,"zip":"25818","miles_from_dt":23.49},{"city":"Smithers","state_name":"West Virginia","lat":38.17113,"lng":-81.29811,"zip":"25186","miles_from_dt":23.76},{"city":"Tioga","state_name":"West Virginia","lat":38.39785,"lng":-80.67213,"zip":"26691","miles_from_dt":23.92},{"city":"Pax","state_name":"West Virginia","lat":37.9128,"lng":-81.25213,"zip":"25904","miles_from_dt":23.97},{"city":"Camden On Gauley","state_name":"West Virginia","lat":38.34781,"lng":-80.57314,"zip":"26208","miles_from_dt":24.18},{"city":"Asbury","state_name":"West Virginia","lat":37.82735,"lng":-80.57735,"zip":"24916","miles_from_dt":24.31},{"city":"Powellton","state_name":"West Virginia","lat":38.06123,"lng":-81.3189,"zip":"25161","miles_from_dt":24.32},{"city":"Stanaford","state_name":"West Virginia","lat":37.81734,"lng":-81.16138,"zip":"25927","miles_from_dt":24.48},{"city":"Beaver","state_name":"West Virginia","lat":37.78309,"lng":-81.10001,"zip":"25813","miles_from_dt":24.49},{"city":"Kimberly","state_name":"West Virginia","lat":38.11882,"lng":-81.32294,"zip":"25118","miles_from_dt":24.54},{"city":"Montgomery","state_name":"West Virginia","lat":38.15864,"lng":-81.31977,"zip":"25136","miles_from_dt":24.73},{"city":"Shady Spring","state_name":"West Virginia","lat":37.74575,"lng":-81.00993,"zip":"25918","miles_from_dt":24.87},{"city":"Prosperity","state_name":"West Virginia","lat":37.83687,"lng":-81.20192,"zip":"25909","miles_from_dt":24.99},{"city":"Clay","state_name":"West Virginia","lat":38.44092,"lng":-80.98981,"zip":"25043","miles_from_dt":25.01},{"city":"Widen","state_name":"West Virginia","lat":38.46107,"lng":-80.87932,"zip":"25211","miles_from_dt":25.6},{"city":"Hugheston","state_name":"West Virginia","lat":38.21324,"lng":-81.3264,"zip":"25110","miles_from_dt":26.05},{"city":"Pond Gap","state_name":"West Virginia","lat":38.29884,"lng":-81.27314,"zip":"25160","miles_from_dt":26.06},{"city":"Skelton","state_name":"West Virginia","lat":37.79607,"lng":-81.18216,"zip":"25919","miles_from_dt":26.34},{"city":"Alderson","state_name":"West Virginia","lat":37.74173,"lng":-80.66835,"zip":"24910","miles_from_dt":26.52},{"city":"Handley","state_name":"West Virginia","lat":38.16735,"lng":-81.35192,"zip":"25102","miles_from_dt":26.57},{"city":"Gallagher","state_name":"West Virginia","lat":38.06809,"lng":-81.36118,"zip":"25083","miles_from_dt":26.59},{"city":"London","state_name":"West Virginia","lat":38.19058,"lng":-81.35382,"zip":"25126","miles_from_dt":27.03},{"city":"Lewisburg","state_name":"West Virginia","lat":37.85298,"lng":-80.47598,"zip":"24901","miles_from_dt":27.2},{"city":"Dille","state_name":"West Virginia","lat":38.4828,"lng":-80.82572,"zip":"26617","miles_from_dt":27.23},{"city":"Glen","state_name":"West Virginia","lat":38.37963,"lng":-81.21551,"zip":"25088","miles_from_dt":27.28},{"city":"Clear Creek","state_name":"West Virginia","lat":37.91139,"lng":-81.32118,"zip":"25044","miles_from_dt":27.32},{"city":"Beckley","state_name":"West Virginia","lat":37.83805,"lng":-81.27017,"zip":"25801","miles_from_dt":27.73},{"city":"Beckley","state_name":"West Virginia","lat":37.79333,"lng":-81.21961,"zip":"25802","miles_from_dt":27.83},{"city":"Birch River","state_name":"West Virginia","lat":38.47769,"lng":-80.71887,"zip":"26610","miles_from_dt":28.05},{"city":"Daniels","state_name":"West Virginia","lat":37.72637,"lng":-81.10494,"zip":"25832","miles_from_dt":28.06},{"city":"Artie","state_name":"West Virginia","lat":37.95044,"lng":-81.35766,"zip":"25008","miles_from_dt":28.08},{"city":"Hansford","state_name":"West Virginia","lat":38.18207,"lng":-81.38225,"zip":"25103","miles_from_dt":28.4},{"city":"Raleigh","state_name":"West Virginia","lat":37.75232,"lng":-81.17848,"zip":"25911","miles_from_dt":28.61},{"city":"Renick","state_name":"West Virginia","lat":38.03345,"lng":-80.35283,"zip":"24966","miles_from_dt":28.7},{"city":"Mammoth","state_name":"West Virginia","lat":38.29328,"lng":-81.33441,"zip":"25132","miles_from_dt":28.71},{"city":"Mabscott","state_name":"West Virginia","lat":37.76917,"lng":-81.21165,"zip":"25871","miles_from_dt":28.79},{"city":"Cedar Grove","state_name":"West Virginia","lat":38.24642,"lng":-81.36524,"zip":"25039","miles_from_dt":28.83},{"city":"Cowen","state_name":"West Virginia","lat":38.36992,"lng":-80.47848,"zip":"26206","miles_from_dt":28.92},{"city":"Pratt","state_name":"West Virginia","lat":38.20712,"lng":-81.38435,"zip":"25162","miles_from_dt":28.94},{"city":"Harper","state_name":"West Virginia","lat":37.80177,"lng":-81.26154,"zip":"25851","miles_from_dt":29.02},{"city":"Maxwelton","state_name":"West Virginia","lat":37.88729,"lng":-80.40827,"zip":"24957","miles_from_dt":29.02},{"city":"Frankford","state_name":"West Virginia","lat":37.92516,"lng":-80.38083,"zip":"24938","miles_from_dt":29.22},{"city":"MacArthur","state_name":"West Virginia","lat":37.75136,"lng":-81.21515,"zip":"25873","miles_from_dt":29.87},{"city":"White Oak","state_name":"West Virginia","lat":37.67864,"lng":-81.04594,"zip":"25989","miles_from_dt":29.88},{"city":"Hinton","state_name":"West Virginia","lat":37.65535,"lng":-80.87197,"zip":"25951","miles_from_dt":29.97},{"city":"Maysel","state_name":"West Virginia","lat":38.47976,"lng":-81.11831,"zip":"25133","miles_from_dt":29.99}],"targetCityZipCode":"26680","targetCityState":"West Virginia"},"__N_SSG":true}