{"pageProps":{"stateName":"West-virginia","cityName":"philippi","nearbyCities":[{"city":"Galloway","state_name":"West Virginia","lat":39.22757,"lng":-80.11098,"zip":"26349","miles_from_dt":6.49},{"city":"Simpson","state_name":"West Virginia","lat":39.26743,"lng":-80.08875,"zip":"26435","miles_from_dt":8},{"city":"Volga","state_name":"West Virginia","lat":39.10178,"lng":-80.1584,"zip":"26238","miles_from_dt":8.45},{"city":"Moatsville","state_name":"West Virginia","lat":39.23093,"lng":-79.89076,"zip":"26405","miles_from_dt":8.46},{"city":"Flemington","state_name":"West Virginia","lat":39.26371,"lng":-80.1261,"zip":"26347","miles_from_dt":8.87},{"city":"Belington","state_name":"West Virginia","lat":39.02757,"lng":-79.96198,"zip":"26250","miles_from_dt":9.92},{"city":"Rosemont","state_name":"West Virginia","lat":39.28117,"lng":-80.17272,"zip":"26424","miles_from_dt":11.44},{"city":"Grafton","state_name":"West Virginia","lat":39.34847,"lng":-80.02866,"zip":"26354","miles_from_dt":12.77},{"city":"Montrose","state_name":"West Virginia","lat":39.06436,"lng":-79.82088,"zip":"26283","miles_from_dt":12.81},{"city":"Thornton","state_name":"West Virginia","lat":39.32947,"lng":-79.90625,"zip":"26440","miles_from_dt":13.04},{"city":"Junior","state_name":"West Virginia","lat":38.98313,"lng":-79.94583,"zip":"26275","miles_from_dt":13.11},{"city":"Bridgeport","state_name":"West Virginia","lat":39.28837,"lng":-80.22109,"zip":"26330","miles_from_dt":13.7},{"city":"Mount Clare","state_name":"West Virginia","lat":39.20313,"lng":-80.28973,"zip":"26408","miles_from_dt":14.61},{"city":"Buckhannon","state_name":"West Virginia","lat":39.00082,"lng":-80.20249,"zip":"26201","miles_from_dt":14.82},{"city":"Anmoore","state_name":"West Virginia","lat":39.2623,"lng":-80.29057,"zip":"26323","miles_from_dt":15.92},{"city":"Coalton","state_name":"West Virginia","lat":38.9226,"lng":-80.01239,"zip":"26257","miles_from_dt":16.63},{"city":"Ellamore","state_name":"West Virginia","lat":38.92557,"lng":-80.08069,"zip":"26267","miles_from_dt":16.71},{"city":"Kerens","state_name":"West Virginia","lat":39.03201,"lng":-79.75659,"zip":"26276","miles_from_dt":16.93},{"city":"Clarksburg","state_name":"West Virginia","lat":39.26636,"lng":-80.30966,"zip":"26302","miles_from_dt":16.97},{"city":"Lost Creek","state_name":"West Virginia","lat":39.15895,"lng":-80.3517,"zip":"26385","miles_from_dt":17.69},{"city":"Parsons","state_name":"West Virginia","lat":39.16657,"lng":-79.69057,"zip":"26287","miles_from_dt":17.82},{"city":"Norton","state_name":"West Virginia","lat":38.9102,"lng":-79.94945,"zip":"26285","miles_from_dt":17.91},{"city":"Lorentz","state_name":"West Virginia","lat":39.00934,"lng":-80.30156,"zip":"26229","miles_from_dt":18.39},{"city":"Clarksburg","state_name":"West Virginia","lat":39.28189,"lng":-80.333,"zip":"26306","miles_from_dt":18.56},{"city":"Colfax","state_name":"West Virginia","lat":39.43521,"lng":-80.12954,"zip":"26566","miles_from_dt":19.6},{"city":"Newburg","state_name":"West Virginia","lat":39.4032,"lng":-79.82389,"zip":"26410","miles_from_dt":19.67},{"city":"Tunnelton","state_name":"West Virginia","lat":39.36861,"lng":-79.7626,"zip":"26444","miles_from_dt":19.86},{"city":"Meadowbrook","state_name":"West Virginia","lat":39.34636,"lng":-80.30996,"zip":"26404","miles_from_dt":19.92},{"city":"Spelter","state_name":"West Virginia","lat":39.34315,"lng":-80.31631,"zip":"26438","miles_from_dt":20.05},{"city":"Hepzibah","state_name":"West Virginia","lat":39.33527,"lng":-80.33117,"zip":"26369","miles_from_dt":20.36},{"city":"West Milford","state_name":"West Virginia","lat":39.20439,"lng":-80.40352,"zip":"26451","miles_from_dt":20.65},{"city":"Rowlesburg","state_name":"West Virginia","lat":39.3116,"lng":-79.68651,"zip":"26425","miles_from_dt":20.72},{"city":"Clarksburg","state_name":"West Virginia","lat":39.28629,"lng":-80.37735,"zip":"26301","miles_from_dt":20.84},{"city":"Shinnston","state_name":"West Virginia","lat":39.39144,"lng":-80.28085,"zip":"26431","miles_from_dt":20.96},{"city":"Independence","state_name":"West Virginia","lat":39.44755,"lng":-79.88101,"zip":"26374","miles_from_dt":21.01},{"city":"Elkins","state_name":"West Virginia","lat":38.9163,"lng":-79.79229,"zip":"26241","miles_from_dt":21.07},{"city":"Gypsy","state_name":"West Virginia","lat":39.36507,"lng":-80.31776,"zip":"26361","miles_from_dt":21.08},{"city":"Fairmont","state_name":"West Virginia","lat":39.46475,"lng":-80.11461,"zip":"26554","miles_from_dt":21.36},{"city":"Kingmont","state_name":"West Virginia","lat":39.44888,"lng":-80.179,"zip":"26578","miles_from_dt":21.4},{"city":"Hambleton","state_name":"West Virginia","lat":39.11612,"lng":-79.61617,"zip":"26269","miles_from_dt":22.07},{"city":"Fairmont","state_name":"West Virginia","lat":39.47026,"lng":-80.15026,"zip":"26555","miles_from_dt":22.24},{"city":"Haywood","state_name":"West Virginia","lat":39.38266,"lng":-80.33474,"zip":"26366","miles_from_dt":22.56},{"city":"Adrian","state_name":"West Virginia","lat":38.90315,"lng":-80.27812,"zip":"26210","miles_from_dt":22.62},{"city":"Enterprise","state_name":"West Virginia","lat":39.42542,"lng":-80.27729,"zip":"26568","miles_from_dt":22.65},{"city":"Tallmansville","state_name":"West Virginia","lat":38.84769,"lng":-80.15145,"zip":"26237","miles_from_dt":22.86},{"city":"Jane Lew","state_name":"West Virginia","lat":39.12264,"lng":-80.44772,"zip":"26378","miles_from_dt":23.02},{"city":"Mabie","state_name":"West Virginia","lat":38.82572,"lng":-80.02547,"zip":"26278","miles_from_dt":23.3},{"city":"Horner","state_name":"West Virginia","lat":38.95859,"lng":-80.37155,"zip":"26372","miles_from_dt":23.5},{"city":"Reynoldsville","state_name":"West Virginia","lat":39.29797,"lng":-80.43323,"zip":"26422","miles_from_dt":23.91},{"city":"Dailey","state_name":"West Virginia","lat":38.82536,"lng":-79.91528,"zip":"26259","miles_from_dt":24.03},{"city":"Worthington","state_name":"West Virginia","lat":39.45499,"lng":-80.2903,"zip":"26591","miles_from_dt":24.71},{"city":"Wyatt","state_name":"West Virginia","lat":39.43174,"lng":-80.35007,"zip":"26463","miles_from_dt":25.51},{"city":"Montana Mines","state_name":"West Virginia","lat":39.52786,"lng":-80.10952,"zip":"26586","miles_from_dt":25.57},{"city":"Arthurdale","state_name":"West Virginia","lat":39.50105,"lng":-79.82393,"zip":"26520","miles_from_dt":25.6},{"city":"French Creek","state_name":"West Virginia","lat":38.84506,"lng":-80.26798,"zip":"26218","miles_from_dt":25.63},{"city":"Carolina","state_name":"West Virginia","lat":39.48085,"lng":-80.27369,"zip":"26563","miles_from_dt":25.7},{"city":"Frenchton","state_name":"West Virginia","lat":38.83805,"lng":-80.25934,"zip":"26219","miles_from_dt":25.82},{"city":"Idamay","state_name":"West Virginia","lat":39.49307,"lng":-80.25644,"zip":"26576","miles_from_dt":25.96},{"city":"Lumberport","state_name":"West Virginia","lat":39.39878,"lng":-80.40263,"zip":"26386","miles_from_dt":26.06},{"city":"Barrackville","state_name":"West Virginia","lat":39.52141,"lng":-80.18015,"zip":"26559","miles_from_dt":26.1},{"city":"Beverly","state_name":"West Virginia","lat":38.80772,"lng":-79.85654,"zip":"26253","miles_from_dt":26.12},{"city":"Bowden","state_name":"West Virginia","lat":38.91261,"lng":-79.65341,"zip":"26254","miles_from_dt":26.34},{"city":"Hendricks","state_name":"West Virginia","lat":39.049,"lng":-79.55194,"zip":"26271","miles_from_dt":26.49},{"city":"Thomas","state_name":"West Virginia","lat":39.15247,"lng":-79.52916,"zip":"26292","miles_from_dt":26.5},{"city":"Valley Bend","state_name":"West Virginia","lat":38.7824,"lng":-79.9365,"zip":"26293","miles_from_dt":26.69},{"city":"Reedsville","state_name":"West Virginia","lat":39.5133,"lng":-79.80757,"zip":"26547","miles_from_dt":26.74},{"city":"Baxter","state_name":"West Virginia","lat":39.54088,"lng":-80.14362,"zip":"26560","miles_from_dt":26.83},{"city":"Aurora","state_name":"West Virginia","lat":39.32388,"lng":-79.56663,"zip":"26705","miles_from_dt":26.84},{"city":"Four States","state_name":"West Virginia","lat":39.4871,"lng":-80.31973,"zip":"26572","miles_from_dt":27.42},{"city":"Farmington","state_name":"West Virginia","lat":39.51945,"lng":-80.26013,"zip":"26571","miles_from_dt":27.66},{"city":"Kingwood","state_name":"West Virginia","lat":39.4846,"lng":-79.71189,"zip":"26537","miles_from_dt":27.71},{"city":"Weston","state_name":"West Virginia","lat":39.03286,"lng":-80.51315,"zip":"26452","miles_from_dt":27.87},{"city":"Eglon","state_name":"West Virginia","lat":39.2641,"lng":-79.51892,"zip":"26716","miles_from_dt":27.9},{"city":"Rachel","state_name":"West Virginia","lat":39.51606,"lng":-80.29751,"zip":"26587","miles_from_dt":28.44},{"city":"Bretz","state_name":"West Virginia","lat":39.54075,"lng":-79.80716,"zip":"26524","miles_from_dt":28.47},{"city":"Grant Town","state_name":"West Virginia","lat":39.55926,"lng":-80.17741,"zip":"26574","miles_from_dt":28.54},{"city":"Rivesville","state_name":"West Virginia","lat":39.5738,"lng":-80.15339,"zip":"26588","miles_from_dt":29.16},{"city":"Red Creek","state_name":"West Virginia","lat":38.98972,"lng":-79.51268,"zip":"26289","miles_from_dt":29.92}],"targetCityZipCode":"26416","targetCityState":"West Virginia"},"__N_SSG":true}