{"pageProps":{"stateName":"West-virginia","cityName":"ripley","nearbyCities":[{"city":"Evans","state_name":"West Virginia","lat":38.78427,"lng":-81.80801,"zip":"25241","miles_from_dt":6.58},{"city":"Given","state_name":"West Virginia","lat":38.69916,"lng":-81.7393,"zip":"25245","miles_from_dt":6.79},{"city":"Gay","state_name":"West Virginia","lat":38.77068,"lng":-81.54237,"zip":"25244","miles_from_dt":7.86},{"city":"Cottageville","state_name":"West Virginia","lat":38.84616,"lng":-81.83941,"zip":"25239","miles_from_dt":9.17},{"city":"Sandyville","state_name":"West Virginia","lat":38.92451,"lng":-81.61687,"zip":"25275","miles_from_dt":10.1},{"city":"Le Roy","state_name":"West Virginia","lat":38.88345,"lng":-81.53679,"zip":"25252","miles_from_dt":10.39},{"city":"Kenna","state_name":"West Virginia","lat":38.64255,"lng":-81.61454,"zip":"25248","miles_from_dt":10.78},{"city":"Millwood","state_name":"West Virginia","lat":38.90751,"lng":-81.83219,"zip":"25262","miles_from_dt":11.38},{"city":"Mount Alto","state_name":"West Virginia","lat":38.85547,"lng":-81.89516,"zip":"25264","miles_from_dt":12.18},{"city":"Leon","state_name":"West Virginia","lat":38.73172,"lng":-81.90214,"zip":"25123","miles_from_dt":12.3},{"city":"Liberty","state_name":"West Virginia","lat":38.62006,"lng":-81.76536,"zip":"25124","miles_from_dt":12.38},{"city":"Gandeeville","state_name":"West Virginia","lat":38.67841,"lng":-81.48216,"zip":"25243","miles_from_dt":13.39},{"city":"Advent","state_name":"West Virginia","lat":38.60464,"lng":-81.591,"zip":"25231","miles_from_dt":13.68},{"city":"Ravenswood","state_name":"West Virginia","lat":38.99061,"lng":-81.71949,"zip":"26164","miles_from_dt":14.06},{"city":"Portland","state_name":"Ohio","lat":38.98586,"lng":-81.80238,"zip":"45770","miles_from_dt":14.99},{"city":"Reedy","state_name":"West Virginia","lat":38.88174,"lng":-81.43395,"zip":"25270","miles_from_dt":15.06},{"city":"Charleston","state_name":"West Virginia","lat":38.54124,"lng":-81.62706,"zip":"25320","miles_from_dt":17.35},{"city":"Racine","state_name":"Ohio","lat":38.98204,"lng":-81.89902,"zip":"45771","miles_from_dt":17.6},{"city":"Letart","state_name":"West Virginia","lat":38.91947,"lng":-81.9669,"zip":"25253","miles_from_dt":17.63},{"city":"Buffalo","state_name":"West Virginia","lat":38.61095,"lng":-81.92511,"zip":"25033","miles_from_dt":17.79},{"city":"Southside","state_name":"West Virginia","lat":38.72617,"lng":-82.01878,"zip":"25187","miles_from_dt":18.47},{"city":"Red House","state_name":"West Virginia","lat":38.56394,"lng":-81.87733,"zip":"25168","miles_from_dt":18.62},{"city":"Spencer","state_name":"West Virginia","lat":38.78803,"lng":-81.33203,"zip":"25276","miles_from_dt":19.12},{"city":"Walton","state_name":"West Virginia","lat":38.62098,"lng":-81.39728,"zip":"25286","miles_from_dt":19.43},{"city":"Palestine","state_name":"West Virginia","lat":38.98066,"lng":-81.41368,"zip":"26160","miles_from_dt":19.79},{"city":"Hometown","state_name":"West Virginia","lat":38.53097,"lng":-81.86062,"zip":"25109","miles_from_dt":20.11},{"city":"Poca","state_name":"West Virginia","lat":38.50186,"lng":-81.7806,"zip":"25159","miles_from_dt":20.42},{"city":"New Haven","state_name":"West Virginia","lat":38.98129,"lng":-81.97356,"zip":"25265","miles_from_dt":20.42},{"city":"Rockport","state_name":"West Virginia","lat":39.07291,"lng":-81.57121,"zip":"26169","miles_from_dt":20.58},{"city":"Bancroft","state_name":"West Virginia","lat":38.51169,"lng":-81.8363,"zip":"25011","miles_from_dt":20.74},{"city":"Syracuse","state_name":"Ohio","lat":38.99884,"lng":-81.97082,"zip":"45779","miles_from_dt":21.12},{"city":"Eleanor","state_name":"West Virginia","lat":38.54667,"lng":-81.93179,"zip":"25070","miles_from_dt":21.32},{"city":"Henderson","state_name":"West Virginia","lat":38.77598,"lng":-82.08237,"zip":"25106","miles_from_dt":21.4},{"city":"Point Pleasant","state_name":"West Virginia","lat":38.86655,"lng":-82.0749,"zip":"25550","miles_from_dt":21.65},{"city":"Long Bottom","state_name":"Ohio","lat":39.076,"lng":-81.85017,"zip":"45743","miles_from_dt":21.71},{"city":"Hartford","state_name":"West Virginia","lat":39.001,"lng":-81.98987,"zip":"25247","miles_from_dt":21.97},{"city":"Fraziers Bottom","state_name":"West Virginia","lat":38.60861,"lng":-82.02879,"zip":"25082","miles_from_dt":22.29},{"city":"Charleston","state_name":"West Virginia","lat":38.46156,"lng":-81.656,"zip":"25312","miles_from_dt":22.61},{"city":"Belleville","state_name":"West Virginia","lat":39.11973,"lng":-81.66968,"zip":"26133","miles_from_dt":22.87},{"city":"West Columbia","state_name":"West Virginia","lat":38.96158,"lng":-82.04834,"zip":"25287","miles_from_dt":22.89},{"city":"Winfield","state_name":"West Virginia","lat":38.50776,"lng":-81.91796,"zip":"25213","miles_from_dt":23.06},{"city":"Charleston","state_name":"West Virginia","lat":38.45324,"lng":-81.66948,"zip":"25360","miles_from_dt":23.14},{"city":"Charleston","state_name":"West Virginia","lat":38.44681,"lng":-81.75401,"zip":"25356","miles_from_dt":23.85},{"city":"Mason","state_name":"West Virginia","lat":39.01653,"lng":-82.02465,"zip":"25260","miles_from_dt":24.09},{"city":"Apple Grove","state_name":"West Virginia","lat":38.66501,"lng":-82.11024,"zip":"25502","miles_from_dt":24.44},{"city":"Elkview","state_name":"West Virginia","lat":38.47732,"lng":-81.46756,"zip":"25071","miles_from_dt":24.51},{"city":"Chester","state_name":"Ohio","lat":39.09404,"lng":-81.92312,"zip":"45720","miles_from_dt":24.64},{"city":"Creston","state_name":"West Virginia","lat":38.92925,"lng":-81.26059,"zip":"26141","miles_from_dt":24.93},{"city":"Looneyville","state_name":"West Virginia","lat":38.67465,"lng":-81.24836,"zip":"25259","miles_from_dt":24.93},{"city":"Gallipolis Ferry","state_name":"West Virginia","lat":38.75731,"lng":-82.15262,"zip":"25515","miles_from_dt":25.27},{"city":"Elizabeth","state_name":"West Virginia","lat":39.06338,"lng":-81.3764,"zip":"26143","miles_from_dt":25.27},{"city":"Charleston","state_name":"West Virginia","lat":38.42168,"lng":-81.68972,"zip":"25357","miles_from_dt":25.3},{"city":"Reedsville","state_name":"Ohio","lat":39.1408,"lng":-81.82268,"zip":"45772","miles_from_dt":25.39},{"city":"Charleston","state_name":"West Virginia","lat":38.41547,"lng":-81.75704,"zip":"25313","miles_from_dt":26.01},{"city":"Scott Depot","state_name":"West Virginia","lat":38.44736,"lng":-81.89908,"zip":"25560","miles_from_dt":26.2},{"city":"Ashton","state_name":"West Virginia","lat":38.60835,"lng":-82.11666,"zip":"25503","miles_from_dt":26.37},{"city":"Nitro","state_name":"West Virginia","lat":38.42001,"lng":-81.82414,"zip":"25143","miles_from_dt":26.49},{"city":"Amma","state_name":"West Virginia","lat":38.58201,"lng":-81.26982,"zip":"25005","miles_from_dt":26.64},{"city":"Mineral Wells","state_name":"West Virginia","lat":39.1566,"lng":-81.53697,"zip":"26150","miles_from_dt":26.64},{"city":"Falling Rock","state_name":"West Virginia","lat":38.47512,"lng":-81.38895,"zip":"25079","miles_from_dt":26.94},{"city":"Blue Creek","state_name":"West Virginia","lat":38.43937,"lng":-81.46029,"zip":"25026","miles_from_dt":27.01},{"city":"Cheshire","state_name":"Ohio","lat":38.95564,"lng":-82.14052,"zip":"45620","miles_from_dt":27.08},{"city":"Left Hand","state_name":"West Virginia","lat":38.62119,"lng":-81.23173,"zip":"25251","miles_from_dt":27.14},{"city":"Charleston","state_name":"West Virginia","lat":38.39695,"lng":-81.58675,"zip":"25362","miles_from_dt":27.54},{"city":"Charleston","state_name":"West Virginia","lat":38.38523,"lng":-81.6642,"zip":"25387","miles_from_dt":27.84},{"city":"Charleston","state_name":"West Virginia","lat":38.39053,"lng":-81.59879,"zip":"25302","miles_from_dt":27.85},{"city":"Teays","state_name":"West Virginia","lat":38.44254,"lng":-81.95203,"zip":"25569","miles_from_dt":27.86},{"city":"Tuppers Plains","state_name":"Ohio","lat":39.17505,"lng":-81.83929,"zip":"45783","miles_from_dt":27.91},{"city":"Hockingport","state_name":"Ohio","lat":39.19055,"lng":-81.7462,"zip":"45739","miles_from_dt":27.92},{"city":"Middleport","state_name":"Ohio","lat":39.01395,"lng":-82.12244,"zip":"45760","miles_from_dt":28.19},{"city":"Pinch","state_name":"West Virginia","lat":38.41181,"lng":-81.48217,"zip":"25156","miles_from_dt":28.23},{"city":"Mineral Wells","state_name":"West Virginia","lat":39.16866,"lng":-81.49021,"zip":"26120","miles_from_dt":28.27},{"city":"Mineral Wells","state_name":"West Virginia","lat":39.17214,"lng":-81.49489,"zip":"26121","miles_from_dt":28.4},{"city":"Institute","state_name":"West Virginia","lat":38.38103,"lng":-81.76633,"zip":"25112","miles_from_dt":28.44},{"city":"Mount Zion","state_name":"West Virginia","lat":38.89493,"lng":-81.17503,"zip":"26151","miles_from_dt":28.54},{"city":"Dunbar","state_name":"West Virginia","lat":38.37631,"lng":-81.74764,"zip":"25064","miles_from_dt":28.62},{"city":"Washington","state_name":"West Virginia","lat":39.20707,"lng":-81.6733,"zip":"26181","miles_from_dt":28.89},{"city":"Charleston","state_name":"West Virginia","lat":38.36828,"lng":-81.67332,"zip":"25389","miles_from_dt":28.99},{"city":"Pomeroy","state_name":"Ohio","lat":39.1062,"lng":-82.04578,"zip":"45769","miles_from_dt":29.25},{"city":"South Charleston","state_name":"West Virginia","lat":38.36033,"lng":-81.68679,"zip":"25303","miles_from_dt":29.53},{"city":"Munday","state_name":"West Virginia","lat":38.98355,"lng":-81.19308,"zip":"26152","miles_from_dt":29.8}],"targetCityZipCode":"25271","targetCityState":"West Virginia"},"__N_SSG":true}