{"pageProps":{"stateName":"Michigan","cityName":"cement-city","nearbyCities":[{"city":"Somerset","state_name":"Michigan","lat":42.05193,"lng":-84.38291,"zip":"49281","miles_from_dt":1.26},{"city":"Somerset Center","state_name":"Michigan","lat":42.03496,"lng":-84.40518,"zip":"49282","miles_from_dt":2.89},{"city":"Clarklake","state_name":"Michigan","lat":42.12114,"lng":-84.3673,"zip":"49234","miles_from_dt":3.92},{"city":"Addison","state_name":"Michigan","lat":41.99511,"lng":-84.34108,"zip":"49220","miles_from_dt":4.94},{"city":"Jerome","state_name":"Michigan","lat":42.02275,"lng":-84.45575,"zip":"49249","miles_from_dt":5.48},{"city":"Moscow","state_name":"Michigan","lat":42.05108,"lng":-84.50897,"zip":"49257","miles_from_dt":7.46},{"city":"Brooklyn","state_name":"Michigan","lat":42.09701,"lng":-84.22266,"zip":"49230","miles_from_dt":7.66},{"city":"Horton","state_name":"Michigan","lat":42.12268,"lng":-84.50366,"zip":"49246","miles_from_dt":8.18},{"city":"Manitou Beach","state_name":"Michigan","lat":41.96443,"lng":-84.2697,"zip":"49253","miles_from_dt":8.47},{"city":"North Adams","state_name":"Michigan","lat":41.96162,"lng":-84.4673,"zip":"49262","miles_from_dt":8.83},{"city":"Napoleon","state_name":"Michigan","lat":42.16174,"lng":-84.2472,"zip":"49261","miles_from_dt":9.05},{"city":"Onsted","state_name":"Michigan","lat":42.01022,"lng":-84.17432,"zip":"49265","miles_from_dt":10.5},{"city":"Jackson","state_name":"Michigan","lat":42.22096,"lng":-84.40347,"zip":"49203","miles_from_dt":10.98},{"city":"Norvell","state_name":"Michigan","lat":42.15817,"lng":-84.18225,"zip":"49263","miles_from_dt":11.41},{"city":"Michigan Center","state_name":"Michigan","lat":42.2268,"lng":-84.32165,"zip":"49254","miles_from_dt":11.43},{"city":"Hanover","state_name":"Michigan","lat":42.10121,"lng":-84.60149,"zip":"49241","miles_from_dt":12.42},{"city":"Jackson","state_name":"Michigan","lat":42.25213,"lng":-84.38301,"zip":"49201","miles_from_dt":12.99},{"city":"Jonesville","state_name":"Michigan","lat":42.01875,"lng":-84.62168,"zip":"49250","miles_from_dt":13.57},{"city":"Spring Arbor","state_name":"Michigan","lat":42.20486,"lng":-84.55478,"zip":"49283","miles_from_dt":13.74},{"city":"Jackson","state_name":"Michigan","lat":42.26737,"lng":-84.4107,"zip":"49202","miles_from_dt":14.2},{"city":"Tipton","state_name":"Michigan","lat":42.02177,"lng":-84.08263,"zip":"49287","miles_from_dt":14.83},{"city":"Hudson","state_name":"Michigan","lat":41.84712,"lng":-84.34189,"zip":"49247","miles_from_dt":15.04},{"city":"Mosherville","state_name":"Michigan","lat":42.06,"lng":-84.65833,"zip":"49258","miles_from_dt":15.08},{"city":"Clayton","state_name":"Michigan","lat":41.86348,"lng":-84.21348,"zip":"49235","miles_from_dt":15.92},{"city":"Pittsford","state_name":"Michigan","lat":41.83813,"lng":-84.45382,"zip":"49271","miles_from_dt":16.27},{"city":"Concord","state_name":"Michigan","lat":42.1731,"lng":-84.64906,"zip":"49237","miles_from_dt":16.41},{"city":"Grass Lake","state_name":"Michigan","lat":42.27821,"lng":-84.18027,"zip":"49240","miles_from_dt":17.55},{"city":"Hillsdale","state_name":"Michigan","lat":41.88434,"lng":-84.61581,"zip":"49242","miles_from_dt":17.92},{"city":"Osseo","state_name":"Michigan","lat":41.84247,"lng":-84.54641,"zip":"49266","miles_from_dt":17.94},{"city":"Manchester","state_name":"Michigan","lat":42.15564,"lng":-84.03031,"zip":"48158","miles_from_dt":18.32},{"city":"Adrian","state_name":"Michigan","lat":41.90343,"lng":-84.06372,"zip":"49221","miles_from_dt":19.09},{"city":"Parma","state_name":"Michigan","lat":42.29307,"lng":-84.586,"zip":"49269","miles_from_dt":19.43},{"city":"Jackson","state_name":"Michigan","lat":42.33007,"lng":-84.51521,"zip":"49204","miles_from_dt":19.89},{"city":"Litchfield","state_name":"Michigan","lat":42.03853,"lng":-84.76683,"zip":"49252","miles_from_dt":20.74},{"city":"Clinton","state_name":"Michigan","lat":42.07792,"lng":-83.95035,"zip":"49236","miles_from_dt":21.35},{"city":"Allen","state_name":"Michigan","lat":41.9498,"lng":-84.77036,"zip":"49227","miles_from_dt":22.31},{"city":"Tecumseh","state_name":"Michigan","lat":42.01443,"lng":-83.93447,"zip":"49286","miles_from_dt":22.42},{"city":"Munith","state_name":"Michigan","lat":42.38099,"lng":-84.25763,"zip":"49259","miles_from_dt":22.54},{"city":"Pleasant Lake","state_name":"Michigan","lat":42.39299,"lng":-84.34974,"zip":"49272","miles_from_dt":22.69},{"city":"Frontier","state_name":"Michigan","lat":41.79389,"lng":-84.62312,"zip":"49239","miles_from_dt":22.92},{"city":"Morenci","state_name":"Michigan","lat":41.74989,"lng":-84.22122,"zip":"49256","miles_from_dt":22.94},{"city":"Waldron","state_name":"Michigan","lat":41.73534,"lng":-84.43211,"zip":"49288","miles_from_dt":22.97},{"city":"Rives Junction","state_name":"Michigan","lat":42.38871,"lng":-84.46679,"zip":"49277","miles_from_dt":22.98},{"city":"Bridgewater","state_name":"Michigan","lat":42.16051,"lng":-83.92133,"zip":"48115","miles_from_dt":23.75},{"city":"Sand Creek","state_name":"Michigan","lat":41.77965,"lng":-84.10409,"zip":"49279","miles_from_dt":23.82},{"city":"Homer","state_name":"Michigan","lat":42.14085,"lng":-84.81797,"zip":"49245","miles_from_dt":23.87},{"city":"Chelsea","state_name":"Michigan","lat":42.31151,"lng":-84.03835,"zip":"48118","miles_from_dt":23.92},{"city":"Weston","state_name":"Michigan","lat":41.77144,"lng":-84.10702,"zip":"49289","miles_from_dt":24.2},{"city":"Albion","state_name":"Michigan","lat":42.27982,"lng":-84.74852,"zip":"49224","miles_from_dt":24.67},{"city":"Reading","state_name":"Michigan","lat":41.83689,"lng":-84.76419,"zip":"49274","miles_from_dt":25.87},{"city":"Palmyra","state_name":"Michigan","lat":41.87156,"lng":-83.92565,"zip":"49268","miles_from_dt":26.26},{"city":"Camden","state_name":"Michigan","lat":41.74049,"lng":-84.66858,"zip":"49232","miles_from_dt":27.29},{"city":"Quincy","state_name":"Michigan","lat":41.94257,"lng":-84.876,"zip":"49082","miles_from_dt":27.61},{"city":"Alvordton","state_name":"Ohio","lat":41.66966,"lng":-84.46095,"zip":"43501","miles_from_dt":27.69},{"city":"Onondaga","state_name":"Michigan","lat":42.44118,"lng":-84.55122,"zip":"49264","miles_from_dt":27.7},{"city":"Springport","state_name":"Michigan","lat":42.38507,"lng":-84.69128,"zip":"49284","miles_from_dt":27.75},{"city":"Leslie","state_name":"Michigan","lat":42.46561,"lng":-84.40916,"zip":"49251","miles_from_dt":27.78},{"city":"Fayette","state_name":"Ohio","lat":41.66377,"lng":-84.29717,"zip":"43521","miles_from_dt":27.87},{"city":"Jasper","state_name":"Michigan","lat":41.75651,"lng":-84.01137,"zip":"49248","miles_from_dt":28},{"city":"Britton","state_name":"Michigan","lat":41.99005,"lng":-83.82655,"zip":"49229","miles_from_dt":28.19},{"city":"Saline","state_name":"Michigan","lat":42.15067,"lng":-83.81477,"zip":"48176","miles_from_dt":28.9},{"city":"Stockbridge","state_name":"Michigan","lat":42.46855,"lng":-84.20752,"zip":"49285","miles_from_dt":29.04},{"city":"Lyons","state_name":"Ohio","lat":41.69335,"lng":-84.07997,"zip":"43533","miles_from_dt":29.53},{"city":"Pioneer","state_name":"Ohio","lat":41.66024,"lng":-84.56239,"zip":"43554","miles_from_dt":29.69},{"city":"Ann Arbor","state_name":"Michigan","lat":42.2581,"lng":-83.84333,"zip":"48103","miles_from_dt":29.94}],"targetCityZipCode":"49233","targetCityState":"Michigan"},"__N_SSG":true}