{"pageProps":{"stateName":"Michigan","cityName":"cheboygan","nearbyCities":[{"city":"Mullett Lake","state_name":"Michigan","lat":45.56083,"lng":-84.52385,"zip":"49761","miles_from_dt":3.33},{"city":"Topinabee","state_name":"Michigan","lat":45.48093,"lng":-84.59945,"zip":"49791","miles_from_dt":9.33},{"city":"Indian River","state_name":"Michigan","lat":45.41634,"lng":-84.57891,"zip":"49749","miles_from_dt":12.26},{"city":"Pointe Aux Pins","state_name":"Michigan","lat":45.76941,"lng":-84.46333,"zip":"49775","miles_from_dt":13.65},{"city":"Brutus","state_name":"Michigan","lat":45.50975,"lng":-84.75104,"zip":"49716","miles_from_dt":14.89},{"city":"Burt Lake","state_name":"Michigan","lat":45.43671,"lng":-84.69796,"zip":"49717","miles_from_dt":14.96},{"city":"Afton","state_name":"Michigan","lat":45.34826,"lng":-84.45824,"zip":"49705","miles_from_dt":15.44},{"city":"Tower","state_name":"Michigan","lat":45.36698,"lng":-84.30616,"zip":"49792","miles_from_dt":15.93},{"city":"Levering","state_name":"Michigan","lat":45.63886,"lng":-84.80524,"zip":"49755","miles_from_dt":17.5},{"city":"Alanson","state_name":"Michigan","lat":45.44129,"lng":-84.77915,"zip":"49706","miles_from_dt":18.05},{"city":"Mackinaw City","state_name":"Michigan","lat":45.75195,"lng":-84.7426,"zip":"49701","miles_from_dt":18.6},{"city":"Onaway","state_name":"Michigan","lat":45.33379,"lng":-84.25229,"zip":"49765","miles_from_dt":19.22},{"city":"Pellston","state_name":"Michigan","lat":45.56797,"lng":-84.85681,"zip":"49769","miles_from_dt":19.39},{"city":"Carp Lake","state_name":"Michigan","lat":45.71438,"lng":-84.81275,"zip":"49718","miles_from_dt":19.84},{"city":"Oden","state_name":"Michigan","lat":45.42356,"lng":-84.82824,"zip":"49764","miles_from_dt":20.73},{"city":"Millersburg","state_name":"Michigan","lat":45.40545,"lng":-84.10055,"zip":"49759","miles_from_dt":20.78},{"city":"Mackinac Island","state_name":"Michigan","lat":45.85933,"lng":-84.62533,"zip":"49757","miles_from_dt":21.46},{"city":"Wolverine","state_name":"Michigan","lat":45.26597,"lng":-84.58177,"zip":"49799","miles_from_dt":21.97},{"city":"Conway","state_name":"Michigan","lat":45.42135,"lng":-84.86459,"zip":"49722","miles_from_dt":22.35},{"city":"Petoskey","state_name":"Michigan","lat":45.34396,"lng":-84.88903,"zip":"49770","miles_from_dt":26.23},{"city":"Harbor Springs","state_name":"Michigan","lat":45.52303,"lng":-84.99887,"zip":"49740","miles_from_dt":26.5},{"city":"Cross Village","state_name":"Michigan","lat":45.62998,"lng":-85.02341,"zip":"49723","miles_from_dt":27.75},{"city":"Vanderbilt","state_name":"Michigan","lat":45.15835,"lng":-84.57563,"zip":"49795","miles_from_dt":29.13}],"targetCityZipCode":"49721","targetCityState":"Michigan"},"__N_SSG":true}