{"pageProps":{"stateName":"Michigan","cityName":"clayton","nearbyCities":[{"city":"Hudson","state_name":"Michigan","lat":41.84712,"lng":-84.34189,"zip":"49247","miles_from_dt":6.72},{"city":"Manitou Beach","state_name":"Michigan","lat":41.96443,"lng":-84.2697,"zip":"49253","miles_from_dt":7.55},{"city":"Morenci","state_name":"Michigan","lat":41.74989,"lng":-84.22122,"zip":"49256","miles_from_dt":7.85},{"city":"Sand Creek","state_name":"Michigan","lat":41.77965,"lng":-84.10409,"zip":"49279","miles_from_dt":8.08},{"city":"Adrian","state_name":"Michigan","lat":41.90343,"lng":-84.06372,"zip":"49221","miles_from_dt":8.2},{"city":"Weston","state_name":"Michigan","lat":41.77144,"lng":-84.10702,"zip":"49289","miles_from_dt":8.4},{"city":"Onsted","state_name":"Michigan","lat":42.01022,"lng":-84.17432,"zip":"49265","miles_from_dt":10.33},{"city":"Addison","state_name":"Michigan","lat":41.99511,"lng":-84.34108,"zip":"49220","miles_from_dt":11.22},{"city":"Pittsford","state_name":"Michigan","lat":41.83813,"lng":-84.45382,"zip":"49271","miles_from_dt":12.52},{"city":"Jasper","state_name":"Michigan","lat":41.75651,"lng":-84.01137,"zip":"49248","miles_from_dt":12.78},{"city":"Tipton","state_name":"Michigan","lat":42.02177,"lng":-84.08263,"zip":"49287","miles_from_dt":12.84},{"city":"Lyons","state_name":"Ohio","lat":41.69335,"lng":-84.07997,"zip":"43533","miles_from_dt":13.62},{"city":"Waldron","state_name":"Michigan","lat":41.73534,"lng":-84.43211,"zip":"49288","miles_from_dt":14.34},{"city":"Fayette","state_name":"Ohio","lat":41.66377,"lng":-84.29717,"zip":"43521","miles_from_dt":14.45},{"city":"North Adams","state_name":"Michigan","lat":41.96162,"lng":-84.4673,"zip":"49262","miles_from_dt":14.73},{"city":"Palmyra","state_name":"Michigan","lat":41.87156,"lng":-83.92565,"zip":"49268","miles_from_dt":14.86},{"city":"Somerset Center","state_name":"Michigan","lat":42.03496,"lng":-84.40518,"zip":"49282","miles_from_dt":15.41},{"city":"Somerset","state_name":"Michigan","lat":42.05193,"lng":-84.38291,"zip":"49281","miles_from_dt":15.66},{"city":"Cement City","state_name":"Michigan","lat":42.0644,"lng":-84.36512,"zip":"49233","miles_from_dt":15.92},{"city":"Brooklyn","state_name":"Michigan","lat":42.09701,"lng":-84.22266,"zip":"49230","miles_from_dt":16.12},{"city":"Jerome","state_name":"Michigan","lat":42.02275,"lng":-84.45575,"zip":"49249","miles_from_dt":16.63},{"city":"Osseo","state_name":"Michigan","lat":41.84247,"lng":-84.54641,"zip":"49266","miles_from_dt":17.24},{"city":"Blissfield","state_name":"Michigan","lat":41.8039,"lng":-83.88247,"zip":"49228","miles_from_dt":17.57},{"city":"Tecumseh","state_name":"Michigan","lat":42.01443,"lng":-83.93447,"zip":"49286","miles_from_dt":17.76},{"city":"Metamora","state_name":"Ohio","lat":41.69545,"lng":-83.943,"zip":"43540","miles_from_dt":18.16},{"city":"Alvordton","state_name":"Ohio","lat":41.66966,"lng":-84.46095,"zip":"43501","miles_from_dt":18.5},{"city":"Clarklake","state_name":"Michigan","lat":42.12114,"lng":-84.3673,"zip":"49234","miles_from_dt":19.47},{"city":"Moscow","state_name":"Michigan","lat":42.05108,"lng":-84.50897,"zip":"49257","miles_from_dt":19.98},{"city":"Clinton","state_name":"Michigan","lat":42.07792,"lng":-83.95035,"zip":"49236","miles_from_dt":20.07},{"city":"Wauseon","state_name":"Ohio","lat":41.57592,"lng":-84.15248,"zip":"43567","miles_from_dt":20.09},{"city":"Norvell","state_name":"Michigan","lat":42.15817,"lng":-84.18225,"zip":"49263","miles_from_dt":20.4},{"city":"Napoleon","state_name":"Michigan","lat":42.16174,"lng":-84.2472,"zip":"49261","miles_from_dt":20.66},{"city":"Hillsdale","state_name":"Michigan","lat":41.88434,"lng":-84.61581,"zip":"49242","miles_from_dt":20.8},{"city":"Kunkle","state_name":"Ohio","lat":41.63511,"lng":-84.4957,"zip":"43531","miles_from_dt":21.47},{"city":"Frontier","state_name":"Michigan","lat":41.79389,"lng":-84.62312,"zip":"49239","miles_from_dt":21.68},{"city":"Britton","state_name":"Michigan","lat":41.99005,"lng":-83.82655,"zip":"49229","miles_from_dt":21.77},{"city":"Delta","state_name":"Ohio","lat":41.58656,"lng":-84.00746,"zip":"43515","miles_from_dt":21.88},{"city":"Deerfield","state_name":"Michigan","lat":41.90593,"lng":-83.78809,"zip":"49238","miles_from_dt":22.13},{"city":"Manchester","state_name":"Michigan","lat":42.15564,"lng":-84.03031,"zip":"48158","miles_from_dt":22.26},{"city":"West Unity","state_name":"Ohio","lat":41.58616,"lng":-84.44116,"zip":"43570","miles_from_dt":22.47},{"city":"Berkey","state_name":"Ohio","lat":41.69736,"lng":-83.8369,"zip":"43504","miles_from_dt":22.58},{"city":"Riga","state_name":"Michigan","lat":41.79733,"lng":-83.7843,"zip":"49276","miles_from_dt":22.62},{"city":"Pioneer","state_name":"Ohio","lat":41.66024,"lng":-84.56239,"zip":"43554","miles_from_dt":22.84},{"city":"Pettisville","state_name":"Ohio","lat":41.53096,"lng":-84.22382,"zip":"43553","miles_from_dt":22.95},{"city":"Horton","state_name":"Michigan","lat":42.12268,"lng":-84.50366,"zip":"49246","miles_from_dt":23.31},{"city":"Archbold","state_name":"Ohio","lat":41.53181,"lng":-84.30201,"zip":"43502","miles_from_dt":23.34},{"city":"Jonesville","state_name":"Michigan","lat":42.01875,"lng":-84.62168,"zip":"49250","miles_from_dt":23.61},{"city":"Camden","state_name":"Michigan","lat":41.74049,"lng":-84.66858,"zip":"49232","miles_from_dt":24.99},{"city":"Bridgewater","state_name":"Michigan","lat":42.16051,"lng":-83.92133,"zip":"48115","miles_from_dt":25.42},{"city":"Swanton","state_name":"Ohio","lat":41.5935,"lng":-83.8781,"zip":"43558","miles_from_dt":25.45},{"city":"Michigan Center","state_name":"Michigan","lat":42.2268,"lng":-84.32165,"zip":"49254","miles_from_dt":25.69},{"city":"Hanover","state_name":"Michigan","lat":42.10121,"lng":-84.60149,"zip":"49241","miles_from_dt":25.85},{"city":"Ottawa Lake","state_name":"Michigan","lat":41.75979,"lng":-83.72341,"zip":"49267","miles_from_dt":26.3},{"city":"Jackson","state_name":"Michigan","lat":42.22096,"lng":-84.40347,"zip":"49203","miles_from_dt":26.54},{"city":"Mosherville","state_name":"Michigan","lat":42.06,"lng":-84.65833,"zip":"49258","miles_from_dt":26.63},{"city":"Sylvania","state_name":"Ohio","lat":41.70067,"lng":-83.73799,"zip":"43560","miles_from_dt":27.01},{"city":"Petersburg","state_name":"Michigan","lat":41.86864,"lng":-83.68206,"zip":"49270","miles_from_dt":27.42},{"city":"Stryker","state_name":"Ohio","lat":41.48354,"lng":-84.39693,"zip":"43557","miles_from_dt":27.89},{"city":"Montpelier","state_name":"Ohio","lat":41.60575,"lng":-84.6338,"zip":"43543","miles_from_dt":28.08},{"city":"Jackson","state_name":"Michigan","lat":42.25213,"lng":-84.38301,"zip":"49201","miles_from_dt":28.21},{"city":"Reading","state_name":"Michigan","lat":41.83689,"lng":-84.76419,"zip":"49274","miles_from_dt":28.48},{"city":"Saline","state_name":"Michigan","lat":42.15067,"lng":-83.81477,"zip":"48176","miles_from_dt":28.53},{"city":"Toledo","state_name":"Ohio","lat":41.66416,"lng":-83.72808,"zip":"43617","miles_from_dt":28.61},{"city":"Grass Lake","state_name":"Michigan","lat":42.27821,"lng":-84.18027,"zip":"49240","miles_from_dt":28.67},{"city":"Dundee","state_name":"Michigan","lat":41.96553,"lng":-83.67268,"zip":"48131","miles_from_dt":28.75},{"city":"Holland","state_name":"Ohio","lat":41.62908,"lng":-83.74923,"zip":"43528","miles_from_dt":28.94},{"city":"Allen","state_name":"Michigan","lat":41.9498,"lng":-84.77036,"zip":"49227","miles_from_dt":29.32},{"city":"Spring Arbor","state_name":"Michigan","lat":42.20486,"lng":-84.55478,"zip":"49283","miles_from_dt":29.39},{"city":"Ridgeville Corners","state_name":"Ohio","lat":41.43772,"lng":-84.25596,"zip":"43555","miles_from_dt":29.47},{"city":"Jackson","state_name":"Michigan","lat":42.26737,"lng":-84.4107,"zip":"49202","miles_from_dt":29.66},{"city":"Azalia","state_name":"Michigan","lat":42.01547,"lng":-83.66884,"zip":"48110","miles_from_dt":29.96}],"targetCityZipCode":"49235","targetCityState":"Michigan"},"__N_SSG":true}