{"pageProps":{"stateName":"Michigan","cityName":"custer","nearbyCities":[{"city":"Walhalla","state_name":"Michigan","lat":43.94818,"lng":-86.11529,"zip":"49458","miles_from_dt":4.52},{"city":"Scottville","state_name":"Michigan","lat":43.95208,"lng":-86.28638,"zip":"49454","miles_from_dt":5.63},{"city":"Fountain","state_name":"Michigan","lat":44.01986,"lng":-86.14265,"zip":"49410","miles_from_dt":7.9},{"city":"Branch","state_name":"Michigan","lat":43.94228,"lng":-86.03284,"zip":"49402","miles_from_dt":8.11},{"city":"Ludington","state_name":"Michigan","lat":43.97251,"lng":-86.39792,"zip":"49431","miles_from_dt":11.25},{"city":"Pentwater","state_name":"Michigan","lat":43.79927,"lng":-86.37496,"zip":"49449","miles_from_dt":12.04},{"city":"Walkerville","state_name":"Michigan","lat":43.73678,"lng":-86.10805,"zip":"49459","miles_from_dt":12.66},{"city":"Hart","state_name":"Michigan","lat":43.71958,"lng":-86.2811,"zip":"49420","miles_from_dt":13.96},{"city":"Free Soil","state_name":"Michigan","lat":44.11006,"lng":-86.25385,"zip":"49411","miles_from_dt":14.15},{"city":"Baldwin","state_name":"Michigan","lat":43.91027,"lng":-85.87417,"zip":"49304","miles_from_dt":15.73},{"city":"Bitely","state_name":"Michigan","lat":43.76021,"lng":-85.87842,"zip":"49309","miles_from_dt":18.68},{"city":"Irons","state_name":"Michigan","lat":44.10787,"lng":-85.91989,"zip":"49644","miles_from_dt":19.13},{"city":"Mears","state_name":"Michigan","lat":43.68042,"lng":-86.46203,"zip":"49436","miles_from_dt":20.94},{"city":"Idlewild","state_name":"Michigan","lat":43.87927,"lng":-85.77059,"zip":"49642","miles_from_dt":21.02},{"city":"Filer City","state_name":"Michigan","lat":44.2149,"lng":-86.28896,"zip":"49634","miles_from_dt":21.59},{"city":"Manistee","state_name":"Michigan","lat":44.23236,"lng":-86.21125,"zip":"49660","miles_from_dt":22.25},{"city":"Hesperia","state_name":"Michigan","lat":43.59945,"lng":-86.06658,"zip":"49421","miles_from_dt":22.34},{"city":"Shelby","state_name":"Michigan","lat":43.60976,"lng":-86.36723,"zip":"49455","miles_from_dt":22.59},{"city":"Eastlake","state_name":"Michigan","lat":44.24284,"lng":-86.29252,"zip":"49626","miles_from_dt":23.51},{"city":"Brohman","state_name":"Michigan","lat":43.69009,"lng":-85.79992,"zip":"49312","miles_from_dt":24.71},{"city":"Wellston","state_name":"Michigan","lat":44.21165,"lng":-85.91484,"zip":"49689","miles_from_dt":24.88},{"city":"Chase","state_name":"Michigan","lat":43.90367,"lng":-85.68285,"zip":"49623","miles_from_dt":25.28},{"city":"Luther","state_name":"Michigan","lat":44.05248,"lng":-85.69789,"zip":"49656","miles_from_dt":26.39},{"city":"New Era","state_name":"Michigan","lat":43.55306,"lng":-86.39096,"zip":"49446","miles_from_dt":26.66},{"city":"Rothbury","state_name":"Michigan","lat":43.51316,"lng":-86.25548,"zip":"49452","miles_from_dt":27.63},{"city":"Brethren","state_name":"Michigan","lat":44.30331,"lng":-85.98784,"zip":"49619","miles_from_dt":28.91}],"targetCityZipCode":"49405","targetCityState":"Michigan"},"__N_SSG":true}