{"pageProps":{"stateName":"Michigan","cityName":"fowler","nearbyCities":[{"city":"Pewamo","state_name":"Michigan","lat":43.00978,"lng":-84.83608,"zip":"48873","miles_from_dt":4.75},{"city":"Maple Rapids","state_name":"Michigan","lat":43.10371,"lng":-84.68999,"zip":"48853","miles_from_dt":5.83},{"city":"Westphalia","state_name":"Michigan","lat":42.92841,"lng":-84.79489,"zip":"48894","miles_from_dt":7.43},{"city":"Hubbardston","state_name":"Michigan","lat":43.10746,"lng":-84.854,"zip":"48845","miles_from_dt":7.62},{"city":"Muir","state_name":"Michigan","lat":43.05089,"lng":-84.90939,"zip":"48860","miles_from_dt":8.37},{"city":"Saint Johns","state_name":"Michigan","lat":43.00629,"lng":-84.57981,"zip":"48879","miles_from_dt":8.6},{"city":"Perrinton","state_name":"Michigan","lat":43.15476,"lng":-84.67874,"zip":"48871","miles_from_dt":9.27},{"city":"Lyons","state_name":"Michigan","lat":42.95469,"lng":-84.9364,"zip":"48851","miles_from_dt":10.94},{"city":"Middleton","state_name":"Michigan","lat":43.19994,"lng":-84.7372,"zip":"48856","miles_from_dt":11.74},{"city":"Carson City","state_name":"Michigan","lat":43.18226,"lng":-84.85518,"zip":"48811","miles_from_dt":11.86},{"city":"Eureka","state_name":"Michigan","lat":43.10332,"lng":-84.50721,"zip":"48833","miles_from_dt":13.13},{"city":"Pompeii","state_name":"Michigan","lat":43.18644,"lng":-84.59498,"zip":"48874","miles_from_dt":13.24},{"city":"Palo","state_name":"Michigan","lat":43.11027,"lng":-84.98483,"zip":"48870","miles_from_dt":13.27},{"city":"Eagle","state_name":"Michigan","lat":42.83407,"lng":-84.76065,"zip":"48822","miles_from_dt":13.55},{"city":"Dewitt","state_name":"Michigan","lat":42.86277,"lng":-84.59374,"zip":"48820","miles_from_dt":13.91},{"city":"Portland","state_name":"Michigan","lat":42.8578,"lng":-84.93201,"zip":"48875","miles_from_dt":15.16},{"city":"Fenwick","state_name":"Michigan","lat":43.12981,"lng":-85.03108,"zip":"48834","miles_from_dt":15.96},{"city":"Ionia","state_name":"Michigan","lat":42.98611,"lng":-85.05754,"zip":"48846","miles_from_dt":16.04},{"city":"Ashley","state_name":"Michigan","lat":43.18568,"lng":-84.49675,"zip":"48806","miles_from_dt":16.58},{"city":"North Star","state_name":"Michigan","lat":43.24987,"lng":-84.54847,"zip":"48862","miles_from_dt":18.18},{"city":"Sumner","state_name":"Michigan","lat":43.29133,"lng":-84.79701,"zip":"48889","miles_from_dt":18.21},{"city":"Crystal","state_name":"Michigan","lat":43.2759,"lng":-84.89661,"zip":"48818","miles_from_dt":18.59},{"city":"Orleans","state_name":"Michigan","lat":43.08785,"lng":-85.10725,"zip":"48865","miles_from_dt":18.69},{"city":"Lansing","state_name":"Michigan","lat":42.78489,"lng":-84.58886,"zip":"48906","miles_from_dt":18.72},{"city":"Ithaca","state_name":"Michigan","lat":43.2714,"lng":-84.5776,"zip":"48847","miles_from_dt":18.72},{"city":"Ovid","state_name":"Michigan","lat":42.99303,"lng":-84.37219,"zip":"48866","miles_from_dt":19.14},{"city":"Bannister","state_name":"Michigan","lat":43.15277,"lng":-84.40671,"zip":"48807","miles_from_dt":19.17},{"city":"Lansing","state_name":"Michigan","lat":42.78329,"lng":-84.5713,"zip":"48937","miles_from_dt":19.22},{"city":"Sheridan","state_name":"Michigan","lat":43.20731,"lng":-85.04249,"zip":"48884","miles_from_dt":19.33},{"city":"Elsie","state_name":"Michigan","lat":43.10253,"lng":-84.3744,"zip":"48831","miles_from_dt":19.49},{"city":"Grand Ledge","state_name":"Michigan","lat":42.7453,"lng":-84.76701,"zip":"48837","miles_from_dt":19.69},{"city":"Bath","state_name":"Michigan","lat":42.82591,"lng":-84.45081,"zip":"48808","miles_from_dt":20.58},{"city":"Lansing","state_name":"Michigan","lat":42.73105,"lng":-84.64587,"zip":"48908","miles_from_dt":21.26},{"city":"Sunfield","state_name":"Michigan","lat":42.76878,"lng":-84.97167,"zip":"48890","miles_from_dt":21.35},{"city":"Lansing","state_name":"Michigan","lat":42.72509,"lng":-84.63897,"zip":"48917","miles_from_dt":21.75},{"city":"Lansing","state_name":"Michigan","lat":42.73885,"lng":-84.57076,"zip":"48915","miles_from_dt":21.99},{"city":"Laingsburg","state_name":"Michigan","lat":42.88584,"lng":-84.35673,"zip":"48848","miles_from_dt":22.13},{"city":"Mulliken","state_name":"Michigan","lat":42.73002,"lng":-84.91741,"zip":"48861","miles_from_dt":22.46},{"city":"Lansing","state_name":"Michigan","lat":42.73493,"lng":-84.55937,"zip":"48930","miles_from_dt":22.48},{"city":"Lansing","state_name":"Michigan","lat":42.73507,"lng":-84.55812,"zip":"48922","miles_from_dt":22.5},{"city":"Lansing","state_name":"Michigan","lat":42.73486,"lng":-84.55688,"zip":"48929","miles_from_dt":22.54},{"city":"Lansing","state_name":"Michigan","lat":42.73481,"lng":-84.55669,"zip":"48956","miles_from_dt":22.55},{"city":"Lansing","state_name":"Michigan","lat":42.73,"lng":-84.56219,"zip":"48951","miles_from_dt":22.73},{"city":"Lansing","state_name":"Michigan","lat":42.73231,"lng":-84.55326,"zip":"48901","miles_from_dt":22.78},{"city":"Lansing","state_name":"Michigan","lat":42.73335,"lng":-84.54958,"zip":"48909","miles_from_dt":22.79},{"city":"Lansing","state_name":"Michigan","lat":42.73068,"lng":-84.5529,"zip":"48919","miles_from_dt":22.89},{"city":"Lansing","state_name":"Michigan","lat":42.72956,"lng":-84.55595,"zip":"48933","miles_from_dt":22.89},{"city":"Lansing","state_name":"Michigan","lat":42.73896,"lng":-84.52319,"zip":"48912","miles_from_dt":23.07},{"city":"Elm Hall","state_name":"Michigan","lat":43.3626,"lng":-84.83406,"zip":"48830","miles_from_dt":23.38},{"city":"East Lansing","state_name":"Michigan","lat":42.76225,"lng":-84.45407,"zip":"48823","miles_from_dt":23.71},{"city":"East Lansing","state_name":"Michigan","lat":42.74419,"lng":-84.4841,"zip":"48826","miles_from_dt":23.81},{"city":"Saranac","state_name":"Michigan","lat":42.934,"lng":-85.20214,"zip":"48881","miles_from_dt":24.02},{"city":"Alma","state_name":"Michigan","lat":43.37871,"lng":-84.67667,"zip":"48801","miles_from_dt":24.32},{"city":"Lansing","state_name":"Michigan","lat":42.67749,"lng":-84.66585,"zip":"48913","miles_from_dt":24.68},{"city":"Lansing","state_name":"Michigan","lat":42.67483,"lng":-84.67844,"zip":"48918","miles_from_dt":24.76},{"city":"East Lansing","state_name":"Michigan","lat":42.72844,"lng":-84.48067,"zip":"48825","miles_from_dt":24.81},{"city":"Lansing","state_name":"Michigan","lat":42.67182,"lng":-84.67547,"zip":"48980","miles_from_dt":24.99},{"city":"Sidney","state_name":"Michigan","lat":43.24908,"lng":-85.14356,"zip":"48885","miles_from_dt":25.13},{"city":"Lake Odessa","state_name":"Michigan","lat":42.7984,"lng":-85.13298,"zip":"48849","miles_from_dt":25.3},{"city":"East Lansing","state_name":"Michigan","lat":42.72129,"lng":-84.47607,"zip":"48824","miles_from_dt":25.36},{"city":"Lansing","state_name":"Michigan","lat":42.6997,"lng":-84.52709,"zip":"48924","miles_from_dt":25.38},{"city":"Lansing","state_name":"Michigan","lat":42.6969,"lng":-84.52541,"zip":"48910","miles_from_dt":25.59},{"city":"Belding","state_name":"Michigan","lat":43.0646,"lng":-85.25712,"zip":"48809","miles_from_dt":25.96},{"city":"Riverdale","state_name":"Michigan","lat":43.40068,"lng":-84.84316,"zip":"48877","miles_from_dt":26.04},{"city":"Stanton","state_name":"Michigan","lat":43.3089,"lng":-85.09566,"zip":"48888","miles_from_dt":26.11},{"city":"Lansing","state_name":"Michigan","lat":42.67351,"lng":-84.57285,"zip":"48911","miles_from_dt":26.15},{"city":"Smyrna","state_name":"Michigan","lat":43.06242,"lng":-85.26273,"zip":"48887","miles_from_dt":26.23},{"city":"Lansing","state_name":"Michigan","lat":42.67108,"lng":-84.57349,"zip":"48916","miles_from_dt":26.29},{"city":"Henderson","state_name":"Michigan","lat":43.11372,"lng":-84.2392,"zip":"48841","miles_from_dt":26.32},{"city":"Haslett","state_name":"Michigan","lat":42.76685,"lng":-84.37071,"zip":"48840","miles_from_dt":26.34},{"city":"Potterville","state_name":"Michigan","lat":42.64757,"lng":-84.73631,"zip":"48876","miles_from_dt":26.41},{"city":"Elwell","state_name":"Michigan","lat":43.41212,"lng":-84.77767,"zip":"48832","miles_from_dt":26.42},{"city":"Vestaburg","state_name":"Michigan","lat":43.39676,"lng":-84.91469,"zip":"48891","miles_from_dt":26.7},{"city":"Mcbrides","state_name":"Michigan","lat":43.35256,"lng":-85.04652,"zip":"48852","miles_from_dt":26.93},{"city":"Brant","state_name":"Michigan","lat":43.25084,"lng":-84.30147,"zip":"48614","miles_from_dt":27.17},{"city":"Dimondale","state_name":"Michigan","lat":42.63873,"lng":-84.64958,"zip":"48821","miles_from_dt":27.46},{"city":"Shaftsburg","state_name":"Michigan","lat":42.80992,"lng":-84.29543,"zip":"48882","miles_from_dt":27.47},{"city":"Okemos","state_name":"Michigan","lat":42.70751,"lng":-84.41501,"zip":"48805","miles_from_dt":27.91},{"city":"Greenville","state_name":"Michigan","lat":43.18268,"lng":-85.25943,"zip":"48838","miles_from_dt":28},{"city":"Oakley","state_name":"Michigan","lat":43.15695,"lng":-84.21709,"zip":"48649","miles_from_dt":28.18},{"city":"Cedar Lake","state_name":"Michigan","lat":43.40469,"lng":-84.97643,"zip":"48812","miles_from_dt":28.35},{"city":"Owosso","state_name":"Michigan","lat":43.00537,"lng":-84.18766,"zip":"48867","miles_from_dt":28.36},{"city":"Okemos","state_name":"Michigan","lat":42.70215,"lng":-84.40902,"zip":"48864","miles_from_dt":28.39},{"city":"Clarksville","state_name":"Michigan","lat":42.84155,"lng":-85.25387,"zip":"48815","miles_from_dt":28.84},{"city":"Edmore","state_name":"Michigan","lat":43.40027,"lng":-85.02037,"zip":"48829","miles_from_dt":29.06},{"city":"Holt","state_name":"Michigan","lat":42.63469,"lng":-84.53931,"zip":"48842","miles_from_dt":29.25},{"city":"Woodland","state_name":"Michigan","lat":42.70498,"lng":-85.13193,"zip":"48897","miles_from_dt":29.77}],"targetCityZipCode":"48835","targetCityState":"Michigan"},"__N_SSG":true}