{"pageProps":{"stateName":"Michigan","cityName":"freeport","nearbyCities":[{"city":"Clarksville","state_name":"Michigan","lat":42.84155,"lng":-85.25387,"zip":"48815","miles_from_dt":6.03},{"city":"Alto","state_name":"Michigan","lat":42.82307,"lng":-85.39871,"zip":"49302","miles_from_dt":6.51},{"city":"Hastings","state_name":"Michigan","lat":42.63331,"lng":-85.29316,"zip":"49058","miles_from_dt":8.86},{"city":"Lake Odessa","state_name":"Michigan","lat":42.7984,"lng":-85.13298,"zip":"48849","miles_from_dt":8.94},{"city":"Middleville","state_name":"Michigan","lat":42.69546,"lng":-85.46343,"zip":"49333","miles_from_dt":9.41},{"city":"Woodland","state_name":"Michigan","lat":42.70498,"lng":-85.13193,"zip":"48897","miles_from_dt":9.48},{"city":"Saranac","state_name":"Michigan","lat":42.934,"lng":-85.20214,"zip":"48881","miles_from_dt":12.93},{"city":"Caledonia","state_name":"Michigan","lat":42.79644,"lng":-85.55564,"zip":"49316","miles_from_dt":13.14},{"city":"Lowell","state_name":"Michigan","lat":42.95161,"lng":-85.35139,"zip":"49331","miles_from_dt":13.36},{"city":"Grand Rapids","state_name":"Michigan","lat":42.86678,"lng":-85.54425,"zip":"49530","miles_from_dt":14.31},{"city":"Grand Rapids","state_name":"Michigan","lat":42.8821,"lng":-85.54764,"zip":"49512","miles_from_dt":15.02},{"city":"Cloverdale","state_name":"Michigan","lat":42.55267,"lng":-85.38521,"zip":"49035","miles_from_dt":15.03},{"city":"Nashville","state_name":"Michigan","lat":42.57971,"lng":-85.11717,"zip":"49073","miles_from_dt":15.68},{"city":"Grand Rapids","state_name":"Michigan","lat":42.91906,"lng":-85.52706,"zip":"49516","miles_from_dt":15.79},{"city":"Ada","state_name":"Michigan","lat":42.9539,"lng":-85.47866,"zip":"49355","miles_from_dt":16.04},{"city":"Ada","state_name":"Michigan","lat":42.95038,"lng":-85.48748,"zip":"49357","miles_from_dt":16.09},{"city":"Ada","state_name":"Michigan","lat":42.95688,"lng":-85.4814,"zip":"49356","miles_from_dt":16.28},{"city":"Grand Rapids","state_name":"Michigan","lat":42.92815,"lng":-85.53629,"zip":"49546","miles_from_dt":16.56},{"city":"Sunfield","state_name":"Michigan","lat":42.76878,"lng":-84.97167,"zip":"48890","miles_from_dt":16.79},{"city":"Wayland","state_name":"Michigan","lat":42.68379,"lng":-85.61619,"zip":"49348","miles_from_dt":16.89},{"city":"Vermontville","state_name":"Michigan","lat":42.63794,"lng":-85.01409,"zip":"49096","miles_from_dt":16.94},{"city":"Ada","state_name":"Michigan","lat":42.97716,"lng":-85.47671,"zip":"49301","miles_from_dt":17.34},{"city":"Dowling","state_name":"Michigan","lat":42.50598,"lng":-85.23651,"zip":"49050","miles_from_dt":17.95},{"city":"Delton","state_name":"Michigan","lat":42.51229,"lng":-85.40249,"zip":"49046","miles_from_dt":17.96},{"city":"Grand Rapids","state_name":"Michigan","lat":42.87459,"lng":-85.62586,"zip":"49508","miles_from_dt":18.23},{"city":"Grand Rapids","state_name":"Michigan","lat":42.87582,"lng":-85.62579,"zip":"49518","miles_from_dt":18.26},{"city":"Grand Rapids","state_name":"Michigan","lat":42.87671,"lng":-85.62747,"zip":"49560","miles_from_dt":18.37},{"city":"Moline","state_name":"Michigan","lat":42.74626,"lng":-85.66907,"zip":"49335","miles_from_dt":18.72},{"city":"Shelbyville","state_name":"Michigan","lat":42.5919,"lng":-85.59028,"zip":"49344","miles_from_dt":18.8},{"city":"Bradley","state_name":"Michigan","lat":42.63859,"lng":-85.64613,"zip":"49311","miles_from_dt":19.49},{"city":"Mulliken","state_name":"Michigan","lat":42.73002,"lng":-84.91741,"zip":"48861","miles_from_dt":19.67},{"city":"Grand Rapids","state_name":"Michigan","lat":42.86795,"lng":-85.66273,"zip":"49548","miles_from_dt":19.77},{"city":"Ionia","state_name":"Michigan","lat":42.98611,"lng":-85.05754,"zip":"48846","miles_from_dt":19.85},{"city":"Portland","state_name":"Michigan","lat":42.8578,"lng":-84.93201,"zip":"48875","miles_from_dt":19.93},{"city":"Grand Rapids","state_name":"Michigan","lat":42.94515,"lng":-85.6136,"zip":"49506","miles_from_dt":20.29},{"city":"Smyrna","state_name":"Michigan","lat":43.06242,"lng":-85.26273,"zip":"48887","miles_from_dt":20.86},{"city":"Belding","state_name":"Michigan","lat":43.0646,"lng":-85.25712,"zip":"48809","miles_from_dt":21.04},{"city":"Grand Rapids","state_name":"Michigan","lat":42.9,"lng":-85.67219,"zip":"49528","miles_from_dt":21.11},{"city":"Grand Rapids","state_name":"Michigan","lat":42.93054,"lng":-85.65524,"zip":"49507","miles_from_dt":21.42},{"city":"Wyoming","state_name":"Michigan","lat":42.89773,"lng":-85.69299,"zip":"49509","miles_from_dt":21.99},{"city":"Byron Center","state_name":"Michigan","lat":42.80101,"lng":-85.73589,"zip":"49315","miles_from_dt":22.25},{"city":"Martin","state_name":"Michigan","lat":42.54023,"lng":-85.62879,"zip":"49070","miles_from_dt":22.61},{"city":"Grand Rapids","state_name":"Michigan","lat":42.96338,"lng":-85.65275,"zip":"49599","miles_from_dt":22.63},{"city":"Grand Rapids","state_name":"Michigan","lat":42.96289,"lng":-85.65454,"zip":"49515","miles_from_dt":22.68},{"city":"Grand Rapids","state_name":"Michigan","lat":42.96354,"lng":-85.65622,"zip":"49588","miles_from_dt":22.77},{"city":"Grand Rapids","state_name":"Michigan","lat":42.96282,"lng":-85.65872,"zip":"49503","miles_from_dt":22.84},{"city":"Lyons","state_name":"Michigan","lat":42.95469,"lng":-84.9364,"zip":"48851","miles_from_dt":22.84},{"city":"Grand Rapids","state_name":"Michigan","lat":42.96557,"lng":-85.65593,"zip":"49514","miles_from_dt":22.85},{"city":"Grand Rapids","state_name":"Michigan","lat":42.96146,"lng":-85.66187,"zip":"49502","miles_from_dt":22.91},{"city":"Grand Rapids","state_name":"Michigan","lat":42.96492,"lng":-85.65854,"zip":"49501","miles_from_dt":22.93},{"city":"Grand Rapids","state_name":"Michigan","lat":43.02144,"lng":-85.5918,"zip":"49525","miles_from_dt":23.21},{"city":"Wyoming","state_name":"Michigan","lat":42.89914,"lng":-85.7192,"zip":"49519","miles_from_dt":23.24},{"city":"Grand Rapids","state_name":"Michigan","lat":42.96964,"lng":-85.66586,"zip":"49555","miles_from_dt":23.42},{"city":"Grand Rapids","state_name":"Michigan","lat":42.96524,"lng":-85.67299,"zip":"49523","miles_from_dt":23.52},{"city":"Hickory Corners","state_name":"Michigan","lat":42.42738,"lng":-85.39589,"zip":"49060","miles_from_dt":23.56},{"city":"Grand Rapids","state_name":"Michigan","lat":42.9984,"lng":-85.63699,"zip":"49505","miles_from_dt":23.6},{"city":"Grand Rapids","state_name":"Michigan","lat":43.02206,"lng":-85.61258,"zip":"49510","miles_from_dt":23.93},{"city":"Bellevue","state_name":"Michigan","lat":42.4588,"lng":-85.06435,"zip":"49021","miles_from_dt":24.15},{"city":"Orleans","state_name":"Michigan","lat":43.08785,"lng":-85.10725,"zip":"48865","miles_from_dt":24.59},{"city":"Dorr","state_name":"Michigan","lat":42.72541,"lng":-85.7871,"zip":"49323","miles_from_dt":24.83},{"city":"Hopkins","state_name":"Michigan","lat":42.6304,"lng":-85.75703,"zip":"49328","miles_from_dt":24.89},{"city":"Plainwell","state_name":"Michigan","lat":42.46086,"lng":-85.57711,"zip":"49080","miles_from_dt":25.06},{"city":"Grandville","state_name":"Michigan","lat":42.90588,"lng":-85.75528,"zip":"49468","miles_from_dt":25.11},{"city":"Grandville","state_name":"Michigan","lat":42.8774,"lng":-85.77226,"zip":"49418","miles_from_dt":25.22},{"city":"Belmont","state_name":"Michigan","lat":43.07296,"lng":-85.56939,"zip":"49306","miles_from_dt":25.43},{"city":"Battle Creek","state_name":"Michigan","lat":42.39748,"lng":-85.21971,"zip":"49018","miles_from_dt":25.47},{"city":"Bedford","state_name":"Michigan","lat":42.39545,"lng":-85.23307,"zip":"49020","miles_from_dt":25.51},{"city":"Battle Creek","state_name":"Michigan","lat":42.3979,"lng":-85.2111,"zip":"49017","miles_from_dt":25.52},{"city":"Grand Rapids","state_name":"Michigan","lat":42.98047,"lng":-85.70937,"zip":"49504","miles_from_dt":25.63},{"city":"Charlotte","state_name":"Michigan","lat":42.57862,"lng":-84.84524,"zip":"48813","miles_from_dt":26.45},{"city":"Rockford","state_name":"Michigan","lat":43.12433,"lng":-85.49246,"zip":"49341","miles_from_dt":26.85},{"city":"Cannonsburg","state_name":"Michigan","lat":43.13059,"lng":-85.48243,"zip":"49317","miles_from_dt":27.07},{"city":"Grand Ledge","state_name":"Michigan","lat":42.7453,"lng":-84.76701,"zip":"48837","miles_from_dt":27.22},{"city":"Richland","state_name":"Michigan","lat":42.3784,"lng":-85.45899,"zip":"49083","miles_from_dt":27.64},{"city":"Eagle","state_name":"Michigan","lat":42.83407,"lng":-84.76065,"zip":"48822","miles_from_dt":27.95},{"city":"Burnips","state_name":"Michigan","lat":42.73106,"lng":-85.85109,"zip":"49314","miles_from_dt":28.03},{"city":"Jamestown","state_name":"Michigan","lat":42.82711,"lng":-85.84694,"zip":"49427","miles_from_dt":28.09},{"city":"Muir","state_name":"Michigan","lat":43.05089,"lng":-84.90939,"zip":"48860","miles_from_dt":28.2},{"city":"Westphalia","state_name":"Michigan","lat":42.92841,"lng":-84.79489,"zip":"48894","miles_from_dt":28.2},{"city":"Rockford","state_name":"Michigan","lat":43.12526,"lng":-85.55903,"zip":"49351","miles_from_dt":28.3},{"city":"Jenison","state_name":"Michigan","lat":42.89011,"lng":-85.8311,"zip":"49429","miles_from_dt":28.33},{"city":"Grand Rapids","state_name":"Michigan","lat":42.97106,"lng":-85.78834,"zip":"49534","miles_from_dt":28.63},{"city":"Augusta","state_name":"Michigan","lat":42.34626,"lng":-85.34116,"zip":"49012","miles_from_dt":28.74},{"city":"Fenwick","state_name":"Michigan","lat":43.12981,"lng":-85.03108,"zip":"48834","miles_from_dt":28.89},{"city":"Comstock Park","state_name":"Michigan","lat":43.0737,"lng":-85.68198,"zip":"49321","miles_from_dt":28.93},{"city":"Palo","state_name":"Michigan","lat":43.11027,"lng":-84.98483,"zip":"48870","miles_from_dt":28.94},{"city":"Greenville","state_name":"Michigan","lat":43.18268,"lng":-85.25943,"zip":"48838","miles_from_dt":29.15},{"city":"Pewamo","state_name":"Michigan","lat":43.00978,"lng":-84.83608,"zip":"48873","miles_from_dt":29.19},{"city":"Jenison","state_name":"Michigan","lat":42.92042,"lng":-85.83712,"zip":"49428","miles_from_dt":29.33},{"city":"Battle Creek","state_name":"Michigan","lat":42.33448,"lng":-85.24706,"zip":"49037","miles_from_dt":29.61},{"city":"Grand Rapids","state_name":"Michigan","lat":43.04591,"lng":-85.7417,"zip":"49544","miles_from_dt":29.73},{"city":"Potterville","state_name":"Michigan","lat":42.64757,"lng":-84.73631,"zip":"48876","miles_from_dt":29.84},{"city":"Otsego","state_name":"Michigan","lat":42.46585,"lng":-85.72846,"zip":"49078","miles_from_dt":29.84}],"targetCityZipCode":"49325","targetCityState":"Michigan"},"__N_SSG":true}