{"pageProps":{"stateName":"Michigan","cityName":"gladstone","nearbyCities":[{"city":"Wells","state_name":"Michigan","lat":45.78292,"lng":-87.07634,"zip":"49894","miles_from_dt":6.19},{"city":"Escanaba","state_name":"Michigan","lat":45.76773,"lng":-87.16522,"zip":"49829","miles_from_dt":7.86},{"city":"Perkins","state_name":"Michigan","lat":46.01824,"lng":-87.08222,"zip":"49872","miles_from_dt":10.18},{"city":"Rapid River","state_name":"Michigan","lat":45.95852,"lng":-86.86516,"zip":"49878","miles_from_dt":12.73},{"city":"Cornell","state_name":"Michigan","lat":45.98223,"lng":-87.34745,"zip":"49818","miles_from_dt":14.26},{"city":"Bark River","state_name":"Michigan","lat":45.71211,"lng":-87.28885,"zip":"49807","miles_from_dt":14.35},{"city":"Harris","state_name":"Michigan","lat":45.70291,"lng":-87.34728,"zip":"49845","miles_from_dt":16.75},{"city":"Rock","state_name":"Michigan","lat":46.11693,"lng":-87.22515,"zip":"49880","miles_from_dt":18.04},{"city":"Wilson","state_name":"Michigan","lat":45.67748,"lng":-87.38953,"zip":"49896","miles_from_dt":19.44},{"city":"Perronville","state_name":"Michigan","lat":45.876,"lng":-87.51824,"zip":"49873","miles_from_dt":20.29},{"city":"Nahma","state_name":"Michigan","lat":45.84444,"lng":-86.65104,"zip":"49864","miles_from_dt":21.64},{"city":"Spalding","state_name":"Michigan","lat":45.69748,"lng":-87.49409,"zip":"49886","miles_from_dt":22.6},{"city":"Arnold","state_name":"Michigan","lat":46.04989,"lng":-87.49297,"zip":"49819","miles_from_dt":22.68},{"city":"Powers","state_name":"Michigan","lat":45.70394,"lng":-87.50568,"zip":"49874","miles_from_dt":22.85},{"city":"Trenary","state_name":"Michigan","lat":46.23206,"lng":-87.02828,"zip":"49891","miles_from_dt":25.14},{"city":"Garden","state_name":"Michigan","lat":45.74396,"lng":-86.57555,"zip":"49835","miles_from_dt":26.71},{"city":"Carney","state_name":"Michigan","lat":45.59094,"lng":-87.50269,"zip":"49812","miles_from_dt":27.54},{"city":"Hermansville","state_name":"Michigan","lat":45.70585,"lng":-87.63267,"zip":"49847","miles_from_dt":28.26},{"city":"Nadeau","state_name":"Michigan","lat":45.61295,"lng":-87.55163,"zip":"49863","miles_from_dt":28.28},{"city":"Wetmore","state_name":"Michigan","lat":46.16807,"lng":-86.66593,"zip":"49895","miles_from_dt":29.19},{"city":"Cooks","state_name":"Michigan","lat":45.94711,"lng":-86.49946,"zip":"49817","miles_from_dt":29.32},{"city":"Little Lake","state_name":"Michigan","lat":46.27504,"lng":-87.29142,"zip":"49833","miles_from_dt":29.4},{"city":"Chatham","state_name":"Michigan","lat":46.27517,"lng":-86.89863,"zip":"49816","miles_from_dt":29.49},{"city":"Foster City","state_name":"Michigan","lat":45.96829,"lng":-87.70292,"zip":"49834","miles_from_dt":29.93}],"targetCityZipCode":"49837","targetCityState":"Michigan"},"__N_SSG":true}