{"pageProps":{"stateName":"Michigan","cityName":"hesperia","nearbyCities":[{"city":"Walkerville","state_name":"Michigan","lat":43.73678,"lng":-86.10805,"zip":"49459","miles_from_dt":9.71},{"city":"Fremont","state_name":"Michigan","lat":43.4699,"lng":-85.94747,"zip":"49412","miles_from_dt":10.76},{"city":"Fremont","state_name":"Michigan","lat":43.46283,"lng":-85.95227,"zip":"49413","miles_from_dt":11.04},{"city":"Holton","state_name":"Michigan","lat":43.43941,"lng":-86.09981,"zip":"49425","miles_from_dt":11.17},{"city":"Rothbury","state_name":"Michigan","lat":43.51316,"lng":-86.25548,"zip":"49452","miles_from_dt":11.2},{"city":"Hart","state_name":"Michigan","lat":43.71958,"lng":-86.2811,"zip":"49420","miles_from_dt":13.58},{"city":"Bitely","state_name":"Michigan","lat":43.76021,"lng":-85.87842,"zip":"49309","miles_from_dt":14.56},{"city":"Brohman","state_name":"Michigan","lat":43.69009,"lng":-85.79992,"zip":"49312","miles_from_dt":14.76},{"city":"Shelby","state_name":"Michigan","lat":43.60976,"lng":-86.36723,"zip":"49455","miles_from_dt":15.1},{"city":"White Cloud","state_name":"Michigan","lat":43.58291,"lng":-85.74167,"zip":"49349","miles_from_dt":16.34},{"city":"New Era","state_name":"Michigan","lat":43.55306,"lng":-86.39096,"zip":"49446","miles_from_dt":16.59},{"city":"Twin Lake","state_name":"Michigan","lat":43.35105,"lng":-86.14455,"zip":"49457","miles_from_dt":17.59},{"city":"Montague","state_name":"Michigan","lat":43.4588,"lng":-86.38121,"zip":"49437","miles_from_dt":18.55},{"city":"Whitehall","state_name":"Michigan","lat":43.38215,"lng":-86.32317,"zip":"49461","miles_from_dt":19.78},{"city":"Mears","state_name":"Michigan","lat":43.68042,"lng":-86.46203,"zip":"49436","miles_from_dt":20.6},{"city":"Pentwater","state_name":"Michigan","lat":43.79927,"lng":-86.37496,"zip":"49449","miles_from_dt":20.71},{"city":"Newaygo","state_name":"Michigan","lat":43.43472,"lng":-85.71437,"zip":"49337","miles_from_dt":21.03},{"city":"Grant","state_name":"Michigan","lat":43.33507,"lng":-85.84558,"zip":"49327","miles_from_dt":21.37},{"city":"Custer","state_name":"Michigan","lat":43.91051,"lng":-86.18931,"zip":"49405","miles_from_dt":22.34},{"city":"Muskegon","state_name":"Michigan","lat":43.297,"lng":-86.27481,"zip":"49445","miles_from_dt":23.36},{"city":"Baldwin","state_name":"Michigan","lat":43.91027,"lng":-85.87417,"zip":"49304","miles_from_dt":23.52},{"city":"Branch","state_name":"Michigan","lat":43.94228,"lng":-86.03284,"zip":"49402","miles_from_dt":23.73},{"city":"Sylvan Beach","state_name":"Michigan","lat":43.37056,"lng":-86.42325,"zip":"49463","miles_from_dt":23.9},{"city":"Walhalla","state_name":"Michigan","lat":43.94818,"lng":-86.11529,"zip":"49458","miles_from_dt":24.2},{"city":"Idlewild","state_name":"Michigan","lat":43.87927,"lng":-85.77059,"zip":"49642","miles_from_dt":24.35},{"city":"Bailey","state_name":"Michigan","lat":43.27803,"lng":-85.85824,"zip":"49303","miles_from_dt":24.54},{"city":"Muskegon","state_name":"Michigan","lat":43.23995,"lng":-86.13278,"zip":"49442","miles_from_dt":25.04},{"city":"Paris","state_name":"Michigan","lat":43.75888,"lng":-85.61033,"zip":"49338","miles_from_dt":25.37},{"city":"Muskegon","state_name":"Michigan","lat":43.23852,"lng":-86.25387,"zip":"49440","miles_from_dt":26.64},{"city":"Scottville","state_name":"Michigan","lat":43.95208,"lng":-86.28638,"zip":"49454","miles_from_dt":26.71},{"city":"Ravenna","state_name":"Michigan","lat":43.21177,"lng":-85.96966,"zip":"49451","miles_from_dt":27.2},{"city":"Muskegon","state_name":"Michigan","lat":43.22204,"lng":-86.24155,"zip":"49443","miles_from_dt":27.5},{"city":"Chase","state_name":"Michigan","lat":43.90367,"lng":-85.68285,"zip":"49623","miles_from_dt":28.46},{"city":"Casnovia","state_name":"Michigan","lat":43.22319,"lng":-85.82981,"zip":"49318","miles_from_dt":28.58},{"city":"Fountain","state_name":"Michigan","lat":44.01986,"lng":-86.14265,"zip":"49410","miles_from_dt":29.27},{"city":"Kent City","state_name":"Michigan","lat":43.24463,"lng":-85.73721,"zip":"49330","miles_from_dt":29.58},{"city":"Muskegon","state_name":"Michigan","lat":43.17671,"lng":-86.19892,"zip":"49444","miles_from_dt":29.93}],"targetCityZipCode":"49421","targetCityState":"Michigan"},"__N_SSG":true}