{"pageProps":{"stateName":"Michigan","cityName":"higgins-lake","nearbyCities":[{"city":"Roscommon","state_name":"Michigan","lat":44.48936,"lng":-84.60624,"zip":"48653","miles_from_dt":7.3},{"city":"Houghton Lake Heights","state_name":"Michigan","lat":44.32532,"lng":-84.773,"zip":"48630","miles_from_dt":9.5},{"city":"Houghton Lake","state_name":"Michigan","lat":44.3107,"lng":-84.77977,"zip":"48629","miles_from_dt":10.54},{"city":"Grayling","state_name":"Michigan","lat":44.62184,"lng":-84.78478,"zip":"49739","miles_from_dt":11.2},{"city":"Merritt","state_name":"Michigan","lat":44.34892,"lng":-84.91898,"zip":"49667","miles_from_dt":11.48},{"city":"Prudenville","state_name":"Michigan","lat":44.25057,"lng":-84.61687,"zip":"48651","miles_from_dt":15.98},{"city":"Saint Helen","state_name":"Michigan","lat":44.34953,"lng":-84.45801,"zip":"48656","miles_from_dt":16.34},{"city":"Grayling","state_name":"Michigan","lat":44.69296,"lng":-84.60578,"zip":"49738","miles_from_dt":17.45},{"city":"Lake City","state_name":"Michigan","lat":44.39603,"lng":-85.10862,"zip":"49651","miles_from_dt":18.38},{"city":"Falmouth","state_name":"Michigan","lat":44.23993,"lng":-84.97268,"zip":"49632","miles_from_dt":18.91},{"city":"Fife Lake","state_name":"Michigan","lat":44.55709,"lng":-85.19318,"zip":"49633","miles_from_dt":22.93},{"city":"Kalkaska","state_name":"Michigan","lat":44.72727,"lng":-85.04926,"zip":"49646","miles_from_dt":23.58},{"city":"Frederic","state_name":"Michigan","lat":44.80368,"lng":-84.7291,"zip":"49733","miles_from_dt":23.63},{"city":"Luzerne","state_name":"Michigan","lat":44.58871,"lng":-84.28569,"zip":"48636","miles_from_dt":24.49},{"city":"West Branch","state_name":"Michigan","lat":44.33005,"lng":-84.24087,"zip":"48661","miles_from_dt":26.73},{"city":"McBain","state_name":"Michigan","lat":44.21523,"lng":-85.17653,"zip":"49657","miles_from_dt":27.19},{"city":"South Boardman","state_name":"Michigan","lat":44.64174,"lng":-85.25089,"zip":"49680","miles_from_dt":27.74},{"city":"Waters","state_name":"Michigan","lat":44.86827,"lng":-84.67004,"zip":"49797","miles_from_dt":28.34},{"city":"Harrison","state_name":"Michigan","lat":44.04976,"lng":-84.8345,"zip":"48625","miles_from_dt":28.76}],"targetCityZipCode":"48627","targetCityState":"Michigan"},"__N_SSG":true}