{"pageProps":{"stateName":"Michigan","cityName":"lexington","nearbyCities":[{"city":"Croswell","state_name":"Michigan","lat":43.26265,"lng":-82.65069,"zip":"48422","miles_from_dt":5.56},{"city":"Jeddo","state_name":"Michigan","lat":43.13278,"lng":-82.59457,"zip":"48032","miles_from_dt":8.72},{"city":"Applegate","state_name":"Michigan","lat":43.3526,"lng":-82.66061,"zip":"48401","miles_from_dt":9.14},{"city":"Fort Gratiot","state_name":"Michigan","lat":43.08253,"lng":-82.49913,"zip":"48059","miles_from_dt":11.95},{"city":"Port Sanilac","state_name":"Michigan","lat":43.43927,"lng":-82.55849,"zip":"48469","miles_from_dt":12.9},{"city":"Carsonville","state_name":"Michigan","lat":43.42884,"lng":-82.65762,"zip":"48419","miles_from_dt":13.49},{"city":"Peck","state_name":"Michigan","lat":43.27693,"lng":-82.81731,"zip":"48466","miles_from_dt":14.03},{"city":"Melvin","state_name":"Michigan","lat":43.19999,"lng":-82.81833,"zip":"48454","miles_from_dt":14.46},{"city":"Avoca","state_name":"Michigan","lat":43.0754,"lng":-82.69642,"zip":"48006","miles_from_dt":14.55},{"city":"North Street","state_name":"Michigan","lat":43.0361,"lng":-82.57504,"zip":"48049","miles_from_dt":15.06},{"city":"Yale","state_name":"Michigan","lat":43.12639,"lng":-82.82955,"zip":"48097","miles_from_dt":16.98},{"city":"Port Huron","state_name":"Michigan","lat":42.99426,"lng":-82.43191,"zip":"48061","miles_from_dt":18.69},{"city":"Port Huron","state_name":"Michigan","lat":42.97835,"lng":-82.46297,"zip":"48060","miles_from_dt":19.36},{"city":"Sandusky","state_name":"Michigan","lat":43.41868,"lng":-82.85369,"zip":"48471","miles_from_dt":19.47},{"city":"Emmett","state_name":"Michigan","lat":43.02824,"lng":-82.81111,"zip":"48022","miles_from_dt":20.65},{"city":"Smiths Creek","state_name":"Michigan","lat":42.9484,"lng":-82.56196,"zip":"48074","miles_from_dt":21.05},{"city":"Deckerville","state_name":"Michigan","lat":43.53789,"lng":-82.72378,"zip":"48427","miles_from_dt":21.72},{"city":"Goodells","state_name":"Michigan","lat":42.94466,"lng":-82.68217,"zip":"48027","miles_from_dt":22.44},{"city":"Brown City","state_name":"Michigan","lat":43.21791,"lng":-82.98476,"zip":"48416","miles_from_dt":22.52},{"city":"Marysville","state_name":"Michigan","lat":42.90983,"lng":-82.48022,"zip":"48040","miles_from_dt":23.88},{"city":"Capac","state_name":"Michigan","lat":43.02466,"lng":-82.93115,"zip":"48014","miles_from_dt":25.23},{"city":"Memphis","state_name":"Michigan","lat":42.93861,"lng":-82.80271,"zip":"48041","miles_from_dt":25.41},{"city":"Marlette","state_name":"Michigan","lat":43.34374,"lng":-83.03493,"zip":"48453","miles_from_dt":25.67},{"city":"Palms","state_name":"Michigan","lat":43.61485,"lng":-82.71099,"zip":"48465","miles_from_dt":26.41},{"city":"Saint Clair","state_name":"Michigan","lat":42.8576,"lng":-82.54721,"zip":"48079","miles_from_dt":27.29},{"city":"Snover","state_name":"Michigan","lat":43.51211,"lng":-82.95732,"zip":"48472","miles_from_dt":27.55},{"city":"Columbus","state_name":"Michigan","lat":42.85581,"lng":-82.67676,"zip":"48063","miles_from_dt":28.26},{"city":"Forestville","state_name":"Michigan","lat":43.65988,"lng":-82.61263,"zip":"48434","miles_from_dt":28.33},{"city":"Imlay City","state_name":"Michigan","lat":43.06455,"lng":-83.05471,"zip":"48444","miles_from_dt":29.02},{"city":"Allenton","state_name":"Michigan","lat":42.93916,"lng":-82.92601,"zip":"48002","miles_from_dt":29.12},{"city":"Argyle","state_name":"Michigan","lat":43.56629,"lng":-82.9362,"zip":"48410","miles_from_dt":29.38}],"targetCityZipCode":"48450","targetCityState":"Michigan"},"__N_SSG":true}