{"pageProps":{"stateName":"Michigan","cityName":"luna-pier","nearbyCities":[{"city":"La Salle","state_name":"Michigan","lat":41.85122,"lng":-83.46331,"zip":"48145","miles_from_dt":2.83},{"city":"Erie","state_name":"Michigan","lat":41.78428,"lng":-83.48816,"zip":"48133","miles_from_dt":3.35},{"city":"Monroe","state_name":"Michigan","lat":41.90818,"lng":-83.47263,"zip":"48161","miles_from_dt":6.68},{"city":"Temperance","state_name":"Michigan","lat":41.7919,"lng":-83.57831,"zip":"48182","miles_from_dt":7.43},{"city":"Samaria","state_name":"Michigan","lat":41.8048,"lng":-83.58157,"zip":"48177","miles_from_dt":7.46},{"city":"Toledo","state_name":"Ohio","lat":41.70241,"lng":-83.49154,"zip":"43611","miles_from_dt":8.25},{"city":"Harbor View","state_name":"Ohio","lat":41.69319,"lng":-83.44474,"zip":"43434","miles_from_dt":8.41},{"city":"Ida","state_name":"Michigan","lat":41.88141,"lng":-83.58274,"zip":"48140","miles_from_dt":8.78},{"city":"Toledo","state_name":"Ohio","lat":41.70946,"lng":-83.54899,"zip":"43612","miles_from_dt":9.28},{"city":"Monroe","state_name":"Michigan","lat":41.96045,"lng":-83.43503,"zip":"48162","miles_from_dt":10.04},{"city":"Toledo","state_name":"Ohio","lat":41.68008,"lng":-83.53062,"zip":"43608","miles_from_dt":10.47},{"city":"Lambertville","state_name":"Michigan","lat":41.75325,"lng":-83.62803,"zip":"48144","miles_from_dt":10.71},{"city":"Oregon","state_name":"Ohio","lat":41.65727,"lng":-83.40931,"zip":"43616","miles_from_dt":10.98},{"city":"Toledo","state_name":"Ohio","lat":41.70628,"lng":-83.60374,"zip":"43613","miles_from_dt":11.39},{"city":"Toledo","state_name":"Ohio","lat":41.67775,"lng":-83.5614,"zip":"43610","miles_from_dt":11.42},{"city":"Toledo","state_name":"Ohio","lat":41.67683,"lng":-83.56178,"zip":"43657","miles_from_dt":11.49},{"city":"Toledo","state_name":"Ohio","lat":41.65807,"lng":-83.52738,"zip":"43603","miles_from_dt":11.78},{"city":"Toledo","state_name":"Ohio","lat":41.66519,"lng":-83.5547,"zip":"43620","miles_from_dt":11.97},{"city":"Toledo","state_name":"Ohio","lat":41.65445,"lng":-83.53039,"zip":"43666","miles_from_dt":12.07},{"city":"Toledo","state_name":"Ohio","lat":41.64734,"lng":-83.50722,"zip":"43605","miles_from_dt":12.11},{"city":"Toledo","state_name":"Ohio","lat":41.65089,"lng":-83.53523,"zip":"43667","miles_from_dt":12.39},{"city":"Toledo","state_name":"Ohio","lat":41.65097,"lng":-83.53648,"zip":"43652","miles_from_dt":12.41},{"city":"Toledo","state_name":"Ohio","lat":41.65217,"lng":-83.53977,"zip":"43604","miles_from_dt":12.41},{"city":"Toledo","state_name":"Ohio","lat":41.64925,"lng":-83.53679,"zip":"43659","miles_from_dt":12.53},{"city":"Toledo","state_name":"Ohio","lat":41.64729,"lng":-83.54763,"zip":"43601","miles_from_dt":12.89},{"city":"Toledo","state_name":"Ohio","lat":41.64478,"lng":-83.54344,"zip":"43697","miles_from_dt":12.95},{"city":"Toledo","state_name":"Ohio","lat":41.64221,"lng":-83.54216,"zip":"43681","miles_from_dt":13.09},{"city":"Toledo","state_name":"Ohio","lat":41.64259,"lng":-83.544,"zip":"43682","miles_from_dt":13.1},{"city":"Petersburg","state_name":"Michigan","lat":41.86864,"lng":-83.68206,"zip":"49270","miles_from_dt":13.14},{"city":"Toledo","state_name":"Ohio","lat":41.67178,"lng":-83.61085,"zip":"43606","miles_from_dt":13.33},{"city":"Toledo","state_name":"Ohio","lat":41.63895,"lng":-83.54468,"zip":"43660","miles_from_dt":13.35},{"city":"Toledo","state_name":"Ohio","lat":41.70475,"lng":-83.6508,"zip":"43656","miles_from_dt":13.38},{"city":"Toledo","state_name":"Ohio","lat":41.70419,"lng":-83.65095,"zip":"43623","miles_from_dt":13.41},{"city":"Newport","state_name":"Michigan","lat":41.98677,"lng":-83.29375,"zip":"48166","miles_from_dt":13.99},{"city":"Toledo","state_name":"Ohio","lat":41.65288,"lng":-83.60469,"zip":"43661","miles_from_dt":14.13},{"city":"Curtice","state_name":"Ohio","lat":41.62933,"lng":-83.31961,"zip":"43412","miles_from_dt":14.19},{"city":"Toledo","state_name":"Ohio","lat":41.64761,"lng":-83.60582,"zip":"43607","miles_from_dt":14.45},{"city":"Northwood","state_name":"Ohio","lat":41.60424,"lng":-83.47348,"zip":"43619","miles_from_dt":14.66},{"city":"Toledo","state_name":"Ohio","lat":41.62849,"lng":-83.57824,"zip":"43609","miles_from_dt":14.78},{"city":"Ottawa Lake","state_name":"Michigan","lat":41.75979,"lng":-83.72341,"zip":"49267","miles_from_dt":15.24},{"city":"Toledo","state_name":"Ohio","lat":41.60596,"lng":-83.537,"zip":"43654","miles_from_dt":15.31},{"city":"Williston","state_name":"Ohio","lat":41.59974,"lng":-83.34661,"zip":"43468","miles_from_dt":15.58},{"city":"Toledo","state_name":"Ohio","lat":41.63106,"lng":-83.61875,"zip":"43699","miles_from_dt":15.77},{"city":"Maybee","state_name":"Michigan","lat":42.02562,"lng":-83.55598,"zip":"48159","miles_from_dt":15.77},{"city":"Rossford","state_name":"Ohio","lat":41.60392,"lng":-83.56328,"zip":"43460","miles_from_dt":15.95},{"city":"Dundee","state_name":"Michigan","lat":41.96553,"lng":-83.67268,"zip":"48131","miles_from_dt":15.96},{"city":"Carleton","state_name":"Michigan","lat":42.04984,"lng":-83.40997,"zip":"48117","miles_from_dt":16.27},{"city":"Toledo","state_name":"Ohio","lat":41.65254,"lng":-83.67132,"zip":"43635","miles_from_dt":16.47},{"city":"Toledo","state_name":"Ohio","lat":41.65045,"lng":-83.67255,"zip":"43615","miles_from_dt":16.62},{"city":"Millbury","state_name":"Ohio","lat":41.56654,"lng":-83.43429,"zip":"43447","miles_from_dt":17.14},{"city":"Clay Center","state_name":"Ohio","lat":41.57179,"lng":-83.36352,"zip":"43408","miles_from_dt":17.22},{"city":"Sylvania","state_name":"Ohio","lat":41.70067,"lng":-83.73799,"zip":"43560","miles_from_dt":17.4},{"city":"Martin","state_name":"Ohio","lat":41.58644,"lng":-83.29488,"zip":"43445","miles_from_dt":17.42},{"city":"Walbridge","state_name":"Ohio","lat":41.56593,"lng":-83.50489,"zip":"43465","miles_from_dt":17.53},{"city":"Toledo","state_name":"Ohio","lat":41.60336,"lng":-83.62715,"zip":"43614","miles_from_dt":17.58},{"city":"Riga","state_name":"Michigan","lat":41.79733,"lng":-83.7843,"zip":"49276","miles_from_dt":17.94},{"city":"South Rockwood","state_name":"Michigan","lat":42.03882,"lng":-83.26061,"zip":"48179","miles_from_dt":17.95},{"city":"Azalia","state_name":"Michigan","lat":42.01547,"lng":-83.66884,"zip":"48110","miles_from_dt":18.26},{"city":"Toledo","state_name":"Ohio","lat":41.66416,"lng":-83.72808,"zip":"43617","miles_from_dt":18.26},{"city":"Deerfield","state_name":"Michigan","lat":41.90593,"lng":-83.78809,"zip":"49238","miles_from_dt":19.13},{"city":"Graytown","state_name":"Ohio","lat":41.56115,"lng":-83.24934,"zip":"43432","miles_from_dt":20.05},{"city":"Genoa","state_name":"Ohio","lat":41.5238,"lng":-83.37329,"zip":"43430","miles_from_dt":20.37},{"city":"Perrysburg","state_name":"Ohio","lat":41.55391,"lng":-83.62606,"zip":"43552","miles_from_dt":20.48},{"city":"Holland","state_name":"Ohio","lat":41.62908,"lng":-83.74923,"zip":"43528","miles_from_dt":20.59},{"city":"Maumee","state_name":"Ohio","lat":41.57433,"lng":-83.68542,"zip":"43537","miles_from_dt":20.97},{"city":"Stony Ridge","state_name":"Ohio","lat":41.51141,"lng":-83.50511,"zip":"43463","miles_from_dt":21.24},{"city":"Rockwood","state_name":"Michigan","lat":42.07638,"lng":-83.21521,"zip":"48173","miles_from_dt":21.38},{"city":"Perrysburg","state_name":"Ohio","lat":41.52095,"lng":-83.57503,"zip":"43551","miles_from_dt":21.5},{"city":"Flat Rock","state_name":"Michigan","lat":42.10813,"lng":-83.29556,"zip":"48134","miles_from_dt":21.52},{"city":"New Boston","state_name":"Michigan","lat":42.1264,"lng":-83.39391,"zip":"48164","miles_from_dt":21.61},{"city":"Lemoyne","state_name":"Ohio","lat":41.49804,"lng":-83.47193,"zip":"43441","miles_from_dt":21.94},{"city":"Willis","state_name":"Michigan","lat":42.12022,"lng":-83.56492,"zip":"48191","miles_from_dt":22.06},{"city":"Berkey","state_name":"Ohio","lat":41.69736,"lng":-83.8369,"zip":"43504","miles_from_dt":22.17},{"city":"Milan","state_name":"Michigan","lat":42.08256,"lng":-83.67978,"zip":"48160","miles_from_dt":22.28},{"city":"Rocky Ridge","state_name":"Ohio","lat":41.53105,"lng":-83.21258,"zip":"43458","miles_from_dt":22.8},{"city":"Blissfield","state_name":"Michigan","lat":41.8039,"lng":-83.88247,"zip":"49228","miles_from_dt":22.97},{"city":"Britton","state_name":"Michigan","lat":41.99005,"lng":-83.82655,"zip":"49229","miles_from_dt":23.41},{"city":"Whittaker","state_name":"Michigan","lat":42.13162,"lng":-83.60327,"zip":"48190","miles_from_dt":23.46},{"city":"Monclova","state_name":"Ohio","lat":41.56642,"lng":-83.76531,"zip":"43542","miles_from_dt":24.11},{"city":"Elmore","state_name":"Ohio","lat":41.48532,"lng":-83.27055,"zip":"43416","miles_from_dt":24.34},{"city":"Luckey","state_name":"Ohio","lat":41.46099,"lng":-83.46906,"zip":"43443","miles_from_dt":24.48},{"city":"Oak Harbor","state_name":"Ohio","lat":41.5357,"lng":-83.14151,"zip":"43449","miles_from_dt":24.62},{"city":"Woodville","state_name":"Ohio","lat":41.45947,"lng":-83.36474,"zip":"43469","miles_from_dt":24.82},{"city":"Trenton","state_name":"Michigan","lat":42.1361,"lng":-83.22045,"zip":"48183","miles_from_dt":24.83},{"city":"Belleville","state_name":"Michigan","lat":42.17976,"lng":-83.48762,"zip":"48111","miles_from_dt":25.31},{"city":"Palmyra","state_name":"Michigan","lat":41.87156,"lng":-83.92565,"zip":"49268","miles_from_dt":25.48},{"city":"Grosse Ile","state_name":"Michigan","lat":42.13156,"lng":-83.1586,"zip":"48138","miles_from_dt":26.16},{"city":"Dunbridge","state_name":"Ohio","lat":41.45165,"lng":-83.61724,"zip":"43414","miles_from_dt":26.74},{"city":"Belleville","state_name":"Michigan","lat":42.20451,"lng":-83.48268,"zip":"48112","miles_from_dt":26.99},{"city":"Riverview","state_name":"Michigan","lat":42.17341,"lng":-83.21042,"zip":"48193","miles_from_dt":27.37},{"city":"Metamora","state_name":"Ohio","lat":41.69545,"lng":-83.943,"zip":"43540","miles_from_dt":27.38},{"city":"Swanton","state_name":"Ohio","lat":41.5935,"lng":-83.8781,"zip":"43558","miles_from_dt":27.43},{"city":"Romulus","state_name":"Michigan","lat":42.20862,"lng":-83.35413,"zip":"48174","miles_from_dt":27.51},{"city":"Haskins","state_name":"Ohio","lat":41.46663,"lng":-83.70098,"zip":"43525","miles_from_dt":27.63},{"city":"Waterville","state_name":"Ohio","lat":41.49467,"lng":-83.75838,"zip":"43566","miles_from_dt":27.64},{"city":"Detroit","state_name":"Michigan","lat":42.21258,"lng":-83.35203,"zip":"48242","miles_from_dt":27.8},{"city":"Ypsilanti","state_name":"Michigan","lat":42.1973,"lng":-83.62903,"zip":"48197","miles_from_dt":28.17},{"city":"Whitehouse","state_name":"Ohio","lat":41.51574,"lng":-83.81796,"zip":"43571","miles_from_dt":28.52},{"city":"Pemberville","state_name":"Ohio","lat":41.40013,"lng":-83.49324,"zip":"43450","miles_from_dt":28.77},{"city":"Lacarne","state_name":"Ohio","lat":41.51758,"lng":-83.04275,"zip":"43439","miles_from_dt":28.97},{"city":"Lindsey","state_name":"Ohio","lat":41.42911,"lng":-83.21496,"zip":"43442","miles_from_dt":29.02},{"city":"Tecumseh","state_name":"Michigan","lat":42.01443,"lng":-83.93447,"zip":"49286","miles_from_dt":29.07},{"city":"Southgate","state_name":"Michigan","lat":42.20472,"lng":-83.20568,"zip":"48195","miles_from_dt":29.43},{"city":"Taylor","state_name":"Michigan","lat":42.22605,"lng":-83.26881,"zip":"48180","miles_from_dt":29.68},{"city":"Gibsonburg","state_name":"Ohio","lat":41.38998,"lng":-83.33964,"zip":"43431","miles_from_dt":29.77},{"city":"Jasper","state_name":"Michigan","lat":41.75651,"lng":-84.01137,"zip":"49248","miles_from_dt":29.9}],"targetCityZipCode":"48157","targetCityState":"Michigan"},"__N_SSG":true}