{"pageProps":{"stateName":"Michigan","cityName":"mulliken","nearbyCities":[{"city":"Sunfield","state_name":"Michigan","lat":42.76878,"lng":-84.97167,"zip":"48890","miles_from_dt":3.84},{"city":"Grand Ledge","state_name":"Michigan","lat":42.7453,"lng":-84.76701,"zip":"48837","miles_from_dt":7.73},{"city":"Vermontville","state_name":"Michigan","lat":42.63794,"lng":-85.01409,"zip":"49096","miles_from_dt":8.04},{"city":"Portland","state_name":"Michigan","lat":42.8578,"lng":-84.93201,"zip":"48875","miles_from_dt":8.85},{"city":"Eagle","state_name":"Michigan","lat":42.83407,"lng":-84.76065,"zip":"48822","miles_from_dt":10.73},{"city":"Potterville","state_name":"Michigan","lat":42.64757,"lng":-84.73631,"zip":"48876","miles_from_dt":10.84},{"city":"Woodland","state_name":"Michigan","lat":42.70498,"lng":-85.13193,"zip":"48897","miles_from_dt":11.05},{"city":"Charlotte","state_name":"Michigan","lat":42.57862,"lng":-84.84524,"zip":"48813","miles_from_dt":11.08},{"city":"Lake Odessa","state_name":"Michigan","lat":42.7984,"lng":-85.13298,"zip":"48849","miles_from_dt":11.94},{"city":"Lansing","state_name":"Michigan","lat":42.67483,"lng":-84.67844,"zip":"48918","miles_from_dt":12.75},{"city":"Lansing","state_name":"Michigan","lat":42.67182,"lng":-84.67547,"zip":"48980","miles_from_dt":12.96},{"city":"Lansing","state_name":"Michigan","lat":42.67749,"lng":-84.66585,"zip":"48913","miles_from_dt":13.31},{"city":"Lansing","state_name":"Michigan","lat":42.73105,"lng":-84.64587,"zip":"48908","miles_from_dt":13.82},{"city":"Lansing","state_name":"Michigan","lat":42.72509,"lng":-84.63897,"zip":"48917","miles_from_dt":14.17},{"city":"Nashville","state_name":"Michigan","lat":42.57971,"lng":-85.11717,"zip":"49073","miles_from_dt":14.53},{"city":"Dimondale","state_name":"Michigan","lat":42.63873,"lng":-84.64958,"zip":"48821","miles_from_dt":15.02},{"city":"Westphalia","state_name":"Michigan","lat":42.92841,"lng":-84.79489,"zip":"48894","miles_from_dt":15.04},{"city":"Lyons","state_name":"Michigan","lat":42.95469,"lng":-84.9364,"zip":"48851","miles_from_dt":15.54},{"city":"Lansing","state_name":"Michigan","lat":42.78489,"lng":-84.58886,"zip":"48906","miles_from_dt":17.14},{"city":"Lansing","state_name":"Michigan","lat":42.73885,"lng":-84.57076,"zip":"48915","miles_from_dt":17.65},{"city":"Lansing","state_name":"Michigan","lat":42.67351,"lng":-84.57285,"zip":"48911","miles_from_dt":17.97},{"city":"Lansing","state_name":"Michigan","lat":42.67108,"lng":-84.57349,"zip":"48916","miles_from_dt":17.98},{"city":"Lansing","state_name":"Michigan","lat":42.78329,"lng":-84.5713,"zip":"48937","miles_from_dt":17.99},{"city":"Lansing","state_name":"Michigan","lat":42.73,"lng":-84.56219,"zip":"48951","miles_from_dt":18.08},{"city":"Lansing","state_name":"Michigan","lat":42.73493,"lng":-84.55937,"zip":"48930","miles_from_dt":18.22},{"city":"Lansing","state_name":"Michigan","lat":42.73507,"lng":-84.55812,"zip":"48922","miles_from_dt":18.29},{"city":"Lansing","state_name":"Michigan","lat":42.73486,"lng":-84.55688,"zip":"48929","miles_from_dt":18.35},{"city":"Lansing","state_name":"Michigan","lat":42.73481,"lng":-84.55669,"zip":"48956","miles_from_dt":18.36},{"city":"Lansing","state_name":"Michigan","lat":42.72956,"lng":-84.55595,"zip":"48933","miles_from_dt":18.39},{"city":"Lansing","state_name":"Michigan","lat":42.73231,"lng":-84.55326,"zip":"48901","miles_from_dt":18.53},{"city":"Lansing","state_name":"Michigan","lat":42.73068,"lng":-84.5529,"zip":"48919","miles_from_dt":18.55},{"city":"Lansing","state_name":"Michigan","lat":42.73335,"lng":-84.54958,"zip":"48909","miles_from_dt":18.72},{"city":"Clarksville","state_name":"Michigan","lat":42.84155,"lng":-85.25387,"zip":"48815","miles_from_dt":18.76},{"city":"Dewitt","state_name":"Michigan","lat":42.86277,"lng":-84.59374,"zip":"48820","miles_from_dt":18.83},{"city":"Ionia","state_name":"Michigan","lat":42.98611,"lng":-85.05754,"zip":"48846","miles_from_dt":19.06},{"city":"Freeport","state_name":"Michigan","lat":42.76155,"lng":-85.30162,"zip":"49325","miles_from_dt":19.67},{"city":"Pewamo","state_name":"Michigan","lat":43.00978,"lng":-84.83608,"zip":"48873","miles_from_dt":19.75},{"city":"Lansing","state_name":"Michigan","lat":42.6997,"lng":-84.52709,"zip":"48924","miles_from_dt":19.98},{"city":"Lansing","state_name":"Michigan","lat":42.73896,"lng":-84.52319,"zip":"48912","miles_from_dt":20.07},{"city":"Lansing","state_name":"Michigan","lat":42.6969,"lng":-84.52541,"zip":"48910","miles_from_dt":20.08},{"city":"Eaton Rapids","state_name":"Michigan","lat":42.509,"lng":-84.65971,"zip":"48827","miles_from_dt":20.13},{"city":"Bellevue","state_name":"Michigan","lat":42.4588,"lng":-85.06435,"zip":"49021","miles_from_dt":20.17},{"city":"Saranac","state_name":"Michigan","lat":42.934,"lng":-85.20214,"zip":"48881","miles_from_dt":20.19},{"city":"Hastings","state_name":"Michigan","lat":42.63331,"lng":-85.29316,"zip":"49058","miles_from_dt":20.27},{"city":"Holt","state_name":"Michigan","lat":42.63469,"lng":-84.53931,"zip":"48842","miles_from_dt":20.35},{"city":"Olivet","state_name":"Michigan","lat":42.4309,"lng":-84.88657,"zip":"49076","miles_from_dt":20.71},{"city":"East Lansing","state_name":"Michigan","lat":42.74419,"lng":-84.4841,"zip":"48826","miles_from_dt":22.07},{"city":"Muir","state_name":"Michigan","lat":43.05089,"lng":-84.90939,"zip":"48860","miles_from_dt":22.15},{"city":"East Lansing","state_name":"Michigan","lat":42.72844,"lng":-84.48067,"zip":"48825","miles_from_dt":22.23},{"city":"Dowling","state_name":"Michigan","lat":42.50598,"lng":-85.23651,"zip":"49050","miles_from_dt":22.45},{"city":"Fowler","state_name":"Michigan","lat":43.03008,"lng":-84.74655,"zip":"48835","miles_from_dt":22.46},{"city":"East Lansing","state_name":"Michigan","lat":42.72129,"lng":-84.47607,"zip":"48824","miles_from_dt":22.47},{"city":"East Lansing","state_name":"Michigan","lat":42.76225,"lng":-84.45407,"zip":"48823","miles_from_dt":23.68},{"city":"Bath","state_name":"Michigan","lat":42.82591,"lng":-84.45081,"zip":"48808","miles_from_dt":24.63},{"city":"Alto","state_name":"Michigan","lat":42.82307,"lng":-85.39871,"zip":"49302","miles_from_dt":25.3},{"city":"Okemos","state_name":"Michigan","lat":42.70751,"lng":-84.41501,"zip":"48805","miles_from_dt":25.62},{"city":"Saint Johns","state_name":"Michigan","lat":43.00629,"lng":-84.57981,"zip":"48879","miles_from_dt":25.64},{"city":"Mason","state_name":"Michigan","lat":42.58199,"lng":-84.45182,"zip":"48854","miles_from_dt":25.83},{"city":"Okemos","state_name":"Michigan","lat":42.70215,"lng":-84.40902,"zip":"48864","miles_from_dt":25.95},{"city":"Hubbardston","state_name":"Michigan","lat":43.10746,"lng":-84.854,"zip":"48845","miles_from_dt":26.25},{"city":"Springport","state_name":"Michigan","lat":42.38507,"lng":-84.69128,"zip":"49284","miles_from_dt":26.46},{"city":"Palo","state_name":"Michigan","lat":43.11027,"lng":-84.98483,"zip":"48870","miles_from_dt":26.47},{"city":"Orleans","state_name":"Michigan","lat":43.08785,"lng":-85.10725,"zip":"48865","miles_from_dt":26.51},{"city":"Cloverdale","state_name":"Michigan","lat":42.55267,"lng":-85.38521,"zip":"49035","miles_from_dt":26.8},{"city":"Lowell","state_name":"Michigan","lat":42.95161,"lng":-85.35139,"zip":"49331","miles_from_dt":26.83},{"city":"Onondaga","state_name":"Michigan","lat":42.44118,"lng":-84.55122,"zip":"49264","miles_from_dt":27.32},{"city":"Battle Creek","state_name":"Michigan","lat":42.3979,"lng":-85.2111,"zip":"49017","miles_from_dt":27.39},{"city":"Battle Creek","state_name":"Michigan","lat":42.39748,"lng":-85.21971,"zip":"49018","miles_from_dt":27.65},{"city":"Middleville","state_name":"Michigan","lat":42.69546,"lng":-85.46343,"zip":"49333","miles_from_dt":27.9},{"city":"Haslett","state_name":"Michigan","lat":42.76685,"lng":-84.37071,"zip":"48840","miles_from_dt":27.93},{"city":"Bedford","state_name":"Michigan","lat":42.39545,"lng":-85.23307,"zip":"49020","miles_from_dt":28.16},{"city":"Fenwick","state_name":"Michigan","lat":43.12981,"lng":-85.03108,"zip":"48834","miles_from_dt":28.19},{"city":"Maple Rapids","state_name":"Michigan","lat":43.10371,"lng":-84.68999,"zip":"48853","miles_from_dt":28.26},{"city":"Belding","state_name":"Michigan","lat":43.0646,"lng":-85.25712,"zip":"48809","miles_from_dt":28.82},{"city":"Smyrna","state_name":"Michigan","lat":43.06242,"lng":-85.26273,"zip":"48887","miles_from_dt":28.87},{"city":"Delton","state_name":"Michigan","lat":42.51229,"lng":-85.40249,"zip":"49046","miles_from_dt":28.94}],"targetCityZipCode":"48861","targetCityState":"Michigan"},"__N_SSG":true}