{"pageProps":{"stateName":"Michigan","cityName":"napoleon","nearbyCities":[{"city":"Norvell","state_name":"Michigan","lat":42.15817,"lng":-84.18225,"zip":"49263","miles_from_dt":3.34},{"city":"Brooklyn","state_name":"Michigan","lat":42.09701,"lng":-84.22266,"zip":"49230","miles_from_dt":4.64},{"city":"Michigan Center","state_name":"Michigan","lat":42.2268,"lng":-84.32165,"zip":"49254","miles_from_dt":5.9},{"city":"Clarklake","state_name":"Michigan","lat":42.12114,"lng":-84.3673,"zip":"49234","miles_from_dt":6.78},{"city":"Grass Lake","state_name":"Michigan","lat":42.27821,"lng":-84.18027,"zip":"49240","miles_from_dt":8.74},{"city":"Jackson","state_name":"Michigan","lat":42.22096,"lng":-84.40347,"zip":"49203","miles_from_dt":9},{"city":"Cement City","state_name":"Michigan","lat":42.0644,"lng":-84.36512,"zip":"49233","miles_from_dt":9.05},{"city":"Jackson","state_name":"Michigan","lat":42.25213,"lng":-84.38301,"zip":"49201","miles_from_dt":9.35},{"city":"Somerset","state_name":"Michigan","lat":42.05193,"lng":-84.38291,"zip":"49281","miles_from_dt":10.3},{"city":"Onsted","state_name":"Michigan","lat":42.01022,"lng":-84.17432,"zip":"49265","miles_from_dt":11.11},{"city":"Jackson","state_name":"Michigan","lat":42.26737,"lng":-84.4107,"zip":"49202","miles_from_dt":11.11},{"city":"Manchester","state_name":"Michigan","lat":42.15564,"lng":-84.03031,"zip":"48158","miles_from_dt":11.15},{"city":"Somerset Center","state_name":"Michigan","lat":42.03496,"lng":-84.40518,"zip":"49282","miles_from_dt":11.94},{"city":"Addison","state_name":"Michigan","lat":41.99511,"lng":-84.34108,"zip":"49220","miles_from_dt":12.47},{"city":"Tipton","state_name":"Michigan","lat":42.02177,"lng":-84.08263,"zip":"49287","miles_from_dt":12.84},{"city":"Horton","state_name":"Michigan","lat":42.12268,"lng":-84.50366,"zip":"49246","miles_from_dt":13.45},{"city":"Manitou Beach","state_name":"Michigan","lat":41.96443,"lng":-84.2697,"zip":"49253","miles_from_dt":13.67},{"city":"Jerome","state_name":"Michigan","lat":42.02275,"lng":-84.45575,"zip":"49249","miles_from_dt":14.39},{"city":"Chelsea","state_name":"Michigan","lat":42.31151,"lng":-84.03835,"zip":"48118","miles_from_dt":14.89},{"city":"Munith","state_name":"Michigan","lat":42.38099,"lng":-84.25763,"zip":"49259","miles_from_dt":15.14},{"city":"Moscow","state_name":"Michigan","lat":42.05108,"lng":-84.50897,"zip":"49257","miles_from_dt":15.47},{"city":"Spring Arbor","state_name":"Michigan","lat":42.20486,"lng":-84.55478,"zip":"49283","miles_from_dt":16.07},{"city":"Clinton","state_name":"Michigan","lat":42.07792,"lng":-83.95035,"zip":"49236","miles_from_dt":16.31},{"city":"Bridgewater","state_name":"Michigan","lat":42.16051,"lng":-83.92133,"zip":"48115","miles_from_dt":16.73},{"city":"Pleasant Lake","state_name":"Michigan","lat":42.39299,"lng":-84.34974,"zip":"49272","miles_from_dt":16.8},{"city":"North Adams","state_name":"Michigan","lat":41.96162,"lng":-84.4673,"zip":"49262","miles_from_dt":17.86},{"city":"Jackson","state_name":"Michigan","lat":42.33007,"lng":-84.51521,"zip":"49204","miles_from_dt":18},{"city":"Hanover","state_name":"Michigan","lat":42.10121,"lng":-84.60149,"zip":"49241","miles_from_dt":18.67},{"city":"Tecumseh","state_name":"Michigan","lat":42.01443,"lng":-83.93447,"zip":"49286","miles_from_dt":19.02},{"city":"Rives Junction","state_name":"Michigan","lat":42.38871,"lng":-84.46679,"zip":"49277","miles_from_dt":19.29},{"city":"Parma","state_name":"Michigan","lat":42.29307,"lng":-84.586,"zip":"49269","miles_from_dt":19.6},{"city":"Adrian","state_name":"Michigan","lat":41.90343,"lng":-84.06372,"zip":"49221","miles_from_dt":20.17},{"city":"Concord","state_name":"Michigan","lat":42.1731,"lng":-84.64906,"zip":"49237","miles_from_dt":20.65},{"city":"Clayton","state_name":"Michigan","lat":41.86348,"lng":-84.21348,"zip":"49235","miles_from_dt":20.66},{"city":"Stockbridge","state_name":"Michigan","lat":42.46855,"lng":-84.20752,"zip":"49285","miles_from_dt":21.27},{"city":"Jonesville","state_name":"Michigan","lat":42.01875,"lng":-84.62168,"zip":"49250","miles_from_dt":21.63},{"city":"Ann Arbor","state_name":"Michigan","lat":42.2581,"lng":-83.84333,"zip":"48103","miles_from_dt":21.76},{"city":"Dexter","state_name":"Michigan","lat":42.3547,"lng":-83.90272,"zip":"48130","miles_from_dt":22.12},{"city":"Saline","state_name":"Michigan","lat":42.15067,"lng":-83.81477,"zip":"48176","miles_from_dt":22.22},{"city":"Hudson","state_name":"Michigan","lat":41.84712,"lng":-84.34189,"zip":"49247","miles_from_dt":22.25},{"city":"Mosherville","state_name":"Michigan","lat":42.06,"lng":-84.65833,"zip":"49258","miles_from_dt":22.26},{"city":"Gregory","state_name":"Michigan","lat":42.46191,"lng":-84.07367,"zip":"48137","miles_from_dt":22.54},{"city":"Leslie","state_name":"Michigan","lat":42.46561,"lng":-84.40916,"zip":"49251","miles_from_dt":22.55},{"city":"Britton","state_name":"Michigan","lat":41.99005,"lng":-83.82655,"zip":"49229","miles_from_dt":24.66},{"city":"Pittsford","state_name":"Michigan","lat":41.83813,"lng":-84.45382,"zip":"49271","miles_from_dt":24.74},{"city":"Onondaga","state_name":"Michigan","lat":42.44118,"lng":-84.55122,"zip":"49264","miles_from_dt":24.79},{"city":"Pinckney","state_name":"Michigan","lat":42.46348,"lng":-83.94955,"zip":"48169","miles_from_dt":25.81},{"city":"Palmyra","state_name":"Michigan","lat":41.87156,"lng":-83.92565,"zip":"49268","miles_from_dt":25.98},{"city":"Ann Arbor","state_name":"Michigan","lat":42.22795,"lng":-83.73885,"zip":"48106","miles_from_dt":26.49},{"city":"Dansville","state_name":"Michigan","lat":42.54721,"lng":-84.28521,"zip":"48819","miles_from_dt":26.68},{"city":"Ann Arbor","state_name":"Michigan","lat":42.22206,"lng":-83.7317,"zip":"48108","miles_from_dt":26.78},{"city":"Osseo","state_name":"Michigan","lat":41.84247,"lng":-84.54641,"zip":"49266","miles_from_dt":26.89},{"city":"Hillsdale","state_name":"Michigan","lat":41.88434,"lng":-84.61581,"zip":"49242","miles_from_dt":26.95},{"city":"Albion","state_name":"Michigan","lat":42.27982,"lng":-84.74852,"zip":"49224","miles_from_dt":26.98},{"city":"Sand Creek","state_name":"Michigan","lat":41.77965,"lng":-84.10409,"zip":"49279","miles_from_dt":27.38},{"city":"Springport","state_name":"Michigan","lat":42.38507,"lng":-84.69128,"zip":"49284","miles_from_dt":27.49},{"city":"Ann Arbor","state_name":"Michigan","lat":42.27423,"lng":-83.73095,"zip":"48113","miles_from_dt":27.6},{"city":"Weston","state_name":"Michigan","lat":41.77144,"lng":-84.10702,"zip":"49289","miles_from_dt":27.89},{"city":"Litchfield","state_name":"Michigan","lat":42.03853,"lng":-84.76683,"zip":"49252","miles_from_dt":28.03},{"city":"Ann Arbor","state_name":"Michigan","lat":42.26343,"lng":-83.71748,"zip":"48104","miles_from_dt":28.07},{"city":"Ann Arbor","state_name":"Michigan","lat":42.28408,"lng":-83.72531,"zip":"48109","miles_from_dt":28.07},{"city":"Morenci","state_name":"Michigan","lat":41.74989,"lng":-84.22122,"zip":"49256","miles_from_dt":28.46},{"city":"Lakeland","state_name":"Michigan","lat":42.45877,"lng":-83.84701,"zip":"48143","miles_from_dt":28.99},{"city":"Homer","state_name":"Michigan","lat":42.14085,"lng":-84.81797,"zip":"49245","miles_from_dt":29.35},{"city":"Whitmore Lake","state_name":"Michigan","lat":42.41137,"lng":-83.78306,"zip":"48189","miles_from_dt":29.37},{"city":"Deerfield","state_name":"Michigan","lat":41.90593,"lng":-83.78809,"zip":"49238","miles_from_dt":29.49},{"city":"Milan","state_name":"Michigan","lat":42.08256,"lng":-83.67978,"zip":"48160","miles_from_dt":29.66},{"city":"Ann Arbor","state_name":"Michigan","lat":42.25641,"lng":-83.68054,"zip":"48107","miles_from_dt":29.8}],"targetCityZipCode":"49261","targetCityState":"Michigan"},"__N_SSG":true}