{"pageProps":{"stateName":"Michigan","cityName":"new-haven","nearbyCities":[{"city":"New Haven","state_name":"Michigan","lat":42.78486,"lng":-82.80139,"zip":"48050","miles_from_dt":2.99},{"city":"New Baltimore","state_name":"Michigan","lat":42.69067,"lng":-82.82582,"zip":"48051","miles_from_dt":3.84},{"city":"New Baltimore","state_name":"Michigan","lat":42.67754,"lng":-82.77744,"zip":"48047","miles_from_dt":4.52},{"city":"Anchorville","state_name":"Michigan","lat":42.7137,"lng":-82.6822,"zip":"48004","miles_from_dt":6.09},{"city":"Ray","state_name":"Michigan","lat":42.76132,"lng":-82.9199,"zip":"48096","miles_from_dt":6.47},{"city":"Casco","state_name":"Michigan","lat":42.76719,"lng":-82.67233,"zip":"48064","miles_from_dt":6.51},{"city":"Macomb","state_name":"Michigan","lat":42.68673,"lng":-82.90857,"zip":"48042","miles_from_dt":6.89},{"city":"Richmond","state_name":"Michigan","lat":42.84899,"lng":-82.79989,"zip":"48062","miles_from_dt":7.41},{"city":"Fair Haven","state_name":"Michigan","lat":42.70102,"lng":-82.6593,"zip":"48023","miles_from_dt":7.48},{"city":"Macomb","state_name":"Michigan","lat":42.64988,"lng":-82.9296,"zip":"48044","miles_from_dt":9.31},{"city":"Armada","state_name":"Michigan","lat":42.85022,"lng":-82.92317,"zip":"48005","miles_from_dt":9.91},{"city":"Columbus","state_name":"Michigan","lat":42.85581,"lng":-82.67676,"zip":"48063","miles_from_dt":9.93},{"city":"Harrison Township","state_name":"Michigan","lat":42.59121,"lng":-82.83017,"zip":"48045","miles_from_dt":10.54},{"city":"Mount Clemens","state_name":"Michigan","lat":42.59763,"lng":-82.88208,"zip":"48043","miles_from_dt":10.88},{"city":"Mount Clemens","state_name":"Michigan","lat":42.59213,"lng":-82.88376,"zip":"48046","miles_from_dt":11.26},{"city":"Utica","state_name":"Michigan","lat":42.67254,"lng":-82.9963,"zip":"48315","miles_from_dt":11.28},{"city":"Clinton Township","state_name":"Michigan","lat":42.59227,"lng":-82.89971,"zip":"48036","miles_from_dt":11.6},{"city":"Clinton Township","state_name":"Michigan","lat":42.6054,"lng":-82.94152,"zip":"48038","miles_from_dt":11.99},{"city":"Washington","state_name":"Michigan","lat":42.73645,"lng":-83.03718,"zip":"48094","miles_from_dt":12.3},{"city":"Washington","state_name":"Michigan","lat":42.77977,"lng":-83.03837,"zip":"48095","miles_from_dt":12.63},{"city":"Marine City","state_name":"Michigan","lat":42.69664,"lng":-82.55052,"zip":"48039","miles_from_dt":12.85},{"city":"East China","state_name":"Michigan","lat":42.77054,"lng":-82.54515,"zip":"48054","miles_from_dt":12.89},{"city":"Algonac","state_name":"Michigan","lat":42.63732,"lng":-82.57949,"zip":"48001","miles_from_dt":13.15},{"city":"Memphis","state_name":"Michigan","lat":42.93861,"lng":-82.80271,"zip":"48041","miles_from_dt":13.6},{"city":"Utica","state_name":"Michigan","lat":42.69059,"lng":-83.05671,"zip":"48316","miles_from_dt":13.75},{"city":"Harsens Island","state_name":"Michigan","lat":42.58947,"lng":-82.61948,"zip":"48028","miles_from_dt":13.82},{"city":"Clinton Township","state_name":"Michigan","lat":42.55615,"lng":-82.90948,"zip":"48035","miles_from_dt":14.06},{"city":"Sterling Heights","state_name":"Michigan","lat":42.59985,"lng":-82.99984,"zip":"48313","miles_from_dt":14.29},{"city":"Romeo","state_name":"Michigan","lat":42.84554,"lng":-83.04072,"zip":"48065","miles_from_dt":14.38},{"city":"Utica","state_name":"Michigan","lat":42.62446,"lng":-83.03325,"zip":"48318","miles_from_dt":14.56},{"city":"Utica","state_name":"Michigan","lat":42.64673,"lng":-83.05334,"zip":"48317","miles_from_dt":14.67},{"city":"Saint Clair","state_name":"Michigan","lat":42.8576,"lng":-82.54721,"zip":"48079","miles_from_dt":14.95},{"city":"Goodells","state_name":"Michigan","lat":42.94466,"lng":-82.68217,"zip":"48027","miles_from_dt":15.15},{"city":"Allenton","state_name":"Michigan","lat":42.93916,"lng":-82.92601,"zip":"48002","miles_from_dt":15.16},{"city":"Saint Clair Shores","state_name":"Michigan","lat":42.5271,"lng":-82.88711,"zip":"48082","miles_from_dt":15.53},{"city":"Sterling Heights","state_name":"Michigan","lat":42.60978,"lng":-83.05426,"zip":"48314","miles_from_dt":16.02},{"city":"Fraser","state_name":"Michigan","lat":42.53879,"lng":-82.94964,"zip":"48026","miles_from_dt":16.06},{"city":"Sterling Heights","state_name":"Michigan","lat":42.57833,"lng":-83.02844,"zip":"48311","miles_from_dt":16.37},{"city":"Sterling Heights","state_name":"Michigan","lat":42.55831,"lng":-83.00914,"zip":"48312","miles_from_dt":16.69},{"city":"Rochester","state_name":"Michigan","lat":42.65953,"lng":-83.12301,"zip":"48307","miles_from_dt":17.61},{"city":"Roseville","state_name":"Michigan","lat":42.50735,"lng":-82.93697,"zip":"48066","miles_from_dt":17.71},{"city":"Rochester","state_name":"Michigan","lat":42.6784,"lng":-83.1341,"zip":"48308","miles_from_dt":17.78},{"city":"Saint Clair Shores","state_name":"Michigan","lat":42.4955,"lng":-82.89912,"zip":"48081","miles_from_dt":17.79},{"city":"Rochester","state_name":"Michigan","lat":42.72243,"lng":-83.14944,"zip":"48306","miles_from_dt":18.06},{"city":"Almont","state_name":"Michigan","lat":42.93228,"lng":-83.04088,"zip":"48003","miles_from_dt":18.12},{"city":"Warren","state_name":"Michigan","lat":42.51573,"lng":-82.98298,"zip":"48088","miles_from_dt":18.29},{"city":"Sterling Heights","state_name":"Michigan","lat":42.56511,"lng":-83.06694,"zip":"48310","miles_from_dt":18.43},{"city":"Smiths Creek","state_name":"Michigan","lat":42.9484,"lng":-82.56196,"zip":"48074","miles_from_dt":18.56},{"city":"Oakland","state_name":"Michigan","lat":42.77209,"lng":-83.16114,"zip":"48363","miles_from_dt":18.71},{"city":"Leonard","state_name":"Michigan","lat":42.84282,"lng":-83.14143,"zip":"48367","miles_from_dt":18.92},{"city":"Lakeville","state_name":"Michigan","lat":42.82169,"lng":-83.15218,"zip":"48366","miles_from_dt":18.95},{"city":"Troy","state_name":"Michigan","lat":42.6006,"lng":-83.11982,"zip":"48085","miles_from_dt":19.17},{"city":"Warren","state_name":"Michigan","lat":42.51483,"lng":-83.01554,"zip":"48093","miles_from_dt":19.26},{"city":"Marysville","state_name":"Michigan","lat":42.90983,"lng":-82.48022,"zip":"48040","miles_from_dt":19.78},{"city":"Emmett","state_name":"Michigan","lat":43.02824,"lng":-82.81111,"zip":"48022","miles_from_dt":19.8},{"city":"Saint Clair Shores","state_name":"Michigan","lat":42.46418,"lng":-82.90031,"zip":"48080","miles_from_dt":19.89},{"city":"Warren","state_name":"Michigan","lat":42.45537,"lng":-82.88526,"zip":"48090","miles_from_dt":20.29},{"city":"Eastpointe","state_name":"Michigan","lat":42.46567,"lng":-82.94598,"zip":"48021","miles_from_dt":20.54},{"city":"Rochester","state_name":"Michigan","lat":42.65866,"lng":-83.18348,"zip":"48309","miles_from_dt":20.56},{"city":"Capac","state_name":"Michigan","lat":43.02466,"lng":-82.93115,"zip":"48014","miles_from_dt":20.71},{"city":"Warren","state_name":"Michigan","lat":42.51308,"lng":-83.05968,"zip":"48092","miles_from_dt":20.74},{"city":"Troy","state_name":"Michigan","lat":42.557,"lng":-83.11676,"zip":"48083","miles_from_dt":20.75},{"city":"Warren","state_name":"Michigan","lat":42.50387,"lng":-83.04567,"zip":"48397","miles_from_dt":20.79},{"city":"Troy","state_name":"Michigan","lat":42.581,"lng":-83.14574,"zip":"48007","miles_from_dt":21.01},{"city":"Warren","state_name":"Michigan","lat":42.4702,"lng":-82.99549,"zip":"48089","miles_from_dt":21.33},{"city":"Center Line","state_name":"Michigan","lat":42.48055,"lng":-83.02743,"zip":"48015","miles_from_dt":21.56},{"city":"Oxford","state_name":"Michigan","lat":42.83797,"lng":-83.19981,"zip":"48370","miles_from_dt":21.6},{"city":"Troy","state_name":"Michigan","lat":42.56173,"lng":-83.14647,"zip":"48099","miles_from_dt":21.77},{"city":"Troy","state_name":"Michigan","lat":42.59903,"lng":-83.1789,"zip":"48098","miles_from_dt":21.87},{"city":"Detroit","state_name":"Michigan","lat":42.44113,"lng":-82.93099,"zip":"48265","miles_from_dt":21.87},{"city":"Harper Woods","state_name":"Michigan","lat":42.43893,"lng":-82.92965,"zip":"48225","miles_from_dt":21.99},{"city":"Dryden","state_name":"Michigan","lat":42.93752,"lng":-83.14756,"zip":"48428","miles_from_dt":22.41},{"city":"Grosse Pointe","state_name":"Michigan","lat":42.42504,"lng":-82.89687,"zip":"48236","miles_from_dt":22.46},{"city":"Madison Heights","state_name":"Michigan","lat":42.50726,"lng":-83.10337,"zip":"48071","miles_from_dt":22.54},{"city":"Lake Orion","state_name":"Michigan","lat":42.78444,"lng":-83.23808,"zip":"48361","miles_from_dt":22.7},{"city":"Clawson","state_name":"Michigan","lat":42.53669,"lng":-83.15039,"zip":"48017","miles_from_dt":22.96},{"city":"Troy","state_name":"Michigan","lat":42.56065,"lng":-83.17559,"zip":"48084","miles_from_dt":23.05},{"city":"Warren","state_name":"Michigan","lat":42.4681,"lng":-83.05819,"zip":"48091","miles_from_dt":23.15},{"city":"North Street","state_name":"Michigan","lat":43.0361,"lng":-82.57504,"zip":"48049","miles_from_dt":23.2},{"city":"Auburn Hills","state_name":"Michigan","lat":42.67434,"lng":-83.2424,"zip":"48321","miles_from_dt":23.22},{"city":"Detroit","state_name":"Michigan","lat":42.43317,"lng":-82.98131,"zip":"48205","miles_from_dt":23.31},{"city":"Port Huron","state_name":"Michigan","lat":42.97835,"lng":-82.46297,"zip":"48060","miles_from_dt":23.5},{"city":"Avoca","state_name":"Michigan","lat":43.0754,"lng":-82.69642,"zip":"48006","miles_from_dt":23.58},{"city":"Auburn Hills","state_name":"Michigan","lat":42.67536,"lng":-83.2531,"zip":"48326","miles_from_dt":23.74},{"city":"Lake Orion","state_name":"Michigan","lat":42.74903,"lng":-83.26789,"zip":"48360","miles_from_dt":24.03},{"city":"Detroit","state_name":"Michigan","lat":42.41074,"lng":-82.94147,"zip":"48224","miles_from_dt":24.03},{"city":"Royal Oak","state_name":"Michigan","lat":42.51919,"lng":-83.16437,"zip":"48073","miles_from_dt":24.27},{"city":"Lake Orion","state_name":"Michigan","lat":42.782,"lng":-83.2696,"zip":"48362","miles_from_dt":24.27},{"city":"Lake Orion","state_name":"Michigan","lat":42.7218,"lng":-83.27801,"zip":"48359","miles_from_dt":24.59},{"city":"Royal Oak","state_name":"Michigan","lat":42.49053,"lng":-83.13786,"zip":"48067","miles_from_dt":24.6},{"city":"Hazel Park","state_name":"Michigan","lat":42.46193,"lng":-83.09769,"zip":"48030","miles_from_dt":24.7},{"city":"Bloomfield Hills","state_name":"Michigan","lat":42.58745,"lng":-83.23442,"zip":"48304","miles_from_dt":24.76},{"city":"Detroit","state_name":"Michigan","lat":42.4312,"lng":-83.03952,"zip":"48234","miles_from_dt":24.78},{"city":"Birmingham","state_name":"Michigan","lat":42.54487,"lng":-83.20846,"zip":"48012","miles_from_dt":25.05},{"city":"Royal Oak","state_name":"Michigan","lat":42.48523,"lng":-83.14654,"zip":"48068","miles_from_dt":25.17},{"city":"Pontiac","state_name":"Michigan","lat":42.64389,"lng":-83.27591,"zip":"48342","miles_from_dt":25.37},{"city":"Port Huron","state_name":"Michigan","lat":42.99426,"lng":-82.43191,"zip":"48061","miles_from_dt":25.4},{"city":"Bloomfield Hills","state_name":"Michigan","lat":42.5823,"lng":-83.24525,"zip":"48303","miles_from_dt":25.41},{"city":"Birmingham","state_name":"Michigan","lat":42.54381,"lng":-83.21765,"zip":"48009","miles_from_dt":25.48},{"city":"Grosse Pointe","state_name":"Michigan","lat":42.38353,"lng":-82.92304,"zip":"48230","miles_from_dt":25.56},{"city":"Pontiac","state_name":"Michigan","lat":42.67065,"lng":-83.29019,"zip":"48340","miles_from_dt":25.65},{"city":"Pleasant Ridge","state_name":"Michigan","lat":42.47151,"lng":-83.14447,"zip":"48069","miles_from_dt":25.77},{"city":"Detroit","state_name":"Michigan","lat":42.39787,"lng":-82.9955,"zip":"48213","miles_from_dt":25.83},{"city":"Imlay City","state_name":"Michigan","lat":43.06455,"lng":-83.05471,"zip":"48444","miles_from_dt":25.88},{"city":"Oxford","state_name":"Michigan","lat":42.84544,"lng":-83.28785,"zip":"48371","miles_from_dt":26.03},{"city":"Berkley","state_name":"Michigan","lat":42.49789,"lng":-83.18586,"zip":"48072","miles_from_dt":26.06},{"city":"Ferndale","state_name":"Michigan","lat":42.45805,"lng":-83.13519,"zip":"48220","miles_from_dt":26.14},{"city":"Huntington Woods","state_name":"Michigan","lat":42.48161,"lng":-83.16852,"zip":"48070","miles_from_dt":26.15},{"city":"Pontiac","state_name":"Michigan","lat":42.64041,"lng":-83.29074,"zip":"48343","miles_from_dt":26.17},{"city":"Hamtramck","state_name":"Michigan","lat":42.41003,"lng":-83.05601,"zip":"48212","miles_from_dt":26.47},{"city":"Detroit","state_name":"Michigan","lat":42.37523,"lng":-82.95428,"zip":"48215","miles_from_dt":26.56},{"city":"Pontiac","state_name":"Michigan","lat":42.6275,"lng":-83.29433,"zip":"48341","miles_from_dt":26.59},{"city":"Yale","state_name":"Michigan","lat":43.12639,"lng":-82.82955,"zip":"48097","miles_from_dt":26.61},{"city":"Highland Park","state_name":"Michigan","lat":42.42176,"lng":-83.1031,"zip":"48203","miles_from_dt":27.09},{"city":"Detroit","state_name":"Michigan","lat":42.41881,"lng":-83.10498,"zip":"48288","miles_from_dt":27.31},{"city":"Oak Park","state_name":"Michigan","lat":42.46494,"lng":-83.18241,"zip":"48237","miles_from_dt":27.46},{"city":"Bloomfield Hills","state_name":"Michigan","lat":42.5849,"lng":-83.29608,"zip":"48302","miles_from_dt":27.7},{"city":"Detroit","state_name":"Michigan","lat":42.36504,"lng":-82.98697,"zip":"48214","miles_from_dt":27.77},{"city":"Southfield","state_name":"Michigan","lat":42.49754,"lng":-83.23067,"zip":"48076","miles_from_dt":27.86},{"city":"Fort Gratiot","state_name":"Michigan","lat":43.08253,"lng":-82.49913,"zip":"48059","miles_from_dt":27.92},{"city":"Detroit","state_name":"Michigan","lat":42.38175,"lng":-83.04616,"zip":"48211","miles_from_dt":27.94},{"city":"Detroit","state_name":"Michigan","lat":42.4272,"lng":-83.14949,"zip":"48221","miles_from_dt":28.23},{"city":"Bloomfield Hills","state_name":"Michigan","lat":42.54441,"lng":-83.28284,"zip":"48301","miles_from_dt":28.32},{"city":"Franklin","state_name":"Michigan","lat":42.52032,"lng":-83.26744,"zip":"48025","miles_from_dt":28.49},{"city":"Metamora","state_name":"Michigan","lat":42.94028,"lng":-83.29131,"zip":"48455","miles_from_dt":28.67},{"city":"Jeddo","state_name":"Michigan","lat":43.13278,"lng":-82.59457,"zip":"48032","miles_from_dt":28.86},{"city":"Keego Harbor","state_name":"Michigan","lat":42.61274,"lng":-83.33824,"zip":"48320","miles_from_dt":29.04},{"city":"Detroit","state_name":"Michigan","lat":42.37463,"lng":-83.07764,"zip":"48202","miles_from_dt":29.14},{"city":"Attica","state_name":"Michigan","lat":43.06484,"lng":-83.16932,"zip":"48412","miles_from_dt":29.28},{"city":"Waterford","state_name":"Michigan","lat":42.64597,"lng":-83.35603,"zip":"48328","miles_from_dt":29.29},{"city":"Detroit","state_name":"Michigan","lat":42.34753,"lng":-83.01104,"zip":"48207","miles_from_dt":29.35},{"city":"Southfield","state_name":"Michigan","lat":42.4618,"lng":-83.2299,"zip":"48075","miles_from_dt":29.39},{"city":"Detroit","state_name":"Michigan","lat":42.34445,"lng":-83.00918,"zip":"48266","miles_from_dt":29.51},{"city":"Detroit","state_name":"Michigan","lat":42.39626,"lng":-83.14136,"zip":"48238","miles_from_dt":29.66},{"city":"Southfield","state_name":"Michigan","lat":42.48596,"lng":-83.26544,"zip":"48037","miles_from_dt":29.76},{"city":"Detroit","state_name":"Michigan","lat":42.42702,"lng":-83.1947,"zip":"48235","miles_from_dt":29.77},{"city":"Drayton Plains","state_name":"Michigan","lat":42.68362,"lng":-83.37719,"zip":"48330","miles_from_dt":29.88},{"city":"Detroit","state_name":"Michigan","lat":42.3751,"lng":-83.10782,"zip":"48206","miles_from_dt":29.9}],"targetCityZipCode":"48048","targetCityState":"Michigan"},"__N_SSG":true}