{"pageProps":{"stateName":"Michigan","cityName":"sparta","nearbyCities":[{"city":"Comstock Park","state_name":"Michigan","lat":43.0737,"lng":-85.68198,"zip":"49321","miles_from_dt":5.65},{"city":"Kent City","state_name":"Michigan","lat":43.24463,"lng":-85.73721,"zip":"49330","miles_from_dt":6.49},{"city":"Rockford","state_name":"Michigan","lat":43.12526,"lng":-85.55903,"zip":"49351","miles_from_dt":7.51},{"city":"Conklin","state_name":"Michigan","lat":43.13316,"lng":-85.85022,"zip":"49403","miles_from_dt":7.62},{"city":"Grand Rapids","state_name":"Michigan","lat":43.04591,"lng":-85.7417,"zip":"49544","miles_from_dt":7.74},{"city":"Casnovia","state_name":"Michigan","lat":43.22319,"lng":-85.82981,"zip":"49318","miles_from_dt":8.01},{"city":"Belmont","state_name":"Michigan","lat":43.07296,"lng":-85.56939,"zip":"49306","miles_from_dt":8.75},{"city":"Cedar Springs","state_name":"Michigan","lat":43.22767,"lng":-85.5281,"zip":"49319","miles_from_dt":10.15},{"city":"Grand Rapids","state_name":"Michigan","lat":43.02206,"lng":-85.61258,"zip":"49510","miles_from_dt":10.19},{"city":"Grand Rapids","state_name":"Michigan","lat":43.02144,"lng":-85.5918,"zip":"49525","miles_from_dt":10.73},{"city":"Rockford","state_name":"Michigan","lat":43.12433,"lng":-85.49246,"zip":"49341","miles_from_dt":10.8},{"city":"Cannonsburg","state_name":"Michigan","lat":43.13059,"lng":-85.48243,"zip":"49317","miles_from_dt":11.23},{"city":"Marne","state_name":"Michigan","lat":43.02683,"lng":-85.84049,"zip":"49435","miles_from_dt":11.23},{"city":"Grand Rapids","state_name":"Michigan","lat":42.9984,"lng":-85.63699,"zip":"49505","miles_from_dt":11.25},{"city":"Bailey","state_name":"Michigan","lat":43.27803,"lng":-85.85824,"zip":"49303","miles_from_dt":11.62},{"city":"Grand Rapids","state_name":"Michigan","lat":42.98047,"lng":-85.70937,"zip":"49504","miles_from_dt":12},{"city":"Grand Rapids","state_name":"Michigan","lat":42.96964,"lng":-85.66586,"zip":"49555","miles_from_dt":12.87},{"city":"Sand Lake","state_name":"Michigan","lat":43.29579,"lng":-85.53115,"zip":"49343","miles_from_dt":13.04},{"city":"Grand Rapids","state_name":"Michigan","lat":42.96524,"lng":-85.67299,"zip":"49523","miles_from_dt":13.13},{"city":"Grand Rapids","state_name":"Michigan","lat":42.96557,"lng":-85.65593,"zip":"49514","miles_from_dt":13.23},{"city":"Grand Rapids","state_name":"Michigan","lat":42.96492,"lng":-85.65854,"zip":"49501","miles_from_dt":13.25},{"city":"Grand Rapids","state_name":"Michigan","lat":42.97106,"lng":-85.78834,"zip":"49534","miles_from_dt":13.37},{"city":"Grand Rapids","state_name":"Michigan","lat":42.96354,"lng":-85.65622,"zip":"49588","miles_from_dt":13.37},{"city":"Grand Rapids","state_name":"Michigan","lat":42.96282,"lng":-85.65872,"zip":"49503","miles_from_dt":13.39},{"city":"Grand Rapids","state_name":"Michigan","lat":42.96338,"lng":-85.65275,"zip":"49599","miles_from_dt":13.41},{"city":"Grand Rapids","state_name":"Michigan","lat":42.96289,"lng":-85.65454,"zip":"49515","miles_from_dt":13.42},{"city":"Grand Rapids","state_name":"Michigan","lat":42.96146,"lng":-85.66187,"zip":"49502","miles_from_dt":13.46},{"city":"Coopersville","state_name":"Michigan","lat":43.06602,"lng":-85.95129,"zip":"49404","miles_from_dt":13.99},{"city":"Lamont","state_name":"Michigan","lat":43.01192,"lng":-85.90053,"zip":"49430","miles_from_dt":14.04},{"city":"Ravenna","state_name":"Michigan","lat":43.21177,"lng":-85.96966,"zip":"49451","miles_from_dt":14.08},{"city":"Grant","state_name":"Michigan","lat":43.33507,"lng":-85.84558,"zip":"49327","miles_from_dt":14.43},{"city":"Grand Rapids","state_name":"Michigan","lat":42.94515,"lng":-85.6136,"zip":"49506","miles_from_dt":15.11},{"city":"Grand Rapids","state_name":"Michigan","lat":42.93054,"lng":-85.65524,"zip":"49507","miles_from_dt":15.62},{"city":"Pierson","state_name":"Michigan","lat":43.33574,"lng":-85.49454,"zip":"49339","miles_from_dt":16.34},{"city":"Ada","state_name":"Michigan","lat":42.97716,"lng":-85.47671,"zip":"49301","miles_from_dt":16.72},{"city":"Grandville","state_name":"Michigan","lat":42.90588,"lng":-85.75528,"zip":"49468","miles_from_dt":17.35},{"city":"Jenison","state_name":"Michigan","lat":42.92042,"lng":-85.83712,"zip":"49428","miles_from_dt":17.52},{"city":"Grand Rapids","state_name":"Michigan","lat":42.9,"lng":-85.67219,"zip":"49528","miles_from_dt":17.61},{"city":"Ada","state_name":"Michigan","lat":42.95688,"lng":-85.4814,"zip":"49356","miles_from_dt":17.62},{"city":"Wyoming","state_name":"Michigan","lat":42.89914,"lng":-85.7192,"zip":"49519","miles_from_dt":17.63},{"city":"Wyoming","state_name":"Michigan","lat":42.89773,"lng":-85.69299,"zip":"49509","miles_from_dt":17.71},{"city":"Grand Rapids","state_name":"Michigan","lat":42.92815,"lng":-85.53629,"zip":"49546","miles_from_dt":17.72},{"city":"Allendale","state_name":"Michigan","lat":42.9763,"lng":-85.95604,"zip":"49401","miles_from_dt":17.77},{"city":"Ada","state_name":"Michigan","lat":42.95038,"lng":-85.48748,"zip":"49357","miles_from_dt":17.78},{"city":"Ada","state_name":"Michigan","lat":42.9539,"lng":-85.47866,"zip":"49355","miles_from_dt":17.87},{"city":"Grand Rapids","state_name":"Michigan","lat":42.91906,"lng":-85.52706,"zip":"49516","miles_from_dt":18.5},{"city":"Nunica","state_name":"Michigan","lat":43.09074,"lng":-86.07432,"zip":"49448","miles_from_dt":19.32},{"city":"Jenison","state_name":"Michigan","lat":42.89011,"lng":-85.8311,"zip":"49429","miles_from_dt":19.36},{"city":"Newaygo","state_name":"Michigan","lat":43.43472,"lng":-85.71437,"zip":"49337","miles_from_dt":19.38},{"city":"Grandville","state_name":"Michigan","lat":42.8774,"lng":-85.77226,"zip":"49418","miles_from_dt":19.43},{"city":"Grand Rapids","state_name":"Michigan","lat":42.87671,"lng":-85.62747,"zip":"49560","miles_from_dt":19.53},{"city":"Grand Rapids","state_name":"Michigan","lat":42.87582,"lng":-85.62579,"zip":"49518","miles_from_dt":19.6},{"city":"Grand Rapids","state_name":"Michigan","lat":42.87459,"lng":-85.62586,"zip":"49508","miles_from_dt":19.68},{"city":"Grand Rapids","state_name":"Michigan","lat":42.86795,"lng":-85.66273,"zip":"49548","miles_from_dt":19.86},{"city":"Grand Rapids","state_name":"Michigan","lat":42.8821,"lng":-85.54764,"zip":"49512","miles_from_dt":20.35},{"city":"Gowen","state_name":"Michigan","lat":43.25069,"lng":-85.32083,"zip":"49326","miles_from_dt":20.38},{"city":"Howard City","state_name":"Michigan","lat":43.40567,"lng":-85.48771,"zip":"49329","miles_from_dt":20.46},{"city":"Fruitport","state_name":"Michigan","lat":43.15238,"lng":-86.1166,"zip":"49415","miles_from_dt":20.94},{"city":"Trufant","state_name":"Michigan","lat":43.31488,"lng":-85.34352,"zip":"49347","miles_from_dt":21.23},{"city":"Grand Rapids","state_name":"Michigan","lat":42.86678,"lng":-85.54425,"zip":"49530","miles_from_dt":21.39},{"city":"Hudsonville","state_name":"Michigan","lat":42.86636,"lng":-85.89038,"zip":"49426","miles_from_dt":22.04},{"city":"Greenville","state_name":"Michigan","lat":43.18268,"lng":-85.25943,"zip":"48838","miles_from_dt":22.46},{"city":"Coral","state_name":"Michigan","lat":43.35685,"lng":-85.35261,"zip":"49322","miles_from_dt":22.52},{"city":"Muskegon","state_name":"Michigan","lat":43.23995,"lng":-86.13278,"zip":"49442","miles_from_dt":22.54},{"city":"Lowell","state_name":"Michigan","lat":42.95161,"lng":-85.35139,"zip":"49331","miles_from_dt":22.61},{"city":"Smyrna","state_name":"Michigan","lat":43.06242,"lng":-85.26273,"zip":"48887","miles_from_dt":23.11},{"city":"Belding","state_name":"Michigan","lat":43.0646,"lng":-85.25712,"zip":"48809","miles_from_dt":23.35},{"city":"Jamestown","state_name":"Michigan","lat":42.82711,"lng":-85.84694,"zip":"49427","miles_from_dt":23.74},{"city":"Grand Haven","state_name":"Michigan","lat":43.01519,"lng":-86.14387,"zip":"49417","miles_from_dt":24.32},{"city":"Byron Center","state_name":"Michigan","lat":42.80101,"lng":-85.73589,"zip":"49315","miles_from_dt":24.44},{"city":"Fremont","state_name":"Michigan","lat":43.46283,"lng":-85.95227,"zip":"49413","miles_from_dt":24.76},{"city":"Fremont","state_name":"Michigan","lat":43.4699,"lng":-85.94747,"zip":"49412","miles_from_dt":25.06},{"city":"Muskegon","state_name":"Michigan","lat":43.17671,"lng":-86.19892,"zip":"49444","miles_from_dt":25.15},{"city":"Spring Lake","state_name":"Michigan","lat":43.09026,"lng":-86.19347,"zip":"49456","miles_from_dt":25.23},{"city":"Caledonia","state_name":"Michigan","lat":42.79644,"lng":-85.55564,"zip":"49316","miles_from_dt":25.79},{"city":"Zeeland","state_name":"Michigan","lat":42.84183,"lng":-85.98338,"zip":"49464","miles_from_dt":25.84},{"city":"Twin Lake","state_name":"Michigan","lat":43.35105,"lng":-86.14455,"zip":"49457","miles_from_dt":26.13},{"city":"Ferrysburg","state_name":"Michigan","lat":43.08077,"lng":-86.21826,"zip":"49409","miles_from_dt":26.58},{"city":"West Olive","state_name":"Michigan","lat":42.93473,"lng":-86.1429,"zip":"49460","miles_from_dt":26.97},{"city":"Alto","state_name":"Michigan","lat":42.82307,"lng":-85.39871,"zip":"49302","miles_from_dt":27.55},{"city":"Muskegon","state_name":"Michigan","lat":43.22204,"lng":-86.24155,"zip":"49443","miles_from_dt":27.64},{"city":"Morley","state_name":"Michigan","lat":43.50752,"lng":-85.42862,"zip":"49336","miles_from_dt":28.02},{"city":"Holton","state_name":"Michigan","lat":43.43941,"lng":-86.09981,"zip":"49425","miles_from_dt":28.1},{"city":"Moline","state_name":"Michigan","lat":42.74626,"lng":-85.66907,"zip":"49335","miles_from_dt":28.21},{"city":"Muskegon","state_name":"Michigan","lat":43.23852,"lng":-86.25387,"zip":"49440","miles_from_dt":28.46},{"city":"Sidney","state_name":"Michigan","lat":43.24908,"lng":-85.14356,"zip":"48885","miles_from_dt":28.96},{"city":"Muskegon","state_name":"Michigan","lat":43.18745,"lng":-86.2736,"zip":"49441","miles_from_dt":28.96},{"city":"Saranac","state_name":"Michigan","lat":42.934,"lng":-85.20214,"zip":"48881","miles_from_dt":29.53},{"city":"White Cloud","state_name":"Michigan","lat":43.58291,"lng":-85.74167,"zip":"49349","miles_from_dt":29.66},{"city":"Lakeview","state_name":"Michigan","lat":43.4374,"lng":-85.25519,"zip":"48850","miles_from_dt":29.84},{"city":"Dorr","state_name":"Michigan","lat":42.72541,"lng":-85.7871,"zip":"49323","miles_from_dt":29.91}],"targetCityZipCode":"49345","targetCityState":"Michigan"},"__N_SSG":true}