{"pageProps":{"stateName":"Michigan","cityName":"thompsonville","nearbyCities":[{"city":"Benzonia","state_name":"Michigan","lat":44.57491,"lng":-86.08448,"zip":"49616","miles_from_dt":8.01},{"city":"Copemish","state_name":"Michigan","lat":44.42785,"lng":-85.87348,"zip":"49625","miles_from_dt":8.2},{"city":"Interlochen","state_name":"Michigan","lat":44.63959,"lng":-85.83357,"zip":"49643","miles_from_dt":8.39},{"city":"Beulah","state_name":"Michigan","lat":44.64105,"lng":-86.03505,"zip":"49617","miles_from_dt":8.72},{"city":"Bear Lake","state_name":"Michigan","lat":44.43886,"lng":-86.10879,"zip":"49614","miles_from_dt":11.24},{"city":"Buckley","state_name":"Michigan","lat":44.5188,"lng":-85.68976,"zip":"49620","miles_from_dt":11.96},{"city":"Grawn","state_name":"Michigan","lat":44.62897,"lng":-85.71083,"zip":"49637","miles_from_dt":12.46},{"city":"Kaleva","state_name":"Michigan","lat":44.37157,"lng":-86.02411,"zip":"49645","miles_from_dt":12.49},{"city":"Honor","state_name":"Michigan","lat":44.72088,"lng":-86.03664,"zip":"49640","miles_from_dt":13.58},{"city":"Lake Ann","state_name":"Michigan","lat":44.73359,"lng":-85.88033,"zip":"49650","miles_from_dt":13.63},{"city":"Arcadia","state_name":"Michigan","lat":44.50538,"lng":-86.20412,"zip":"49613","miles_from_dt":13.74},{"city":"Frankfort","state_name":"Michigan","lat":44.62261,"lng":-86.18914,"zip":"49635","miles_from_dt":14.01},{"city":"Mesick","state_name":"Michigan","lat":44.4028,"lng":-85.70965,"zip":"49668","miles_from_dt":14.42},{"city":"Traverse City","state_name":"Michigan","lat":44.69859,"lng":-85.70425,"zip":"49685","miles_from_dt":15.64},{"city":"Elberta","state_name":"Michigan","lat":44.62087,"lng":-86.23095,"zip":"49628","miles_from_dt":15.88},{"city":"Brethren","state_name":"Michigan","lat":44.30331,"lng":-85.98784,"zip":"49619","miles_from_dt":16.56},{"city":"Onekama","state_name":"Michigan","lat":44.37506,"lng":-86.21978,"zip":"49675","miles_from_dt":18.28},{"city":"Harrietta","state_name":"Michigan","lat":44.28463,"lng":-85.75073,"zip":"49638","miles_from_dt":19.71},{"city":"Mayfield","state_name":"Michigan","lat":44.59799,"lng":-85.53436,"zip":"49666","miles_from_dt":19.95},{"city":"Kingsley","state_name":"Michigan","lat":44.5685,"lng":-85.52596,"zip":"49649","miles_from_dt":20.05},{"city":"Traverse City","state_name":"Michigan","lat":44.80191,"lng":-85.70549,"zip":"49684","miles_from_dt":21.23},{"city":"Wellston","state_name":"Michigan","lat":44.21165,"lng":-85.91484,"zip":"49689","miles_from_dt":22.65},{"city":"Glen Arbor","state_name":"Michigan","lat":44.87261,"lng":-85.99292,"zip":"49636","miles_from_dt":23.21},{"city":"Maple City","state_name":"Michigan","lat":44.87457,"lng":-85.89058,"zip":"49664","miles_from_dt":23.22},{"city":"Boon","state_name":"Michigan","lat":44.30096,"lng":-85.59853,"zip":"49618","miles_from_dt":23.25},{"city":"Cedar","state_name":"Michigan","lat":44.86229,"lng":-85.77555,"zip":"49621","miles_from_dt":23.55},{"city":"Traverse City","state_name":"Michigan","lat":44.6764,"lng":-85.48413,"zip":"49696","miles_from_dt":23.94},{"city":"Manistee","state_name":"Michigan","lat":44.23236,"lng":-86.21125,"zip":"49660","miles_from_dt":25.37},{"city":"Empire","state_name":"Michigan","lat":44.92262,"lng":-86.00074,"zip":"49630","miles_from_dt":26.68},{"city":"Eastlake","state_name":"Michigan","lat":44.24284,"lng":-86.29252,"zip":"49626","miles_from_dt":27.23},{"city":"Acme","state_name":"Michigan","lat":44.79302,"lng":-85.49457,"zip":"49610","miles_from_dt":27.7},{"city":"Manton","state_name":"Michigan","lat":44.42494,"lng":-85.39147,"zip":"49663","miles_from_dt":27.77},{"city":"Traverse City","state_name":"Michigan","lat":44.82841,"lng":-85.53597,"zip":"49686","miles_from_dt":27.84},{"city":"Filer City","state_name":"Michigan","lat":44.2149,"lng":-86.28896,"zip":"49634","miles_from_dt":28.6},{"city":"Cadillac","state_name":"Michigan","lat":44.2385,"lng":-85.5211,"zip":"49601","miles_from_dt":29.02},{"city":"Irons","state_name":"Michigan","lat":44.10787,"lng":-85.91989,"zip":"49644","miles_from_dt":29.81}],"targetCityZipCode":"49683","targetCityState":"Michigan"},"__N_SSG":true}