{"pageProps":{"stateName":"Michigan","cityName":"twining","nearbyCities":[{"city":"Omer","state_name":"Michigan","lat":44.05512,"lng":-83.89183,"zip":"48749","miles_from_dt":4.45},{"city":"Turner","state_name":"Michigan","lat":44.15367,"lng":-83.71885,"zip":"48765","miles_from_dt":7.05},{"city":"Au Gres","state_name":"Michigan","lat":44.06766,"lng":-83.66904,"zip":"48703","miles_from_dt":9.4},{"city":"Whittemore","state_name":"Michigan","lat":44.24978,"lng":-83.82037,"zip":"48770","miles_from_dt":9.66},{"city":"Standish","state_name":"Michigan","lat":43.98038,"lng":-83.94072,"zip":"48658","miles_from_dt":10.15},{"city":"Prescott","state_name":"Michigan","lat":44.23142,"lng":-83.97409,"zip":"48756","miles_from_dt":10.4},{"city":"Sterling","state_name":"Michigan","lat":44.06792,"lng":-84.05154,"zip":"48659","miles_from_dt":10.56},{"city":"Tawas City","state_name":"Michigan","lat":44.25017,"lng":-83.61441,"zip":"48763","miles_from_dt":15.05},{"city":"National City","state_name":"Michigan","lat":44.30398,"lng":-83.67392,"zip":"48748","miles_from_dt":15.87},{"city":"Alger","state_name":"Michigan","lat":44.12789,"lng":-84.1801,"zip":"48610","miles_from_dt":16.56},{"city":"Hale","state_name":"Michigan","lat":44.37597,"lng":-83.83238,"zip":"48739","miles_from_dt":18.29},{"city":"Tawas City","state_name":"Michigan","lat":44.2725,"lng":-83.53121,"zip":"48764","miles_from_dt":19.27},{"city":"Bentley","state_name":"Michigan","lat":43.94355,"lng":-84.15791,"zip":"48613","miles_from_dt":19.3},{"city":"Pinconning","state_name":"Michigan","lat":43.85181,"lng":-84.01746,"zip":"48650","miles_from_dt":19.81},{"city":"Lupton","state_name":"Michigan","lat":44.39575,"lng":-83.99699,"zip":"48635","miles_from_dt":20.99},{"city":"Long Lake","state_name":"Michigan","lat":44.44025,"lng":-83.87066,"zip":"48743","miles_from_dt":22.74},{"city":"East Tawas","state_name":"Michigan","lat":44.35443,"lng":-83.48804,"zip":"48730","miles_from_dt":24.52},{"city":"West Branch","state_name":"Michigan","lat":44.33005,"lng":-84.24087,"zip":"48661","miles_from_dt":24.67},{"city":"Rhodes","state_name":"Michigan","lat":43.84834,"lng":-84.20716,"zip":"48652","miles_from_dt":25.5},{"city":"Linwood","state_name":"Michigan","lat":43.75405,"lng":-84.05414,"zip":"48634","miles_from_dt":26.72},{"city":"Rose City","state_name":"Michigan","lat":44.45468,"lng":-84.12627,"zip":"48654","miles_from_dt":27.44},{"city":"South Branch","state_name":"Michigan","lat":44.51129,"lng":-83.89658,"zip":"48761","miles_from_dt":27.72}],"targetCityZipCode":"48766","targetCityState":"Michigan"},"__N_SSG":true}