{"pageProps":{"stateName":"Michigan","cityName":"union-city","nearbyCities":[{"city":"Sherwood","state_name":"Michigan","lat":42.00181,"lng":-85.23113,"zip":"49089","miles_from_dt":6.63},{"city":"Athens","state_name":"Michigan","lat":42.10288,"lng":-85.22285,"zip":"49011","miles_from_dt":6.65},{"city":"Burlington","state_name":"Michigan","lat":42.1423,"lng":-85.09107,"zip":"49029","miles_from_dt":6.72},{"city":"Tekonsha","state_name":"Michigan","lat":42.09822,"lng":-84.97335,"zip":"49092","miles_from_dt":8.21},{"city":"Coldwater","state_name":"Michigan","lat":41.90565,"lng":-85.02391,"zip":"49036","miles_from_dt":10.88},{"city":"East Leroy","state_name":"Michigan","lat":42.18207,"lng":-85.23803,"zip":"49051","miles_from_dt":11.19},{"city":"Fulton","state_name":"Michigan","lat":42.11538,"lng":-85.31936,"zip":"49052","miles_from_dt":11.4},{"city":"Colon","state_name":"Michigan","lat":41.96847,"lng":-85.32398,"zip":"49040","miles_from_dt":11.93},{"city":"Leonidas","state_name":"Michigan","lat":42.03319,"lng":-85.35007,"zip":"49066","miles_from_dt":12},{"city":"Ceresco","state_name":"Michigan","lat":42.22654,"lng":-85.09193,"zip":"49033","miles_from_dt":12.46},{"city":"Quincy","state_name":"Michigan","lat":41.94257,"lng":-84.876,"zip":"49082","miles_from_dt":14.37},{"city":"Bronson","state_name":"Michigan","lat":41.84438,"lng":-85.1837,"zip":"49028","miles_from_dt":14.39},{"city":"Homer","state_name":"Michigan","lat":42.14085,"lng":-84.81797,"zip":"49245","miles_from_dt":16.71},{"city":"Battle Creek","state_name":"Michigan","lat":42.27467,"lng":-85.23115,"zip":"49015","miles_from_dt":16.76},{"city":"Climax","state_name":"Michigan","lat":42.23178,"lng":-85.33403,"zip":"49034","miles_from_dt":16.92},{"city":"Burr Oak","state_name":"Michigan","lat":41.85529,"lng":-85.33129,"zip":"49030","miles_from_dt":17.21},{"city":"Mendon","state_name":"Michigan","lat":42.01295,"lng":-85.45825,"zip":"49072","miles_from_dt":17.69},{"city":"Litchfield","state_name":"Michigan","lat":42.03853,"lng":-84.76683,"zip":"49252","miles_from_dt":18.05},{"city":"Battle Creek","state_name":"Michigan","lat":42.30587,"lng":-85.1721,"zip":"49016","miles_from_dt":18.09},{"city":"Battle Creek","state_name":"Michigan","lat":42.30996,"lng":-85.10711,"zip":"49014","miles_from_dt":18.16},{"city":"Marshall","state_name":"Michigan","lat":42.2765,"lng":-84.94063,"zip":"49068","miles_from_dt":18.26},{"city":"Scotts","state_name":"Michigan","lat":42.18602,"lng":-85.42503,"zip":"49088","miles_from_dt":18.49},{"city":"Allen","state_name":"Michigan","lat":41.9498,"lng":-84.77036,"zip":"49227","miles_from_dt":19.09},{"city":"Nottawa","state_name":"Michigan","lat":41.91783,"lng":-85.44899,"zip":"49075","miles_from_dt":19.26},{"city":"Vicksburg","state_name":"Michigan","lat":42.11491,"lng":-85.48985,"zip":"49097","miles_from_dt":19.71},{"city":"Battle Creek","state_name":"Michigan","lat":42.33448,"lng":-85.24706,"zip":"49037","miles_from_dt":20.93},{"city":"Centreville","state_name":"Michigan","lat":41.91779,"lng":-85.50767,"zip":"49032","miles_from_dt":21.98},{"city":"Orland","state_name":"Indiana","lat":41.72793,"lng":-85.16878,"zip":"46776","miles_from_dt":22.18},{"city":"Galesburg","state_name":"Michigan","lat":42.28877,"lng":-85.41722,"zip":"49053","miles_from_dt":22.7},{"city":"Sturgis","state_name":"Michigan","lat":41.82509,"lng":-85.44627,"zip":"49091","miles_from_dt":22.84},{"city":"Reading","state_name":"Michigan","lat":41.83689,"lng":-84.76419,"zip":"49274","miles_from_dt":23.27},{"city":"Montgomery","state_name":"Michigan","lat":41.77152,"lng":-84.85499,"zip":"49255","miles_from_dt":23.34},{"city":"Augusta","state_name":"Michigan","lat":42.34626,"lng":-85.34116,"zip":"49012","miles_from_dt":23.63},{"city":"Mosherville","state_name":"Michigan","lat":42.06,"lng":-84.65833,"zip":"49258","miles_from_dt":23.64},{"city":"Fremont","state_name":"Indiana","lat":41.72209,"lng":-84.92233,"zip":"46737","miles_from_dt":24.58},{"city":"Battle Creek","state_name":"Michigan","lat":42.3979,"lng":-85.2111,"zip":"49017","miles_from_dt":24.69},{"city":"Battle Creek","state_name":"Michigan","lat":42.39748,"lng":-85.21971,"zip":"49018","miles_from_dt":24.75},{"city":"Bedford","state_name":"Michigan","lat":42.39545,"lng":-85.23307,"zip":"49020","miles_from_dt":24.77},{"city":"Albion","state_name":"Michigan","lat":42.27982,"lng":-84.74852,"zip":"49224","miles_from_dt":24.85},{"city":"Portage","state_name":"Michigan","lat":42.19867,"lng":-85.55906,"zip":"49002","miles_from_dt":24.99},{"city":"Kalamazoo","state_name":"Michigan","lat":42.27202,"lng":-85.49893,"zip":"49048","miles_from_dt":25},{"city":"Howe","state_name":"Indiana","lat":41.72257,"lng":-85.34914,"zip":"46746","miles_from_dt":25.38},{"city":"Portage","state_name":"Michigan","lat":42.20562,"lng":-85.56678,"zip":"49081","miles_from_dt":25.55},{"city":"Jonesville","state_name":"Michigan","lat":42.01875,"lng":-84.62168,"zip":"49250","miles_from_dt":25.59},{"city":"Concord","state_name":"Michigan","lat":42.1731,"lng":-84.64906,"zip":"49237","miles_from_dt":25.6},{"city":"Comstock","state_name":"Michigan","lat":42.28489,"lng":-85.5113,"zip":"49041","miles_from_dt":26.05},{"city":"Mongo","state_name":"Indiana","lat":41.69272,"lng":-85.29639,"zip":"46771","miles_from_dt":26.13},{"city":"Hanover","state_name":"Michigan","lat":42.10121,"lng":-84.60149,"zip":"49241","miles_from_dt":26.8},{"city":"Kalamazoo","state_name":"Michigan","lat":42.2647,"lng":-85.56265,"zip":"49001","miles_from_dt":27.36},{"city":"Three Rivers","state_name":"Michigan","lat":41.97375,"lng":-85.64665,"zip":"49093","miles_from_dt":27.7},{"city":"Angola","state_name":"Indiana","lat":41.65305,"lng":-85.00976,"zip":"46703","miles_from_dt":27.75},{"city":"Portage","state_name":"Michigan","lat":42.20207,"lng":-85.61917,"zip":"49024","miles_from_dt":27.91},{"city":"Hillsdale","state_name":"Michigan","lat":41.88434,"lng":-84.61581,"zip":"49242","miles_from_dt":28.17},{"city":"Bellevue","state_name":"Michigan","lat":42.4588,"lng":-85.06435,"zip":"49021","miles_from_dt":28.56},{"city":"Nazareth","state_name":"Michigan","lat":42.3198,"lng":-85.53991,"zip":"49074","miles_from_dt":28.72},{"city":"Kalamazoo","state_name":"Michigan","lat":42.27288,"lng":-85.58742,"zip":"49019","miles_from_dt":28.73},{"city":"Richland","state_name":"Michigan","lat":42.3784,"lng":-85.45899,"zip":"49083","miles_from_dt":28.81},{"city":"Olivet","state_name":"Michigan","lat":42.4309,"lng":-84.88657,"zip":"49076","miles_from_dt":29.03},{"city":"Kalamazoo","state_name":"Michigan","lat":42.29116,"lng":-85.5826,"zip":"49005","miles_from_dt":29.23},{"city":"Kalamazoo","state_name":"Michigan","lat":42.26337,"lng":-85.61528,"zip":"49008","miles_from_dt":29.61},{"city":"Schoolcraft","state_name":"Michigan","lat":42.12209,"lng":-85.68557,"zip":"49087","miles_from_dt":29.66},{"city":"Hickory Corners","state_name":"Michigan","lat":42.42738,"lng":-85.39589,"zip":"49060","miles_from_dt":29.89},{"city":"Kalamazoo","state_name":"Michigan","lat":42.30252,"lng":-85.5883,"zip":"49007","miles_from_dt":29.92}],"targetCityZipCode":"49094","targetCityState":"Michigan"},"__N_SSG":true}