{"pageProps":{"stateName":"Kansas","cityName":"bentley","nearbyCities":[{"city":"Sedgwick","state_name":"Kansas","lat":37.91362,"lng":-97.45942,"zip":"67135","miles_from_dt":3.64},{"city":"Colwich","state_name":"Kansas","lat":37.78548,"lng":-97.54661,"zip":"67030","miles_from_dt":7.3},{"city":"Maize","state_name":"Kansas","lat":37.78489,"lng":-97.46356,"zip":"67101","miles_from_dt":7.76},{"city":"Halstead","state_name":"Kansas","lat":38.01936,"lng":-97.52345,"zip":"67056","miles_from_dt":9.01},{"city":"Wichita","state_name":"Kansas","lat":37.74195,"lng":-97.49797,"zip":"67223","miles_from_dt":10.19},{"city":"Mount Hope","state_name":"Kansas","lat":37.81428,"lng":-97.68621,"zip":"67108","miles_from_dt":10.53},{"city":"Andale","state_name":"Kansas","lat":37.76069,"lng":-97.62953,"zip":"67001","miles_from_dt":10.73},{"city":"Wichita","state_name":"Kansas","lat":37.75012,"lng":-97.42317,"zip":"67205","miles_from_dt":10.89},{"city":"Burrton","state_name":"Kansas","lat":38.00881,"lng":-97.66903,"zip":"67020","miles_from_dt":11.68},{"city":"Wichita","state_name":"Kansas","lat":37.77167,"lng":-97.36341,"zip":"67204","miles_from_dt":11.7},{"city":"Valley Center","state_name":"Kansas","lat":37.86062,"lng":-97.3058,"zip":"67147","miles_from_dt":11.77},{"city":"Wichita","state_name":"Kansas","lat":37.70247,"lng":-97.43658,"zip":"67212","miles_from_dt":13.6},{"city":"Wichita","state_name":"Kansas","lat":37.76931,"lng":-97.31643,"zip":"67219","miles_from_dt":13.77},{"city":"Wichita","state_name":"Kansas","lat":37.68951,"lng":-97.49929,"zip":"67235","miles_from_dt":13.78},{"city":"Kechi","state_name":"Kansas","lat":37.7951,"lng":-97.27044,"zip":"67067","miles_from_dt":15.01},{"city":"Haven","state_name":"Kansas","lat":37.88346,"lng":-97.79511,"zip":"67543","miles_from_dt":15.15},{"city":"Wichita","state_name":"Kansas","lat":37.70402,"lng":-97.36497,"zip":"67203","miles_from_dt":15.25},{"city":"Wichita","state_name":"Kansas","lat":37.67498,"lng":-97.44515,"zip":"67275","miles_from_dt":15.28},{"city":"North Newton","state_name":"Kansas","lat":38.07416,"lng":-97.34544,"zip":"67117","miles_from_dt":15.88},{"city":"Wichita","state_name":"Kansas","lat":37.75191,"lng":-97.27909,"zip":"67220","miles_from_dt":16.13},{"city":"Wichita","state_name":"Kansas","lat":37.6639,"lng":-97.43463,"zip":"67209","miles_from_dt":16.17},{"city":"Goddard","state_name":"Kansas","lat":37.65812,"lng":-97.57357,"zip":"67052","miles_from_dt":16.2},{"city":"Wichita","state_name":"Kansas","lat":37.66244,"lng":-97.42889,"zip":"67277","miles_from_dt":16.36},{"city":"Wichita","state_name":"Kansas","lat":37.70661,"lng":-97.31755,"zip":"67214","miles_from_dt":16.69},{"city":"Wichita","state_name":"Kansas","lat":37.66021,"lng":-97.41561,"zip":"67276","miles_from_dt":16.74},{"city":"Wichita","state_name":"Kansas","lat":37.69302,"lng":-97.3372,"zip":"67278","miles_from_dt":16.75},{"city":"Wichita","state_name":"Kansas","lat":37.68821,"lng":-97.343,"zip":"67201","miles_from_dt":16.83},{"city":"Wichita","state_name":"Kansas","lat":37.71931,"lng":-97.2935,"zip":"67260","miles_from_dt":16.96},{"city":"Garden Plain","state_name":"Kansas","lat":37.675,"lng":-97.6769,"zip":"67050","miles_from_dt":17.12},{"city":"Wichita","state_name":"Kansas","lat":37.68668,"lng":-97.33521,"zip":"67202","miles_from_dt":17.16},{"city":"Wichita","state_name":"Kansas","lat":37.66722,"lng":-97.36498,"zip":"67213","miles_from_dt":17.43},{"city":"Newton","state_name":"Kansas","lat":38.07034,"lng":-97.28359,"zip":"67114","miles_from_dt":17.91},{"city":"Wichita","state_name":"Kansas","lat":37.62693,"lng":-97.50109,"zip":"67227","miles_from_dt":18.09},{"city":"Hesston","state_name":"Kansas","lat":38.1431,"lng":-97.43296,"zip":"67062","miles_from_dt":18.14},{"city":"Wichita","state_name":"Kansas","lat":37.70449,"lng":-97.27928,"zip":"67208","miles_from_dt":18.23},{"city":"Wichita","state_name":"Kansas","lat":37.76898,"lng":-97.21915,"zip":"67226","miles_from_dt":18.32},{"city":"Greenwich","state_name":"Kansas","lat":37.78325,"lng":-97.2037,"zip":"67055","miles_from_dt":18.68},{"city":"Wichita","state_name":"Kansas","lat":37.66708,"lng":-97.31706,"zip":"67211","miles_from_dt":18.84},{"city":"Wichita","state_name":"Kansas","lat":37.61637,"lng":-97.42707,"zip":"67215","miles_from_dt":19.44},{"city":"Yoder","state_name":"Kansas","lat":37.94311,"lng":-97.86858,"zip":"67585","miles_from_dt":19.51},{"city":"Wichita","state_name":"Kansas","lat":37.66851,"lng":-97.28039,"zip":"67218","miles_from_dt":20.01},{"city":"Buhler","state_name":"Kansas","lat":38.12294,"lng":-97.74608,"zip":"67522","miles_from_dt":20.38},{"city":"Wichita","state_name":"Kansas","lat":37.77749,"lng":-97.17274,"zip":"67228","miles_from_dt":20.39},{"city":"Wichita","state_name":"Kansas","lat":37.70363,"lng":-97.22461,"zip":"67206","miles_from_dt":20.52},{"city":"Wichita","state_name":"Kansas","lat":37.61535,"lng":-97.36239,"zip":"67217","miles_from_dt":20.7},{"city":"Moundridge","state_name":"Kansas","lat":38.19496,"lng":-97.53911,"zip":"67107","miles_from_dt":21.15},{"city":"Wichita","state_name":"Kansas","lat":37.66567,"lng":-97.22923,"zip":"67207","miles_from_dt":22.07},{"city":"Wichita","state_name":"Kansas","lat":37.6089,"lng":-97.3143,"zip":"67216","miles_from_dt":22.3},{"city":"Whitewater","state_name":"Kansas","lat":37.97079,"lng":-97.12117,"zip":"67154","miles_from_dt":22.41},{"city":"Mcconnell Afb","state_name":"Kansas","lat":37.63544,"lng":-97.25819,"zip":"67221","miles_from_dt":22.54},{"city":"Cheney","state_name":"Kansas","lat":37.64146,"lng":-97.78789,"zip":"67025","miles_from_dt":22.57},{"city":"Benton","state_name":"Kansas","lat":37.82778,"lng":-97.11165,"zip":"67017","miles_from_dt":22.62},{"city":"Walton","state_name":"Kansas","lat":38.14499,"lng":-97.24934,"zip":"67151","miles_from_dt":22.96},{"city":"Wichita","state_name":"Kansas","lat":37.62944,"lng":-97.24604,"zip":"67210","miles_from_dt":23.28},{"city":"Hutchinson","state_name":"Kansas","lat":37.97989,"lng":-97.9309,"zip":"67501","miles_from_dt":23.41},{"city":"Wichita","state_name":"Kansas","lat":37.68655,"lng":-97.17087,"zip":"67230","miles_from_dt":23.58},{"city":"Elbing","state_name":"Kansas","lat":38.05404,"lng":-97.12755,"zip":"67041","miles_from_dt":24.18},{"city":"Viola","state_name":"Kansas","lat":37.54243,"lng":-97.62915,"zip":"67149","miles_from_dt":24.65},{"city":"Hutchinson","state_name":"Kansas","lat":38.02534,"lng":-97.9365,"zip":"67504","miles_from_dt":24.71},{"city":"South Hutchinson","state_name":"Kansas","lat":38.02855,"lng":-97.94333,"zip":"67505","miles_from_dt":25.14},{"city":"Haysville","state_name":"Kansas","lat":37.54601,"lng":-97.35952,"zip":"67060","miles_from_dt":25.19},{"city":"Pretty Prairie","state_name":"Kansas","lat":37.78686,"lng":-97.968,"zip":"67570","miles_from_dt":25.59},{"city":"Wichita","state_name":"Kansas","lat":37.6368,"lng":-97.16802,"zip":"67232","miles_from_dt":25.88},{"city":"Andover","state_name":"Kansas","lat":37.69575,"lng":-97.10725,"zip":"67002","miles_from_dt":26.13},{"city":"Clearwater","state_name":"Kansas","lat":37.51047,"lng":-97.49239,"zip":"67026","miles_from_dt":26.13},{"city":"Goessel","state_name":"Kansas","lat":38.24728,"lng":-97.34545,"zip":"67053","miles_from_dt":26.46},{"city":"Hutchinson","state_name":"Kansas","lat":38.12146,"lng":-97.92673,"zip":"67502","miles_from_dt":27.47},{"city":"Derby","state_name":"Kansas","lat":37.56646,"lng":-97.22095,"zip":"67037","miles_from_dt":27.55},{"city":"Towanda","state_name":"Kansas","lat":37.81673,"lng":-97.00539,"zip":"67144","miles_from_dt":28.48},{"city":"Inman","state_name":"Kansas","lat":38.22811,"lng":-97.82116,"zip":"67546","miles_from_dt":28.65},{"city":"Potwin","state_name":"Kansas","lat":37.94676,"lng":-96.99352,"zip":"67123","miles_from_dt":28.94},{"city":"Murdock","state_name":"Kansas","lat":37.6151,"lng":-97.93453,"zip":"67111","miles_from_dt":29.6},{"city":"Peabody","state_name":"Kansas","lat":38.17438,"lng":-97.10385,"zip":"66866","miles_from_dt":29.98}],"targetCityZipCode":"67016","targetCityState":"Kansas"},"__N_SSG":true}