{"pageProps":{"stateName":"Kansas","cityName":"clifton","nearbyCities":[{"city":"Palmer","state_name":"Kansas","lat":39.59928,"lng":-97.12547,"zip":"66962","miles_from_dt":7.47},{"city":"Clyde","state_name":"Kansas","lat":39.58018,"lng":-97.41081,"zip":"66938","miles_from_dt":7.81},{"city":"Morganville","state_name":"Kansas","lat":39.45791,"lng":-97.25697,"zip":"67468","miles_from_dt":9.09},{"city":"Linn","state_name":"Kansas","lat":39.67877,"lng":-97.11934,"zip":"66953","miles_from_dt":9.91},{"city":"Agenda","state_name":"Kansas","lat":39.71137,"lng":-97.48553,"zip":"66930","miles_from_dt":14.46},{"city":"Greenleaf","state_name":"Kansas","lat":39.67209,"lng":-96.97313,"zip":"66943","miles_from_dt":16.57},{"city":"Haddam","state_name":"Kansas","lat":39.84007,"lng":-97.29354,"zip":"66944","miles_from_dt":17.35},{"city":"Green","state_name":"Kansas","lat":39.48048,"lng":-96.97153,"zip":"67447","miles_from_dt":17.39},{"city":"Cuba","state_name":"Kansas","lat":39.80343,"lng":-97.45381,"zip":"66940","miles_from_dt":17.86},{"city":"Clay Center","state_name":"Kansas","lat":39.33503,"lng":-97.17997,"zip":"67432","miles_from_dt":18.14},{"city":"Aurora","state_name":"Kansas","lat":39.43382,"lng":-97.55015,"zip":"67417","miles_from_dt":18.65},{"city":"Washington","state_name":"Kansas","lat":39.8294,"lng":-97.06524,"zip":"66968","miles_from_dt":19.67},{"city":"Concordia","state_name":"Kansas","lat":39.55618,"lng":-97.64317,"zip":"66901","miles_from_dt":20.33},{"city":"Morrowville","state_name":"Kansas","lat":39.88657,"lng":-97.1787,"zip":"66958","miles_from_dt":21},{"city":"Miltonvale","state_name":"Kansas","lat":39.32787,"lng":-97.47905,"zip":"67466","miles_from_dt":21.38},{"city":"Barnes","state_name":"Kansas","lat":39.67124,"lng":-96.86706,"zip":"66933","miles_from_dt":21.96},{"city":"Narka","state_name":"Kansas","lat":39.93042,"lng":-97.42134,"zip":"66960","miles_from_dt":24.95},{"city":"Belleville","state_name":"Kansas","lat":39.82694,"lng":-97.63538,"zip":"66935","miles_from_dt":25.65},{"city":"Leonardville","state_name":"Kansas","lat":39.38833,"lng":-96.86007,"zip":"66449","miles_from_dt":25.71},{"city":"Randolph","state_name":"Kansas","lat":39.48899,"lng":-96.78445,"zip":"66554","miles_from_dt":26.59},{"city":"Mahaska","state_name":"Kansas","lat":39.97984,"lng":-97.31715,"zip":"66955","miles_from_dt":27.07},{"city":"Munden","state_name":"Kansas","lat":39.92276,"lng":-97.53551,"zip":"66959","miles_from_dt":27.13},{"city":"Waterville","state_name":"Kansas","lat":39.67551,"lng":-96.76146,"zip":"66548","miles_from_dt":27.5},{"city":"Norway","state_name":"Kansas","lat":39.69337,"lng":-97.77559,"zip":"66961","miles_from_dt":28.16},{"city":"Hanover","state_name":"Kansas","lat":39.88601,"lng":-96.87761,"zip":"66945","miles_from_dt":29.05},{"city":"Longford","state_name":"Kansas","lat":39.16595,"lng":-97.30441,"zip":"67458","miles_from_dt":29.3},{"city":"Hollenberg","state_name":"Kansas","lat":39.96684,"lng":-97.00192,"zip":"66946","miles_from_dt":29.55},{"city":"Scandia","state_name":"Kansas","lat":39.7793,"lng":-97.76206,"zip":"66966","miles_from_dt":29.56},{"city":"Riley","state_name":"Kansas","lat":39.31146,"lng":-96.83416,"zip":"66531","miles_from_dt":29.98}],"targetCityZipCode":"66937","targetCityState":"Kansas"},"__N_SSG":true}