{"pageProps":{"stateName":"Kansas","cityName":"elmdale","nearbyCities":[{"city":"Strong City","state_name":"Kansas","lat":38.4548,"lng":-96.54444,"zip":"66869","miles_from_dt":9.97},{"city":"Burdick","state_name":"Kansas","lat":38.56207,"lng":-96.79665,"zip":"66838","miles_from_dt":11.56},{"city":"Lincolnville","state_name":"Kansas","lat":38.47462,"lng":-96.9207,"zip":"66858","miles_from_dt":11.98},{"city":"Cedar Point","state_name":"Kansas","lat":38.22846,"lng":-96.74329,"zip":"66843","miles_from_dt":12.36},{"city":"Cottonwood Falls","state_name":"Kansas","lat":38.29546,"lng":-96.50762,"zip":"66845","miles_from_dt":13.74},{"city":"Wilsey","state_name":"Kansas","lat":38.61747,"lng":-96.66774,"zip":"66873","miles_from_dt":14.8},{"city":"Marion","state_name":"Kansas","lat":38.36415,"lng":-97.00617,"zip":"66861","miles_from_dt":15.93},{"city":"Florence","state_name":"Kansas","lat":38.22463,"lng":-96.92084,"zip":"66851","miles_from_dt":16.71},{"city":"Lost Springs","state_name":"Kansas","lat":38.55653,"lng":-96.96315,"zip":"66859","miles_from_dt":16.86},{"city":"Matfield Green","state_name":"Kansas","lat":38.15532,"lng":-96.55403,"zip":"66862","miles_from_dt":19.47},{"city":"Council Grove","state_name":"Kansas","lat":38.64383,"lng":-96.47187,"zip":"66846","miles_from_dt":21.1},{"city":"Herington","state_name":"Kansas","lat":38.68214,"lng":-96.89569,"zip":"67449","miles_from_dt":21.32},{"city":"Ramona","state_name":"Kansas","lat":38.58761,"lng":-97.05853,"zip":"67475","miles_from_dt":22.31},{"city":"Burns","state_name":"Kansas","lat":38.07283,"lng":-96.8719,"zip":"66840","miles_from_dt":24.5},{"city":"Americus","state_name":"Kansas","lat":38.53458,"lng":-96.26266,"zip":"66835","miles_from_dt":26.21},{"city":"Peabody","state_name":"Kansas","lat":38.17438,"lng":-97.10385,"zip":"66866","miles_from_dt":26.4},{"city":"Cassoday","state_name":"Kansas","lat":38.0236,"lng":-96.65836,"zip":"66842","miles_from_dt":26.6},{"city":"Emporia","state_name":"Kansas","lat":38.41105,"lng":-96.2221,"zip":"66801","miles_from_dt":26.9},{"city":"Olpe","state_name":"Kansas","lat":38.2181,"lng":-96.27993,"zip":"66865","miles_from_dt":27.1},{"city":"White City","state_name":"Kansas","lat":38.79878,"lng":-96.76147,"zip":"66872","miles_from_dt":27.16},{"city":"Tampa","state_name":"Kansas","lat":38.55322,"lng":-97.19856,"zip":"67483","miles_from_dt":27.97},{"city":"Hillsboro","state_name":"Kansas","lat":38.34244,"lng":-97.23019,"zip":"67063","miles_from_dt":28.18}],"targetCityZipCode":"66850","targetCityState":"Kansas"},"__N_SSG":true}