{"pageProps":{"stateName":"Kansas","cityName":"liberal","nearbyCities":[{"city":"Liberal","state_name":"Kansas","lat":37.02953,"lng":-100.93165,"zip":"67905","miles_from_dt":4.82},{"city":"Kismet","state_name":"Kansas","lat":37.23636,"lng":-100.77421,"zip":"67859","miles_from_dt":11.96},{"city":"Tyrone","state_name":"Oklahoma","lat":36.95004,"lng":-101.05463,"zip":"73951","miles_from_dt":13.17},{"city":"Turpin","state_name":"Oklahoma","lat":36.85193,"lng":-100.88621,"zip":"73950","miles_from_dt":16.73},{"city":"Moscow","state_name":"Kansas","lat":37.29886,"lng":-101.13934,"zip":"67952","miles_from_dt":19.37},{"city":"Plains","state_name":"Kansas","lat":37.24489,"lng":-100.57358,"zip":"67869","miles_from_dt":20.73},{"city":"Forgan","state_name":"Oklahoma","lat":36.92585,"lng":-100.58497,"zip":"73938","miles_from_dt":20.88},{"city":"Hugoton","state_name":"Kansas","lat":37.1639,"lng":-101.33486,"zip":"67951","miles_from_dt":24.56},{"city":"Adams","state_name":"Oklahoma","lat":36.75458,"lng":-101.07517,"zip":"73901","miles_from_dt":25.38},{"city":"Hooker","state_name":"Oklahoma","lat":36.8321,"lng":-101.22474,"zip":"73945","miles_from_dt":25.54}],"targetCityZipCode":"67901","targetCityState":"Kansas"},"__N_SSG":true}