{"pageProps":{"stateName":"Kansas","cityName":"mcpherson","nearbyCities":[{"city":"Galva","state_name":"Kansas","lat":38.37801,"lng":-97.5208,"zip":"67443","miles_from_dt":9.59},{"city":"Windom","state_name":"Kansas","lat":38.38837,"lng":-97.90051,"zip":"67491","miles_from_dt":11.04},{"city":"Inman","state_name":"Kansas","lat":38.22811,"lng":-97.82116,"zip":"67546","miles_from_dt":12.71},{"city":"Lindsborg","state_name":"Kansas","lat":38.5949,"lng":-97.6769,"zip":"67456","miles_from_dt":14.57},{"city":"Canton","state_name":"Kansas","lat":38.3832,"lng":-97.41405,"zip":"67428","miles_from_dt":15.37},{"city":"Moundridge","state_name":"Kansas","lat":38.19496,"lng":-97.53911,"zip":"67107","miles_from_dt":15.63},{"city":"Little River","state_name":"Kansas","lat":38.38746,"lng":-97.99143,"zip":"67457","miles_from_dt":15.98},{"city":"Marquette","state_name":"Kansas","lat":38.56537,"lng":-97.90143,"zip":"67464","miles_from_dt":16.69},{"city":"Buhler","state_name":"Kansas","lat":38.12294,"lng":-97.74608,"zip":"67522","miles_from_dt":18.22},{"city":"Roxbury","state_name":"Kansas","lat":38.54867,"lng":-97.43047,"zip":"67476","miles_from_dt":18.38},{"city":"Falun","state_name":"Kansas","lat":38.64939,"lng":-97.78073,"zip":"67442","miles_from_dt":18.84},{"city":"Lehigh","state_name":"Kansas","lat":38.39167,"lng":-97.32624,"zip":"67073","miles_from_dt":20.14},{"city":"Assaria","state_name":"Kansas","lat":38.66505,"lng":-97.5718,"zip":"67416","miles_from_dt":20.52},{"city":"Goessel","state_name":"Kansas","lat":38.24728,"lng":-97.34545,"zip":"67053","miles_from_dt":21.32},{"city":"Hesston","state_name":"Kansas","lat":38.1431,"lng":-97.43296,"zip":"67062","miles_from_dt":21.98},{"city":"Hutchinson","state_name":"Kansas","lat":38.12146,"lng":-97.92673,"zip":"67502","miles_from_dt":22.01},{"city":"Durham","state_name":"Kansas","lat":38.50366,"lng":-97.27861,"zip":"67438","miles_from_dt":24.15},{"city":"Gypsum","state_name":"Kansas","lat":38.65826,"lng":-97.40756,"zip":"67448","miles_from_dt":24.56},{"city":"Hillsboro","state_name":"Kansas","lat":38.34244,"lng":-97.23019,"zip":"67063","miles_from_dt":25.52},{"city":"Geneseo","state_name":"Kansas","lat":38.54759,"lng":-98.12702,"zip":"67444","miles_from_dt":25.89},{"city":"Burrton","state_name":"Kansas","lat":38.00881,"lng":-97.66903,"zip":"67020","miles_from_dt":25.94},{"city":"Lyons","state_name":"Kansas","lat":38.37489,"lng":-98.1858,"zip":"67554","miles_from_dt":26.54},{"city":"Halstead","state_name":"Kansas","lat":38.01936,"lng":-97.52345,"zip":"67056","miles_from_dt":26.89},{"city":"South Hutchinson","state_name":"Kansas","lat":38.02855,"lng":-97.94333,"zip":"67505","miles_from_dt":27.96},{"city":"Hutchinson","state_name":"Kansas","lat":38.02534,"lng":-97.9365,"zip":"67504","miles_from_dt":27.98},{"city":"North Newton","state_name":"Kansas","lat":38.07416,"lng":-97.34544,"zip":"67117","miles_from_dt":28.7},{"city":"Nickerson","state_name":"Kansas","lat":38.10427,"lng":-98.09921,"zip":"67561","miles_from_dt":29.18},{"city":"Walton","state_name":"Kansas","lat":38.14499,"lng":-97.24934,"zip":"67151","miles_from_dt":29.42},{"city":"Tampa","state_name":"Kansas","lat":38.55322,"lng":-97.19856,"zip":"67483","miles_from_dt":29.44},{"city":"Brookville","state_name":"Kansas","lat":38.77991,"lng":-97.92492,"zip":"67425","miles_from_dt":29.94}],"targetCityZipCode":"67460","targetCityState":"Kansas"},"__N_SSG":true}