{"pageProps":{"stateName":"Kansas","cityName":"rexford","nearbyCities":[{"city":"Selden","state_name":"Kansas","lat":39.54527,"lng":-100.60881,"zip":"67757","miles_from_dt":10.81},{"city":"Gem","state_name":"Kansas","lat":39.54241,"lng":-100.89298,"zip":"67734","miles_from_dt":10.88},{"city":"Colby","state_name":"Kansas","lat":39.39509,"lng":-101.05034,"zip":"67701","miles_from_dt":16.37},{"city":"Dresden","state_name":"Kansas","lat":39.60025,"lng":-100.45484,"zip":"67635","miles_from_dt":19.51},{"city":"Hoxie","state_name":"Kansas","lat":39.35576,"lng":-100.36089,"zip":"67740","miles_from_dt":21.37},{"city":"Oakley","state_name":"Kansas","lat":39.06507,"lng":-100.85643,"zip":"67748","miles_from_dt":25.95},{"city":"Levant","state_name":"Kansas","lat":39.38826,"lng":-101.24121,"zip":"67743","miles_from_dt":26.56},{"city":"Grainfield","state_name":"Kansas","lat":39.08798,"lng":-100.49367,"zip":"67737","miles_from_dt":27.35},{"city":"Jennings","state_name":"Kansas","lat":39.6406,"lng":-100.29135,"zip":"67643","miles_from_dt":28.34},{"city":"Oberlin","state_name":"Kansas","lat":39.83214,"lng":-100.56728,"zip":"67749","miles_from_dt":29.26}],"targetCityZipCode":"67753","targetCityState":"Kansas"},"__N_SSG":true}