{"pageProps":{"stateName":"Mississippi","cityName":"conehatta","nearbyCities":[{"city":"Sebastopol","state_name":"Mississippi","lat":32.56852,"lng":-89.33206,"zip":"39359","miles_from_dt":5.94},{"city":"Decatur","state_name":"Mississippi","lat":32.44563,"lng":-89.12173,"zip":"39327","miles_from_dt":10.01},{"city":"Walnut Grove","state_name":"Mississippi","lat":32.60412,"lng":-89.4003,"zip":"39189","miles_from_dt":10.26},{"city":"Harperville","state_name":"Mississippi","lat":32.496,"lng":-89.48983,"zip":"39080","miles_from_dt":12.03},{"city":"Union","state_name":"Mississippi","lat":32.60486,"lng":-89.12225,"zip":"39365","miles_from_dt":12.19},{"city":"Lake","state_name":"Mississippi","lat":32.31489,"lng":-89.36833,"zip":"39092","miles_from_dt":13.21},{"city":"Forest","state_name":"Mississippi","lat":32.3872,"lng":-89.47398,"zip":"39074","miles_from_dt":13.28},{"city":"Hillsboro","state_name":"Mississippi","lat":32.4565,"lng":-89.51124,"zip":"39087","miles_from_dt":13.52},{"city":"Lawrence","state_name":"Mississippi","lat":32.29081,"lng":-89.27253,"zip":"39336","miles_from_dt":13.93},{"city":"Madden","state_name":"Mississippi","lat":32.70757,"lng":-89.37619,"zip":"39109","miles_from_dt":15.76},{"city":"Newton","state_name":"Mississippi","lat":32.28717,"lng":-89.12974,"zip":"39345","miles_from_dt":16.78},{"city":"Little Rock","state_name":"Mississippi","lat":32.51447,"lng":-88.98528,"zip":"39337","miles_from_dt":17.5},{"city":"Hickory","state_name":"Mississippi","lat":32.30399,"lng":-89.0046,"zip":"39332","miles_from_dt":20.87},{"city":"Philadelphia","state_name":"Mississippi","lat":32.79674,"lng":-89.12984,"zip":"39350","miles_from_dt":22.79},{"city":"Chunky","state_name":"Mississippi","lat":32.34971,"lng":-88.92624,"zip":"39323","miles_from_dt":23.1},{"city":"Lena","state_name":"Mississippi","lat":32.57497,"lng":-89.67591,"zip":"39094","miles_from_dt":23.58},{"city":"Carthage","state_name":"Mississippi","lat":32.7868,"lng":-89.50718,"zip":"39051","miles_from_dt":24.09},{"city":"Collinsville","state_name":"Mississippi","lat":32.56198,"lng":-88.87362,"zip":"39325","miles_from_dt":24.42},{"city":"Ludlow","state_name":"Mississippi","lat":32.57298,"lng":-89.70935,"zip":"39098","miles_from_dt":25.45},{"city":"Morton","state_name":"Mississippi","lat":32.31096,"lng":-89.66413,"zip":"39117","miles_from_dt":25.52},{"city":"Pulaski","state_name":"Mississippi","lat":32.2011,"lng":-89.57779,"zip":"39152","miles_from_dt":26.45},{"city":"Louin","state_name":"Mississippi","lat":32.11034,"lng":-89.23274,"zip":"39338","miles_from_dt":26.51},{"city":"Rose Hill","state_name":"Mississippi","lat":32.13632,"lng":-89.0283,"zip":"39356","miles_from_dt":28.75}],"targetCityZipCode":"39057","targetCityState":"Mississippi"},"__N_SSG":true}