{"pageProps":{"stateName":"Mississippi","cityName":"ethel","nearbyCities":[{"city":"McCool","state_name":"Mississippi","lat":33.15684,"lng":-89.33033,"zip":"39108","miles_from_dt":7.42},{"city":"Kosciusko","state_name":"Mississippi","lat":33.00775,"lng":-89.54503,"zip":"39090","miles_from_dt":9.31},{"city":"French Camp","state_name":"Mississippi","lat":33.29984,"lng":-89.46277,"zip":"39745","miles_from_dt":12.71},{"city":"McAdams","state_name":"Mississippi","lat":33.01949,"lng":-89.68708,"zip":"39107","miles_from_dt":15.35},{"city":"Weir","state_name":"Mississippi","lat":33.30509,"lng":-89.29893,"zip":"39772","miles_from_dt":15.66},{"city":"West","state_name":"Mississippi","lat":33.19153,"lng":-89.75324,"zip":"39192","miles_from_dt":18.42},{"city":"Sallis","state_name":"Mississippi","lat":32.99756,"lng":-89.75336,"zip":"39160","miles_from_dt":19.47},{"city":"Thomastown","state_name":"Mississippi","lat":32.86351,"lng":-89.67094,"zip":"39171","miles_from_dt":21.66},{"city":"Vaiden","state_name":"Mississippi","lat":33.30398,"lng":-89.74859,"zip":"39176","miles_from_dt":21.69},{"city":"Ackerman","state_name":"Mississippi","lat":33.34511,"lng":-89.18998,"zip":"39735","miles_from_dt":21.77},{"city":"Kilmichael","state_name":"Mississippi","lat":33.42283,"lng":-89.5538,"zip":"39747","miles_from_dt":22.02},{"city":"Carthage","state_name":"Mississippi","lat":32.7868,"lng":-89.50718,"zip":"39051","miles_from_dt":22.92},{"city":"Noxapater","state_name":"Mississippi","lat":32.96171,"lng":-89.089,"zip":"39346","miles_from_dt":23.41},{"city":"Stewart","state_name":"Mississippi","lat":33.47263,"lng":-89.45001,"zip":"39767","miles_from_dt":24.6},{"city":"Louisville","state_name":"Mississippi","lat":33.10417,"lng":-89.00259,"zip":"39339","miles_from_dt":25.88},{"city":"Durant","state_name":"Mississippi","lat":33.11698,"lng":-89.89975,"zip":"39063","miles_from_dt":26.17},{"city":"Goodman","state_name":"Mississippi","lat":32.93178,"lng":-89.88449,"zip":"39079","miles_from_dt":28.31},{"city":"Winona","state_name":"Mississippi","lat":33.45832,"lng":-89.72026,"zip":"38967","miles_from_dt":28.37},{"city":"Madden","state_name":"Mississippi","lat":32.70757,"lng":-89.37619,"zip":"39109","miles_from_dt":28.44},{"city":"Philadelphia","state_name":"Mississippi","lat":32.79674,"lng":-89.12984,"zip":"39350","miles_from_dt":28.74},{"city":"Sturgis","state_name":"Mississippi","lat":33.31867,"lng":-89.01136,"zip":"39769","miles_from_dt":28.93}],"targetCityZipCode":"39067","targetCityState":"Mississippi"},"__N_SSG":true}