{"pageProps":{"stateName":"Mississippi","cityName":"indianola","nearbyCities":[{"city":"Indianola","state_name":"Mississippi","lat":33.45326,"lng":-90.67469,"zip":"38751","miles_from_dt":1.15},{"city":"Inverness","state_name":"Mississippi","lat":33.34845,"lng":-90.58583,"zip":"38753","miles_from_dt":8.11},{"city":"Sunflower","state_name":"Mississippi","lat":33.54564,"lng":-90.51832,"zip":"38778","miles_from_dt":10.25},{"city":"Moorhead","state_name":"Mississippi","lat":33.42507,"lng":-90.47658,"zip":"38761","miles_from_dt":10.46},{"city":"Leland","state_name":"Mississippi","lat":33.39326,"lng":-90.85827,"zip":"38756","miles_from_dt":12.4},{"city":"Shaw","state_name":"Mississippi","lat":33.60455,"lng":-90.77388,"zip":"38773","miles_from_dt":12.62},{"city":"Isola","state_name":"Mississippi","lat":33.24816,"lng":-90.62066,"zip":"38754","miles_from_dt":14.11},{"city":"Doddsville","state_name":"Mississippi","lat":33.64389,"lng":-90.54173,"zip":"38736","miles_from_dt":14.82},{"city":"Stoneville","state_name":"Mississippi","lat":33.42466,"lng":-90.92752,"zip":"38776","miles_from_dt":15.85},{"city":"Swiftown","state_name":"Mississippi","lat":33.40762,"lng":-90.37472,"zip":"38959","miles_from_dt":16.47},{"city":"Itta Bena","state_name":"Mississippi","lat":33.48655,"lng":-90.35909,"zip":"38941","miles_from_dt":17.27},{"city":"Morgan City","state_name":"Mississippi","lat":33.37701,"lng":-90.35591,"zip":"38946","miles_from_dt":18.02},{"city":"Boyle","state_name":"Mississippi","lat":33.6883,"lng":-90.79932,"zip":"38730","miles_from_dt":18.36},{"city":"Arcola","state_name":"Mississippi","lat":33.26116,"lng":-90.88304,"zip":"38722","miles_from_dt":18.57},{"city":"Metcalfe","state_name":"Mississippi","lat":33.4535,"lng":-90.99394,"zip":"38760","miles_from_dt":19.58},{"city":"Belzoni","state_name":"Mississippi","lat":33.20179,"lng":-90.47023,"zip":"39038","miles_from_dt":20.22},{"city":"Cleveland","state_name":"Mississippi","lat":33.74463,"lng":-90.73504,"zip":"38733","miles_from_dt":20.77},{"city":"Ruleville","state_name":"Mississippi","lat":33.73914,"lng":-90.5243,"zip":"38771","miles_from_dt":21.25},{"city":"Cleveland","state_name":"Mississippi","lat":33.75556,"lng":-90.72558,"zip":"38732","miles_from_dt":21.39},{"city":"Schlater","state_name":"Mississippi","lat":33.63041,"lng":-90.33711,"zip":"38952","miles_from_dt":22.13},{"city":"Greenville","state_name":"Mississippi","lat":33.40497,"lng":-91.03858,"zip":"38704","miles_from_dt":22.39},{"city":"Greenville","state_name":"Mississippi","lat":33.47081,"lng":-91.04775,"zip":"38703","miles_from_dt":22.73},{"city":"Winterville","state_name":"Mississippi","lat":33.50415,"lng":-91.05709,"zip":"38782","miles_from_dt":23.51},{"city":"Greenville","state_name":"Mississippi","lat":33.40821,"lng":-91.06109,"zip":"38702","miles_from_dt":23.65},{"city":"Hollandale","state_name":"Mississippi","lat":33.15787,"lng":-90.87964,"zip":"38748","miles_from_dt":24.01},{"city":"Greenville","state_name":"Mississippi","lat":33.30621,"lng":-91.03346,"zip":"38701","miles_from_dt":24.05},{"city":"Wayside","state_name":"Mississippi","lat":33.26679,"lng":-91.02353,"zip":"38780","miles_from_dt":24.8},{"city":"Sidon","state_name":"Mississippi","lat":33.41301,"lng":-90.21536,"zip":"38954","miles_from_dt":25.54},{"city":"Scott","state_name":"Mississippi","lat":33.56254,"lng":-91.08769,"zip":"38772","miles_from_dt":26.14},{"city":"Merigold","state_name":"Mississippi","lat":33.82495,"lng":-90.73501,"zip":"38759","miles_from_dt":26.19},{"city":"Benoit","state_name":"Mississippi","lat":33.63834,"lng":-91.05543,"zip":"38725","miles_from_dt":26.48},{"city":"Delta City","state_name":"Mississippi","lat":33.08597,"lng":-90.80324,"zip":"39061","miles_from_dt":26.57},{"city":"Avon","state_name":"Mississippi","lat":33.22967,"lng":-91.03845,"zip":"38723","miles_from_dt":26.91},{"city":"Cruger","state_name":"Mississippi","lat":33.29342,"lng":-90.22392,"zip":"38924","miles_from_dt":27.19},{"city":"Pace","state_name":"Mississippi","lat":33.79878,"lng":-90.87965,"zip":"38764","miles_from_dt":27.26},{"city":"Greenwood","state_name":"Mississippi","lat":33.52027,"lng":-90.18058,"zip":"38945","miles_from_dt":27.81},{"city":"Beulah","state_name":"Mississippi","lat":33.75207,"lng":-90.97664,"zip":"38726","miles_from_dt":27.84},{"city":"Greenwood","state_name":"Mississippi","lat":33.52226,"lng":-90.17898,"zip":"38935","miles_from_dt":27.93},{"city":"Minter City","state_name":"Mississippi","lat":33.76106,"lng":-90.34242,"zip":"38944","miles_from_dt":27.97},{"city":"Midnight","state_name":"Mississippi","lat":33.04679,"lng":-90.56133,"zip":"39115","miles_from_dt":28.37},{"city":"Silver City","state_name":"Mississippi","lat":33.05161,"lng":-90.48208,"zip":"39166","miles_from_dt":29.28},{"city":"Drew","state_name":"Mississippi","lat":33.85683,"lng":-90.4928,"zip":"38737","miles_from_dt":29.5}],"targetCityZipCode":"38749","targetCityState":"Mississippi"},"__N_SSG":true}