{"pageProps":{"stateName":"Mississippi","cityName":"lorman","nearbyCities":[{"city":"Fayette","state_name":"Mississippi","lat":31.71806,"lng":-91.03849,"zip":"39081","miles_from_dt":8.69},{"city":"Fayette","state_name":"Mississippi","lat":31.6836,"lng":-91.04038,"zip":"39069","miles_from_dt":10.73},{"city":"Port Gibson","state_name":"Mississippi","lat":31.99264,"lng":-90.98487,"zip":"39150","miles_from_dt":13.9},{"city":"Saint Joseph","state_name":"Louisiana","lat":31.95051,"lng":-91.35591,"zip":"71366","miles_from_dt":16.5},{"city":"Pattison","state_name":"Mississippi","lat":31.82971,"lng":-90.80155,"zip":"39144","miles_from_dt":18.54},{"city":"Washington","state_name":"Mississippi","lat":31.57607,"lng":-91.29918,"zip":"39190","miles_from_dt":20.24},{"city":"Waterproof","state_name":"Louisiana","lat":31.84632,"lng":-91.47226,"zip":"71375","miles_from_dt":20.96},{"city":"Union Church","state_name":"Mississippi","lat":31.69126,"lng":-90.79126,"zip":"39668","miles_from_dt":21.26},{"city":"Newellton","state_name":"Louisiana","lat":32.1084,"lng":-91.29717,"zip":"71357","miles_from_dt":22.21},{"city":"Hermanville","state_name":"Mississippi","lat":31.96275,"lng":-90.75964,"zip":"39086","miles_from_dt":23.03},{"city":"Roxie","state_name":"Mississippi","lat":31.48704,"lng":-91.07952,"zip":"39661","miles_from_dt":23.39},{"city":"Natchez","state_name":"Mississippi","lat":31.56205,"lng":-91.40125,"zip":"39122","miles_from_dt":24.69},{"city":"Natchez","state_name":"Mississippi","lat":31.51148,"lng":-91.35206,"zip":"39120","miles_from_dt":25.67},{"city":"Natchez","state_name":"Mississippi","lat":31.50832,"lng":-91.36173,"zip":"39121","miles_from_dt":26.17},{"city":"Clayton","state_name":"Louisiana","lat":31.77363,"lng":-91.58702,"zip":"71326","miles_from_dt":27.9},{"city":"Ferriday","state_name":"Louisiana","lat":31.66978,"lng":-91.56864,"zip":"71334","miles_from_dt":28.68},{"city":"Meadville","state_name":"Mississippi","lat":31.46055,"lng":-90.86727,"zip":"39653","miles_from_dt":29.1},{"city":"Bude","state_name":"Mississippi","lat":31.45939,"lng":-90.84544,"zip":"39630","miles_from_dt":29.84}],"targetCityZipCode":"39096","targetCityState":"Mississippi"},"__N_SSG":true}