{"pageProps":{"stateName":"Mississippi","cityName":"marks","nearbyCities":[{"city":"Marks","state_name":"Mississippi","lat":34.28141,"lng":-90.29673,"zip":"38646","miles_from_dt":3.37},{"city":"Lambert","state_name":"Mississippi","lat":34.15082,"lng":-90.26281,"zip":"38643","miles_from_dt":5.9},{"city":"Darling","state_name":"Mississippi","lat":34.36131,"lng":-90.29692,"zip":"38623","miles_from_dt":8.87},{"city":"Jonestown","state_name":"Mississippi","lat":34.30909,"lng":-90.4285,"zip":"38639","miles_from_dt":9.39},{"city":"Crowder","state_name":"Mississippi","lat":34.16944,"lng":-90.13448,"zip":"38622","miles_from_dt":10.05},{"city":"Vance","state_name":"Mississippi","lat":34.11035,"lng":-90.38868,"zip":"38964","miles_from_dt":10.07},{"city":"Lyon","state_name":"Mississippi","lat":34.2469,"lng":-90.47663,"zip":"38645","miles_from_dt":10.58},{"city":"Sledge","state_name":"Mississippi","lat":34.39527,"lng":-90.25492,"zip":"38628","miles_from_dt":11.41},{"city":"Sledge","state_name":"Mississippi","lat":34.42815,"lng":-90.28899,"zip":"38670","miles_from_dt":13.47},{"city":"Coahoma","state_name":"Mississippi","lat":34.36261,"lng":-90.49342,"zip":"38617","miles_from_dt":14.56},{"city":"Farrell","state_name":"Mississippi","lat":34.20102,"lng":-90.57089,"zip":"38630","miles_from_dt":16.08},{"city":"Crenshaw","state_name":"Mississippi","lat":34.4528,"lng":-90.1731,"zip":"38621","miles_from_dt":16.64},{"city":"Tutwiler","state_name":"Mississippi","lat":34.00442,"lng":-90.40598,"zip":"38963","miles_from_dt":17.02},{"city":"Enid","state_name":"Mississippi","lat":34.13394,"lng":-90.01827,"zip":"38927","miles_from_dt":17.13},{"city":"Sumner","state_name":"Mississippi","lat":33.98747,"lng":-90.37296,"zip":"38957","miles_from_dt":17.52},{"city":"Clarksdale","state_name":"Mississippi","lat":34.15914,"lng":-90.60747,"zip":"38614","miles_from_dt":18.73},{"city":"Lula","state_name":"Mississippi","lat":34.45899,"lng":-90.47576,"zip":"38644","miles_from_dt":18.79},{"city":"Charleston","state_name":"Mississippi","lat":33.98328,"lng":-90.1425,"zip":"38921","miles_from_dt":19.23},{"city":"Dublin","state_name":"Mississippi","lat":34.18813,"lng":-90.6254,"zip":"38739","miles_from_dt":19.3},{"city":"Sherard","state_name":"Mississippi","lat":34.18965,"lng":-90.62667,"zip":"38669","miles_from_dt":19.36},{"city":"Batesville","state_name":"Mississippi","lat":34.30375,"lng":-89.9581,"zip":"38606","miles_from_dt":19.76},{"city":"Swan Lake","state_name":"Mississippi","lat":33.94923,"lng":-90.17468,"zip":"38958","miles_from_dt":20.68},{"city":"Friars Point","state_name":"Mississippi","lat":34.35891,"lng":-90.62765,"zip":"38631","miles_from_dt":21.05},{"city":"Rome","state_name":"Mississippi","lat":33.96576,"lng":-90.48036,"zip":"38768","miles_from_dt":21.32},{"city":"Dundee","state_name":"Mississippi","lat":34.5182,"lng":-90.43966,"zip":"38626","miles_from_dt":21.4},{"city":"Courtland","state_name":"Mississippi","lat":34.23206,"lng":-89.9156,"zip":"38620","miles_from_dt":21.59},{"city":"Webb","state_name":"Mississippi","lat":33.9202,"lng":-90.31828,"zip":"38966","miles_from_dt":21.59},{"city":"Pope","state_name":"Mississippi","lat":34.19011,"lng":-89.89906,"zip":"38658","miles_from_dt":22.73},{"city":"Sardis","state_name":"Mississippi","lat":34.42007,"lng":-89.92708,"zip":"38666","miles_from_dt":24.57},{"city":"Parchman","state_name":"Mississippi","lat":33.93049,"lng":-90.53653,"zip":"38738","miles_from_dt":25.09},{"city":"Sarah","state_name":"Mississippi","lat":34.58165,"lng":-90.16693,"zip":"38665","miles_from_dt":25.1},{"city":"Oakland","state_name":"Mississippi","lat":34.07635,"lng":-89.89364,"zip":"38948","miles_from_dt":25.28},{"city":"Tippo","state_name":"Mississippi","lat":33.87201,"lng":-90.18465,"zip":"38962","miles_from_dt":25.62},{"city":"Glendora","state_name":"Mississippi","lat":33.85405,"lng":-90.28731,"zip":"38928","miles_from_dt":26.1},{"city":"Helena","state_name":"Arkansas","lat":34.44492,"lng":-90.67733,"zip":"72342","miles_from_dt":26.41},{"city":"Cascilla","state_name":"Mississippi","lat":33.8823,"lng":-90.05018,"zip":"38920","miles_from_dt":27.87},{"city":"Drew","state_name":"Mississippi","lat":33.85683,"lng":-90.4928,"zip":"38737","miles_from_dt":28.34},{"city":"Alligator","state_name":"Mississippi","lat":34.11907,"lng":-90.78741,"zip":"38720","miles_from_dt":29.41},{"city":"Tillatoba","state_name":"Mississippi","lat":33.96463,"lng":-89.8859,"zip":"38961","miles_from_dt":29.75}],"targetCityZipCode":"38609","targetCityState":"Mississippi"},"__N_SSG":true}