{"pageProps":{"stateName":"Mississippi","cityName":"north-carrollton","nearbyCities":[{"city":"Carrollton","state_name":"Mississippi","lat":33.54902,"lng":-89.95501,"zip":"38917","miles_from_dt":2.93},{"city":"McCarley","state_name":"Mississippi","lat":33.52033,"lng":-89.84525,"zip":"38943","miles_from_dt":4.39},{"city":"Coila","state_name":"Mississippi","lat":33.37829,"lng":-89.99354,"zip":"38923","miles_from_dt":10.44},{"city":"Winona","state_name":"Mississippi","lat":33.45832,"lng":-89.72026,"zip":"38967","miles_from_dt":12.3},{"city":"Greenwood","state_name":"Mississippi","lat":33.52845,"lng":-90.14245,"zip":"38930","miles_from_dt":12.79},{"city":"Greenwood","state_name":"Mississippi","lat":33.52226,"lng":-90.17898,"zip":"38935","miles_from_dt":14.88},{"city":"Greenwood","state_name":"Mississippi","lat":33.52027,"lng":-90.18058,"zip":"38945","miles_from_dt":14.97},{"city":"Tie Plant","state_name":"Mississippi","lat":33.73882,"lng":-89.78941,"zip":"38960","miles_from_dt":17.06},{"city":"Holcomb","state_name":"Mississippi","lat":33.75145,"lng":-90.03505,"zip":"38940","miles_from_dt":17.43},{"city":"Vaiden","state_name":"Mississippi","lat":33.30398,"lng":-89.74859,"zip":"39176","miles_from_dt":17.76},{"city":"Grenada","state_name":"Mississippi","lat":33.76275,"lng":-89.79799,"zip":"38901","miles_from_dt":18.36},{"city":"Sidon","state_name":"Mississippi","lat":33.41301,"lng":-90.21536,"zip":"38954","miles_from_dt":18.44},{"city":"Elliott","state_name":"Mississippi","lat":33.78008,"lng":-89.82708,"zip":"38926","miles_from_dt":18.92},{"city":"Duck Hill","state_name":"Mississippi","lat":33.62917,"lng":-89.61961,"zip":"38925","miles_from_dt":19.04},{"city":"Grenada","state_name":"Mississippi","lat":33.77883,"lng":-89.81228,"zip":"38902","miles_from_dt":19.1},{"city":"Kilmichael","state_name":"Mississippi","lat":33.42283,"lng":-89.5538,"zip":"39747","miles_from_dt":22.2},{"city":"Philipp","state_name":"Mississippi","lat":33.74281,"lng":-90.19758,"zip":"38950","miles_from_dt":22.26},{"city":"Cruger","state_name":"Mississippi","lat":33.29342,"lng":-90.22392,"zip":"38924","miles_from_dt":23.32},{"city":"West","state_name":"Mississippi","lat":33.19153,"lng":-89.75324,"zip":"39192","miles_from_dt":24.46},{"city":"Schlater","state_name":"Mississippi","lat":33.63041,"lng":-90.33711,"zip":"38952","miles_from_dt":25.23},{"city":"Itta Bena","state_name":"Mississippi","lat":33.48655,"lng":-90.35909,"zip":"38941","miles_from_dt":25.37},{"city":"Cascilla","state_name":"Mississippi","lat":33.8823,"lng":-90.05018,"zip":"38920","miles_from_dt":26.24},{"city":"Morgan City","state_name":"Mississippi","lat":33.37701,"lng":-90.35591,"zip":"38946","miles_from_dt":26.9},{"city":"Swiftown","state_name":"Mississippi","lat":33.40762,"lng":-90.37472,"zip":"38959","miles_from_dt":27.26},{"city":"Stewart","state_name":"Mississippi","lat":33.47263,"lng":-89.45001,"zip":"39767","miles_from_dt":27.39},{"city":"Gore Springs","state_name":"Mississippi","lat":33.74014,"lng":-89.52425,"zip":"38929","miles_from_dt":27.57},{"city":"Durant","state_name":"Mississippi","lat":33.11698,"lng":-89.89975,"zip":"39063","miles_from_dt":27.61},{"city":"Scobey","state_name":"Mississippi","lat":33.91821,"lng":-89.92325,"zip":"38953","miles_from_dt":27.64},{"city":"Tippo","state_name":"Mississippi","lat":33.87201,"lng":-90.18465,"zip":"38962","miles_from_dt":28.78},{"city":"Lexington","state_name":"Mississippi","lat":33.11929,"lng":-90.09452,"zip":"39095","miles_from_dt":29.2},{"city":"Minter City","state_name":"Mississippi","lat":33.76106,"lng":-90.34242,"zip":"38944","miles_from_dt":29.53}],"targetCityZipCode":"38947","targetCityState":"Mississippi"},"__N_SSG":true}