{"pageProps":{"stateName":"Mississippi","cityName":"pascagoula","nearbyCities":[{"city":"Pascagoula","state_name":"Mississippi","lat":30.36909,"lng":-88.55809,"zip":"39569","miles_from_dt":0.59},{"city":"Pascagoula","state_name":"Mississippi","lat":30.36952,"lng":-88.52394,"zip":"39568","miles_from_dt":1.79},{"city":"Pascagoula","state_name":"Mississippi","lat":30.33448,"lng":-88.57587,"zip":"39595","miles_from_dt":2.35},{"city":"Pascagoula","state_name":"Mississippi","lat":30.35048,"lng":-88.49324,"zip":"39581","miles_from_dt":3.63},{"city":"Moss Point","state_name":"Mississippi","lat":30.42449,"lng":-88.52601,"zip":"39563","miles_from_dt":4.59},{"city":"Escatawpa","state_name":"Mississippi","lat":30.45048,"lng":-88.54096,"zip":"39552","miles_from_dt":6.14},{"city":"Gautier","state_name":"Mississippi","lat":30.41625,"lng":-88.64848,"zip":"39553","miles_from_dt":6.84},{"city":"Ocean Springs","state_name":"Mississippi","lat":30.40518,"lng":-88.75471,"zip":"39564","miles_from_dt":12.44},{"city":"Moss Point","state_name":"Mississippi","lat":30.54573,"lng":-88.49039,"zip":"39562","miles_from_dt":13.19},{"city":"Grand Bay","state_name":"Alabama","lat":30.49084,"lng":-88.34384,"zip":"36541","miles_from_dt":15.3},{"city":"Ocean Springs","state_name":"Mississippi","lat":30.4149,"lng":-88.82357,"zip":"39566","miles_from_dt":16.59},{"city":"Bayou La Batre","state_name":"Alabama","lat":30.4077,"lng":-88.24726,"zip":"36509","miles_from_dt":18.5},{"city":"Vancleave","state_name":"Mississippi","lat":30.5759,"lng":-88.75207,"zip":"39565","miles_from_dt":18.95},{"city":"Saint Elmo","state_name":"Alabama","lat":30.51291,"lng":-88.27067,"zip":"36568","miles_from_dt":19.78},{"city":"Biloxi","state_name":"Mississippi","lat":30.39633,"lng":-88.88492,"zip":"39533","miles_from_dt":19.99},{"city":"Biloxi","state_name":"Mississippi","lat":30.40344,"lng":-88.89165,"zip":"39530","miles_from_dt":20.45},{"city":"Irvington","state_name":"Alabama","lat":30.47436,"lng":-88.234,"zip":"36544","miles_from_dt":20.53},{"city":"Hurley","state_name":"Mississippi","lat":30.67476,"lng":-88.48587,"zip":"39555","miles_from_dt":21.91},{"city":"Diberville","state_name":"Mississippi","lat":30.47108,"lng":-88.90088,"zip":"39540","miles_from_dt":22.11},{"city":"Biloxi","state_name":"Mississippi","lat":30.40856,"lng":-88.92122,"zip":"39534","miles_from_dt":22.25},{"city":"Biloxi","state_name":"Mississippi","lat":30.41525,"lng":-88.93035,"zip":"39535","miles_from_dt":22.86},{"city":"Coden","state_name":"Alabama","lat":30.37852,"lng":-88.16536,"zip":"36523","miles_from_dt":23.15},{"city":"Mobile","state_name":"Alabama","lat":30.6309,"lng":-88.27775,"zip":"36695","miles_from_dt":24.74},{"city":"Theodore","state_name":"Alabama","lat":30.51616,"lng":-88.17719,"zip":"36582","miles_from_dt":24.8},{"city":"Theodore","state_name":"Alabama","lat":30.53346,"lng":-88.18469,"zip":"36590","miles_from_dt":24.93},{"city":"Biloxi","state_name":"Mississippi","lat":30.40459,"lng":-88.96735,"zip":"39531","miles_from_dt":24.95},{"city":"Dauphin Island","state_name":"Alabama","lat":30.25253,"lng":-88.14381,"zip":"36528","miles_from_dt":25.56},{"city":"Mobile","state_name":"Alabama","lat":30.68115,"lng":-88.29593,"zip":"36608","miles_from_dt":26.79},{"city":"Mobile","state_name":"Alabama","lat":30.59488,"lng":-88.19302,"zip":"36619","miles_from_dt":26.79},{"city":"Biloxi","state_name":"Mississippi","lat":30.50155,"lng":-88.97454,"zip":"39532","miles_from_dt":26.96},{"city":"Mobile","state_name":"Alabama","lat":30.69017,"lng":-88.29752,"zip":"36685","miles_from_dt":27.25},{"city":"Gulfport","state_name":"Mississippi","lat":30.39945,"lng":-89.03628,"zip":"39507","miles_from_dt":29.01}],"targetCityZipCode":"39567","targetCityState":"Mississippi"},"__N_SSG":true}