{"pageProps":{"stateName":"Mississippi","cityName":"pass-christian","nearbyCities":[{"city":"Diamondhead","state_name":"Mississippi","lat":30.38123,"lng":-89.37065,"zip":"39525","miles_from_dt":5.87},{"city":"Long Beach","state_name":"Mississippi","lat":30.37356,"lng":-89.17356,"zip":"39560","miles_from_dt":7.08},{"city":"Bay Saint Louis","state_name":"Mississippi","lat":30.32914,"lng":-89.37067,"zip":"39521","miles_from_dt":8.05},{"city":"Gulfport","state_name":"Mississippi","lat":30.47432,"lng":-89.14752,"zip":"39503","miles_from_dt":8.92},{"city":"Kiln","state_name":"Mississippi","lat":30.44457,"lng":-89.42747,"zip":"39556","miles_from_dt":8.94},{"city":"Gulfport","state_name":"Mississippi","lat":30.3857,"lng":-89.10309,"zip":"39501","miles_from_dt":10.85},{"city":"Waveland","state_name":"Mississippi","lat":30.28699,"lng":-89.38511,"zip":"39576","miles_from_dt":10.87},{"city":"Gulfport","state_name":"Mississippi","lat":30.38922,"lng":-89.09942,"zip":"39502","miles_from_dt":11.02},{"city":"Gulfport","state_name":"Mississippi","lat":30.44256,"lng":-89.06776,"zip":"39505","miles_from_dt":12.87},{"city":"Gulfport","state_name":"Mississippi","lat":30.38946,"lng":-89.0572,"zip":"39506","miles_from_dt":13.51},{"city":"Gulfport","state_name":"Mississippi","lat":30.39945,"lng":-89.03628,"zip":"39507","miles_from_dt":14.67},{"city":"Stennis Space Center","state_name":"Mississippi","lat":30.33503,"lng":-89.50914,"zip":"39522","miles_from_dt":14.73},{"city":"Lakeshore","state_name":"Mississippi","lat":30.24187,"lng":-89.43473,"zip":"39558","miles_from_dt":15.13},{"city":"Bay Saint Louis","state_name":"Mississippi","lat":30.26885,"lng":-89.47132,"zip":"39520","miles_from_dt":15.25},{"city":"Saucier","state_name":"Mississippi","lat":30.60912,"lng":-89.10489,"zip":"39574","miles_from_dt":16.93},{"city":"Biloxi","state_name":"Mississippi","lat":30.40459,"lng":-88.96735,"zip":"39531","miles_from_dt":18.76},{"city":"Biloxi","state_name":"Mississippi","lat":30.50155,"lng":-88.97454,"zip":"39532","miles_from_dt":19.22},{"city":"Stennis Space Center","state_name":"Mississippi","lat":30.37734,"lng":-89.60211,"zip":"39529","miles_from_dt":19.35},{"city":"Biloxi","state_name":"Mississippi","lat":30.41525,"lng":-88.93035,"zip":"39535","miles_from_dt":20.95},{"city":"McHenry","state_name":"Mississippi","lat":30.70633,"lng":-89.16049,"zip":"39561","miles_from_dt":21.22},{"city":"Biloxi","state_name":"Mississippi","lat":30.40856,"lng":-88.92122,"zip":"39534","miles_from_dt":21.5},{"city":"Pearlington","state_name":"Mississippi","lat":30.25089,"lng":-89.60127,"zip":"39572","miles_from_dt":22.27},{"city":"Picayune","state_name":"Mississippi","lat":30.53328,"lng":-89.63424,"zip":"39466","miles_from_dt":22.54},{"city":"Diberville","state_name":"Mississippi","lat":30.47108,"lng":-88.90088,"zip":"39540","miles_from_dt":23.01},{"city":"Biloxi","state_name":"Mississippi","lat":30.40344,"lng":-88.89165,"zip":"39530","miles_from_dt":23.28},{"city":"Biloxi","state_name":"Mississippi","lat":30.39633,"lng":-88.88492,"zip":"39533","miles_from_dt":23.71},{"city":"Nicholson","state_name":"Mississippi","lat":30.55766,"lng":-89.64431,"zip":"39463","miles_from_dt":23.74},{"city":"Perkinston","state_name":"Mississippi","lat":30.72692,"lng":-89.08271,"zip":"39573","miles_from_dt":24.43},{"city":"Ocean Springs","state_name":"Mississippi","lat":30.4149,"lng":-88.82357,"zip":"39566","miles_from_dt":27.32},{"city":"McNeill","state_name":"Mississippi","lat":30.66848,"lng":-89.63896,"zip":"39457","miles_from_dt":27.49},{"city":"Carriere","state_name":"Mississippi","lat":30.65375,"lng":-89.65709,"zip":"39426","miles_from_dt":27.73},{"city":"Slidell","state_name":"Louisiana","lat":30.2326,"lng":-89.70931,"zip":"70461","miles_from_dt":28.55},{"city":"Pearl River","state_name":"Louisiana","lat":30.41424,"lng":-89.76048,"zip":"70452","miles_from_dt":28.61}],"targetCityZipCode":"39571","targetCityState":"Mississippi"},"__N_SSG":true}