{"pageProps":{"stateName":"Mississippi","cityName":"pinola","nearbyCities":[{"city":"Newhebron","state_name":"Mississippi","lat":31.75211,"lng":-90.00512,"zip":"39140","miles_from_dt":5.62},{"city":"Harrisville","state_name":"Mississippi","lat":31.94663,"lng":-90.12369,"zip":"39082","miles_from_dt":10.27},{"city":"Georgetown","state_name":"Mississippi","lat":31.87901,"lng":-90.19596,"zip":"39078","miles_from_dt":11.38},{"city":"D Lo","state_name":"Mississippi","lat":31.98479,"lng":-89.89815,"zip":"39062","miles_from_dt":12.32},{"city":"Mendenhall","state_name":"Mississippi","lat":31.95331,"lng":-89.83257,"zip":"39114","miles_from_dt":13.29},{"city":"Braxton","state_name":"Mississippi","lat":32.02869,"lng":-89.97161,"zip":"39044","miles_from_dt":13.63},{"city":"Piney Woods","state_name":"Mississippi","lat":32.06159,"lng":-89.99459,"zip":"39148","miles_from_dt":15.74},{"city":"Silver Creek","state_name":"Mississippi","lat":31.58615,"lng":-90.02955,"zip":"39663","miles_from_dt":17.08},{"city":"Prentiss","state_name":"Mississippi","lat":31.61739,"lng":-89.85458,"zip":"39474","miles_from_dt":17.48},{"city":"Magee","state_name":"Mississippi","lat":31.89536,"lng":-89.71816,"zip":"39111","miles_from_dt":17.67},{"city":"Sontag","state_name":"Mississippi","lat":31.64125,"lng":-90.21404,"zip":"39665","miles_from_dt":17.89},{"city":"Star","state_name":"Mississippi","lat":32.09316,"lng":-90.04003,"zip":"39167","miles_from_dt":17.98},{"city":"Florence","state_name":"Mississippi","lat":32.10269,"lng":-90.13049,"zip":"39073","miles_from_dt":19.85},{"city":"Mount Olive","state_name":"Mississippi","lat":31.75236,"lng":-89.67509,"zip":"39119","miles_from_dt":20.48},{"city":"Monticello","state_name":"Mississippi","lat":31.53716,"lng":-90.13831,"zip":"39654","miles_from_dt":21.78},{"city":"Crystal Springs","state_name":"Mississippi","lat":31.98194,"lng":-90.35141,"zip":"39059","miles_from_dt":22.53},{"city":"Puckett","state_name":"Mississippi","lat":32.10104,"lng":-89.78709,"zip":"39151","miles_from_dt":22.6},{"city":"Gallman","state_name":"Mississippi","lat":31.93368,"lng":-90.38689,"zip":"39077","miles_from_dt":23.21},{"city":"Wesson","state_name":"Mississippi","lat":31.71492,"lng":-90.40764,"zip":"39191","miles_from_dt":24.8},{"city":"Carson","state_name":"Mississippi","lat":31.48693,"lng":-89.82701,"zip":"39427","miles_from_dt":26.2},{"city":"Oak Vale","state_name":"Mississippi","lat":31.45055,"lng":-89.92843,"zip":"39656","miles_from_dt":26.82},{"city":"Hazlehurst","state_name":"Mississippi","lat":31.83467,"lng":-90.46997,"zip":"39083","miles_from_dt":27.06},{"city":"Brandon","state_name":"Mississippi","lat":32.2135,"lng":-89.88966,"zip":"39042","miles_from_dt":27.11},{"city":"Terry","state_name":"Mississippi","lat":32.11182,"lng":-90.3377,"zip":"39170","miles_from_dt":27.17},{"city":"Mize","state_name":"Mississippi","lat":31.89165,"lng":-89.54925,"zip":"39116","miles_from_dt":27.38},{"city":"Whitfield","state_name":"Mississippi","lat":32.23625,"lng":-90.07681,"zip":"39193","miles_from_dt":28.02},{"city":"Richland","state_name":"Mississippi","lat":32.22825,"lng":-90.15857,"zip":"39218","miles_from_dt":28.56},{"city":"Byram","state_name":"Mississippi","lat":32.18838,"lng":-90.26335,"zip":"39272","miles_from_dt":28.62},{"city":"Collins","state_name":"Mississippi","lat":31.65017,"lng":-89.57215,"zip":"39428","miles_from_dt":28.7},{"city":"Pearl","state_name":"Mississippi","lat":32.25827,"lng":-90.08908,"zip":"39208","miles_from_dt":29.63},{"city":"Bassfield","state_name":"Mississippi","lat":31.48411,"lng":-89.71179,"zip":"39421","miles_from_dt":29.8}],"targetCityZipCode":"39149","targetCityState":"Mississippi"},"__N_SSG":true}