{"pageProps":{"stateName":"Mississippi","cityName":"soso","nearbyCities":[{"city":"Laurel","state_name":"Mississippi","lat":31.694,"lng":-89.14791,"zip":"39440","miles_from_dt":9.91},{"city":"Taylorsville","state_name":"Mississippi","lat":31.82994,"lng":-89.40974,"zip":"39168","miles_from_dt":10.02},{"city":"Laurel","state_name":"Mississippi","lat":31.69316,"lng":-89.14322,"zip":"39442","miles_from_dt":10.19},{"city":"Ellisville","state_name":"Mississippi","lat":31.57883,"lng":-89.21981,"zip":"39437","miles_from_dt":10.58},{"city":"Moss","state_name":"Mississippi","lat":31.81504,"lng":-89.17748,"zip":"39460","miles_from_dt":10.92},{"city":"Laurel","state_name":"Mississippi","lat":31.70494,"lng":-89.12324,"zip":"39441","miles_from_dt":11.32},{"city":"Stringer","state_name":"Mississippi","lat":31.86738,"lng":-89.24457,"zip":"39481","miles_from_dt":11.69},{"city":"Laurel","state_name":"Mississippi","lat":31.71932,"lng":-89.07376,"zip":"39443","miles_from_dt":14.24},{"city":"Seminary","state_name":"Mississippi","lat":31.53775,"lng":-89.46065,"zip":"39479","miles_from_dt":14.58},{"city":"Moselle","state_name":"Mississippi","lat":31.49021,"lng":-89.30216,"zip":"39459","miles_from_dt":15.09},{"city":"Collins","state_name":"Mississippi","lat":31.65017,"lng":-89.57215,"zip":"39428","miles_from_dt":15.67},{"city":"Eastabuchie","state_name":"Mississippi","lat":31.47293,"lng":-89.3263,"zip":"39436","miles_from_dt":16.27},{"city":"Sandersville","state_name":"Mississippi","lat":31.79291,"lng":-89.03579,"zip":"39477","miles_from_dt":17.44},{"city":"Bay Springs","state_name":"Mississippi","lat":31.95953,"lng":-89.26745,"zip":"39422","miles_from_dt":17.5},{"city":"Mize","state_name":"Mississippi","lat":31.89165,"lng":-89.54925,"zip":"39116","miles_from_dt":18.66},{"city":"Heidelberg","state_name":"Mississippi","lat":31.85865,"lng":-89.00227,"zip":"39439","miles_from_dt":21.11},{"city":"Ovett","state_name":"Mississippi","lat":31.49268,"lng":-89.06129,"zip":"39464","miles_from_dt":21.12},{"city":"Mount Olive","state_name":"Mississippi","lat":31.75236,"lng":-89.67509,"zip":"39119","miles_from_dt":21.4},{"city":"Paulding","state_name":"Mississippi","lat":32.00007,"lng":-89.03475,"zip":"39348","miles_from_dt":25.97},{"city":"Raleigh","state_name":"Mississippi","lat":32.05133,"lng":-89.50159,"zip":"39153","miles_from_dt":26.01},{"city":"Hattiesburg","state_name":"Mississippi","lat":31.32895,"lng":-89.33515,"zip":"39406","miles_from_dt":26.2},{"city":"Petal","state_name":"Mississippi","lat":31.34456,"lng":-89.18751,"zip":"39465","miles_from_dt":26.21},{"city":"Hattiesburg","state_name":"Mississippi","lat":31.33446,"lng":-89.4132,"zip":"39402","miles_from_dt":26.44},{"city":"Hattiesburg","state_name":"Mississippi","lat":31.32237,"lng":-89.27897,"zip":"39403","miles_from_dt":26.72},{"city":"Magee","state_name":"Mississippi","lat":31.89536,"lng":-89.71816,"zip":"39111","miles_from_dt":26.96},{"city":"Hattiesburg","state_name":"Mississippi","lat":31.31353,"lng":-89.30539,"zip":"39407","miles_from_dt":27.25},{"city":"Sumrall","state_name":"Mississippi","lat":31.37271,"lng":-89.57966,"zip":"39482","miles_from_dt":27.93},{"city":"Bassfield","state_name":"Mississippi","lat":31.48411,"lng":-89.71179,"zip":"39421","miles_from_dt":28.05},{"city":"Louin","state_name":"Mississippi","lat":32.11034,"lng":-89.23274,"zip":"39338","miles_from_dt":28.08},{"city":"Vossburg","state_name":"Mississippi","lat":31.93795,"lng":-88.90057,"zip":"39366","miles_from_dt":29.06},{"city":"Hattiesburg","state_name":"Mississippi","lat":31.29639,"lng":-89.42929,"zip":"39404","miles_from_dt":29.21}],"targetCityZipCode":"39480","targetCityState":"Mississippi"},"__N_SSG":true}