{"pageProps":{"stateName":"Pennsylvania","cityName":"auburn","nearbyCities":[{"city":"Port Clinton","state_name":"Pennsylvania","lat":40.58176,"lng":-76.02672,"zip":"19549","miles_from_dt":4.55},{"city":"Orwigsburg","state_name":"Pennsylvania","lat":40.64713,"lng":-76.05988,"zip":"17961","miles_from_dt":4.69},{"city":"Cressona","state_name":"Pennsylvania","lat":40.63104,"lng":-76.19273,"zip":"17929","miles_from_dt":5.02},{"city":"Summit Station","state_name":"Pennsylvania","lat":40.56729,"lng":-76.20207,"zip":"17979","miles_from_dt":5.03},{"city":"Schuylkill Haven","state_name":"Pennsylvania","lat":40.58199,"lng":-76.21367,"zip":"17972","miles_from_dt":5.39},{"city":"Shartlesville","state_name":"Pennsylvania","lat":40.51288,"lng":-76.10377,"zip":"19554","miles_from_dt":5.48},{"city":"Hamburg","state_name":"Pennsylvania","lat":40.5465,"lng":-75.99802,"zip":"19526","miles_from_dt":6.78},{"city":"Friedensburg","state_name":"Pennsylvania","lat":40.60357,"lng":-76.24244,"zip":"17933","miles_from_dt":6.9},{"city":"Port Carbon","state_name":"Pennsylvania","lat":40.69919,"lng":-76.16536,"zip":"17965","miles_from_dt":7.91},{"city":"Strausstown","state_name":"Pennsylvania","lat":40.49234,"lng":-76.18661,"zip":"19559","miles_from_dt":7.92},{"city":"Cumbola","state_name":"Pennsylvania","lat":40.70867,"lng":-76.11529,"zip":"17930","miles_from_dt":8.05},{"city":"Mohrsville","state_name":"Pennsylvania","lat":40.47821,"lng":-76.02597,"zip":"19541","miles_from_dt":9.07},{"city":"Centerport","state_name":"Pennsylvania","lat":40.48686,"lng":-76.00526,"zip":"19516","miles_from_dt":9.18},{"city":"Mar Lin","state_name":"Pennsylvania","lat":40.67919,"lng":-76.24425,"zip":"17951","miles_from_dt":9.19},{"city":"Bernville","state_name":"Pennsylvania","lat":40.45873,"lng":-76.12379,"zip":"19506","miles_from_dt":9.22},{"city":"Seltzer","state_name":"Pennsylvania","lat":40.69592,"lng":-76.23606,"zip":"17974","miles_from_dt":9.69},{"city":"Saint Clair","state_name":"Pennsylvania","lat":40.72072,"lng":-76.19056,"zip":"17970","miles_from_dt":9.79},{"city":"Pottsville","state_name":"Pennsylvania","lat":40.69364,"lng":-76.25526,"zip":"17901","miles_from_dt":10.29},{"city":"Minersville","state_name":"Pennsylvania","lat":40.69047,"lng":-76.25985,"zip":"17954","miles_from_dt":10.32},{"city":"Llewellyn","state_name":"Pennsylvania","lat":40.6605,"lng":-76.28903,"zip":"17944","miles_from_dt":10.43},{"city":"New Philadelphia","state_name":"Pennsylvania","lat":40.74224,"lng":-76.15141,"zip":"17959","miles_from_dt":10.57},{"city":"Middleport","state_name":"Pennsylvania","lat":40.74728,"lng":-76.09969,"zip":"17953","miles_from_dt":10.73},{"city":"Shoemakersville","state_name":"Pennsylvania","lat":40.49335,"lng":-75.94993,"zip":"19555","miles_from_dt":10.92},{"city":"Bethel","state_name":"Pennsylvania","lat":40.49268,"lng":-76.28235,"zip":"19507","miles_from_dt":11.28},{"city":"New Ringgold","state_name":"Pennsylvania","lat":40.69932,"lng":-75.94656,"zip":"17960","miles_from_dt":11.43},{"city":"Brockton","state_name":"Pennsylvania","lat":40.75609,"lng":-76.07047,"zip":"17925","miles_from_dt":11.53},{"city":"Ravine","state_name":"Pennsylvania","lat":40.55922,"lng":-76.33073,"zip":"17966","miles_from_dt":11.72},{"city":"Branchdale","state_name":"Pennsylvania","lat":40.66136,"lng":-76.31871,"zip":"17923","miles_from_dt":11.87},{"city":"Rehrersburg","state_name":"Pennsylvania","lat":40.45593,"lng":-76.25055,"zip":"19550","miles_from_dt":11.89},{"city":"Lenhartsville","state_name":"Pennsylvania","lat":40.57813,"lng":-75.88111,"zip":"19534","miles_from_dt":12.19},{"city":"Mary D","state_name":"Pennsylvania","lat":40.76434,"lng":-76.05997,"zip":"17952","miles_from_dt":12.2},{"city":"Tuscarora","state_name":"Pennsylvania","lat":40.76798,"lng":-76.03827,"zip":"17982","miles_from_dt":12.75},{"city":"Leesport","state_name":"Pennsylvania","lat":40.42245,"lng":-75.99021,"zip":"19533","miles_from_dt":13.34},{"city":"Kempton","state_name":"Pennsylvania","lat":40.63387,"lng":-75.86158,"zip":"19529","miles_from_dt":13.49},{"city":"Virginville","state_name":"Pennsylvania","lat":40.51926,"lng":-75.87403,"zip":"19564","miles_from_dt":13.5},{"city":"Frackville","state_name":"Pennsylvania","lat":40.78378,"lng":-76.21638,"zip":"17931","miles_from_dt":14.32},{"city":"Womelsdorf","state_name":"Pennsylvania","lat":40.3957,"lng":-76.20989,"zip":"19567","miles_from_dt":14.49},{"city":"Frackville","state_name":"Pennsylvania","lat":40.78269,"lng":-76.23214,"zip":"17932","miles_from_dt":14.59},{"city":"Tamaqua","state_name":"Pennsylvania","lat":40.77857,"lng":-75.97893,"zip":"18252","miles_from_dt":14.65},{"city":"Barnesville","state_name":"Pennsylvania","lat":40.80667,"lng":-76.08093,"zip":"18214","miles_from_dt":14.9},{"city":"Pine Grove","state_name":"Pennsylvania","lat":40.56133,"lng":-76.39548,"zip":"17963","miles_from_dt":15.06},{"city":"Tremont","state_name":"Pennsylvania","lat":40.63077,"lng":-76.39523,"zip":"17981","miles_from_dt":15.13},{"city":"Gilberton","state_name":"Pennsylvania","lat":40.79786,"lng":-76.21205,"zip":"17934","miles_from_dt":15.14},{"city":"Richland","state_name":"Pennsylvania","lat":40.40523,"lng":-76.26356,"zip":"17087","miles_from_dt":15.16},{"city":"Mount Aetna","state_name":"Pennsylvania","lat":40.41669,"lng":-76.29619,"zip":"19544","miles_from_dt":15.5},{"city":"Mahanoy Plane","state_name":"Pennsylvania","lat":40.79624,"lng":-76.23547,"zip":"17949","miles_from_dt":15.51},{"city":"Blandon","state_name":"Pennsylvania","lat":40.44551,"lng":-75.88179,"zip":"19510","miles_from_dt":15.79},{"city":"Reading","state_name":"Pennsylvania","lat":40.39917,"lng":-75.94596,"zip":"19605","miles_from_dt":15.93},{"city":"Robesonia","state_name":"Pennsylvania","lat":40.35951,"lng":-76.14213,"zip":"19551","miles_from_dt":16.12},{"city":"Mahanoy City","state_name":"Pennsylvania","lat":40.82485,"lng":-76.14223,"zip":"17948","miles_from_dt":16.14},{"city":"Gordon","state_name":"Pennsylvania","lat":40.75048,"lng":-76.33997,"zip":"17936","miles_from_dt":16.21},{"city":"Girardville","state_name":"Pennsylvania","lat":40.79417,"lng":-76.28,"zip":"17935","miles_from_dt":16.5},{"city":"Shenandoah","state_name":"Pennsylvania","lat":40.8204,"lng":-76.21131,"zip":"17976","miles_from_dt":16.6},{"city":"Lost Creek","state_name":"Pennsylvania","lat":40.8123,"lng":-76.2449,"zip":"17946","miles_from_dt":16.72},{"city":"Ashland","state_name":"Pennsylvania","lat":40.75422,"lng":-76.35732,"zip":"17921","miles_from_dt":17.07},{"city":"Delano","state_name":"Pennsylvania","lat":40.83958,"lng":-76.07509,"zip":"18220","miles_from_dt":17.19},{"city":"Wernersville","state_name":"Pennsylvania","lat":40.34231,"lng":-76.08873,"zip":"19565","miles_from_dt":17.27},{"city":"Temple","state_name":"Pennsylvania","lat":40.40053,"lng":-75.88993,"zip":"19560","miles_from_dt":17.65},{"city":"Myerstown","state_name":"Pennsylvania","lat":40.38848,"lng":-76.31583,"zip":"17067","miles_from_dt":17.67},{"city":"Kutztown","state_name":"Pennsylvania","lat":40.54012,"lng":-75.77675,"zip":"19530","miles_from_dt":18.01},{"city":"Lavelle","state_name":"Pennsylvania","lat":40.76161,"lng":-76.37949,"zip":"17943","miles_from_dt":18.28},{"city":"Fleetwood","state_name":"Pennsylvania","lat":40.44948,"lng":-75.81676,"zip":"19522","miles_from_dt":18.4},{"city":"Andreas","state_name":"Pennsylvania","lat":40.74315,"lng":-75.82314,"zip":"18211","miles_from_dt":18.42},{"city":"Quakake","state_name":"Pennsylvania","lat":40.8528,"lng":-76.03011,"zip":"18245","miles_from_dt":18.5},{"city":"Reading","state_name":"Pennsylvania","lat":40.36608,"lng":-75.91368,"zip":"19612","miles_from_dt":18.77},{"city":"Coaldale","state_name":"Pennsylvania","lat":40.81974,"lng":-75.91611,"zip":"18218","miles_from_dt":18.79},{"city":"Reading","state_name":"Pennsylvania","lat":40.34015,"lng":-75.97612,"zip":"19610","miles_from_dt":18.8},{"city":"Reading","state_name":"Pennsylvania","lat":40.3526,"lng":-75.9408,"zip":"19601","miles_from_dt":18.82},{"city":"Aristes","state_name":"Pennsylvania","lat":40.81328,"lng":-76.32989,"zip":"17920","miles_from_dt":19.08},{"city":"Fredericksburg","state_name":"Pennsylvania","lat":40.46734,"lng":-76.43626,"zip":"17026","miles_from_dt":19.11},{"city":"Locustdale","state_name":"Pennsylvania","lat":40.78458,"lng":-76.37523,"zip":"17945","miles_from_dt":19.17},{"city":"Ringtown","state_name":"Pennsylvania","lat":40.86047,"lng":-76.20945,"zip":"17967","miles_from_dt":19.22},{"city":"Reading","state_name":"Pennsylvania","lat":40.32774,"lng":-75.99622,"zip":"19609","miles_from_dt":19.23},{"city":"Reading","state_name":"Pennsylvania","lat":40.35791,"lng":-75.90954,"zip":"19604","miles_from_dt":19.36},{"city":"Reading","state_name":"Pennsylvania","lat":40.31401,"lng":-76.03574,"zip":"19608","miles_from_dt":19.6},{"city":"Reading","state_name":"Pennsylvania","lat":40.34008,"lng":-75.93014,"zip":"19603","miles_from_dt":19.85},{"city":"New Tripoli","state_name":"Pennsylvania","lat":40.6635,"lng":-75.74492,"zip":"18066","miles_from_dt":19.92},{"city":"Lyon Station","state_name":"Pennsylvania","lat":40.48069,"lng":-75.75891,"zip":"19536","miles_from_dt":20.12},{"city":"Summit Hill","state_name":"Pennsylvania","lat":40.81744,"lng":-75.86145,"zip":"18250","miles_from_dt":20.38},{"city":"Reading","state_name":"Pennsylvania","lat":40.32473,"lng":-75.9411,"zip":"19611","miles_from_dt":20.53},{"city":"Bowers","state_name":"Pennsylvania","lat":40.48473,"lng":-75.74381,"zip":"19511","miles_from_dt":20.75},{"city":"Lansford","state_name":"Pennsylvania","lat":40.83515,"lng":-75.87939,"zip":"18232","miles_from_dt":20.76},{"city":"Mcadoo","state_name":"Pennsylvania","lat":40.88591,"lng":-76.02582,"zip":"18237","miles_from_dt":20.78},{"city":"Wilburton","state_name":"Pennsylvania","lat":40.81931,"lng":-76.37306,"zip":"17888","miles_from_dt":20.83},{"city":"Hegins","state_name":"Pennsylvania","lat":40.65558,"lng":-76.50198,"zip":"17938","miles_from_dt":20.96},{"city":"Reading","state_name":"Pennsylvania","lat":40.32695,"lng":-75.91701,"zip":"19602","miles_from_dt":20.98},{"city":"Locust Gap","state_name":"Pennsylvania","lat":40.77537,"lng":-76.43291,"zip":"17840","miles_from_dt":21.07},{"city":"Muir","state_name":"Pennsylvania","lat":40.59359,"lng":-76.51651,"zip":"17957","miles_from_dt":21.27},{"city":"Sheppton","state_name":"Pennsylvania","lat":40.90089,"lng":-76.09448,"zip":"18248","miles_from_dt":21.33},{"city":"Newmanstown","state_name":"Pennsylvania","lat":40.30047,"lng":-76.25924,"zip":"17073","miles_from_dt":21.56},{"city":"Oneida","state_name":"Pennsylvania","lat":40.90606,"lng":-76.12349,"zip":"18242","miles_from_dt":21.68},{"city":"Kleinfeltersville","state_name":"Pennsylvania","lat":40.2928,"lng":-76.24077,"zip":"17039","miles_from_dt":21.73},{"city":"Maxatawny","state_name":"Pennsylvania","lat":40.54655,"lng":-75.70023,"zip":"19538","miles_from_dt":21.9},{"city":"Pitman","state_name":"Pennsylvania","lat":40.71415,"lng":-76.49785,"zip":"17964","miles_from_dt":21.95},{"city":"Kelayres","state_name":"Pennsylvania","lat":40.90068,"lng":-76.00446,"zip":"18231","miles_from_dt":22.04},{"city":"Lebanon","state_name":"Pennsylvania","lat":40.38242,"lng":-76.4306,"zip":"17046","miles_from_dt":22.15},{"city":"Reading","state_name":"Pennsylvania","lat":40.3357,"lng":-75.85755,"zip":"19606","miles_from_dt":22.2},{"city":"Reinholds","state_name":"Pennsylvania","lat":40.27043,"lng":-76.09652,"zip":"17569","miles_from_dt":22.2},{"city":"Mount Carmel","state_name":"Pennsylvania","lat":40.80255,"lng":-76.433,"zip":"17851","miles_from_dt":22.25},{"city":"Schaefferstown","state_name":"Pennsylvania","lat":40.30046,"lng":-76.295,"zip":"17088","miles_from_dt":22.31},{"city":"Topton","state_name":"Pennsylvania","lat":40.50316,"lng":-75.70135,"zip":"19562","miles_from_dt":22.47},{"city":"Reading","state_name":"Pennsylvania","lat":40.29147,"lng":-75.94521,"zip":"19607","miles_from_dt":22.53},{"city":"Kulpmont","state_name":"Pennsylvania","lat":40.77982,"lng":-76.46701,"zip":"17834","miles_from_dt":22.7},{"city":"Germansville","state_name":"Pennsylvania","lat":40.71802,"lng":-75.70999,"zip":"18053","miles_from_dt":22.85},{"city":"Oley","state_name":"Pennsylvania","lat":40.38315,"lng":-75.76644,"zip":"19547","miles_from_dt":23.22},{"city":"Marion Heights","state_name":"Pennsylvania","lat":40.80554,"lng":-76.45499,"zip":"17832","miles_from_dt":23.27},{"city":"Nesquehoning","state_name":"Pennsylvania","lat":40.86279,"lng":-75.84727,"zip":"18240","miles_from_dt":23.29},{"city":"Valley View","state_name":"Pennsylvania","lat":40.64403,"lng":-76.55027,"zip":"17983","miles_from_dt":23.32},{"city":"Mertztown","state_name":"Pennsylvania","lat":40.49071,"lng":-75.68823,"zip":"19539","miles_from_dt":23.38},{"city":"Zion Grove","state_name":"Pennsylvania","lat":40.91935,"lng":-76.23729,"zip":"17985","miles_from_dt":23.52},{"city":"Fogelsville","state_name":"Pennsylvania","lat":40.59409,"lng":-75.66415,"zip":"18051","miles_from_dt":23.56},{"city":"Tresckow","state_name":"Pennsylvania","lat":40.91594,"lng":-75.96563,"zip":"18254","miles_from_dt":23.64},{"city":"Numidia","state_name":"Pennsylvania","lat":40.84238,"lng":-76.42314,"zip":"17858","miles_from_dt":23.77},{"city":"Denver","state_name":"Pennsylvania","lat":40.24402,"lng":-76.13151,"zip":"17517","miles_from_dt":24.03},{"city":"Weston","state_name":"Pennsylvania","lat":40.94044,"lng":-76.14752,"zip":"18256","miles_from_dt":24.11},{"city":"Limekiln","state_name":"Pennsylvania","lat":40.3394,"lng":-75.79537,"zip":"19535","miles_from_dt":24.13},{"city":"Ashfield","state_name":"Pennsylvania","lat":40.77292,"lng":-75.71883,"zip":"18212","miles_from_dt":24.14},{"city":"Adamstown","state_name":"Pennsylvania","lat":40.24314,"lng":-76.05822,"zip":"19501","miles_from_dt":24.24},{"city":"Breinigsville","state_name":"Pennsylvania","lat":40.554,"lng":-75.65361,"zip":"18031","miles_from_dt":24.27},{"city":"Nuremberg","state_name":"Pennsylvania","lat":40.94439,"lng":-76.16492,"zip":"18241","miles_from_dt":24.47},{"city":"Jonestown","state_name":"Pennsylvania","lat":40.46787,"lng":-76.54895,"zip":"17038","miles_from_dt":24.54},{"city":"Junedale","state_name":"Pennsylvania","lat":40.9201,"lng":-75.93077,"zip":"18230","miles_from_dt":24.56},{"city":"Hazleton","state_name":"Pennsylvania","lat":40.94874,"lng":-76.0483,"zip":"18202","miles_from_dt":24.84},{"city":"Stevens","state_name":"Pennsylvania","lat":40.22397,"lng":-76.16405,"zip":"17578","miles_from_dt":25.54},{"city":"Rock Glen","state_name":"Pennsylvania","lat":40.95743,"lng":-76.195,"zip":"18246","miles_from_dt":25.59},{"city":"Allentown","state_name":"Pennsylvania","lat":40.58427,"lng":-75.62479,"zip":"18195","miles_from_dt":25.64},{"city":"Mohnton","state_name":"Pennsylvania","lat":40.23714,"lng":-75.9658,"zip":"19540","miles_from_dt":25.67},{"city":"Ono","state_name":"Pennsylvania","lat":40.40232,"lng":-76.53651,"zip":"17077","miles_from_dt":25.9},{"city":"Rexmont","state_name":"Pennsylvania","lat":40.27885,"lng":-76.3832,"zip":"17085","miles_from_dt":25.91},{"city":"Quentin","state_name":"Pennsylvania","lat":40.33791,"lng":-76.47433,"zip":"17083","miles_from_dt":25.92},{"city":"Alburtis","state_name":"Pennsylvania","lat":40.47288,"lng":-75.64395,"zip":"18011","miles_from_dt":25.98},{"city":"Hopeland","state_name":"Pennsylvania","lat":40.23452,"lng":-76.26784,"zip":"17533","miles_from_dt":26},{"city":"Slatedale","state_name":"Pennsylvania","lat":40.74415,"lng":-75.65754,"zip":"18079","miles_from_dt":26.09},{"city":"Hazleton","state_name":"Pennsylvania","lat":40.95198,"lng":-75.95395,"zip":"18201","miles_from_dt":26.19},{"city":"Orefield","state_name":"Pennsylvania","lat":40.626,"lng":-75.616,"zip":"18069","miles_from_dt":26.19},{"city":"Reamstown","state_name":"Pennsylvania","lat":40.21244,"lng":-76.12343,"zip":"17567","miles_from_dt":26.2},{"city":"Lebanon","state_name":"Pennsylvania","lat":40.29488,"lng":-76.42271,"zip":"17042","miles_from_dt":26.24},{"city":"Catawissa","state_name":"Pennsylvania","lat":40.9011,"lng":-76.40783,"zip":"17820","miles_from_dt":26.38},{"city":"Schnecksville","state_name":"Pennsylvania","lat":40.67181,"lng":-75.62096,"zip":"18078","miles_from_dt":26.4},{"city":"Beaver Meadows","state_name":"Pennsylvania","lat":40.94212,"lng":-75.90517,"zip":"18216","miles_from_dt":26.49},{"city":"Coal Township","state_name":"Pennsylvania","lat":40.78866,"lng":-76.55035,"zip":"17866","miles_from_dt":26.72},{"city":"Cornwall","state_name":"Pennsylvania","lat":40.27322,"lng":-76.40705,"zip":"17016","miles_from_dt":26.94},{"city":"Leck Kill","state_name":"Pennsylvania","lat":40.71446,"lng":-76.60136,"zip":"17836","miles_from_dt":27.06},{"city":"Tower City","state_name":"Pennsylvania","lat":40.531,"lng":-76.62065,"zip":"17980","miles_from_dt":27.09},{"city":"Sugarloaf","state_name":"Pennsylvania","lat":40.98457,"lng":-76.1206,"zip":"18249","miles_from_dt":27.09},{"city":"Birdsboro","state_name":"Pennsylvania","lat":40.25913,"lng":-75.83984,"zip":"19508","miles_from_dt":27.09},{"city":"Slatington","state_name":"Pennsylvania","lat":40.73618,"lng":-75.63227,"zip":"18080","miles_from_dt":27.1},{"city":"Allentown","state_name":"Pennsylvania","lat":40.57472,"lng":-75.59542,"zip":"18106","miles_from_dt":27.21},{"city":"Klingerstown","state_name":"Pennsylvania","lat":40.68614,"lng":-76.61472,"zip":"17941","miles_from_dt":27.21},{"city":"Sacramento","state_name":"Pennsylvania","lat":40.6417,"lng":-76.62625,"zip":"17968","miles_from_dt":27.25},{"city":"Williamstown","state_name":"Pennsylvania","lat":40.58998,"lng":-76.63071,"zip":"17098","miles_from_dt":27.28},{"city":"Trexlertown","state_name":"Pennsylvania","lat":40.55398,"lng":-75.59588,"zip":"18087","miles_from_dt":27.29},{"city":"Elysburg","state_name":"Pennsylvania","lat":40.85652,"lng":-76.49848,"zip":"17824","miles_from_dt":27.29},{"city":"Neffs","state_name":"Pennsylvania","lat":40.69814,"lng":-75.61086,"zip":"18065","miles_from_dt":27.34},{"city":"Earlville","state_name":"Pennsylvania","lat":40.315,"lng":-75.73839,"zip":"19519","miles_from_dt":27.45},{"city":"Bowmansville","state_name":"Pennsylvania","lat":40.19806,"lng":-76.01624,"zip":"17507","miles_from_dt":27.65},{"city":"Conyngham","state_name":"Pennsylvania","lat":40.99105,"lng":-76.05824,"zip":"18219","miles_from_dt":27.68},{"city":"Bowmanstown","state_name":"Pennsylvania","lat":40.80408,"lng":-75.66336,"zip":"18030","miles_from_dt":27.74},{"city":"Lehighton","state_name":"Pennsylvania","lat":40.83603,"lng":-75.692,"zip":"18235","miles_from_dt":27.75},{"city":"Weatherly","state_name":"Pennsylvania","lat":40.93308,"lng":-75.82996,"zip":"18255","miles_from_dt":27.8},{"city":"Harleigh","state_name":"Pennsylvania","lat":40.98137,"lng":-75.97111,"zip":"18225","miles_from_dt":27.87},{"city":"Ebervale","state_name":"Pennsylvania","lat":40.98221,"lng":-75.95011,"zip":"18223","miles_from_dt":28.23},{"city":"Parryville","state_name":"Pennsylvania","lat":40.82361,"lng":-75.66879,"zip":"18244","miles_from_dt":28.24},{"city":"Boyertown","state_name":"Pennsylvania","lat":40.35,"lng":-75.67937,"zip":"19512","miles_from_dt":28.26},{"city":"Milnesville","state_name":"Pennsylvania","lat":40.98962,"lng":-75.98154,"zip":"18239","miles_from_dt":28.28},{"city":"Sybertsville","state_name":"Pennsylvania","lat":41.00234,"lng":-76.08054,"zip":"18251","miles_from_dt":28.36},{"city":"Annville","state_name":"Pennsylvania","lat":40.35735,"lng":-76.55528,"zip":"17003","miles_from_dt":28.41},{"city":"Spring Glen","state_name":"Pennsylvania","lat":40.6165,"lng":-76.65219,"zip":"17978","miles_from_dt":28.45},{"city":"Lattimer Mines","state_name":"Pennsylvania","lat":40.99259,"lng":-75.96468,"zip":"18234","miles_from_dt":28.7},{"city":"Macungie","state_name":"Pennsylvania","lat":40.5035,"lng":-75.57886,"zip":"18062","miles_from_dt":28.72},{"city":"Ephrata","state_name":"Pennsylvania","lat":40.17499,"lng":-76.17009,"zip":"17522","miles_from_dt":28.94},{"city":"Shamokin","state_name":"Pennsylvania","lat":40.7677,"lng":-76.61317,"zip":"17872","miles_from_dt":28.98},{"city":"East Texas","state_name":"Pennsylvania","lat":40.54803,"lng":-75.56029,"zip":"18046","miles_from_dt":29.19},{"city":"Douglassville","state_name":"Pennsylvania","lat":40.27187,"lng":-75.74981,"zip":"19518","miles_from_dt":29.2},{"city":"Elm","state_name":"Pennsylvania","lat":40.20369,"lng":-76.34792,"zip":"17521","miles_from_dt":29.54},{"city":"Bechtelsville","state_name":"Pennsylvania","lat":40.3795,"lng":-75.62331,"zip":"19505","miles_from_dt":29.63},{"city":"Wiconisco","state_name":"Pennsylvania","lat":40.57414,"lng":-76.67704,"zip":"17097","miles_from_dt":29.74},{"city":"Allentown","state_name":"Pennsylvania","lat":40.61122,"lng":-75.54699,"zip":"18104","miles_from_dt":29.75},{"city":"Penryn","state_name":"Pennsylvania","lat":40.20546,"lng":-76.37044,"zip":"17564","miles_from_dt":29.95},{"city":"Lititz","state_name":"Pennsylvania","lat":40.18217,"lng":-76.30038,"zip":"17543","miles_from_dt":29.97}],"targetCityZipCode":"17922","targetCityState":"Pennsylvania"},"__N_SSG":true}