{"pageProps":{"stateName":"Pennsylvania","cityName":"bear-creek","nearbyCities":[{"city":"Wilkes Barre","state_name":"Pennsylvania","lat":41.21406,"lng":-75.76925,"zip":"18702","miles_from_dt":1.97},{"city":"Wilkes Barre","state_name":"Pennsylvania","lat":41.21828,"lng":-75.7946,"zip":"18764","miles_from_dt":2.95},{"city":"White Haven","state_name":"Pennsylvania","lat":41.08435,"lng":-75.75666,"zip":"18661","miles_from_dt":7.12},{"city":"Wilkes Barre","state_name":"Pennsylvania","lat":41.27156,"lng":-75.84241,"zip":"18705","miles_from_dt":7.37},{"city":"Wilkes Barre","state_name":"Pennsylvania","lat":41.25387,"lng":-75.87117,"zip":"18769","miles_from_dt":7.58},{"city":"Pittston","state_name":"Pennsylvania","lat":41.29724,"lng":-75.74024,"zip":"18640","miles_from_dt":7.61},{"city":"Wilkes Barre","state_name":"Pennsylvania","lat":41.24995,"lng":-75.87598,"zip":"18767","miles_from_dt":7.63},{"city":"Wilkes Barre","state_name":"Pennsylvania","lat":41.2433,"lng":-75.88523,"zip":"18701","miles_from_dt":7.79},{"city":"Wilkes Barre","state_name":"Pennsylvania","lat":41.25003,"lng":-75.88002,"zip":"18710","miles_from_dt":7.8},{"city":"Wilkes Barre","state_name":"Pennsylvania","lat":41.24568,"lng":-75.8838,"zip":"18773","miles_from_dt":7.81},{"city":"Wilkes Barre","state_name":"Pennsylvania","lat":41.24001,"lng":-75.89002,"zip":"18703","miles_from_dt":7.9},{"city":"Wilkes Barre","state_name":"Pennsylvania","lat":41.24941,"lng":-75.884,"zip":"18711","miles_from_dt":7.95},{"city":"Wilkes Barre","state_name":"Pennsylvania","lat":41.24435,"lng":-75.88995,"zip":"18766","miles_from_dt":8.04},{"city":"Wilkes Barre","state_name":"Pennsylvania","lat":41.23739,"lng":-75.89719,"zip":"18762","miles_from_dt":8.16},{"city":"Wilkes Barre","state_name":"Pennsylvania","lat":41.20432,"lng":-75.91231,"zip":"18706","miles_from_dt":8.27},{"city":"Wilkes Barre","state_name":"Pennsylvania","lat":41.23731,"lng":-75.90851,"zip":"18765","miles_from_dt":8.69},{"city":"Mountain Top","state_name":"Pennsylvania","lat":41.13325,"lng":-75.9228,"zip":"18707","miles_from_dt":9.51},{"city":"Kingston","state_name":"Pennsylvania","lat":41.27676,"lng":-75.89474,"zip":"18704","miles_from_dt":9.53},{"city":"Luzerne","state_name":"Pennsylvania","lat":41.28635,"lng":-75.89674,"zip":"18709","miles_from_dt":10.04},{"city":"Pittston","state_name":"Pennsylvania","lat":41.33644,"lng":-75.73007,"zip":"18641","miles_from_dt":10.36},{"city":"Lake Harmony","state_name":"Pennsylvania","lat":41.05529,"lng":-75.62088,"zip":"18624","miles_from_dt":11.51},{"city":"Duryea","state_name":"Pennsylvania","lat":41.35359,"lng":-75.77681,"zip":"18642","miles_from_dt":11.52},{"city":"Plymouth","state_name":"Pennsylvania","lat":41.24748,"lng":-75.962,"zip":"18651","miles_from_dt":11.54},{"city":"Pocono Lake","state_name":"Pennsylvania","lat":41.15116,"lng":-75.53664,"zip":"18347","miles_from_dt":11.67},{"city":"Wyoming","state_name":"Pennsylvania","lat":41.33192,"lng":-75.87753,"zip":"18644","miles_from_dt":11.83},{"city":"Moosic","state_name":"Pennsylvania","lat":41.35541,"lng":-75.68016,"zip":"18507","miles_from_dt":12.23},{"city":"Gouldsboro","state_name":"Pennsylvania","lat":41.24267,"lng":-75.52234,"zip":"18424","miles_from_dt":12.72},{"city":"Pittston","state_name":"Pennsylvania","lat":41.36456,"lng":-75.8344,"zip":"18643","miles_from_dt":12.9},{"city":"Old Forge","state_name":"Pennsylvania","lat":41.37495,"lng":-75.73963,"zip":"18518","miles_from_dt":12.96},{"city":"Shavertown","state_name":"Pennsylvania","lat":41.297,"lng":-75.95927,"zip":"18708","miles_from_dt":13.04},{"city":"Freeland","state_name":"Pennsylvania","lat":41.02499,"lng":-75.88728,"zip":"18224","miles_from_dt":13.16},{"city":"Scranton","state_name":"Pennsylvania","lat":41.36996,"lng":-75.68022,"zip":"18502","miles_from_dt":13.18},{"city":"Scranton","state_name":"Pennsylvania","lat":41.37,"lng":-75.68003,"zip":"18501","miles_from_dt":13.19},{"city":"Scranton","state_name":"Pennsylvania","lat":41.37228,"lng":-75.6578,"zip":"18540","miles_from_dt":13.72},{"city":"Nanticoke","state_name":"Pennsylvania","lat":41.18984,"lng":-76.0218,"zip":"18634","miles_from_dt":13.9},{"city":"Taylor","state_name":"Pennsylvania","lat":41.39524,"lng":-75.71461,"zip":"18517","miles_from_dt":14.49},{"city":"Blakeslee","state_name":"Pennsylvania","lat":41.05959,"lng":-75.53226,"zip":"18610","miles_from_dt":14.6},{"city":"Ransom","state_name":"Pennsylvania","lat":41.39399,"lng":-75.82461,"zip":"18653","miles_from_dt":14.7},{"city":"Scranton","state_name":"Pennsylvania","lat":41.38874,"lng":-75.65109,"zip":"18505","miles_from_dt":14.91},{"city":"Moscow","state_name":"Pennsylvania","lat":41.33912,"lng":-75.54667,"zip":"18444","miles_from_dt":15.08},{"city":"Drifton","state_name":"Pennsylvania","lat":41.00152,"lng":-75.919,"zip":"18221","miles_from_dt":15.42},{"city":"Pocono Lake Preserve","state_name":"Pennsylvania","lat":41.10688,"lng":-75.47923,"zip":"18348","miles_from_dt":15.44},{"city":"Albrightsville","state_name":"Pennsylvania","lat":41.00057,"lng":-75.59146,"zip":"18210","miles_from_dt":15.48},{"city":"Scranton","state_name":"Pennsylvania","lat":41.41007,"lng":-75.66767,"zip":"18503","miles_from_dt":16.02},{"city":"Scranton","state_name":"Pennsylvania","lat":41.40735,"lng":-75.64376,"zip":"18510","miles_from_dt":16.24},{"city":"Dallas","state_name":"Pennsylvania","lat":41.35025,"lng":-75.98207,"zip":"18612","miles_from_dt":16.3},{"city":"Pocono Pines","state_name":"Pennsylvania","lat":41.11339,"lng":-75.45633,"zip":"18350","miles_from_dt":16.41},{"city":"Lehman","state_name":"Pennsylvania","lat":41.31559,"lng":-76.02235,"zip":"18627","miles_from_dt":16.48},{"city":"Scranton","state_name":"Pennsylvania","lat":41.42375,"lng":-75.70581,"zip":"18504","miles_from_dt":16.51},{"city":"Drums","state_name":"Pennsylvania","lat":41.03569,"lng":-76.00097,"zip":"18222","miles_from_dt":16.56},{"city":"Elmhurst","state_name":"Pennsylvania","lat":41.37341,"lng":-75.54863,"zip":"18416","miles_from_dt":16.74},{"city":"Glen Lyon","state_name":"Pennsylvania","lat":41.17149,"lng":-76.07707,"zip":"18617","miles_from_dt":16.81},{"city":"Wapwallopen","state_name":"Pennsylvania","lat":41.10195,"lng":-76.06196,"zip":"18660","miles_from_dt":17.05},{"city":"Saint Johns","state_name":"Pennsylvania","lat":41.02812,"lng":-76.00687,"zip":"18247","miles_from_dt":17.13},{"city":"Pocono Summit","state_name":"Pennsylvania","lat":41.14643,"lng":-75.42752,"zip":"18346","miles_from_dt":17.32},{"city":"Lattimer Mines","state_name":"Pennsylvania","lat":40.99259,"lng":-75.96468,"zip":"18234","miles_from_dt":17.33},{"city":"Ebervale","state_name":"Pennsylvania","lat":40.98221,"lng":-75.95011,"zip":"18223","miles_from_dt":17.44},{"city":"Scranton","state_name":"Pennsylvania","lat":41.43062,"lng":-75.64321,"zip":"18509","miles_from_dt":17.76},{"city":"Scranton","state_name":"Pennsylvania","lat":41.42109,"lng":-75.60282,"zip":"18577","miles_from_dt":17.97},{"city":"Weatherly","state_name":"Pennsylvania","lat":40.93308,"lng":-75.82996,"zip":"18255","miles_from_dt":17.98},{"city":"Jim Thorpe","state_name":"Pennsylvania","lat":40.93245,"lng":-75.68247,"zip":"18229","miles_from_dt":18.01},{"city":"Milnesville","state_name":"Pennsylvania","lat":40.98962,"lng":-75.98154,"zip":"18239","miles_from_dt":18.06},{"city":"Hunlock Creek","state_name":"Pennsylvania","lat":41.25441,"lng":-76.09129,"zip":"18621","miles_from_dt":18.11},{"city":"Long Pond","state_name":"Pennsylvania","lat":41.07208,"lng":-75.44298,"zip":"18334","miles_from_dt":18.14},{"city":"Harleigh","state_name":"Pennsylvania","lat":40.98137,"lng":-75.97111,"zip":"18225","miles_from_dt":18.15},{"city":"Scranton","state_name":"Pennsylvania","lat":41.42648,"lng":-75.5912,"zip":"18512","miles_from_dt":18.57},{"city":"Clarks Summit","state_name":"Pennsylvania","lat":41.45655,"lng":-75.74295,"zip":"18411","miles_from_dt":18.58},{"city":"Beaver Meadows","state_name":"Pennsylvania","lat":40.94212,"lng":-75.90517,"zip":"18216","miles_from_dt":18.65},{"city":"Scranton","state_name":"Pennsylvania","lat":41.44954,"lng":-75.66412,"zip":"18515","miles_from_dt":18.7},{"city":"Scranton","state_name":"Pennsylvania","lat":41.45503,"lng":-75.65827,"zip":"18508","miles_from_dt":19.14},{"city":"Shawanese","state_name":"Pennsylvania","lat":41.35344,"lng":-76.05141,"zip":"18654","miles_from_dt":19.21},{"city":"Hazleton","state_name":"Pennsylvania","lat":40.95198,"lng":-75.95395,"zip":"18201","miles_from_dt":19.28},{"city":"Harveys Lake","state_name":"Pennsylvania","lat":41.37883,"lng":-76.0313,"zip":"18618","miles_from_dt":19.51},{"city":"Falls","state_name":"Pennsylvania","lat":41.45968,"lng":-75.85752,"zip":"18615","miles_from_dt":19.52},{"city":"Tobyhanna","state_name":"Pennsylvania","lat":41.19709,"lng":-75.37796,"zip":"18466","miles_from_dt":19.68},{"city":"Scranton","state_name":"Pennsylvania","lat":41.46207,"lng":-75.63062,"zip":"18519","miles_from_dt":20.03},{"city":"Olyphant","state_name":"Pennsylvania","lat":41.45199,"lng":-75.58021,"zip":"18448","miles_from_dt":20.4},{"city":"Junedale","state_name":"Pennsylvania","lat":40.9201,"lng":-75.93077,"zip":"18230","miles_from_dt":20.6},{"city":"Chinchilla","state_name":"Pennsylvania","lat":41.48207,"lng":-75.68976,"zip":"18410","miles_from_dt":20.61},{"city":"Conyngham","state_name":"Pennsylvania","lat":40.99105,"lng":-76.05824,"zip":"18219","miles_from_dt":20.83},{"city":"Pocono Manor","state_name":"Pennsylvania","lat":41.0995,"lng":-75.3682,"zip":"18349","miles_from_dt":21.08},{"city":"Sybertsville","state_name":"Pennsylvania","lat":41.00234,"lng":-76.08054,"zip":"18251","miles_from_dt":21.25},{"city":"Jessup","state_name":"Pennsylvania","lat":41.46014,"lng":-75.54823,"zip":"18434","miles_from_dt":21.68},{"city":"Tresckow","state_name":"Pennsylvania","lat":40.91594,"lng":-75.96563,"zip":"18254","miles_from_dt":21.72},{"city":"South Sterling","state_name":"Pennsylvania","lat":41.26719,"lng":-75.34744,"zip":"18460","miles_from_dt":21.95},{"city":"Mount Pocono","state_name":"Pennsylvania","lat":41.11735,"lng":-75.34442,"zip":"18344","miles_from_dt":21.97},{"city":"Effort","state_name":"Pennsylvania","lat":40.96505,"lng":-75.45285,"zip":"18330","miles_from_dt":22.02},{"city":"Peckville","state_name":"Pennsylvania","lat":41.48387,"lng":-75.58951,"zip":"18452","miles_from_dt":22.2},{"city":"Scotrun","state_name":"Pennsylvania","lat":41.07301,"lng":-75.35553,"zip":"18355","miles_from_dt":22.3},{"city":"Sterling","state_name":"Pennsylvania","lat":41.34825,"lng":-75.37964,"zip":"18463","miles_from_dt":22.48},{"city":"Hazleton","state_name":"Pennsylvania","lat":40.94874,"lng":-76.0483,"zip":"18202","miles_from_dt":22.49},{"city":"Newfoundland","state_name":"Pennsylvania","lat":41.2948,"lng":-75.34751,"zip":"18445","miles_from_dt":22.49},{"city":"Swiftwater","state_name":"Pennsylvania","lat":41.08926,"lng":-75.33771,"zip":"18370","miles_from_dt":22.81},{"city":"Nesquehoning","state_name":"Pennsylvania","lat":40.86279,"lng":-75.84727,"zip":"18240","miles_from_dt":22.92},{"city":"Shickshinny","state_name":"Pennsylvania","lat":41.18327,"lng":-76.19619,"zip":"18655","miles_from_dt":22.99},{"city":"Lake Winola","state_name":"Pennsylvania","lat":41.51311,"lng":-75.85027,"zip":"18625","miles_from_dt":23.01},{"city":"Noxen","state_name":"Pennsylvania","lat":41.41215,"lng":-76.08859,"zip":"18636","miles_from_dt":23.27},{"city":"Beach Haven","state_name":"Pennsylvania","lat":41.06766,"lng":-76.17644,"zip":"18601","miles_from_dt":23.48},{"city":"Mountainhome","state_name":"Pennsylvania","lat":41.17045,"lng":-75.30485,"zip":"18342","miles_from_dt":23.51},{"city":"Olyphant","state_name":"Pennsylvania","lat":41.5132,"lng":-75.61684,"zip":"18447","miles_from_dt":23.6},{"city":"Sugarloaf","state_name":"Pennsylvania","lat":40.98457,"lng":-76.1206,"zip":"18249","miles_from_dt":23.66},{"city":"Kelayres","state_name":"Pennsylvania","lat":40.90068,"lng":-76.00446,"zip":"18231","miles_from_dt":23.69},{"city":"Waverly","state_name":"Pennsylvania","lat":41.5291,"lng":-75.69807,"zip":"18471","miles_from_dt":23.76},{"city":"Dalton","state_name":"Pennsylvania","lat":41.53893,"lng":-75.7427,"zip":"18414","miles_from_dt":24.26},{"city":"Kresgeville","state_name":"Pennsylvania","lat":40.89833,"lng":-75.49104,"zip":"18333","miles_from_dt":24.26},{"city":"Tannersville","state_name":"Pennsylvania","lat":41.04777,"lng":-75.32512,"zip":"18372","miles_from_dt":24.43},{"city":"Lehighton","state_name":"Pennsylvania","lat":40.83603,"lng":-75.692,"zip":"18235","miles_from_dt":24.48},{"city":"Kunkletown","state_name":"Pennsylvania","lat":40.8922,"lng":-75.49094,"zip":"18058","miles_from_dt":24.62},{"city":"Archbald","state_name":"Pennsylvania","lat":41.50495,"lng":-75.53529,"zip":"18403","miles_from_dt":24.71},{"city":"Mcadoo","state_name":"Pennsylvania","lat":40.88591,"lng":-76.02582,"zip":"18237","miles_from_dt":25.16},{"city":"Buck Hill Falls","state_name":"Pennsylvania","lat":41.19558,"lng":-75.27264,"zip":"18323","miles_from_dt":25.16},{"city":"Lansford","state_name":"Pennsylvania","lat":40.83515,"lng":-75.87939,"zip":"18232","miles_from_dt":25.16},{"city":"Sweet Valley","state_name":"Pennsylvania","lat":41.32703,"lng":-76.20442,"zip":"18656","miles_from_dt":25.29},{"city":"Gilbert","state_name":"Pennsylvania","lat":40.90878,"lng":-75.44076,"zip":"18331","miles_from_dt":25.29},{"city":"Lake Ariel","state_name":"Pennsylvania","lat":41.43867,"lng":-75.3959,"zip":"18436","miles_from_dt":25.5},{"city":"Parryville","state_name":"Pennsylvania","lat":40.82361,"lng":-75.66879,"zip":"18244","miles_from_dt":25.51},{"city":"Hamlin","state_name":"Pennsylvania","lat":41.39751,"lng":-75.35019,"zip":"18427","miles_from_dt":25.58},{"city":"Tunkhannock","state_name":"Pennsylvania","lat":41.52712,"lng":-75.95601,"zip":"18657","miles_from_dt":25.66},{"city":"La Plume","state_name":"Pennsylvania","lat":41.55931,"lng":-75.76505,"zip":"18440","miles_from_dt":25.66},{"city":"Nescopeck","state_name":"Pennsylvania","lat":41.02961,"lng":-76.20598,"zip":"18635","miles_from_dt":25.92},{"city":"Summit Hill","state_name":"Pennsylvania","lat":40.81744,"lng":-75.86145,"zip":"18250","miles_from_dt":26.13},{"city":"Brodheadsville","state_name":"Pennsylvania","lat":40.9221,"lng":-75.39714,"zip":"18322","miles_from_dt":26.18},{"city":"Palmerton","state_name":"Pennsylvania","lat":40.83098,"lng":-75.57843,"zip":"18071","miles_from_dt":26.28},{"city":"Cresco","state_name":"Pennsylvania","lat":41.15617,"lng":-75.25186,"zip":"18326","miles_from_dt":26.34},{"city":"Sheppton","state_name":"Pennsylvania","lat":40.90089,"lng":-76.09448,"zip":"18248","miles_from_dt":26.56},{"city":"Berwick","state_name":"Pennsylvania","lat":41.08506,"lng":-76.24591,"zip":"18603","miles_from_dt":26.56},{"city":"Weston","state_name":"Pennsylvania","lat":40.94044,"lng":-76.14752,"zip":"18256","miles_from_dt":26.65},{"city":"Henryville","state_name":"Pennsylvania","lat":41.0922,"lng":-75.25968,"zip":"18332","miles_from_dt":26.68},{"city":"Coaldale","state_name":"Pennsylvania","lat":40.81974,"lng":-75.91611,"zip":"18218","miles_from_dt":26.73},{"city":"Bowmanstown","state_name":"Pennsylvania","lat":40.80408,"lng":-75.66336,"zip":"18030","miles_from_dt":26.89},{"city":"Huntington Mills","state_name":"Pennsylvania","lat":41.20228,"lng":-76.27348,"zip":"18622","miles_from_dt":27.03},{"city":"Bartonsville","state_name":"Pennsylvania","lat":41.01734,"lng":-75.28754,"zip":"18321","miles_from_dt":27.09},{"city":"Factoryville","state_name":"Pennsylvania","lat":41.57858,"lng":-75.7994,"zip":"18419","miles_from_dt":27.09},{"city":"Nuremberg","state_name":"Pennsylvania","lat":40.94439,"lng":-76.16492,"zip":"18241","miles_from_dt":27.19},{"city":"Quakake","state_name":"Pennsylvania","lat":40.8528,"lng":-76.03011,"zip":"18245","miles_from_dt":27.2},{"city":"Aquashicola","state_name":"Pennsylvania","lat":40.81135,"lng":-75.59158,"zip":"18012","miles_from_dt":27.33},{"city":"Oneida","state_name":"Pennsylvania","lat":40.90606,"lng":-76.12349,"zip":"18242","miles_from_dt":27.34},{"city":"Canadensis","state_name":"Pennsylvania","lat":41.22545,"lng":-75.22268,"zip":"18325","miles_from_dt":27.88},{"city":"Jermyn","state_name":"Pennsylvania","lat":41.57107,"lng":-75.58452,"zip":"18433","miles_from_dt":27.92},{"city":"Rock Glen","state_name":"Pennsylvania","lat":40.95743,"lng":-76.195,"zip":"18246","miles_from_dt":27.92},{"city":"Skytop","state_name":"Pennsylvania","lat":41.22956,"lng":-75.2191,"zip":"18357","miles_from_dt":28.09},{"city":"South Canaan","state_name":"Pennsylvania","lat":41.50476,"lng":-75.41241,"zip":"18459","miles_from_dt":28.24},{"city":"Saylorsburg","state_name":"Pennsylvania","lat":40.89848,"lng":-75.36953,"zip":"18353","miles_from_dt":28.35},{"city":"Reeders","state_name":"Pennsylvania","lat":40.9897,"lng":-75.27501,"zip":"18352","miles_from_dt":28.55},{"city":"Cambra","state_name":"Pennsylvania","lat":41.19675,"lng":-76.30463,"zip":"18611","miles_from_dt":28.64},{"city":"Stroudsburg","state_name":"Pennsylvania","lat":40.97254,"lng":-75.28562,"zip":"18360","miles_from_dt":28.66},{"city":"Ashfield","state_name":"Pennsylvania","lat":40.77292,"lng":-75.71883,"zip":"18212","miles_from_dt":28.67},{"city":"Sciota","state_name":"Pennsylvania","lat":40.92561,"lng":-75.32831,"zip":"18354","miles_from_dt":28.7},{"city":"Greentown","state_name":"Pennsylvania","lat":41.32774,"lng":-75.23577,"zip":"18426","miles_from_dt":28.73},{"city":"Fleetville","state_name":"Pennsylvania","lat":41.60333,"lng":-75.70589,"zip":"18420","miles_from_dt":28.81},{"city":"Delano","state_name":"Pennsylvania","lat":40.83958,"lng":-76.07509,"zip":"18220","miles_from_dt":29.25},{"city":"Analomink","state_name":"Pennsylvania","lat":41.05183,"lng":-75.21989,"zip":"18320","miles_from_dt":29.46},{"city":"Stillwater","state_name":"Pennsylvania","lat":41.1721,"lng":-76.32364,"zip":"17878","miles_from_dt":29.65}],"targetCityZipCode":"18602","targetCityState":"Pennsylvania"},"__N_SSG":true}