{"pageProps":{"stateName":"Pennsylvania","cityName":"bulger","nearbyCities":[{"city":"Joffre","state_name":"Pennsylvania","lat":40.38056,"lng":-80.35975,"zip":"15053","miles_from_dt":2.44},{"city":"Midway","state_name":"Pennsylvania","lat":40.37695,"lng":-80.29113,"zip":"15060","miles_from_dt":2.99},{"city":"Imperial","state_name":"Pennsylvania","lat":40.46019,"lng":-80.28727,"zip":"15126","miles_from_dt":4.26},{"city":"Slovan","state_name":"Pennsylvania","lat":40.35949,"lng":-80.38501,"zip":"15078","miles_from_dt":4.41},{"city":"Langeloth","state_name":"Pennsylvania","lat":40.36353,"lng":-80.4008,"zip":"15054","miles_from_dt":4.81},{"city":"Atlasburg","state_name":"Pennsylvania","lat":40.34216,"lng":-80.38289,"zip":"15004","miles_from_dt":5.32},{"city":"Burgettstown","state_name":"Pennsylvania","lat":40.39373,"lng":-80.43583,"zip":"15021","miles_from_dt":5.64},{"city":"McDonald","state_name":"Pennsylvania","lat":40.35571,"lng":-80.24713,"zip":"15057","miles_from_dt":5.69},{"city":"Southview","state_name":"Pennsylvania","lat":40.33277,"lng":-80.2623,"zip":"15361","miles_from_dt":6.32},{"city":"Sturgeon","state_name":"Pennsylvania","lat":40.38031,"lng":-80.21061,"zip":"15082","miles_from_dt":6.61},{"city":"Clinton","state_name":"Pennsylvania","lat":40.51043,"lng":-80.35662,"zip":"15026","miles_from_dt":7.2},{"city":"Oakdale","state_name":"Pennsylvania","lat":40.41486,"lng":-80.18981,"zip":"15071","miles_from_dt":7.44},{"city":"Pittsburgh","state_name":"Pennsylvania","lat":40.45246,"lng":-80.18405,"zip":"15275","miles_from_dt":8.31},{"city":"Hickory","state_name":"Pennsylvania","lat":40.28654,"lng":-80.32258,"zip":"15340","miles_from_dt":8.39},{"city":"Coraopolis","state_name":"Pennsylvania","lat":40.50006,"lng":-80.20031,"zip":"15108","miles_from_dt":9.35},{"city":"Westland","state_name":"Pennsylvania","lat":40.27771,"lng":-80.27433,"zip":"15378","miles_from_dt":9.47},{"city":"Cecil","state_name":"Pennsylvania","lat":40.32167,"lng":-80.18716,"zip":"15321","miles_from_dt":9.63},{"city":"Cuddy","state_name":"Pennsylvania","lat":40.34802,"lng":-80.16235,"zip":"15031","miles_from_dt":9.79},{"city":"Pittsburgh","state_name":"Pennsylvania","lat":40.50277,"lng":-80.18917,"zip":"15231","miles_from_dt":9.91},{"city":"Morgan","state_name":"Pennsylvania","lat":40.35538,"lng":-80.14849,"zip":"15064","miles_from_dt":10.27},{"city":"Muse","state_name":"Pennsylvania","lat":40.29377,"lng":-80.20056,"zip":"15350","miles_from_dt":10.45},{"city":"Presto","state_name":"Pennsylvania","lat":40.38474,"lng":-80.12231,"zip":"15142","miles_from_dt":11.1},{"city":"Crescent","state_name":"Pennsylvania","lat":40.55618,"lng":-80.22868,"zip":"15046","miles_from_dt":11.54},{"city":"Bridgeville","state_name":"Pennsylvania","lat":40.34348,"lng":-80.12865,"zip":"15017","miles_from_dt":11.55},{"city":"Carnegie","state_name":"Pennsylvania","lat":40.40882,"lng":-80.10863,"zip":"15106","miles_from_dt":11.7},{"city":"Hendersonville","state_name":"Pennsylvania","lat":40.29892,"lng":-80.1547,"zip":"15339","miles_from_dt":11.95},{"city":"Avella","state_name":"Pennsylvania","lat":40.25404,"lng":-80.43757,"zip":"15312","miles_from_dt":12.04},{"city":"Pittsburgh","state_name":"Pennsylvania","lat":40.4381,"lng":-80.10552,"zip":"15205","miles_from_dt":12.05},{"city":"Hookstown","state_name":"Pennsylvania","lat":40.5617,"lng":-80.44038,"zip":"15050","miles_from_dt":12.08},{"city":"Weirton","state_name":"West Virginia","lat":40.42189,"lng":-80.56123,"zip":"26062","miles_from_dt":12.2},{"city":"West Middletown","state_name":"Pennsylvania","lat":40.2432,"lng":-80.42519,"zip":"15379","miles_from_dt":12.42},{"city":"Leetsdale","state_name":"Pennsylvania","lat":40.56512,"lng":-80.21407,"zip":"15056","miles_from_dt":12.45},{"city":"Pittsburgh","state_name":"Pennsylvania","lat":40.44139,"lng":-80.0978,"zip":"15277","miles_from_dt":12.49},{"city":"South Heights","state_name":"Pennsylvania","lat":40.57471,"lng":-80.23614,"zip":"15081","miles_from_dt":12.53},{"city":"Colliers","state_name":"West Virginia","lat":40.3482,"lng":-80.55522,"zip":"26035","miles_from_dt":12.55},{"city":"Houston","state_name":"Pennsylvania","lat":40.24533,"lng":-80.22061,"zip":"15342","miles_from_dt":12.64},{"city":"Pittsburgh","state_name":"Pennsylvania","lat":40.43803,"lng":-80.09376,"zip":"15276","miles_from_dt":12.66},{"city":"Aliquippa","state_name":"Pennsylvania","lat":40.59161,"lng":-80.32078,"zip":"15001","miles_from_dt":12.68},{"city":"McKees Rocks","state_name":"Pennsylvania","lat":40.46872,"lng":-80.10233,"zip":"15136","miles_from_dt":12.74},{"city":"Canonsburg","state_name":"Pennsylvania","lat":40.27105,"lng":-80.16535,"zip":"15317","miles_from_dt":12.86},{"city":"Strabane","state_name":"Pennsylvania","lat":40.25159,"lng":-80.19761,"zip":"15363","miles_from_dt":12.88},{"city":"Lawrence","state_name":"Pennsylvania","lat":40.30642,"lng":-80.12296,"zip":"15055","miles_from_dt":13.01},{"city":"Georgetown","state_name":"Pennsylvania","lat":40.55585,"lng":-80.48994,"zip":"15043","miles_from_dt":13.21},{"city":"Pittsburgh","state_name":"Pennsylvania","lat":40.50636,"lng":-80.1116,"zip":"15225","miles_from_dt":13.39},{"city":"Pittsburgh","state_name":"Pennsylvania","lat":40.37474,"lng":-80.07305,"zip":"15243","miles_from_dt":13.78},{"city":"Pittsburgh","state_name":"Pennsylvania","lat":40.33293,"lng":-80.08291,"zip":"15241","miles_from_dt":14.06},{"city":"Meadow Lands","state_name":"Pennsylvania","lat":40.21807,"lng":-80.22469,"zip":"15347","miles_from_dt":14.25},{"city":"Follansbee","state_name":"West Virginia","lat":40.3344,"lng":-80.58494,"zip":"26037","miles_from_dt":14.36},{"city":"Pittsburgh","state_name":"Pennsylvania","lat":40.45597,"lng":-80.06051,"zip":"15204","miles_from_dt":14.62},{"city":"Ambridge","state_name":"Pennsylvania","lat":40.60153,"lng":-80.21415,"zip":"15003","miles_from_dt":14.69},{"city":"Pittsburgh","state_name":"Pennsylvania","lat":40.42,"lng":-80.05002,"zip":"15242","miles_from_dt":14.82},{"city":"Pittsburgh","state_name":"Pennsylvania","lat":40.42,"lng":-80.05002,"zip":"15244","miles_from_dt":14.82},{"city":"New Manchester","state_name":"West Virginia","lat":40.5211,"lng":-80.57022,"zip":"26056","miles_from_dt":14.85},{"city":"Pittsburgh","state_name":"Pennsylvania","lat":40.41875,"lng":-80.04894,"zip":"15220","miles_from_dt":14.87},{"city":"Sewickley","state_name":"Pennsylvania","lat":40.57298,"lng":-80.14725,"zip":"15143","miles_from_dt":14.92},{"city":"Pittsburgh","state_name":"Pennsylvania","lat":40.42209,"lng":-80.04637,"zip":"15283","miles_from_dt":15.02},{"city":"Pittsburgh","state_name":"Pennsylvania","lat":40.51194,"lng":-80.07968,"zip":"15278","miles_from_dt":15.04},{"city":"Pittsburgh","state_name":"Pennsylvania","lat":40.37075,"lng":-80.04395,"zip":"15228","miles_from_dt":15.34},{"city":"Pittsburgh","state_name":"Pennsylvania","lat":40.50566,"lng":-80.06902,"zip":"15202","miles_from_dt":15.34},{"city":"Pittsburgh","state_name":"Pennsylvania","lat":40.40395,"lng":-80.03485,"zip":"15270","miles_from_dt":15.6},{"city":"Pittsburgh","state_name":"Pennsylvania","lat":40.40268,"lng":-80.0348,"zip":"15216","miles_from_dt":15.6},{"city":"Shippingport","state_name":"Pennsylvania","lat":40.62517,"lng":-80.4173,"zip":"15077","miles_from_dt":15.66},{"city":"New Cumberland","state_name":"West Virginia","lat":40.53223,"lng":-80.5837,"zip":"26047","miles_from_dt":15.86},{"city":"Pittsburgh","state_name":"Pennsylvania","lat":40.46551,"lng":-80.0383,"zip":"15279","miles_from_dt":15.91},{"city":"Pittsburgh","state_name":"Pennsylvania","lat":40.46742,"lng":-80.03747,"zip":"15268","miles_from_dt":15.98},{"city":"Pittsburgh","state_name":"Pennsylvania","lat":40.46742,"lng":-80.03747,"zip":"15267","miles_from_dt":15.98},{"city":"Pittsburgh","state_name":"Pennsylvania","lat":40.45985,"lng":-80.03387,"zip":"15233","miles_from_dt":16.04},{"city":"Pittsburgh","state_name":"Pennsylvania","lat":40.45873,"lng":-80.03122,"zip":"15286","miles_from_dt":16.16},{"city":"Pittsburgh","state_name":"Pennsylvania","lat":40.45589,"lng":-80.02196,"zip":"15255","miles_from_dt":16.6},{"city":"Bethel Park","state_name":"Pennsylvania","lat":40.32125,"lng":-80.03707,"zip":"15102","miles_from_dt":16.61},{"city":"Pittsburgh","state_name":"Pennsylvania","lat":40.4302,"lng":-80.01533,"zip":"15211","miles_from_dt":16.69},{"city":"Pittsburgh","state_name":"Pennsylvania","lat":40.39527,"lng":-80.01374,"zip":"15226","miles_from_dt":16.73},{"city":"Pittsburgh","state_name":"Pennsylvania","lat":40.36808,"lng":-80.01782,"zip":"15234","miles_from_dt":16.73},{"city":"Pittsburgh","state_name":"Pennsylvania","lat":40.45735,"lng":-80.01932,"zip":"15290","miles_from_dt":16.76},{"city":"Empire","state_name":"Ohio","lat":40.51068,"lng":-80.62252,"zip":"43926","miles_from_dt":16.94},{"city":"Wellsburg","state_name":"West Virginia","lat":40.25008,"lng":-80.58037,"zip":"26070","miles_from_dt":17.11},{"city":"Pittsburgh","state_name":"Pennsylvania","lat":40.51995,"lng":-80.03866,"zip":"15229","miles_from_dt":17.21},{"city":"Pittsburgh","state_name":"Pennsylvania","lat":40.43767,"lng":-80.00472,"zip":"15295","miles_from_dt":17.3},{"city":"Pittsburgh","state_name":"Pennsylvania","lat":40.44185,"lng":-80.00502,"zip":"15272","miles_from_dt":17.32},{"city":"Washington","state_name":"Pennsylvania","lat":40.16411,"lng":-80.25304,"zip":"15301","miles_from_dt":17.32},{"city":"Chester","state_name":"West Virginia","lat":40.59404,"lng":-80.55258,"zip":"26034","miles_from_dt":17.36},{"city":"Monaca","state_name":"Pennsylvania","lat":40.66013,"lng":-80.31082,"zip":"15061","miles_from_dt":17.42},{"city":"Pittsburgh","state_name":"Pennsylvania","lat":40.48541,"lng":-80.01455,"zip":"15214","miles_from_dt":17.49},{"city":"Pittsburgh","state_name":"Pennsylvania","lat":40.47106,"lng":-80.00844,"zip":"15212","miles_from_dt":17.53},{"city":"Steubenville","state_name":"Ohio","lat":40.39763,"lng":-80.66278,"zip":"43952","miles_from_dt":17.54},{"city":"Pittsburgh","state_name":"Pennsylvania","lat":40.44238,"lng":-79.99994,"zip":"15265","miles_from_dt":17.59},{"city":"Pittsburgh","state_name":"Pennsylvania","lat":40.44002,"lng":-79.99865,"zip":"15281","miles_from_dt":17.64},{"city":"Taylorstown","state_name":"Pennsylvania","lat":40.15564,"lng":-80.38548,"zip":"15365","miles_from_dt":17.66},{"city":"Venetia","state_name":"Pennsylvania","lat":40.26321,"lng":-80.05474,"zip":"15367","miles_from_dt":17.66},{"city":"Pittsburgh","state_name":"Pennsylvania","lat":40.44109,"lng":-79.99828,"zip":"15254","miles_from_dt":17.67},{"city":"Pittsburgh","state_name":"Pennsylvania","lat":40.44097,"lng":-79.99827,"zip":"15252","miles_from_dt":17.67},{"city":"Pittsburgh","state_name":"Pennsylvania","lat":40.4414,"lng":-79.99816,"zip":"15259","miles_from_dt":17.68},{"city":"Stratton","state_name":"Ohio","lat":40.52343,"lng":-80.63025,"zip":"43961","miles_from_dt":17.69},{"city":"Pittsburgh","state_name":"Pennsylvania","lat":40.44155,"lng":-79.99779,"zip":"15257","miles_from_dt":17.7},{"city":"Pittsburgh","state_name":"Pennsylvania","lat":40.54834,"lng":-80.04682,"zip":"15237","miles_from_dt":17.81},{"city":"Pittsburgh","state_name":"Pennsylvania","lat":40.43962,"lng":-79.99517,"zip":"15262","miles_from_dt":17.82},{"city":"Pittsburgh","state_name":"Pennsylvania","lat":40.4421,"lng":-79.99519,"zip":"15230","miles_from_dt":17.84},{"city":"Pittsburgh","state_name":"Pennsylvania","lat":40.43602,"lng":-79.99042,"zip":"15282","miles_from_dt":18.04},{"city":"Pittsburgh","state_name":"Pennsylvania","lat":40.44998,"lng":-79.9912,"zip":"15222","miles_from_dt":18.12},{"city":"Baden","state_name":"Pennsylvania","lat":40.64431,"lng":-80.17607,"zip":"15005","miles_from_dt":18.22},{"city":"Pittsburgh","state_name":"Pennsylvania","lat":40.40679,"lng":-79.98411,"zip":"15210","miles_from_dt":18.27},{"city":"Pittsburgh","state_name":"Pennsylvania","lat":40.44304,"lng":-79.98443,"zip":"15219","miles_from_dt":18.41},{"city":"Conway","state_name":"Pennsylvania","lat":40.66706,"lng":-80.23988,"zip":"15027","miles_from_dt":18.5},{"city":"Brilliant","state_name":"Ohio","lat":40.27048,"lng":-80.63154,"zip":"43913","miles_from_dt":18.51},{"city":"Ingomar","state_name":"Pennsylvania","lat":40.58104,"lng":-80.06113,"zip":"15127","miles_from_dt":18.54},{"city":"Industry","state_name":"Pennsylvania","lat":40.6669,"lng":-80.43318,"zip":"15052","miles_from_dt":18.66},{"city":"Toronto","state_name":"Ohio","lat":40.48695,"lng":-80.66928,"zip":"43964","miles_from_dt":18.67},{"city":"Pittsburgh","state_name":"Pennsylvania","lat":40.4257,"lng":-79.97491,"zip":"15203","miles_from_dt":18.79},{"city":"Pittsburgh","state_name":"Pennsylvania","lat":40.375,"lng":-79.97077,"zip":"15227","miles_from_dt":19.12},{"city":"Pittsburgh","state_name":"Pennsylvania","lat":40.34756,"lng":-79.97652,"zip":"15236","miles_from_dt":19.14},{"city":"Bethany","state_name":"West Virginia","lat":40.18646,"lng":-80.55024,"zip":"26032","miles_from_dt":19.2},{"city":"South Park","state_name":"Pennsylvania","lat":40.29348,"lng":-79.99515,"zip":"15129","miles_from_dt":19.39},{"city":"Mingo Junction","state_name":"Ohio","lat":40.30138,"lng":-80.67199,"zip":"43938","miles_from_dt":19.47},{"city":"Pittsburgh","state_name":"Pennsylvania","lat":40.44598,"lng":-79.96243,"zip":"15240","miles_from_dt":19.59},{"city":"Pittsburgh","state_name":"Pennsylvania","lat":40.44102,"lng":-79.96037,"zip":"15261","miles_from_dt":19.65},{"city":"Pittsburgh","state_name":"Pennsylvania","lat":40.43991,"lng":-79.96021,"zip":"15253","miles_from_dt":19.65},{"city":"Pittsburgh","state_name":"Pennsylvania","lat":40.50007,"lng":-79.97463,"zip":"15209","miles_from_dt":19.8},{"city":"Pittsburgh","state_name":"Pennsylvania","lat":40.44422,"lng":-79.95599,"zip":"15264","miles_from_dt":19.91},{"city":"Eighty Four","state_name":"Pennsylvania","lat":40.18227,"lng":-80.09492,"zip":"15330","miles_from_dt":19.94},{"city":"Pittsburgh","state_name":"Pennsylvania","lat":40.44029,"lng":-79.95451,"zip":"15274","miles_from_dt":19.95},{"city":"Warrendale","state_name":"Pennsylvania","lat":40.6433,"lng":-80.10951,"zip":"15095","miles_from_dt":19.97},{"city":"Pittsburgh","state_name":"Pennsylvania","lat":40.44293,"lng":-79.95345,"zip":"15213","miles_from_dt":20.03},{"city":"Pittsburgh","state_name":"Pennsylvania","lat":40.4432,"lng":-79.95306,"zip":"15260","miles_from_dt":20.05},{"city":"Steubenville","state_name":"Ohio","lat":40.35815,"lng":-80.70548,"zip":"43953","miles_from_dt":20.08},{"city":"Pittsburgh","state_name":"Pennsylvania","lat":40.44475,"lng":-79.95156,"zip":"15251","miles_from_dt":20.14},{"city":"Pittsburgh","state_name":"Pennsylvania","lat":40.44829,"lng":-79.95189,"zip":"15250","miles_from_dt":20.16},{"city":"Beaver","state_name":"Pennsylvania","lat":40.69933,"lng":-80.36464,"zip":"15009","miles_from_dt":20.18},{"city":"Pittsburgh","state_name":"Pennsylvania","lat":40.47565,"lng":-79.95389,"zip":"15201","miles_from_dt":20.4},{"city":"Freedom","state_name":"Pennsylvania","lat":40.68786,"lng":-80.20411,"zip":"15042","miles_from_dt":20.42},{"city":"Wexford","state_name":"Pennsylvania","lat":40.62587,"lng":-80.06766,"zip":"15090","miles_from_dt":20.43},{"city":"Bradfordwoods","state_name":"Pennsylvania","lat":40.63622,"lng":-80.08164,"zip":"15015","miles_from_dt":20.48},{"city":"Newell","state_name":"West Virginia","lat":40.60108,"lng":-80.62646,"zip":"26050","miles_from_dt":20.5},{"city":"Pittsburgh","state_name":"Pennsylvania","lat":40.44438,"lng":-79.94401,"zip":"15289","miles_from_dt":20.53},{"city":"Midland","state_name":"Pennsylvania","lat":40.68056,"lng":-80.49182,"zip":"15059","miles_from_dt":20.63},{"city":"Pittsburgh","state_name":"Pennsylvania","lat":40.46737,"lng":-79.94623,"zip":"15224","miles_from_dt":20.67},{"city":"Gastonville","state_name":"Pennsylvania","lat":40.25621,"lng":-79.98983,"zip":"15336","miles_from_dt":20.82},{"city":"Pittsburgh","state_name":"Pennsylvania","lat":40.39813,"lng":-79.9334,"zip":"15207","miles_from_dt":20.96},{"city":"Pittsburgh","state_name":"Pennsylvania","lat":40.50431,"lng":-79.95199,"zip":"15223","miles_from_dt":21.03},{"city":"Claysville","state_name":"Pennsylvania","lat":40.10845,"lng":-80.40926,"zip":"15323","miles_from_dt":21.09},{"city":"Pittsburgh","state_name":"Pennsylvania","lat":40.45246,"lng":-79.93193,"zip":"15232","miles_from_dt":21.24},{"city":"Finleyville","state_name":"Pennsylvania","lat":40.24226,"lng":-79.99134,"zip":"15332","miles_from_dt":21.25},{"city":"West Mifflin","state_name":"Pennsylvania","lat":40.34817,"lng":-79.93471,"zip":"15123","miles_from_dt":21.29},{"city":"Warrendale","state_name":"Pennsylvania","lat":40.664,"lng":-80.09593,"zip":"15086","miles_from_dt":21.55},{"city":"Pittsburgh","state_name":"Pennsylvania","lat":40.43083,"lng":-79.91999,"zip":"15217","miles_from_dt":21.71},{"city":"West Liberty","state_name":"West Virginia","lat":40.16889,"lng":-80.59813,"zip":"26074","miles_from_dt":21.73},{"city":"Warrendale","state_name":"Pennsylvania","lat":40.67161,"lng":-80.10344,"zip":"15096","miles_from_dt":21.76},{"city":"Beech Bottom","state_name":"West Virginia","lat":40.21662,"lng":-80.65965,"zip":"26030","miles_from_dt":21.83},{"city":"Glenshaw","state_name":"Pennsylvania","lat":40.5384,"lng":-79.95211,"zip":"15116","miles_from_dt":21.87},{"city":"Windsor Heights","state_name":"West Virginia","lat":40.19748,"lng":-80.64567,"zip":"26075","miles_from_dt":22.1},{"city":"Pittsburgh","state_name":"Pennsylvania","lat":40.47911,"lng":-79.92143,"zip":"15258","miles_from_dt":22.12},{"city":"Homestead","state_name":"Pennsylvania","lat":40.39597,"lng":-79.90689,"zip":"15120","miles_from_dt":22.36},{"city":"Pittsburgh","state_name":"Pennsylvania","lat":40.47244,"lng":-79.91324,"zip":"15206","miles_from_dt":22.44},{"city":"West Alexander","state_name":"Pennsylvania","lat":40.10493,"lng":-80.48744,"zip":"15376","miles_from_dt":22.5},{"city":"West Mifflin","state_name":"Pennsylvania","lat":40.35976,"lng":-79.90628,"zip":"15122","miles_from_dt":22.63},{"city":"East Liverpool","state_name":"Ohio","lat":40.67608,"lng":-80.57965,"zip":"43920","miles_from_dt":22.67},{"city":"Rochester","state_name":"Pennsylvania","lat":40.72837,"lng":-80.21937,"zip":"15074","miles_from_dt":22.86},{"city":"Clairton","state_name":"Pennsylvania","lat":40.29887,"lng":-79.9213,"zip":"15025","miles_from_dt":22.88},{"city":"Wildwood","state_name":"Pennsylvania","lat":40.5939,"lng":-79.97022,"zip":"15091","miles_from_dt":22.9},{"city":"Pittsburgh","state_name":"Pennsylvania","lat":40.50457,"lng":-79.91338,"zip":"15215","miles_from_dt":22.97},{"city":"Pittsburgh","state_name":"Pennsylvania","lat":40.45387,"lng":-79.89883,"zip":"15208","miles_from_dt":22.98},{"city":"Allison Park","state_name":"Pennsylvania","lat":40.58139,"lng":-79.95531,"zip":"15101","miles_from_dt":23.1},{"city":"Richmond","state_name":"Ohio","lat":40.43623,"lng":-80.76853,"zip":"43944","miles_from_dt":23.18},{"city":"Pittsburgh","state_name":"Pennsylvania","lat":40.42366,"lng":-79.88924,"zip":"15218","miles_from_dt":23.3},{"city":"Short Creek","state_name":"West Virginia","lat":40.18622,"lng":-80.66453,"zip":"26058","miles_from_dt":23.36},{"city":"Dravosburg","state_name":"Pennsylvania","lat":40.35083,"lng":-79.89067,"zip":"15034","miles_from_dt":23.54},{"city":"Irondale","state_name":"Ohio","lat":40.53145,"lng":-80.74699,"zip":"43932","miles_from_dt":23.54},{"city":"Bunola","state_name":"Pennsylvania","lat":40.2283,"lng":-79.9479,"zip":"15020","miles_from_dt":23.71},{"city":"Valley Grove","state_name":"West Virginia","lat":40.10465,"lng":-80.54649,"zip":"26060","miles_from_dt":23.84},{"city":"New Eagle","state_name":"Pennsylvania","lat":40.20823,"lng":-79.96106,"zip":"15067","miles_from_dt":23.89},{"city":"Cranberry Township","state_name":"Pennsylvania","lat":40.71114,"lng":-80.10606,"zip":"16066","miles_from_dt":24.02},{"city":"New Brighton","state_name":"Pennsylvania","lat":40.75119,"lng":-80.25269,"zip":"15066","miles_from_dt":24.03},{"city":"Elrama","state_name":"Pennsylvania","lat":40.2499,"lng":-79.92379,"zip":"15038","miles_from_dt":24.09},{"city":"Glassport","state_name":"Pennsylvania","lat":40.32613,"lng":-79.88614,"zip":"15045","miles_from_dt":24.12},{"city":"Wellsville","state_name":"Ohio","lat":40.63365,"lng":-80.68729,"zip":"43968","miles_from_dt":24.4},{"city":"Bentleyville","state_name":"Pennsylvania","lat":40.14555,"lng":-80.01775,"zip":"15314","miles_from_dt":24.52},{"city":"Pittsburgh","state_name":"Pennsylvania","lat":40.43457,"lng":-79.86631,"zip":"15221","miles_from_dt":24.55},{"city":"Braddock","state_name":"Pennsylvania","lat":40.40379,"lng":-79.86249,"zip":"15104","miles_from_dt":24.69},{"city":"Rayland","state_name":"Ohio","lat":40.2242,"lng":-80.73269,"zip":"43943","miles_from_dt":24.74},{"city":"West Elizabeth","state_name":"Pennsylvania","lat":40.27159,"lng":-79.89607,"zip":"15088","miles_from_dt":24.8},{"city":"Beaver Falls","state_name":"Pennsylvania","lat":40.76829,"lng":-80.35873,"zip":"15010","miles_from_dt":24.9},{"city":"Mckeesport","state_name":"Pennsylvania","lat":40.34719,"lng":-79.86423,"zip":"15134","miles_from_dt":24.96},{"city":"Pittsburgh","state_name":"Pennsylvania","lat":40.53405,"lng":-79.88115,"zip":"15238","miles_from_dt":25.23},{"city":"Tiltonsville","state_name":"Ohio","lat":40.17155,"lng":-80.69698,"zip":"43963","miles_from_dt":25.32},{"city":"Mckeesport","state_name":"Pennsylvania","lat":40.3257,"lng":-79.86127,"zip":"15133","miles_from_dt":25.41},{"city":"Cokeburg","state_name":"Pennsylvania","lat":40.10074,"lng":-80.0654,"zip":"15324","miles_from_dt":25.42},{"city":"Duquesne","state_name":"Pennsylvania","lat":40.37321,"lng":-79.85024,"zip":"15110","miles_from_dt":25.45},{"city":"Van Voorhis","state_name":"Pennsylvania","lat":40.1598,"lng":-79.974,"zip":"15366","miles_from_dt":25.46},{"city":"Smithfield","state_name":"Ohio","lat":40.26847,"lng":-80.78002,"zip":"43948","miles_from_dt":25.61},{"city":"Scenery Hill","state_name":"Pennsylvania","lat":40.08846,"lng":-80.08144,"zip":"15360","miles_from_dt":25.68},{"city":"Gibsonia","state_name":"Pennsylvania","lat":40.64009,"lng":-79.9492,"zip":"15044","miles_from_dt":25.68},{"city":"Mars","state_name":"Pennsylvania","lat":40.70192,"lng":-80.02866,"zip":"16046","miles_from_dt":25.76},{"city":"Hammondsville","state_name":"Ohio","lat":40.56978,"lng":-80.77372,"zip":"43930","miles_from_dt":25.88},{"city":"East Pittsburgh","state_name":"Pennsylvania","lat":40.40453,"lng":-79.83734,"zip":"15112","miles_from_dt":26.01},{"city":"Bloomingdale","state_name":"Ohio","lat":40.37039,"lng":-80.8214,"zip":"43910","miles_from_dt":26.03},{"city":"Monongahela","state_name":"Pennsylvania","lat":40.19487,"lng":-79.92228,"zip":"15063","miles_from_dt":26.1},{"city":"Amity","state_name":"Pennsylvania","lat":40.04608,"lng":-80.18592,"zip":"15311","miles_from_dt":26.12},{"city":"Mckeesport","state_name":"Pennsylvania","lat":40.33982,"lng":-79.84299,"zip":"15132","miles_from_dt":26.15},{"city":"Ellsworth","state_name":"Pennsylvania","lat":40.10754,"lng":-80.02214,"zip":"15331","miles_from_dt":26.38},{"city":"Prosperity","state_name":"Pennsylvania","lat":40.02813,"lng":-80.27205,"zip":"15329","miles_from_dt":26.39},{"city":"Yorkville","state_name":"Ohio","lat":40.15811,"lng":-80.71301,"zip":"43971","miles_from_dt":26.57},{"city":"Turtle Creek","state_name":"Pennsylvania","lat":40.41451,"lng":-79.82352,"zip":"15145","miles_from_dt":26.74},{"city":"Zelienople","state_name":"Pennsylvania","lat":40.76352,"lng":-80.12773,"zip":"16063","miles_from_dt":26.75},{"city":"Negley","state_name":"Ohio","lat":40.75802,"lng":-80.55264,"zip":"44441","miles_from_dt":26.83},{"city":"Bakerstown","state_name":"Pennsylvania","lat":40.65128,"lng":-79.93173,"zip":"15007","miles_from_dt":26.88},{"city":"Pittsburgh","state_name":"Pennsylvania","lat":40.45968,"lng":-79.82194,"zip":"15235","miles_from_dt":27.05},{"city":"Triadelphia","state_name":"West Virginia","lat":40.07156,"lng":-80.59379,"zip":"26059","miles_from_dt":27.07},{"city":"Indianola","state_name":"Pennsylvania","lat":40.56812,"lng":-79.86076,"zip":"15051","miles_from_dt":27.1},{"city":"Verona","state_name":"Pennsylvania","lat":40.49704,"lng":-79.82858,"zip":"15147","miles_from_dt":27.16},{"city":"Oakmont","state_name":"Pennsylvania","lat":40.52192,"lng":-79.83479,"zip":"15139","miles_from_dt":27.28},{"city":"Elizabeth","state_name":"Pennsylvania","lat":40.25649,"lng":-79.85017,"zip":"15037","miles_from_dt":27.44},{"city":"Darlington","state_name":"Pennsylvania","lat":40.79433,"lng":-80.46289,"zip":"16115","miles_from_dt":27.55},{"city":"North Versailles","state_name":"Pennsylvania","lat":40.37762,"lng":-79.80902,"zip":"15137","miles_from_dt":27.59},{"city":"Callery","state_name":"Pennsylvania","lat":40.73961,"lng":-80.03719,"zip":"16024","miles_from_dt":27.6},{"city":"East McKeesport","state_name":"Pennsylvania","lat":40.38488,"lng":-79.80726,"zip":"15035","miles_from_dt":27.65},{"city":"Piney Fork","state_name":"Ohio","lat":40.25258,"lng":-80.81345,"zip":"43941","miles_from_dt":27.66},{"city":"Cheswick","state_name":"Pennsylvania","lat":40.57649,"lng":-79.84649,"zip":"15024","miles_from_dt":28.02},{"city":"Dillonvale","state_name":"Ohio","lat":40.22396,"lng":-80.80546,"zip":"43917","miles_from_dt":28.12},{"city":"Charleroi","state_name":"Pennsylvania","lat":40.13329,"lng":-79.93661,"zip":"15022","miles_from_dt":28.16},{"city":"East Springfield","state_name":"Ohio","lat":40.44583,"lng":-80.86242,"zip":"43925","miles_from_dt":28.17},{"city":"Wilmerding","state_name":"Pennsylvania","lat":40.39351,"lng":-79.79525,"zip":"15148","miles_from_dt":28.25},{"city":"Mckeesport","state_name":"Pennsylvania","lat":40.33477,"lng":-79.80132,"zip":"15131","miles_from_dt":28.38},{"city":"Mckeesport","state_name":"Pennsylvania","lat":40.29959,"lng":-79.81153,"zip":"15135","miles_from_dt":28.4},{"city":"West Point","state_name":"Ohio","lat":40.70796,"lng":-80.70221,"zip":"44492","miles_from_dt":28.48},{"city":"Bairdford","state_name":"Pennsylvania","lat":40.63351,"lng":-79.87678,"zip":"15006","miles_from_dt":28.51},{"city":"Beallsville","state_name":"Pennsylvania","lat":40.06318,"lng":-80.02937,"zip":"15313","miles_from_dt":28.63},{"city":"Wheeling","state_name":"West Virginia","lat":40.0693,"lng":-80.6508,"zip":"26003","miles_from_dt":28.86},{"city":"Coulters","state_name":"Pennsylvania","lat":40.30194,"lng":-79.79891,"zip":"15028","miles_from_dt":29},{"city":"Greenock","state_name":"Pennsylvania","lat":40.3123,"lng":-79.79513,"zip":"15047","miles_from_dt":29.02},{"city":"Pitcairn","state_name":"Pennsylvania","lat":40.4073,"lng":-79.7783,"zip":"15140","miles_from_dt":29.13},{"city":"Marianna","state_name":"Pennsylvania","lat":40.02173,"lng":-80.10743,"zip":"15345","miles_from_dt":29.15},{"city":"Donora","state_name":"Pennsylvania","lat":40.18011,"lng":-79.86501,"zip":"15033","miles_from_dt":29.19},{"city":"Rogers","state_name":"Ohio","lat":40.77581,"lng":-80.60485,"zip":"44455","miles_from_dt":29.19},{"city":"Rural Ridge","state_name":"Pennsylvania","lat":40.58665,"lng":-79.82693,"zip":"15075","miles_from_dt":29.25},{"city":"Webster","state_name":"Pennsylvania","lat":40.19504,"lng":-79.84948,"zip":"15087","miles_from_dt":29.36},{"city":"Koppel","state_name":"Pennsylvania","lat":40.83425,"lng":-80.32369,"zip":"16136","miles_from_dt":29.41},{"city":"Valencia","state_name":"Pennsylvania","lat":40.70425,"lng":-79.92812,"zip":"16059","miles_from_dt":29.43},{"city":"Bergholz","state_name":"Ohio","lat":40.50867,"lng":-80.87349,"zip":"43908","miles_from_dt":29.45},{"city":"Russellton","state_name":"Pennsylvania","lat":40.60949,"lng":-79.8374,"zip":"15076","miles_from_dt":29.46},{"city":"Fombell","state_name":"Pennsylvania","lat":40.82389,"lng":-80.19844,"zip":"16123","miles_from_dt":29.52},{"city":"Monessen","state_name":"Pennsylvania","lat":40.15184,"lng":-79.88277,"zip":"15062","miles_from_dt":29.54},{"city":"Wolf Run","state_name":"Ohio","lat":40.46564,"lng":-80.88599,"zip":"43970","miles_from_dt":29.55},{"city":"Harwick","state_name":"Pennsylvania","lat":40.55545,"lng":-79.80366,"zip":"15049","miles_from_dt":29.56},{"city":"Martins Ferry","state_name":"Ohio","lat":40.1247,"lng":-80.75225,"zip":"43935","miles_from_dt":29.65},{"city":"Buena Vista","state_name":"Pennsylvania","lat":40.26924,"lng":-79.79805,"zip":"15018","miles_from_dt":29.7},{"city":"Mount Pleasant","state_name":"Ohio","lat":40.16723,"lng":-80.79993,"zip":"43939","miles_from_dt":29.85},{"city":"Richeyville","state_name":"Pennsylvania","lat":40.055,"lng":-80.00309,"zip":"15358","miles_from_dt":29.89},{"city":"Curtisville","state_name":"Pennsylvania","lat":40.6407,"lng":-79.85029,"zip":"15032","miles_from_dt":29.95}],"targetCityZipCode":"15019","targetCityState":"Pennsylvania"},"__N_SSG":true}