{"pageProps":{"stateName":"Pennsylvania","cityName":"conneautville","nearbyCities":[{"city":"Springboro","state_name":"Pennsylvania","lat":41.81937,"lng":-80.38356,"zip":"16435","miles_from_dt":4.88},{"city":"Harmonsburg","state_name":"Pennsylvania","lat":41.66555,"lng":-80.31447,"zip":"16422","miles_from_dt":6.37},{"city":"Linesville","state_name":"Pennsylvania","lat":41.65887,"lng":-80.44175,"zip":"16424","miles_from_dt":7.53},{"city":"Albion","state_name":"Pennsylvania","lat":41.87645,"lng":-80.36107,"zip":"16475","miles_from_dt":8.69},{"city":"Albion","state_name":"Pennsylvania","lat":41.88044,"lng":-80.40395,"zip":"16401","miles_from_dt":9.22},{"city":"Pierpont","state_name":"Ohio","lat":41.76012,"lng":-80.56558,"zip":"44082","miles_from_dt":10.5},{"city":"Conneaut Lake","state_name":"Pennsylvania","lat":41.6012,"lng":-80.29958,"zip":"16316","miles_from_dt":10.81},{"city":"Saegertown","state_name":"Pennsylvania","lat":41.73553,"lng":-80.14316,"zip":"16433","miles_from_dt":11.4},{"city":"Cranesville","state_name":"Pennsylvania","lat":41.92012,"lng":-80.30482,"zip":"16410","miles_from_dt":12.08},{"city":"Venango","state_name":"Pennsylvania","lat":41.78673,"lng":-80.13088,"zip":"16440","miles_from_dt":12.24},{"city":"Meadville","state_name":"Pennsylvania","lat":41.64896,"lng":-80.14727,"zip":"16388","miles_from_dt":13.16},{"city":"Meadville","state_name":"Pennsylvania","lat":41.63143,"lng":-80.15378,"zip":"16335","miles_from_dt":13.58},{"city":"Edinboro","state_name":"Pennsylvania","lat":41.88212,"lng":-80.16392,"zip":"16412","miles_from_dt":13.71},{"city":"Hartstown","state_name":"Pennsylvania","lat":41.54908,"lng":-80.37617,"zip":"16131","miles_from_dt":13.92},{"city":"West Springfield","state_name":"Pennsylvania","lat":41.93745,"lng":-80.47831,"zip":"16443","miles_from_dt":14.22},{"city":"Andover","state_name":"Ohio","lat":41.6202,"lng":-80.58361,"zip":"44003","miles_from_dt":14.54},{"city":"Edinboro","state_name":"Pennsylvania","lat":41.87071,"lng":-80.12175,"zip":"16444","miles_from_dt":14.96},{"city":"Conneaut","state_name":"Ohio","lat":41.8973,"lng":-80.58061,"zip":"44030","miles_from_dt":15.14},{"city":"Girard","state_name":"Pennsylvania","lat":41.97107,"lng":-80.31039,"zip":"16417","miles_from_dt":15.46},{"city":"Kingsville","state_name":"Ohio","lat":41.84697,"lng":-80.64343,"zip":"44048","miles_from_dt":15.95},{"city":"East Springfield","state_name":"Pennsylvania","lat":41.97781,"lng":-80.45037,"zip":"16411","miles_from_dt":16.33},{"city":"Atlantic","state_name":"Pennsylvania","lat":41.51936,"lng":-80.28463,"zip":"16111","miles_from_dt":16.45},{"city":"Dorset","state_name":"Ohio","lat":41.6658,"lng":-80.66954,"zip":"44032","miles_from_dt":16.91},{"city":"Adamsville","state_name":"Pennsylvania","lat":41.49757,"lng":-80.38591,"zip":"16110","miles_from_dt":17.49},{"city":"North Springfield","state_name":"Pennsylvania","lat":42.00413,"lng":-80.41823,"zip":"16430","miles_from_dt":17.74},{"city":"Jamestown","state_name":"Pennsylvania","lat":41.50315,"lng":-80.46571,"zip":"16134","miles_from_dt":17.88},{"city":"Cambridge Springs","state_name":"Pennsylvania","lat":41.7912,"lng":-80.02017,"zip":"16403","miles_from_dt":17.92},{"city":"Lake City","state_name":"Pennsylvania","lat":42.01881,"lng":-80.34253,"zip":"16423","miles_from_dt":18.55},{"city":"North Kingsville","state_name":"Ohio","lat":41.90619,"lng":-80.67886,"zip":"44068","miles_from_dt":19.54},{"city":"Jefferson","state_name":"Ohio","lat":41.71887,"lng":-80.73921,"zip":"44047","miles_from_dt":19.58},{"city":"McKean","state_name":"Pennsylvania","lat":41.98121,"lng":-80.13937,"zip":"16426","miles_from_dt":19.66},{"city":"Williamsfield","state_name":"Ohio","lat":41.53478,"lng":-80.61637,"zip":"44093","miles_from_dt":19.85},{"city":"Fairview","state_name":"Pennsylvania","lat":42.03122,"lng":-80.22873,"zip":"16415","miles_from_dt":20.57},{"city":"Mill Village","state_name":"Pennsylvania","lat":41.87466,"lng":-79.97132,"zip":"16427","miles_from_dt":21.95},{"city":"Cochranton","state_name":"Pennsylvania","lat":41.51895,"lng":-80.06782,"zip":"16314","miles_from_dt":22.1},{"city":"Guys Mills","state_name":"Pennsylvania","lat":41.6323,"lng":-79.95878,"zip":"16327","miles_from_dt":22.43},{"city":"Hadley","state_name":"Pennsylvania","lat":41.44315,"lng":-80.21668,"zip":"16130","miles_from_dt":22.52},{"city":"Sheakleyville","state_name":"Pennsylvania","lat":41.4428,"lng":-80.2056,"zip":"16151","miles_from_dt":22.74},{"city":"Ashtabula","state_name":"Ohio","lat":41.85255,"lng":-80.78738,"zip":"44004","miles_from_dt":23.03},{"city":"Greenville","state_name":"Pennsylvania","lat":41.40565,"lng":-80.37135,"zip":"16125","miles_from_dt":23.8},{"city":"Waterford","state_name":"Pennsylvania","lat":41.9554,"lng":-79.98552,"zip":"16441","miles_from_dt":24.06},{"city":"Ashtabula","state_name":"Ohio","lat":41.876,"lng":-80.80005,"zip":"44005","miles_from_dt":24.18},{"city":"Erie","state_name":"Pennsylvania","lat":42.06449,"lng":-80.15472,"zip":"16506","miles_from_dt":24.18},{"city":"Kinsman","state_name":"Ohio","lat":41.43458,"lng":-80.5779,"zip":"44428","miles_from_dt":24.49},{"city":"Townville","state_name":"Pennsylvania","lat":41.68167,"lng":-79.89028,"zip":"16360","miles_from_dt":24.89},{"city":"Austinburg","state_name":"Ohio","lat":41.76087,"lng":-80.85152,"zip":"44010","miles_from_dt":25.27},{"city":"Clarks Mills","state_name":"Pennsylvania","lat":41.40432,"lng":-80.18766,"zip":"16114","miles_from_dt":25.55},{"city":"Erie","state_name":"Pennsylvania","lat":42.06906,"lng":-80.10263,"zip":"16565","miles_from_dt":25.75},{"city":"Carlton","state_name":"Pennsylvania","lat":41.45706,"lng":-80.03477,"zip":"16311","miles_from_dt":26.43},{"city":"Erie","state_name":"Pennsylvania","lat":42.10355,"lng":-80.1488,"zip":"16531","miles_from_dt":26.75},{"city":"Farmdale","state_name":"Ohio","lat":41.43336,"lng":-80.66329,"zip":"44417","miles_from_dt":26.86},{"city":"Erie","state_name":"Pennsylvania","lat":42.05861,"lng":-80.04419,"zip":"16509","miles_from_dt":26.87},{"city":"Erie","state_name":"Pennsylvania","lat":42.09719,"lng":-80.09249,"zip":"16508","miles_from_dt":27.69},{"city":"Erie","state_name":"Pennsylvania","lat":42.11789,"lng":-80.14304,"zip":"16505","miles_from_dt":27.77},{"city":"Rock Creek","state_name":"Ohio","lat":41.67242,"lng":-80.89605,"zip":"44084","miles_from_dt":28.1},{"city":"Rome","state_name":"Ohio","lat":41.60463,"lng":-80.87128,"zip":"44085","miles_from_dt":28.17},{"city":"Orwell","state_name":"Ohio","lat":41.52728,"lng":-80.81867,"zip":"44076","miles_from_dt":28.19},{"city":"Erie","state_name":"Pennsylvania","lat":42.1101,"lng":-80.10311,"zip":"16544","miles_from_dt":28.2},{"city":"Erie","state_name":"Pennsylvania","lat":42.11073,"lng":-80.10123,"zip":"16502","miles_from_dt":28.28},{"city":"Union City","state_name":"Pennsylvania","lat":41.89084,"lng":-79.84709,"zip":"16438","miles_from_dt":28.33},{"city":"Erie","state_name":"Pennsylvania","lat":42.10389,"lng":-80.05338,"zip":"16546","miles_from_dt":29.14},{"city":"Riceville","state_name":"Pennsylvania","lat":41.77923,"lng":-79.79955,"zip":"16432","miles_from_dt":29.17},{"city":"Erie","state_name":"Pennsylvania","lat":42.12096,"lng":-80.08958,"zip":"16501","miles_from_dt":29.19},{"city":"Fredonia","state_name":"Pennsylvania","lat":41.33336,"lng":-80.26486,"zip":"16124","miles_from_dt":29.23},{"city":"Sandy Lake","state_name":"Pennsylvania","lat":41.38574,"lng":-80.07422,"zip":"16145","miles_from_dt":29.28},{"city":"Utica","state_name":"Pennsylvania","lat":41.45032,"lng":-79.96284,"zip":"16362","miles_from_dt":29.29},{"city":"Erie","state_name":"Pennsylvania","lat":42.12144,"lng":-80.08528,"zip":"16534","miles_from_dt":29.32},{"city":"Erie","state_name":"Pennsylvania","lat":42.12164,"lng":-80.08305,"zip":"16512","miles_from_dt":29.39},{"city":"Transfer","state_name":"Pennsylvania","lat":41.32539,"lng":-80.42111,"zip":"16154","miles_from_dt":29.49},{"city":"Erie","state_name":"Pennsylvania","lat":42.10942,"lng":-80.0489,"zip":"16504","miles_from_dt":29.59},{"city":"Centerville","state_name":"Pennsylvania","lat":41.72483,"lng":-79.79018,"zip":"16404","miles_from_dt":29.65},{"city":"Erie","state_name":"Pennsylvania","lat":42.12524,"lng":-80.08062,"zip":"16522","miles_from_dt":29.67},{"city":"Erie","state_name":"Pennsylvania","lat":42.1264,"lng":-80.08294,"zip":"16553","miles_from_dt":29.68},{"city":"Erie","state_name":"Pennsylvania","lat":42.12909,"lng":-80.08588,"zip":"16538","miles_from_dt":29.77},{"city":"Orangeville","state_name":"Ohio","lat":41.33602,"lng":-80.52628,"zip":"44453","miles_from_dt":29.83},{"city":"Erie","state_name":"Pennsylvania","lat":42.13036,"lng":-80.08287,"zip":"16530","miles_from_dt":29.92}],"targetCityZipCode":"16406","targetCityState":"Pennsylvania"},"__N_SSG":true}