{"pageProps":{"stateName":"Pennsylvania","cityName":"coraopolis","nearbyCities":[{"city":"Pittsburgh","state_name":"Pennsylvania","lat":40.50277,"lng":-80.18917,"zip":"15231","miles_from_dt":0.62},{"city":"Pittsburgh","state_name":"Pennsylvania","lat":40.45246,"lng":-80.18405,"zip":"15275","miles_from_dt":3.39},{"city":"Crescent","state_name":"Pennsylvania","lat":40.55618,"lng":-80.22868,"zip":"15046","miles_from_dt":4.15},{"city":"Leetsdale","state_name":"Pennsylvania","lat":40.56512,"lng":-80.21407,"zip":"15056","miles_from_dt":4.55},{"city":"Pittsburgh","state_name":"Pennsylvania","lat":40.50636,"lng":-80.1116,"zip":"15225","miles_from_dt":4.69},{"city":"Imperial","state_name":"Pennsylvania","lat":40.46019,"lng":-80.28727,"zip":"15126","miles_from_dt":5.34},{"city":"South Heights","state_name":"Pennsylvania","lat":40.57471,"lng":-80.23614,"zip":"15081","miles_from_dt":5.49},{"city":"McKees Rocks","state_name":"Pennsylvania","lat":40.46872,"lng":-80.10233,"zip":"15136","miles_from_dt":5.6},{"city":"Sewickley","state_name":"Pennsylvania","lat":40.57298,"lng":-80.14725,"zip":"15143","miles_from_dt":5.75},{"city":"Oakdale","state_name":"Pennsylvania","lat":40.41486,"lng":-80.18981,"zip":"15071","miles_from_dt":5.9},{"city":"Pittsburgh","state_name":"Pennsylvania","lat":40.51194,"lng":-80.07968,"zip":"15278","miles_from_dt":6.41},{"city":"Pittsburgh","state_name":"Pennsylvania","lat":40.4381,"lng":-80.10552,"zip":"15205","miles_from_dt":6.57},{"city":"Pittsburgh","state_name":"Pennsylvania","lat":40.44139,"lng":-80.0978,"zip":"15277","miles_from_dt":6.75},{"city":"Pittsburgh","state_name":"Pennsylvania","lat":40.50566,"lng":-80.06902,"zip":"15202","miles_from_dt":6.93},{"city":"Ambridge","state_name":"Pennsylvania","lat":40.60153,"lng":-80.21415,"zip":"15003","miles_from_dt":7.04},{"city":"Pittsburgh","state_name":"Pennsylvania","lat":40.43803,"lng":-80.09376,"zip":"15276","miles_from_dt":7.06},{"city":"Carnegie","state_name":"Pennsylvania","lat":40.40882,"lng":-80.10863,"zip":"15106","miles_from_dt":7.94},{"city":"Pittsburgh","state_name":"Pennsylvania","lat":40.45597,"lng":-80.06051,"zip":"15204","miles_from_dt":7.97},{"city":"Clinton","state_name":"Pennsylvania","lat":40.51043,"lng":-80.35662,"zip":"15026","miles_from_dt":8.26},{"city":"Sturgeon","state_name":"Pennsylvania","lat":40.38031,"lng":-80.21061,"zip":"15082","miles_from_dt":8.28},{"city":"Pittsburgh","state_name":"Pennsylvania","lat":40.51995,"lng":-80.03866,"zip":"15229","miles_from_dt":8.62},{"city":"Pittsburgh","state_name":"Pennsylvania","lat":40.54834,"lng":-80.04682,"zip":"15237","miles_from_dt":8.74},{"city":"Pittsburgh","state_name":"Pennsylvania","lat":40.46551,"lng":-80.0383,"zip":"15279","miles_from_dt":8.86},{"city":"Pittsburgh","state_name":"Pennsylvania","lat":40.46742,"lng":-80.03747,"zip":"15268","miles_from_dt":8.87},{"city":"Pittsburgh","state_name":"Pennsylvania","lat":40.46742,"lng":-80.03747,"zip":"15267","miles_from_dt":8.87},{"city":"Aliquippa","state_name":"Pennsylvania","lat":40.59161,"lng":-80.32078,"zip":"15001","miles_from_dt":8.95},{"city":"Presto","state_name":"Pennsylvania","lat":40.38474,"lng":-80.12231,"zip":"15142","miles_from_dt":8.96},{"city":"Pittsburgh","state_name":"Pennsylvania","lat":40.45985,"lng":-80.03387,"zip":"15233","miles_from_dt":9.2},{"city":"Ingomar","state_name":"Pennsylvania","lat":40.58104,"lng":-80.06113,"zip":"15127","miles_from_dt":9.21},{"city":"Pittsburgh","state_name":"Pennsylvania","lat":40.45873,"lng":-80.03122,"zip":"15286","miles_from_dt":9.35},{"city":"Bulger","state_name":"Pennsylvania","lat":40.40805,"lng":-80.33053,"zip":"15019","miles_from_dt":9.35},{"city":"Pittsburgh","state_name":"Pennsylvania","lat":40.42,"lng":-80.05002,"zip":"15244","miles_from_dt":9.66},{"city":"Pittsburgh","state_name":"Pennsylvania","lat":40.42,"lng":-80.05002,"zip":"15242","miles_from_dt":9.66},{"city":"Pittsburgh","state_name":"Pennsylvania","lat":40.42209,"lng":-80.04637,"zip":"15283","miles_from_dt":9.73},{"city":"Midway","state_name":"Pennsylvania","lat":40.37695,"lng":-80.29113,"zip":"15060","miles_from_dt":9.75},{"city":"Pittsburgh","state_name":"Pennsylvania","lat":40.41875,"lng":-80.04894,"zip":"15220","miles_from_dt":9.75},{"city":"Pittsburgh","state_name":"Pennsylvania","lat":40.48541,"lng":-80.01455,"zip":"15214","miles_from_dt":9.84},{"city":"Pittsburgh","state_name":"Pennsylvania","lat":40.45589,"lng":-80.02196,"zip":"15255","miles_from_dt":9.88},{"city":"Pittsburgh","state_name":"Pennsylvania","lat":40.45735,"lng":-80.01932,"zip":"15290","miles_from_dt":9.98},{"city":"Baden","state_name":"Pennsylvania","lat":40.64431,"lng":-80.17607,"zip":"15005","miles_from_dt":10.03},{"city":"McDonald","state_name":"Pennsylvania","lat":40.35571,"lng":-80.24713,"zip":"15057","miles_from_dt":10.26},{"city":"Pittsburgh","state_name":"Pennsylvania","lat":40.47106,"lng":-80.00844,"zip":"15212","miles_from_dt":10.3},{"city":"Morgan","state_name":"Pennsylvania","lat":40.35538,"lng":-80.14849,"zip":"15064","miles_from_dt":10.35},{"city":"Cuddy","state_name":"Pennsylvania","lat":40.34802,"lng":-80.16235,"zip":"15031","miles_from_dt":10.68},{"city":"Pittsburgh","state_name":"Pennsylvania","lat":40.4302,"lng":-80.01533,"zip":"15211","miles_from_dt":10.87},{"city":"Pittsburgh","state_name":"Pennsylvania","lat":40.37474,"lng":-80.07305,"zip":"15243","miles_from_dt":10.94},{"city":"Pittsburgh","state_name":"Pennsylvania","lat":40.40395,"lng":-80.03485,"zip":"15270","miles_from_dt":10.96},{"city":"Warrendale","state_name":"Pennsylvania","lat":40.6433,"lng":-80.10951,"zip":"15095","miles_from_dt":10.98},{"city":"Pittsburgh","state_name":"Pennsylvania","lat":40.40268,"lng":-80.0348,"zip":"15216","miles_from_dt":11.01},{"city":"Pittsburgh","state_name":"Pennsylvania","lat":40.44185,"lng":-80.00502,"zip":"15272","miles_from_dt":11.05},{"city":"Wexford","state_name":"Pennsylvania","lat":40.62587,"lng":-80.06766,"zip":"15090","miles_from_dt":11.14},{"city":"Pittsburgh","state_name":"Pennsylvania","lat":40.43767,"lng":-80.00472,"zip":"15295","miles_from_dt":11.17},{"city":"Bradfordwoods","state_name":"Pennsylvania","lat":40.63622,"lng":-80.08164,"zip":"15015","miles_from_dt":11.28},{"city":"Pittsburgh","state_name":"Pennsylvania","lat":40.44238,"lng":-79.99994,"zip":"15265","miles_from_dt":11.28},{"city":"Pittsburgh","state_name":"Pennsylvania","lat":40.4414,"lng":-79.99816,"zip":"15259","miles_from_dt":11.4},{"city":"Pittsburgh","state_name":"Pennsylvania","lat":40.44097,"lng":-79.99827,"zip":"15252","miles_from_dt":11.4},{"city":"Pittsburgh","state_name":"Pennsylvania","lat":40.44109,"lng":-79.99828,"zip":"15254","miles_from_dt":11.4},{"city":"Pittsburgh","state_name":"Pennsylvania","lat":40.44155,"lng":-79.99779,"zip":"15257","miles_from_dt":11.41},{"city":"Pittsburgh","state_name":"Pennsylvania","lat":40.44002,"lng":-79.99865,"zip":"15281","miles_from_dt":11.41},{"city":"Bridgeville","state_name":"Pennsylvania","lat":40.34348,"lng":-80.12865,"zip":"15017","miles_from_dt":11.45},{"city":"Pittsburgh","state_name":"Pennsylvania","lat":40.4421,"lng":-79.99519,"zip":"15230","miles_from_dt":11.52},{"city":"Pittsburgh","state_name":"Pennsylvania","lat":40.44998,"lng":-79.9912,"zip":"15222","miles_from_dt":11.55},{"city":"Pittsburgh","state_name":"Pennsylvania","lat":40.43962,"lng":-79.99517,"zip":"15262","miles_from_dt":11.59},{"city":"Conway","state_name":"Pennsylvania","lat":40.66706,"lng":-80.23988,"zip":"15027","miles_from_dt":11.71},{"city":"Joffre","state_name":"Pennsylvania","lat":40.38056,"lng":-80.35975,"zip":"15053","miles_from_dt":11.77},{"city":"Pittsburgh","state_name":"Pennsylvania","lat":40.50007,"lng":-79.97463,"zip":"15209","miles_from_dt":11.89},{"city":"Pittsburgh","state_name":"Pennsylvania","lat":40.43602,"lng":-79.99042,"zip":"15282","miles_from_dt":11.91},{"city":"Southview","state_name":"Pennsylvania","lat":40.33277,"lng":-80.2623,"zip":"15361","miles_from_dt":12},{"city":"Pittsburgh","state_name":"Pennsylvania","lat":40.44304,"lng":-79.98443,"zip":"15219","miles_from_dt":12.04},{"city":"Pittsburgh","state_name":"Pennsylvania","lat":40.37075,"lng":-80.04395,"zip":"15228","miles_from_dt":12.15},{"city":"Pittsburgh","state_name":"Pennsylvania","lat":40.39527,"lng":-80.01374,"zip":"15226","miles_from_dt":12.21},{"city":"Cecil","state_name":"Pennsylvania","lat":40.32167,"lng":-80.18716,"zip":"15321","miles_from_dt":12.33},{"city":"Monaca","state_name":"Pennsylvania","lat":40.66013,"lng":-80.31082,"zip":"15061","miles_from_dt":12.48},{"city":"Warrendale","state_name":"Pennsylvania","lat":40.664,"lng":-80.09593,"zip":"15086","miles_from_dt":12.57},{"city":"Warrendale","state_name":"Pennsylvania","lat":40.67161,"lng":-80.10344,"zip":"15096","miles_from_dt":12.89},{"city":"Pittsburgh","state_name":"Pennsylvania","lat":40.4257,"lng":-79.97491,"zip":"15203","miles_from_dt":12.94},{"city":"Freedom","state_name":"Pennsylvania","lat":40.68786,"lng":-80.20411,"zip":"15042","miles_from_dt":12.96},{"city":"Pittsburgh","state_name":"Pennsylvania","lat":40.50431,"lng":-79.95199,"zip":"15223","miles_from_dt":13.08},{"city":"Pittsburgh","state_name":"Pennsylvania","lat":40.44598,"lng":-79.96243,"zip":"15240","miles_from_dt":13.08},{"city":"Pittsburgh","state_name":"Pennsylvania","lat":40.33293,"lng":-80.08291,"zip":"15241","miles_from_dt":13.09},{"city":"Pittsburgh","state_name":"Pennsylvania","lat":40.40679,"lng":-79.98411,"zip":"15210","miles_from_dt":13.09},{"city":"Pittsburgh","state_name":"Pennsylvania","lat":40.47565,"lng":-79.95389,"zip":"15201","miles_from_dt":13.09},{"city":"Pittsburgh","state_name":"Pennsylvania","lat":40.36808,"lng":-80.01782,"zip":"15234","miles_from_dt":13.25},{"city":"Pittsburgh","state_name":"Pennsylvania","lat":40.44102,"lng":-79.96037,"zip":"15261","miles_from_dt":13.28},{"city":"Pittsburgh","state_name":"Pennsylvania","lat":40.43991,"lng":-79.96021,"zip":"15253","miles_from_dt":13.32},{"city":"Glenshaw","state_name":"Pennsylvania","lat":40.5384,"lng":-79.95211,"zip":"15116","miles_from_dt":13.33},{"city":"Hookstown","state_name":"Pennsylvania","lat":40.5617,"lng":-80.44038,"zip":"15050","miles_from_dt":13.34},{"city":"Pittsburgh","state_name":"Pennsylvania","lat":40.44422,"lng":-79.95599,"zip":"15264","miles_from_dt":13.44},{"city":"Pittsburgh","state_name":"Pennsylvania","lat":40.46737,"lng":-79.94623,"zip":"15224","miles_from_dt":13.57},{"city":"Pittsburgh","state_name":"Pennsylvania","lat":40.44829,"lng":-79.95189,"zip":"15250","miles_from_dt":13.57},{"city":"Pittsburgh","state_name":"Pennsylvania","lat":40.44293,"lng":-79.95345,"zip":"15213","miles_from_dt":13.59},{"city":"Pittsburgh","state_name":"Pennsylvania","lat":40.44029,"lng":-79.95451,"zip":"15274","miles_from_dt":13.59},{"city":"Pittsburgh","state_name":"Pennsylvania","lat":40.4432,"lng":-79.95306,"zip":"15260","miles_from_dt":13.61},{"city":"Pittsburgh","state_name":"Pennsylvania","lat":40.44475,"lng":-79.95156,"zip":"15251","miles_from_dt":13.65},{"city":"Wildwood","state_name":"Pennsylvania","lat":40.5939,"lng":-79.97022,"zip":"15091","miles_from_dt":13.73},{"city":"Slovan","state_name":"Pennsylvania","lat":40.35949,"lng":-80.38501,"zip":"15078","miles_from_dt":13.74},{"city":"Lawrence","state_name":"Pennsylvania","lat":40.30642,"lng":-80.12296,"zip":"15055","miles_from_dt":13.97},{"city":"Pittsburgh","state_name":"Pennsylvania","lat":40.44438,"lng":-79.94401,"zip":"15289","miles_from_dt":14.04},{"city":"Allison Park","state_name":"Pennsylvania","lat":40.58139,"lng":-79.95531,"zip":"15101","miles_from_dt":14.06},{"city":"Hendersonville","state_name":"Pennsylvania","lat":40.29892,"lng":-80.1547,"zip":"15339","miles_from_dt":14.09},{"city":"Langeloth","state_name":"Pennsylvania","lat":40.36353,"lng":-80.4008,"zip":"15054","miles_from_dt":14.16},{"city":"Muse","state_name":"Pennsylvania","lat":40.29377,"lng":-80.20056,"zip":"15350","miles_from_dt":14.23},{"city":"Shippingport","state_name":"Pennsylvania","lat":40.62517,"lng":-80.4173,"zip":"15077","miles_from_dt":14.31},{"city":"Burgettstown","state_name":"Pennsylvania","lat":40.39373,"lng":-80.43583,"zip":"15021","miles_from_dt":14.42},{"city":"Pittsburgh","state_name":"Pennsylvania","lat":40.45246,"lng":-79.93193,"zip":"15232","miles_from_dt":14.52},{"city":"Atlasburg","state_name":"Pennsylvania","lat":40.34216,"lng":-80.38289,"zip":"15004","miles_from_dt":14.54},{"city":"Pittsburgh","state_name":"Pennsylvania","lat":40.47911,"lng":-79.92143,"zip":"15258","miles_from_dt":14.76},{"city":"Pittsburgh","state_name":"Pennsylvania","lat":40.375,"lng":-79.97077,"zip":"15227","miles_from_dt":14.86},{"city":"Bethel Park","state_name":"Pennsylvania","lat":40.32125,"lng":-80.03707,"zip":"15102","miles_from_dt":15.04},{"city":"Pittsburgh","state_name":"Pennsylvania","lat":40.50457,"lng":-79.91338,"zip":"15215","miles_from_dt":15.12},{"city":"Pittsburgh","state_name":"Pennsylvania","lat":40.47244,"lng":-79.91324,"zip":"15206","miles_from_dt":15.24},{"city":"Cranberry Township","state_name":"Pennsylvania","lat":40.71114,"lng":-80.10606,"zip":"16066","miles_from_dt":15.39},{"city":"Pittsburgh","state_name":"Pennsylvania","lat":40.43083,"lng":-79.91999,"zip":"15217","miles_from_dt":15.53},{"city":"Georgetown","state_name":"Pennsylvania","lat":40.55585,"lng":-80.48994,"zip":"15043","miles_from_dt":15.73},{"city":"Pittsburgh","state_name":"Pennsylvania","lat":40.39813,"lng":-79.9334,"zip":"15207","miles_from_dt":15.73},{"city":"Rochester","state_name":"Pennsylvania","lat":40.72837,"lng":-80.21937,"zip":"15074","miles_from_dt":15.79},{"city":"Pittsburgh","state_name":"Pennsylvania","lat":40.34756,"lng":-79.97652,"zip":"15236","miles_from_dt":15.81},{"city":"Westland","state_name":"Pennsylvania","lat":40.27771,"lng":-80.27433,"zip":"15378","miles_from_dt":15.83},{"city":"Canonsburg","state_name":"Pennsylvania","lat":40.27105,"lng":-80.16535,"zip":"15317","miles_from_dt":15.91},{"city":"Hickory","state_name":"Pennsylvania","lat":40.28654,"lng":-80.32258,"zip":"15340","miles_from_dt":16.08},{"city":"Pittsburgh","state_name":"Pennsylvania","lat":40.45387,"lng":-79.89883,"zip":"15208","miles_from_dt":16.2},{"city":"Beaver","state_name":"Pennsylvania","lat":40.69933,"lng":-80.36464,"zip":"15009","miles_from_dt":16.24},{"city":"Gibsonia","state_name":"Pennsylvania","lat":40.64009,"lng":-79.9492,"zip":"15044","miles_from_dt":16.37},{"city":"Mars","state_name":"Pennsylvania","lat":40.70192,"lng":-80.02866,"zip":"16046","miles_from_dt":16.6},{"city":"Industry","state_name":"Pennsylvania","lat":40.6669,"lng":-80.43318,"zip":"15052","miles_from_dt":16.81},{"city":"Pittsburgh","state_name":"Pennsylvania","lat":40.53405,"lng":-79.88115,"zip":"15238","miles_from_dt":16.97},{"city":"Homestead","state_name":"Pennsylvania","lat":40.39597,"lng":-79.90689,"zip":"15120","miles_from_dt":17.05},{"city":"Strabane","state_name":"Pennsylvania","lat":40.25159,"lng":-80.19761,"zip":"15363","miles_from_dt":17.14},{"city":"Pittsburgh","state_name":"Pennsylvania","lat":40.42366,"lng":-79.88924,"zip":"15218","miles_from_dt":17.22},{"city":"West Mifflin","state_name":"Pennsylvania","lat":40.34817,"lng":-79.93471,"zip":"15123","miles_from_dt":17.49},{"city":"New Brighton","state_name":"Pennsylvania","lat":40.75119,"lng":-80.25269,"zip":"15066","miles_from_dt":17.55},{"city":"Bakerstown","state_name":"Pennsylvania","lat":40.65128,"lng":-79.93173,"zip":"15007","miles_from_dt":17.57},{"city":"Houston","state_name":"Pennsylvania","lat":40.24533,"lng":-80.22061,"zip":"15342","miles_from_dt":17.61},{"city":"South Park","state_name":"Pennsylvania","lat":40.29348,"lng":-79.99515,"zip":"15129","miles_from_dt":17.9},{"city":"Venetia","state_name":"Pennsylvania","lat":40.26321,"lng":-80.05474,"zip":"15367","miles_from_dt":18.06},{"city":"Pittsburgh","state_name":"Pennsylvania","lat":40.43457,"lng":-79.86631,"zip":"15221","miles_from_dt":18.17},{"city":"West Mifflin","state_name":"Pennsylvania","lat":40.35976,"lng":-79.90628,"zip":"15122","miles_from_dt":18.28},{"city":"Indianola","state_name":"Pennsylvania","lat":40.56812,"lng":-79.86076,"zip":"15051","miles_from_dt":18.48},{"city":"Zelienople","state_name":"Pennsylvania","lat":40.76352,"lng":-80.12773,"zip":"16063","miles_from_dt":18.58},{"city":"Callery","state_name":"Pennsylvania","lat":40.73961,"lng":-80.03719,"zip":"16024","miles_from_dt":18.62},{"city":"Braddock","state_name":"Pennsylvania","lat":40.40379,"lng":-79.86249,"zip":"15104","miles_from_dt":19.01},{"city":"Dravosburg","state_name":"Pennsylvania","lat":40.35083,"lng":-79.89067,"zip":"15034","miles_from_dt":19.3},{"city":"Oakmont","state_name":"Pennsylvania","lat":40.52192,"lng":-79.83479,"zip":"15139","miles_from_dt":19.31},{"city":"Bairdford","state_name":"Pennsylvania","lat":40.63351,"lng":-79.87678,"zip":"15006","miles_from_dt":19.35},{"city":"Cheswick","state_name":"Pennsylvania","lat":40.57649,"lng":-79.84649,"zip":"15024","miles_from_dt":19.36},{"city":"Meadow Lands","state_name":"Pennsylvania","lat":40.21807,"lng":-80.22469,"zip":"15347","miles_from_dt":19.5},{"city":"New Manchester","state_name":"West Virginia","lat":40.5211,"lng":-80.57022,"zip":"26056","miles_from_dt":19.53},{"city":"Verona","state_name":"Pennsylvania","lat":40.49704,"lng":-79.82858,"zip":"15147","miles_from_dt":19.58},{"city":"Chester","state_name":"West Virginia","lat":40.59404,"lng":-80.55258,"zip":"26034","miles_from_dt":19.64},{"city":"Midland","state_name":"Pennsylvania","lat":40.68056,"lng":-80.49182,"zip":"15059","miles_from_dt":19.75},{"city":"Weirton","state_name":"West Virginia","lat":40.42189,"lng":-80.56123,"zip":"26062","miles_from_dt":19.77},{"city":"Valencia","state_name":"Pennsylvania","lat":40.70425,"lng":-79.92812,"zip":"16059","miles_from_dt":20.09},{"city":"Pittsburgh","state_name":"Pennsylvania","lat":40.45968,"lng":-79.82194,"zip":"15235","miles_from_dt":20.13},{"city":"Gastonville","state_name":"Pennsylvania","lat":40.25621,"lng":-79.98983,"zip":"15336","miles_from_dt":20.16},{"city":"Clairton","state_name":"Pennsylvania","lat":40.29887,"lng":-79.9213,"zip":"15025","miles_from_dt":20.23},{"city":"East Pittsburgh","state_name":"Pennsylvania","lat":40.40453,"lng":-79.83734,"zip":"15112","miles_from_dt":20.24},{"city":"Beaver Falls","state_name":"Pennsylvania","lat":40.76829,"lng":-80.35873,"zip":"15010","miles_from_dt":20.3},{"city":"New Cumberland","state_name":"West Virginia","lat":40.53223,"lng":-80.5837,"zip":"26047","miles_from_dt":20.31},{"city":"Duquesne","state_name":"Pennsylvania","lat":40.37321,"lng":-79.85024,"zip":"15110","miles_from_dt":20.43},{"city":"Glassport","state_name":"Pennsylvania","lat":40.32613,"lng":-79.88614,"zip":"15045","miles_from_dt":20.46},{"city":"Russellton","state_name":"Pennsylvania","lat":40.60949,"lng":-79.8374,"zip":"15076","miles_from_dt":20.54},{"city":"Rural Ridge","state_name":"Pennsylvania","lat":40.58665,"lng":-79.82693,"zip":"15075","miles_from_dt":20.54},{"city":"Mckeesport","state_name":"Pennsylvania","lat":40.34719,"lng":-79.86423,"zip":"15134","miles_from_dt":20.62},{"city":"Turtle Creek","state_name":"Pennsylvania","lat":40.41451,"lng":-79.82352,"zip":"15145","miles_from_dt":20.72},{"city":"Curtisville","state_name":"Pennsylvania","lat":40.6407,"lng":-79.85029,"zip":"15032","miles_from_dt":20.82},{"city":"Finleyville","state_name":"Pennsylvania","lat":40.24226,"lng":-79.99134,"zip":"15332","miles_from_dt":20.93},{"city":"Avella","state_name":"Pennsylvania","lat":40.25404,"lng":-80.43757,"zip":"15312","miles_from_dt":21.09},{"city":"Harwick","state_name":"Pennsylvania","lat":40.55545,"lng":-79.80366,"zip":"15049","miles_from_dt":21.23},{"city":"West Middletown","state_name":"Pennsylvania","lat":40.2432,"lng":-80.42519,"zip":"15379","miles_from_dt":21.33},{"city":"Colliers","state_name":"West Virginia","lat":40.3482,"lng":-80.55522,"zip":"26035","miles_from_dt":21.45},{"city":"Mckeesport","state_name":"Pennsylvania","lat":40.3257,"lng":-79.86127,"zip":"15133","miles_from_dt":21.55},{"city":"Evans City","state_name":"Pennsylvania","lat":40.79355,"lng":-80.04618,"zip":"16033","miles_from_dt":21.81},{"city":"Mckeesport","state_name":"Pennsylvania","lat":40.33982,"lng":-79.84299,"zip":"15132","miles_from_dt":21.85},{"city":"East McKeesport","state_name":"Pennsylvania","lat":40.38488,"lng":-79.80726,"zip":"15035","miles_from_dt":22.19},{"city":"Springdale","state_name":"Pennsylvania","lat":40.54759,"lng":-79.78317,"zip":"15144","miles_from_dt":22.21},{"city":"Empire","state_name":"Ohio","lat":40.51068,"lng":-80.62252,"zip":"43926","miles_from_dt":22.25},{"city":"North Versailles","state_name":"Pennsylvania","lat":40.37762,"lng":-79.80902,"zip":"15137","miles_from_dt":22.29},{"city":"Fombell","state_name":"Pennsylvania","lat":40.82389,"lng":-80.19844,"zip":"16123","miles_from_dt":22.35},{"city":"West Elizabeth","state_name":"Pennsylvania","lat":40.27159,"lng":-79.89607,"zip":"15088","miles_from_dt":22.5},{"city":"Wilmerding","state_name":"Pennsylvania","lat":40.39351,"lng":-79.79525,"zip":"15148","miles_from_dt":22.58},{"city":"Elrama","state_name":"Pennsylvania","lat":40.2499,"lng":-79.92379,"zip":"15038","miles_from_dt":22.6},{"city":"Eighty Four","state_name":"Pennsylvania","lat":40.18227,"lng":-80.09492,"zip":"15330","miles_from_dt":22.62},{"city":"Stratton","state_name":"Ohio","lat":40.52343,"lng":-80.63025,"zip":"43961","miles_from_dt":22.7},{"city":"Tarentum","state_name":"Pennsylvania","lat":40.6282,"lng":-79.8028,"zip":"15084","miles_from_dt":22.71},{"city":"Creighton","state_name":"Pennsylvania","lat":40.58492,"lng":-79.78074,"zip":"15030","miles_from_dt":22.85},{"city":"Bunola","state_name":"Pennsylvania","lat":40.2283,"lng":-79.9479,"zip":"15020","miles_from_dt":23},{"city":"Pitcairn","state_name":"Pennsylvania","lat":40.4073,"lng":-79.7783,"zip":"15140","miles_from_dt":23.15},{"city":"Follansbee","state_name":"West Virginia","lat":40.3344,"lng":-80.58494,"zip":"26037","miles_from_dt":23.28},{"city":"Washington","state_name":"Pennsylvania","lat":40.16411,"lng":-80.25304,"zip":"15301","miles_from_dt":23.35},{"city":"East Liverpool","state_name":"Ohio","lat":40.67608,"lng":-80.57965,"zip":"43920","miles_from_dt":23.36},{"city":"Newell","state_name":"West Virginia","lat":40.60108,"lng":-80.62646,"zip":"26050","miles_from_dt":23.49},{"city":"Monroeville","state_name":"Pennsylvania","lat":40.4264,"lng":-79.76005,"zip":"15146","miles_from_dt":23.75},{"city":"New Eagle","state_name":"Pennsylvania","lat":40.20823,"lng":-79.96106,"zip":"15067","miles_from_dt":23.77},{"city":"Mckeesport","state_name":"Pennsylvania","lat":40.33477,"lng":-79.80132,"zip":"15131","miles_from_dt":23.93},{"city":"Koppel","state_name":"Pennsylvania","lat":40.83425,"lng":-80.32369,"zip":"16136","miles_from_dt":23.95},{"city":"Connoquenessing","state_name":"Pennsylvania","lat":40.81822,"lng":-80.01531,"zip":"16027","miles_from_dt":24.01},{"city":"New Kensington","state_name":"Pennsylvania","lat":40.56968,"lng":-79.74932,"zip":"15069","miles_from_dt":24.22},{"city":"Renfrew","state_name":"Pennsylvania","lat":40.81194,"lng":-79.9826,"zip":"16053","miles_from_dt":24.37},{"city":"Pittsburgh","state_name":"Pennsylvania","lat":40.48437,"lng":-79.73753,"zip":"15239","miles_from_dt":24.4},{"city":"Saxonburg","state_name":"Pennsylvania","lat":40.72301,"lng":-79.83911,"zip":"16056","miles_from_dt":24.44},{"city":"Harmony","state_name":"Pennsylvania","lat":40.85103,"lng":-80.12592,"zip":"16037","miles_from_dt":24.53},{"city":"Darlington","state_name":"Pennsylvania","lat":40.79433,"lng":-80.46289,"zip":"16115","miles_from_dt":24.55},{"city":"Toronto","state_name":"Ohio","lat":40.48695,"lng":-80.66928,"zip":"43964","miles_from_dt":24.72},{"city":"Mckeesport","state_name":"Pennsylvania","lat":40.29959,"lng":-79.81153,"zip":"15135","miles_from_dt":24.74},{"city":"Elizabeth","state_name":"Pennsylvania","lat":40.25649,"lng":-79.85017,"zip":"15037","miles_from_dt":24.98},{"city":"Greenock","state_name":"Pennsylvania","lat":40.3123,"lng":-79.79513,"zip":"15047","miles_from_dt":24.99},{"city":"Coulters","state_name":"Pennsylvania","lat":40.30194,"lng":-79.79891,"zip":"15028","miles_from_dt":25.2},{"city":"Brackenridge","state_name":"Pennsylvania","lat":40.60859,"lng":-79.74149,"zip":"15014","miles_from_dt":25.28},{"city":"Steubenville","state_name":"Ohio","lat":40.39763,"lng":-80.66278,"zip":"43952","miles_from_dt":25.38},{"city":"Monongahela","state_name":"Pennsylvania","lat":40.19487,"lng":-79.92228,"zip":"15063","miles_from_dt":25.67},{"city":"Negley","state_name":"Ohio","lat":40.75802,"lng":-80.55264,"zip":"44441","miles_from_dt":25.69},{"city":"Taylorstown","state_name":"Pennsylvania","lat":40.15564,"lng":-80.38548,"zip":"15365","miles_from_dt":25.7},{"city":"Ellwood City","state_name":"Pennsylvania","lat":40.8743,"lng":-80.2568,"zip":"16117","miles_from_dt":25.99},{"city":"New Kensington","state_name":"Pennsylvania","lat":40.56241,"lng":-79.7124,"zip":"15068","miles_from_dt":26.05},{"city":"Trafford","state_name":"Pennsylvania","lat":40.38497,"lng":-79.72539,"zip":"15085","miles_from_dt":26.27},{"city":"Bentleyville","state_name":"Pennsylvania","lat":40.14555,"lng":-80.01775,"zip":"15314","miles_from_dt":26.29},{"city":"Van Voorhis","state_name":"Pennsylvania","lat":40.1598,"lng":-79.974,"zip":"15366","miles_from_dt":26.34},{"city":"Ardara","state_name":"Pennsylvania","lat":40.36133,"lng":-79.73397,"zip":"15615","miles_from_dt":26.39},{"city":"Wellsburg","state_name":"West Virginia","lat":40.25008,"lng":-80.58037,"zip":"26070","miles_from_dt":26.45},{"city":"Buena Vista","state_name":"Pennsylvania","lat":40.26924,"lng":-79.79805,"zip":"15018","miles_from_dt":26.54},{"city":"Natrona Heights","state_name":"Pennsylvania","lat":40.64192,"lng":-79.72766,"zip":"15065","miles_from_dt":26.73},{"city":"Wellsville","state_name":"Ohio","lat":40.63365,"lng":-80.68729,"zip":"43968","miles_from_dt":27.23},{"city":"Larimer","state_name":"Pennsylvania","lat":40.34262,"lng":-79.72009,"zip":"15647","miles_from_dt":27.56},{"city":"New Galilee","state_name":"Pennsylvania","lat":40.87237,"lng":-80.3968,"zip":"16141","miles_from_dt":27.69},{"city":"Brilliant","state_name":"Ohio","lat":40.27048,"lng":-80.63154,"zip":"43913","miles_from_dt":27.72},{"city":"Sutersville","state_name":"Pennsylvania","lat":40.24802,"lng":-79.79041,"zip":"15083","miles_from_dt":27.75},{"city":"Wampum","state_name":"Pennsylvania","lat":40.88902,"lng":-80.33509,"zip":"16157","miles_from_dt":27.76},{"city":"Murrysville","state_name":"Pennsylvania","lat":40.46352,"lng":-79.67168,"zip":"15668","miles_from_dt":27.97},{"city":"Webster","state_name":"Pennsylvania","lat":40.19504,"lng":-79.84948,"zip":"15087","miles_from_dt":28.03},{"city":"Sarver","state_name":"Pennsylvania","lat":40.7157,"lng":-79.74753,"zip":"16055","miles_from_dt":28.08},{"city":"Irwin","state_name":"Pennsylvania","lat":40.32045,"lng":-79.72119,"zip":"15642","miles_from_dt":28.15},{"city":"Butler","state_name":"Pennsylvania","lat":40.81568,"lng":-79.85638,"zip":"16002","miles_from_dt":28.3},{"city":"Donora","state_name":"Pennsylvania","lat":40.18011,"lng":-79.86501,"zip":"15033","miles_from_dt":28.3},{"city":"Steubenville","state_name":"Ohio","lat":40.35815,"lng":-80.70548,"zip":"43953","miles_from_dt":28.38},{"city":"Mingo Junction","state_name":"Ohio","lat":40.30138,"lng":-80.67199,"zip":"43938","miles_from_dt":28.41},{"city":"Bethany","state_name":"West Virginia","lat":40.18646,"lng":-80.55024,"zip":"26032","miles_from_dt":28.45},{"city":"Cokeburg","state_name":"Pennsylvania","lat":40.10074,"lng":-80.0654,"zip":"15324","miles_from_dt":28.46},{"city":"Rogers","state_name":"Ohio","lat":40.77581,"lng":-80.60485,"zip":"44455","miles_from_dt":28.53},{"city":"Lowber","state_name":"Pennsylvania","lat":40.24669,"lng":-79.77293,"zip":"15660","miles_from_dt":28.54},{"city":"Lyndora","state_name":"Pennsylvania","lat":40.85277,"lng":-79.91626,"zip":"16045","miles_from_dt":28.55},{"city":"Ellsworth","state_name":"Pennsylvania","lat":40.10754,"lng":-80.02214,"zip":"15331","miles_from_dt":28.67},{"city":"Irondale","state_name":"Ohio","lat":40.53145,"lng":-80.74699,"zip":"43932","miles_from_dt":28.87},{"city":"Charleroi","state_name":"Pennsylvania","lat":40.13329,"lng":-79.93661,"zip":"15022","miles_from_dt":28.89},{"city":"Prospect","state_name":"Pennsylvania","lat":40.90579,"lng":-80.06154,"zip":"16052","miles_from_dt":28.93},{"city":"Scenery Hill","state_name":"Pennsylvania","lat":40.08846,"lng":-80.08144,"zip":"15360","miles_from_dt":29.09},{"city":"Rillton","state_name":"Pennsylvania","lat":40.28447,"lng":-79.72579,"zip":"15678","miles_from_dt":29.12},{"city":"Claysville","state_name":"Pennsylvania","lat":40.10845,"lng":-80.40926,"zip":"15323","miles_from_dt":29.19},{"city":"Monessen","state_name":"Pennsylvania","lat":40.15184,"lng":-79.88277,"zip":"15062","miles_from_dt":29.3},{"city":"Butler","state_name":"Pennsylvania","lat":40.85806,"lng":-79.89528,"zip":"16003","miles_from_dt":29.44},{"city":"Westmoreland City","state_name":"Pennsylvania","lat":40.33086,"lng":-79.67861,"zip":"15692","miles_from_dt":29.89}],"targetCityZipCode":"15108","targetCityState":"Pennsylvania"},"__N_SSG":true}