{"pageProps":{"stateName":"Pennsylvania","cityName":"cranberry","nearbyCities":[{"city":"Kossuth","state_name":"Pennsylvania","lat":41.29047,"lng":-79.56435,"zip":"16331","miles_from_dt":4.01},{"city":"Seneca","state_name":"Pennsylvania","lat":41.37845,"lng":-79.6727,"zip":"16346","miles_from_dt":4.52},{"city":"Venus","state_name":"Pennsylvania","lat":41.36379,"lng":-79.51517,"zip":"16364","miles_from_dt":6.62},{"city":"Lamartine","state_name":"Pennsylvania","lat":41.22191,"lng":-79.63543,"zip":"16375","miles_from_dt":6.89},{"city":"Knox","state_name":"Pennsylvania","lat":41.22197,"lng":-79.54923,"zip":"16232","miles_from_dt":8.04},{"city":"Emlenton","state_name":"Pennsylvania","lat":41.20786,"lng":-79.69796,"zip":"16373","miles_from_dt":8.62},{"city":"Turkey City","state_name":"Pennsylvania","lat":41.18794,"lng":-79.61358,"zip":"16058","miles_from_dt":9.26},{"city":"Oil City","state_name":"Pennsylvania","lat":41.45596,"lng":-79.64946,"zip":"16301","miles_from_dt":9.33},{"city":"Reno","state_name":"Pennsylvania","lat":41.42204,"lng":-79.75233,"zip":"16343","miles_from_dt":9.43},{"city":"Marble","state_name":"Pennsylvania","lat":41.29749,"lng":-79.44968,"zip":"16334","miles_from_dt":9.5},{"city":"Shippenville","state_name":"Pennsylvania","lat":41.26557,"lng":-79.45259,"zip":"16254","miles_from_dt":9.98},{"city":"Kennerdell","state_name":"Pennsylvania","lat":41.26136,"lng":-79.81066,"zip":"16374","miles_from_dt":10.31},{"city":"Rouseville","state_name":"Pennsylvania","lat":41.47045,"lng":-79.684,"zip":"16344","miles_from_dt":10.66},{"city":"Fryburg","state_name":"Pennsylvania","lat":41.36733,"lng":-79.43182,"zip":"16326","miles_from_dt":10.75},{"city":"Saint Petersburg","state_name":"Pennsylvania","lat":41.15651,"lng":-79.65711,"zip":"16054","miles_from_dt":11.48},{"city":"Franklin","state_name":"Pennsylvania","lat":41.41286,"lng":-79.83047,"zip":"16323","miles_from_dt":12.2},{"city":"Foxburg","state_name":"Pennsylvania","lat":41.13519,"lng":-79.66948,"zip":"16036","miles_from_dt":13.03},{"city":"Lickingville","state_name":"Pennsylvania","lat":41.36096,"lng":-79.36873,"zip":"16332","miles_from_dt":13.83},{"city":"Callensburg","state_name":"Pennsylvania","lat":41.12556,"lng":-79.55831,"zip":"16213","miles_from_dt":14.03},{"city":"Snydersburg","state_name":"Pennsylvania","lat":41.3342,"lng":-79.35791,"zip":"16257","miles_from_dt":14.15},{"city":"Lucinda","state_name":"Pennsylvania","lat":41.31759,"lng":-79.34943,"zip":"16235","miles_from_dt":14.57},{"city":"Clintonville","state_name":"Pennsylvania","lat":41.20121,"lng":-79.87406,"zip":"16372","miles_from_dt":15.21},{"city":"Eau Claire","state_name":"Pennsylvania","lat":41.13619,"lng":-79.79699,"zip":"16030","miles_from_dt":15.49},{"city":"Tylersburg","state_name":"Pennsylvania","lat":41.38597,"lng":-79.3422,"zip":"16361","miles_from_dt":15.58},{"city":"Polk","state_name":"Pennsylvania","lat":41.31995,"lng":-79.9294,"zip":"16342","miles_from_dt":15.61},{"city":"Parker","state_name":"Pennsylvania","lat":41.09622,"lng":-79.67258,"zip":"16049","miles_from_dt":15.71},{"city":"Sligo","state_name":"Pennsylvania","lat":41.1267,"lng":-79.46809,"zip":"16255","miles_from_dt":15.86},{"city":"Clarion","state_name":"Pennsylvania","lat":41.2008,"lng":-79.36046,"zip":"16214","miles_from_dt":16.3},{"city":"Pleasantville","state_name":"Pennsylvania","lat":41.56288,"lng":-79.54703,"zip":"16341","miles_from_dt":17.19},{"city":"Tionesta","state_name":"Pennsylvania","lat":41.49359,"lng":-79.38839,"zip":"16353","miles_from_dt":17.25},{"city":"Leeper","state_name":"Pennsylvania","lat":41.36162,"lng":-79.27588,"zip":"16233","miles_from_dt":18.59},{"city":"Cooperstown","state_name":"Pennsylvania","lat":41.53232,"lng":-79.85258,"zip":"16317","miles_from_dt":18.6},{"city":"Bruin","state_name":"Pennsylvania","lat":41.05461,"lng":-79.7333,"zip":"16022","miles_from_dt":19.2},{"city":"West Hickory","state_name":"Pennsylvania","lat":41.56586,"lng":-79.44796,"zip":"16370","miles_from_dt":19.31},{"city":"Hilliards","state_name":"Pennsylvania","lat":41.09399,"lng":-79.84537,"zip":"16040","miles_from_dt":19.32},{"city":"Utica","state_name":"Pennsylvania","lat":41.45032,"lng":-79.96284,"zip":"16362","miles_from_dt":19.47},{"city":"Strattanville","state_name":"Pennsylvania","lat":41.2307,"lng":-79.27217,"zip":"16258","miles_from_dt":19.63},{"city":"Boyers","state_name":"Pennsylvania","lat":41.11651,"lng":-79.89648,"zip":"16020","miles_from_dt":19.85},{"city":"Crown","state_name":"Pennsylvania","lat":41.41817,"lng":-79.26659,"zip":"16220","miles_from_dt":20},{"city":"Fisher","state_name":"Pennsylvania","lat":41.26606,"lng":-79.25198,"zip":"16225","miles_from_dt":20.01},{"city":"Harrisville","state_name":"Pennsylvania","lat":41.15967,"lng":-79.95042,"zip":"16038","miles_from_dt":20.11},{"city":"Boyers","state_name":"Pennsylvania","lat":41.10648,"lng":-79.89705,"zip":"16016","miles_from_dt":20.37},{"city":"Petrolia","state_name":"Pennsylvania","lat":41.04362,"lng":-79.77379,"zip":"16050","miles_from_dt":20.61},{"city":"Titusville","state_name":"Pennsylvania","lat":41.61476,"lng":-79.70637,"zip":"16354","miles_from_dt":20.62},{"city":"North Washington","state_name":"Pennsylvania","lat":41.05217,"lng":-79.80349,"zip":"16048","miles_from_dt":20.69},{"city":"East Hickory","state_name":"Pennsylvania","lat":41.56835,"lng":-79.40084,"zip":"16321","miles_from_dt":20.76},{"city":"Rimersburg","state_name":"Pennsylvania","lat":41.03412,"lng":-79.50348,"zip":"16248","miles_from_dt":20.9},{"city":"Boyers","state_name":"Pennsylvania","lat":41.08995,"lng":-79.89008,"zip":"16018","miles_from_dt":20.98},{"city":"Boyers","state_name":"Pennsylvania","lat":41.09144,"lng":-79.90777,"zip":"16017","miles_from_dt":21.51},{"city":"Limestone","state_name":"Pennsylvania","lat":41.13621,"lng":-79.29577,"zip":"16234","miles_from_dt":21.58},{"city":"Vowinckel","state_name":"Pennsylvania","lat":41.41102,"lng":-79.23092,"zip":"16260","miles_from_dt":21.62},{"city":"Karns City","state_name":"Pennsylvania","lat":41.00693,"lng":-79.71395,"zip":"16041","miles_from_dt":22.16},{"city":"Carlton","state_name":"Pennsylvania","lat":41.45706,"lng":-80.03477,"zip":"16311","miles_from_dt":23.05},{"city":"Hydetown","state_name":"Pennsylvania","lat":41.651,"lng":-79.72716,"zip":"16328","miles_from_dt":23.29},{"city":"Endeavor","state_name":"Pennsylvania","lat":41.60567,"lng":-79.38428,"zip":"16322","miles_from_dt":23.37},{"city":"Cooksburg","state_name":"Pennsylvania","lat":41.34908,"lng":-79.18095,"zip":"16217","miles_from_dt":23.4},{"city":"Stoneboro","state_name":"Pennsylvania","lat":41.31845,"lng":-80.08122,"zip":"16153","miles_from_dt":23.51},{"city":"Sandy Lake","state_name":"Pennsylvania","lat":41.38574,"lng":-80.07422,"zip":"16145","miles_from_dt":23.55},{"city":"Corsica","state_name":"Pennsylvania","lat":41.17337,"lng":-79.19324,"zip":"15829","miles_from_dt":24.91},{"city":"Forestville","state_name":"Pennsylvania","lat":41.10779,"lng":-80.01659,"zip":"16035","miles_from_dt":24.99},{"city":"Fairmount City","state_name":"Pennsylvania","lat":41.06314,"lng":-79.29245,"zip":"16224","miles_from_dt":25.03},{"city":"Grove City","state_name":"Pennsylvania","lat":41.17433,"lng":-80.07002,"zip":"16127","miles_from_dt":25.1},{"city":"East Brady","state_name":"Pennsylvania","lat":40.95684,"lng":-79.63985,"zip":"16028","miles_from_dt":25.18},{"city":"Branchton","state_name":"Pennsylvania","lat":41.07019,"lng":-79.98605,"zip":"16021","miles_from_dt":25.43},{"city":"West Sunbury","state_name":"Pennsylvania","lat":41.00866,"lng":-79.88687,"zip":"16061","miles_from_dt":25.43},{"city":"Jackson Center","state_name":"Pennsylvania","lat":41.27101,"lng":-80.11562,"zip":"16133","miles_from_dt":25.54},{"city":"Clarington","state_name":"Pennsylvania","lat":41.35104,"lng":-79.13906,"zip":"15828","miles_from_dt":25.59},{"city":"Widnoon","state_name":"Pennsylvania","lat":40.96428,"lng":-79.46983,"zip":"16261","miles_from_dt":26.03},{"city":"Grand Valley","state_name":"Pennsylvania","lat":41.69481,"lng":-79.54544,"zip":"16420","miles_from_dt":26.12},{"city":"New Bethlehem","state_name":"Pennsylvania","lat":41.0031,"lng":-79.35479,"zip":"16242","miles_from_dt":26.23},{"city":"Cochranton","state_name":"Pennsylvania","lat":41.51895,"lng":-80.06782,"zip":"16314","miles_from_dt":26.53},{"city":"Chicora","state_name":"Pennsylvania","lat":40.94464,"lng":-79.75841,"zip":"16025","miles_from_dt":26.87},{"city":"Distant","state_name":"Pennsylvania","lat":40.98701,"lng":-79.35381,"zip":"16223","miles_from_dt":27.2},{"city":"Cowansville","state_name":"Pennsylvania","lat":40.92705,"lng":-79.59325,"zip":"16218","miles_from_dt":27.29},{"city":"Summerville","state_name":"Pennsylvania","lat":41.09911,"lng":-79.19532,"zip":"15864","miles_from_dt":27.34},{"city":"Guys Mills","state_name":"Pennsylvania","lat":41.6323,"lng":-79.95878,"zip":"16327","miles_from_dt":27.42},{"city":"Hawthorn","state_name":"Pennsylvania","lat":41.02099,"lng":-79.27817,"zip":"16230","miles_from_dt":27.67},{"city":"Tidioute","state_name":"Pennsylvania","lat":41.67583,"lng":-79.37285,"zip":"16351","miles_from_dt":27.84},{"city":"Oak Ridge","state_name":"Pennsylvania","lat":41.00153,"lng":-79.29311,"zip":"16245","miles_from_dt":28.2},{"city":"Townville","state_name":"Pennsylvania","lat":41.68167,"lng":-79.89028,"zip":"16360","miles_from_dt":28.3},{"city":"Marienville","state_name":"Pennsylvania","lat":41.49507,"lng":-79.1297,"zip":"16239","miles_from_dt":28.59},{"city":"Templeton","state_name":"Pennsylvania","lat":40.92699,"lng":-79.45692,"zip":"16259","miles_from_dt":28.68},{"city":"Mayport","state_name":"Pennsylvania","lat":41.03316,"lng":-79.22432,"zip":"16240","miles_from_dt":29.02},{"city":"Centerville","state_name":"Pennsylvania","lat":41.72483,"lng":-79.79018,"zip":"16404","miles_from_dt":29.05},{"city":"Seminole","state_name":"Pennsylvania","lat":40.954,"lng":-79.34106,"zip":"16253","miles_from_dt":29.49},{"city":"Clarks Mills","state_name":"Pennsylvania","lat":41.40432,"lng":-80.18766,"zip":"16114","miles_from_dt":29.58},{"city":"Adrian","state_name":"Pennsylvania","lat":40.89697,"lng":-79.519,"zip":"16210","miles_from_dt":29.86},{"city":"Slippery Rock","state_name":"Pennsylvania","lat":41.03427,"lng":-80.0579,"zip":"16057","miles_from_dt":29.87}],"targetCityZipCode":"16319","targetCityState":"Pennsylvania"},"__N_SSG":true}