{"pageProps":{"stateName":"Pennsylvania","cityName":"force","nearbyCities":[{"city":"Byrnedale","state_name":"Pennsylvania","lat":41.29479,"lng":-78.50582,"zip":"15827","miles_from_dt":2.54},{"city":"Weedville","state_name":"Pennsylvania","lat":41.29885,"lng":-78.41799,"zip":"15868","miles_from_dt":5.31},{"city":"Penfield","state_name":"Pennsylvania","lat":41.17838,"lng":-78.55592,"zip":"15849","miles_from_dt":6.11},{"city":"Kersey","state_name":"Pennsylvania","lat":41.33375,"lng":-78.6147,"zip":"15846","miles_from_dt":7.76},{"city":"Dagus Mines","state_name":"Pennsylvania","lat":41.35305,"lng":-78.604,"zip":"15831","miles_from_dt":8.36},{"city":"Benezett","state_name":"Pennsylvania","lat":41.35868,"lng":-78.36453,"zip":"15821","miles_from_dt":10.06},{"city":"Brandy Camp","state_name":"Pennsylvania","lat":41.31891,"lng":-78.68736,"zip":"15822","miles_from_dt":10.41},{"city":"Brockport","state_name":"Pennsylvania","lat":41.25888,"lng":-78.71001,"zip":"15823","miles_from_dt":10.71},{"city":"Clearfield","state_name":"Pennsylvania","lat":41.08569,"lng":-78.43317,"zip":"16830","miles_from_dt":12.46},{"city":"Rockton","state_name":"Pennsylvania","lat":41.08906,"lng":-78.6154,"zip":"15856","miles_from_dt":13.01},{"city":"Saint Marys","state_name":"Pennsylvania","lat":41.45671,"lng":-78.53439,"zip":"15857","miles_from_dt":13.8},{"city":"Du Bois","state_name":"Pennsylvania","lat":41.12867,"lng":-78.72352,"zip":"15801","miles_from_dt":14.49},{"city":"Frenchville","state_name":"Pennsylvania","lat":41.14633,"lng":-78.26454,"zip":"16836","miles_from_dt":14.69},{"city":"Shawville","state_name":"Pennsylvania","lat":41.06993,"lng":-78.3605,"zip":"16873","miles_from_dt":14.99},{"city":"Lecontes Mills","state_name":"Pennsylvania","lat":41.08186,"lng":-78.28036,"zip":"16850","miles_from_dt":16.86},{"city":"Hyde","state_name":"Pennsylvania","lat":41.00849,"lng":-78.46269,"zip":"16843","miles_from_dt":17.35},{"city":"Brockway","state_name":"Pennsylvania","lat":41.24831,"lng":-78.83828,"zip":"15824","miles_from_dt":17.4},{"city":"Driftwood","state_name":"Pennsylvania","lat":41.35301,"lng":-78.19053,"zip":"15832","miles_from_dt":17.6},{"city":"Ridgway","state_name":"Pennsylvania","lat":41.39253,"lng":-78.79357,"zip":"15853","miles_from_dt":17.68},{"city":"Falls Creek","state_name":"Pennsylvania","lat":41.16927,"lng":-78.82708,"zip":"15840","miles_from_dt":17.89},{"city":"Woodland","state_name":"Pennsylvania","lat":41.02743,"lng":-78.31119,"zip":"16881","miles_from_dt":18.83},{"city":"Luthersburg","state_name":"Pennsylvania","lat":41.03137,"lng":-78.71908,"zip":"15848","miles_from_dt":19.23},{"city":"Mineral Springs","state_name":"Pennsylvania","lat":40.99902,"lng":-78.36046,"zip":"16855","miles_from_dt":19.38},{"city":"Johnsonburg","state_name":"Pennsylvania","lat":41.50714,"lng":-78.69066,"zip":"15845","miles_from_dt":19.73},{"city":"Grampian","state_name":"Pennsylvania","lat":40.98923,"lng":-78.64292,"zip":"16838","miles_from_dt":19.9},{"city":"Emporium","state_name":"Pennsylvania","lat":41.51228,"lng":-78.27811,"zip":"15834","miles_from_dt":21.13},{"city":"Bigler","state_name":"Pennsylvania","lat":40.98803,"lng":-78.31208,"zip":"16825","miles_from_dt":21.16},{"city":"Sykesville","state_name":"Pennsylvania","lat":41.0508,"lng":-78.81418,"zip":"15865","miles_from_dt":21.57},{"city":"Glen Richey","state_name":"Pennsylvania","lat":40.94576,"lng":-78.47494,"zip":"16837","miles_from_dt":21.6},{"city":"Troutville","state_name":"Pennsylvania","lat":41.02587,"lng":-78.78628,"zip":"15866","miles_from_dt":21.74},{"city":"Curwensville","state_name":"Pennsylvania","lat":40.94158,"lng":-78.57862,"zip":"16833","miles_from_dt":22.17},{"city":"Wilcox","state_name":"Pennsylvania","lat":41.58116,"lng":-78.57935,"zip":"15870","miles_from_dt":22.64},{"city":"Sinnamahoning","state_name":"Pennsylvania","lat":41.3221,"lng":-78.07246,"zip":"15861","miles_from_dt":22.91},{"city":"Wallaceton","state_name":"Pennsylvania","lat":40.96648,"lng":-78.29087,"zip":"16876","miles_from_dt":23},{"city":"West Decatur","state_name":"Pennsylvania","lat":40.94325,"lng":-78.33609,"zip":"16878","miles_from_dt":23.43},{"city":"Reynoldsville","state_name":"Pennsylvania","lat":41.10115,"lng":-78.90316,"zip":"15851","miles_from_dt":23.44},{"city":"Morrisdale","state_name":"Pennsylvania","lat":41.00056,"lng":-78.20033,"zip":"16858","miles_from_dt":23.82},{"city":"Olanta","state_name":"Pennsylvania","lat":40.91162,"lng":-78.47204,"zip":"16863","miles_from_dt":23.96},{"city":"Stump Creek","state_name":"Pennsylvania","lat":41.0157,"lng":-78.83847,"zip":"15863","miles_from_dt":24.15},{"city":"Pottersdale","state_name":"Pennsylvania","lat":41.1879,"lng":-78.03705,"zip":"16871","miles_from_dt":24.83},{"city":"Kylertown","state_name":"Pennsylvania","lat":40.99941,"lng":-78.16439,"zip":"16847","miles_from_dt":25.16},{"city":"Drifting","state_name":"Pennsylvania","lat":41.0391,"lng":-78.10389,"zip":"16834","miles_from_dt":25.78},{"city":"Karthaus","state_name":"Pennsylvania","lat":41.15641,"lng":-78.02422,"zip":"16845","miles_from_dt":25.99},{"city":"Allport","state_name":"Pennsylvania","lat":40.95888,"lng":-78.19875,"zip":"16821","miles_from_dt":26.09},{"city":"New Millport","state_name":"Pennsylvania","lat":40.86764,"lng":-78.51991,"zip":"16861","miles_from_dt":26.95},{"city":"Grassflat","state_name":"Pennsylvania","lat":41.00319,"lng":-78.11113,"zip":"16839","miles_from_dt":27.02},{"city":"Winburne","state_name":"Pennsylvania","lat":40.97116,"lng":-78.15162,"zip":"16879","miles_from_dt":27.03},{"city":"Munson","state_name":"Pennsylvania","lat":40.94673,"lng":-78.17219,"zip":"16860","miles_from_dt":27.61},{"city":"Big Run","state_name":"Pennsylvania","lat":40.97017,"lng":-78.87655,"zip":"15715","miles_from_dt":27.78},{"city":"Hawk Run","state_name":"Pennsylvania","lat":40.92555,"lng":-78.20214,"zip":"16840","miles_from_dt":27.84},{"city":"Mahaffey","state_name":"Pennsylvania","lat":40.8902,"lng":-78.73733,"zip":"15757","miles_from_dt":28.14},{"city":"Westport","state_name":"Pennsylvania","lat":41.28532,"lng":-77.96477,"zip":"17778","miles_from_dt":28.16},{"city":"Moshannon","state_name":"Pennsylvania","lat":41.04903,"lng":-78.03519,"zip":"16859","miles_from_dt":28.41},{"city":"Brookville","state_name":"Pennsylvania","lat":41.17005,"lng":-79.03885,"zip":"15825","miles_from_dt":28.5},{"city":"Osceola Mills","state_name":"Pennsylvania","lat":40.87056,"lng":-78.31286,"zip":"16666","miles_from_dt":28.55},{"city":"Sigel","state_name":"Pennsylvania","lat":41.3435,"lng":-79.04697,"zip":"15860","miles_from_dt":28.85},{"city":"Houtzdale","state_name":"Pennsylvania","lat":40.8505,"lng":-78.37945,"zip":"16651","miles_from_dt":28.87},{"city":"Lanse","state_name":"Pennsylvania","lat":40.95978,"lng":-78.11431,"zip":"16849","miles_from_dt":28.95},{"city":"Anita","state_name":"Pennsylvania","lat":41.00926,"lng":-78.96235,"zip":"15711","miles_from_dt":29.42},{"city":"Madera","state_name":"Pennsylvania","lat":40.83058,"lng":-78.45026,"zip":"16661","miles_from_dt":29.63},{"city":"Knox Dale","state_name":"Pennsylvania","lat":41.08614,"lng":-79.02948,"zip":"15847","miles_from_dt":29.84},{"city":"Brisbin","state_name":"Pennsylvania","lat":40.83947,"lng":-78.35259,"zip":"16620","miles_from_dt":29.95}],"targetCityZipCode":"15841","targetCityState":"Pennsylvania"},"__N_SSG":true}