{"pageProps":{"stateName":"Pennsylvania","cityName":"julian","nearbyCities":[{"city":"Fleming","state_name":"Pennsylvania","lat":40.90668,"lng":-77.87731,"zip":"16835","miles_from_dt":2.93},{"city":"Snow Shoe","state_name":"Pennsylvania","lat":41.01141,"lng":-77.94077,"zip":"16874","miles_from_dt":6.81},{"city":"State College","state_name":"Pennsylvania","lat":40.80849,"lng":-77.89449,"zip":"16803","miles_from_dt":7.47},{"city":"Milesburg","state_name":"Pennsylvania","lat":40.94045,"lng":-77.78638,"zip":"16853","miles_from_dt":7.89},{"city":"University Park","state_name":"Pennsylvania","lat":40.79867,"lng":-77.86481,"zip":"16802","miles_from_dt":8.64},{"city":"Bellefonte","state_name":"Pennsylvania","lat":40.92734,"lng":-77.76685,"zip":"16823","miles_from_dt":8.73},{"city":"State College","state_name":"Pennsylvania","lat":40.79203,"lng":-77.86109,"zip":"16804","miles_from_dt":9.14},{"city":"State College","state_name":"Pennsylvania","lat":40.79192,"lng":-77.86099,"zip":"16805","miles_from_dt":9.15},{"city":"Lemont","state_name":"Pennsylvania","lat":40.81229,"lng":-77.80132,"zip":"16851","miles_from_dt":9.77},{"city":"Port Matilda","state_name":"Pennsylvania","lat":40.80149,"lng":-78.04969,"zip":"16870","miles_from_dt":9.83},{"city":"State College","state_name":"Pennsylvania","lat":40.78538,"lng":-77.84214,"zip":"16801","miles_from_dt":9.99},{"city":"Lanse","state_name":"Pennsylvania","lat":40.95978,"lng":-78.11431,"zip":"16849","miles_from_dt":10.04},{"city":"Moshannon","state_name":"Pennsylvania","lat":41.04903,"lng":-78.03519,"zip":"16859","miles_from_dt":10.82},{"city":"Grassflat","state_name":"Pennsylvania","lat":41.00319,"lng":-78.11113,"zip":"16839","miles_from_dt":11.23},{"city":"Clarence","state_name":"Pennsylvania","lat":41.08223,"lng":-77.89386,"zip":"16829","miles_from_dt":11.86},{"city":"Winburne","state_name":"Pennsylvania","lat":40.97116,"lng":-78.15162,"zip":"16879","miles_from_dt":12.15},{"city":"Drifting","state_name":"Pennsylvania","lat":41.0391,"lng":-78.10389,"zip":"16834","miles_from_dt":12.5},{"city":"Munson","state_name":"Pennsylvania","lat":40.94673,"lng":-78.17219,"zip":"16860","miles_from_dt":12.75},{"city":"Philipsburg","state_name":"Pennsylvania","lat":40.86684,"lng":-78.17163,"zip":"16866","miles_from_dt":12.91},{"city":"Pine Grove Mills","state_name":"Pennsylvania","lat":40.72725,"lng":-77.89066,"zip":"16868","miles_from_dt":12.99},{"city":"Boalsburg","state_name":"Pennsylvania","lat":40.76607,"lng":-77.77739,"zip":"16827","miles_from_dt":12.99},{"city":"Pennsylvania Furnace","state_name":"Pennsylvania","lat":40.72086,"lng":-77.96396,"zip":"16865","miles_from_dt":13.35},{"city":"Kylertown","state_name":"Pennsylvania","lat":40.99941,"lng":-78.16439,"zip":"16847","miles_from_dt":13.52},{"city":"Hawk Run","state_name":"Pennsylvania","lat":40.92555,"lng":-78.20214,"zip":"16840","miles_from_dt":14.14},{"city":"Allport","state_name":"Pennsylvania","lat":40.95888,"lng":-78.19875,"zip":"16821","miles_from_dt":14.28},{"city":"Warriors Mark","state_name":"Pennsylvania","lat":40.73291,"lng":-78.06846,"zip":"16877","miles_from_dt":14.31},{"city":"Centre Hall","state_name":"Pennsylvania","lat":40.80704,"lng":-77.69097,"zip":"16828","miles_from_dt":14.61},{"city":"Mingoville","state_name":"Pennsylvania","lat":40.92871,"lng":-77.65005,"zip":"16856","miles_from_dt":14.83},{"city":"Howard","state_name":"Pennsylvania","lat":41.03399,"lng":-77.69011,"zip":"16841","miles_from_dt":15.19},{"city":"Morrisdale","state_name":"Pennsylvania","lat":41.00056,"lng":-78.20033,"zip":"16858","miles_from_dt":15.26},{"city":"Karthaus","state_name":"Pennsylvania","lat":41.15641,"lng":-78.02422,"zip":"16845","miles_from_dt":17.48},{"city":"Petersburg","state_name":"Pennsylvania","lat":40.65737,"lng":-77.90675,"zip":"16669","miles_from_dt":17.68},{"city":"Sandy Ridge","state_name":"Pennsylvania","lat":40.81507,"lng":-78.2457,"zip":"16677","miles_from_dt":17.74},{"city":"Orviston","state_name":"Pennsylvania","lat":41.15428,"lng":-77.79857,"zip":"16864","miles_from_dt":18.07},{"city":"Wallaceton","state_name":"Pennsylvania","lat":40.96648,"lng":-78.29087,"zip":"16876","miles_from_dt":19.11},{"city":"Spruce Creek","state_name":"Pennsylvania","lat":40.65595,"lng":-78.07313,"zip":"16683","miles_from_dt":19.2},{"city":"Spring Mills","state_name":"Pennsylvania","lat":40.84536,"lng":-77.56882,"zip":"16875","miles_from_dt":19.61},{"city":"Pottersdale","state_name":"Pennsylvania","lat":41.1879,"lng":-78.03705,"zip":"16871","miles_from_dt":19.75},{"city":"Osceola Mills","state_name":"Pennsylvania","lat":40.87056,"lng":-78.31286,"zip":"16666","miles_from_dt":20.12},{"city":"Beech Creek","state_name":"Pennsylvania","lat":41.15813,"lng":-77.71441,"zip":"16822","miles_from_dt":20.41},{"city":"Bigler","state_name":"Pennsylvania","lat":40.98803,"lng":-78.31208,"zip":"16825","miles_from_dt":20.52},{"city":"Madisonburg","state_name":"Pennsylvania","lat":40.93639,"lng":-77.5386,"zip":"16852","miles_from_dt":20.69},{"city":"Blanchard","state_name":"Pennsylvania","lat":41.06199,"lng":-77.58598,"zip":"16826","miles_from_dt":20.84},{"city":"West Decatur","state_name":"Pennsylvania","lat":40.94325,"lng":-78.33609,"zip":"16878","miles_from_dt":21.22},{"city":"Woodland","state_name":"Pennsylvania","lat":41.02743,"lng":-78.31119,"zip":"16881","miles_from_dt":21.32},{"city":"Lecontes Mills","state_name":"Pennsylvania","lat":41.08186,"lng":-78.28036,"zip":"16850","miles_from_dt":21.6},{"city":"Lamar","state_name":"Pennsylvania","lat":41.01247,"lng":-77.53455,"zip":"16848","miles_from_dt":21.93},{"city":"Reedsville","state_name":"Pennsylvania","lat":40.68705,"lng":-77.62692,"zip":"17084","miles_from_dt":22.35},{"city":"Brisbin","state_name":"Pennsylvania","lat":40.83947,"lng":-78.35259,"zip":"16620","miles_from_dt":22.57},{"city":"Houtzdale","state_name":"Pennsylvania","lat":40.82833,"lng":-78.35235,"zip":"16698","miles_from_dt":22.75},{"city":"Mineral Springs","state_name":"Pennsylvania","lat":40.99902,"lng":-78.36046,"zip":"16855","miles_from_dt":23.16},{"city":"Tyrone","state_name":"Pennsylvania","lat":40.67056,"lng":-78.24102,"zip":"16686","miles_from_dt":23.26},{"city":"Frenchville","state_name":"Pennsylvania","lat":41.14633,"lng":-78.26454,"zip":"16836","miles_from_dt":23.67},{"city":"Houtzdale","state_name":"Pennsylvania","lat":40.8505,"lng":-78.37945,"zip":"16651","miles_from_dt":23.79},{"city":"Belleville","state_name":"Pennsylvania","lat":40.59966,"lng":-77.73278,"zip":"17004","miles_from_dt":24.02},{"city":"Millheim","state_name":"Pennsylvania","lat":40.89697,"lng":-77.47228,"zip":"16854","miles_from_dt":24.13},{"city":"Morann","state_name":"Pennsylvania","lat":40.7868,"lng":-78.36707,"zip":"16663","miles_from_dt":24.37},{"city":"Shawville","state_name":"Pennsylvania","lat":41.06993,"lng":-78.3605,"zip":"16873","miles_from_dt":24.86},{"city":"Alexandria","state_name":"Pennsylvania","lat":40.56719,"lng":-78.10214,"zip":"16611","miles_from_dt":25.46},{"city":"Mackeyville","state_name":"Pennsylvania","lat":41.05517,"lng":-77.47805,"zip":"17750","miles_from_dt":25.72},{"city":"Westport","state_name":"Pennsylvania","lat":41.28532,"lng":-77.96477,"zip":"17778","miles_from_dt":25.76},{"city":"Mill Hall","state_name":"Pennsylvania","lat":41.13086,"lng":-77.53201,"zip":"17751","miles_from_dt":25.78},{"city":"Ramey","state_name":"Pennsylvania","lat":40.79414,"lng":-78.40203,"zip":"16671","miles_from_dt":25.92},{"city":"Milroy","state_name":"Pennsylvania","lat":40.76274,"lng":-77.47343,"zip":"17063","miles_from_dt":26.2},{"city":"Yeagertown","state_name":"Pennsylvania","lat":40.64535,"lng":-77.57639,"zip":"17099","miles_from_dt":26.26},{"city":"Coburn","state_name":"Pennsylvania","lat":40.84711,"lng":-77.4347,"zip":"16832","miles_from_dt":26.47},{"city":"Smithmill","state_name":"Pennsylvania","lat":40.75149,"lng":-78.40254,"zip":"16680","miles_from_dt":27.03},{"city":"Tipton","state_name":"Pennsylvania","lat":40.63541,"lng":-78.29685,"zip":"16684","miles_from_dt":27.05},{"city":"Smokerun","state_name":"Pennsylvania","lat":40.80032,"lng":-78.42766,"zip":"16681","miles_from_dt":27.07},{"city":"Burnham","state_name":"Pennsylvania","lat":40.6359,"lng":-77.56609,"zip":"17009","miles_from_dt":27.11},{"city":"Huntingdon","state_name":"Pennsylvania","lat":40.51692,"lng":-77.95302,"zip":"16652","miles_from_dt":27.34},{"city":"Madera","state_name":"Pennsylvania","lat":40.83058,"lng":-78.45026,"zip":"16661","miles_from_dt":27.7},{"city":"Olanta","state_name":"Pennsylvania","lat":40.91162,"lng":-78.47204,"zip":"16863","miles_from_dt":28.24},{"city":"Glen Richey","state_name":"Pennsylvania","lat":40.94576,"lng":-78.47494,"zip":"16837","miles_from_dt":28.47},{"city":"Hyde","state_name":"Pennsylvania","lat":41.00849,"lng":-78.46269,"zip":"16843","miles_from_dt":28.5},{"city":"Aaronsburg","state_name":"Pennsylvania","lat":40.91995,"lng":-77.38702,"zip":"16820","miles_from_dt":28.56},{"city":"Clearfield","state_name":"Pennsylvania","lat":41.08569,"lng":-78.43317,"zip":"16830","miles_from_dt":28.76},{"city":"Beccaria","state_name":"Pennsylvania","lat":40.76832,"lng":-78.45128,"zip":"16616","miles_from_dt":28.95},{"city":"Lewistown","state_name":"Pennsylvania","lat":40.58236,"lng":-77.59013,"zip":"17044","miles_from_dt":29.04},{"city":"Sinnamahoning","state_name":"Pennsylvania","lat":41.3221,"lng":-78.07246,"zip":"15861","miles_from_dt":29.17},{"city":"Mill Creek","state_name":"Pennsylvania","lat":40.49144,"lng":-77.88158,"zip":"17060","miles_from_dt":29.2},{"city":"Huntingdon","state_name":"Pennsylvania","lat":40.49189,"lng":-78.02854,"zip":"16654","miles_from_dt":29.48},{"city":"Granville","state_name":"Pennsylvania","lat":40.55416,"lng":-77.62196,"zip":"17029","miles_from_dt":29.64},{"city":"Castanea","state_name":"Pennsylvania","lat":41.12197,"lng":-77.4338,"zip":"17726","miles_from_dt":29.8},{"city":"Bellwood","state_name":"Pennsylvania","lat":40.6036,"lng":-78.32995,"zip":"16617","miles_from_dt":29.83},{"city":"Blandburg","state_name":"Pennsylvania","lat":40.68367,"lng":-78.41591,"zip":"16619","miles_from_dt":29.87}],"targetCityZipCode":"16844","targetCityState":"Pennsylvania"},"__N_SSG":true}