{"pageProps":{"stateName":"Pennsylvania","cityName":"lewisburg","nearbyCities":[{"city":"Montandon","state_name":"Pennsylvania","lat":40.9671,"lng":-76.85847,"zip":"17850","miles_from_dt":4.43},{"city":"West Milton","state_name":"Pennsylvania","lat":41.01847,"lng":-76.87598,"zip":"17886","miles_from_dt":4.6},{"city":"New Columbia","state_name":"Pennsylvania","lat":41.05636,"lng":-76.9722,"zip":"17856","miles_from_dt":5.84},{"city":"New Berlin","state_name":"Pennsylvania","lat":40.88735,"lng":-76.97217,"zip":"17855","miles_from_dt":6.23},{"city":"Winfield","state_name":"Pennsylvania","lat":40.88228,"lng":-76.9143,"zip":"17889","miles_from_dt":6.56},{"city":"Milton","state_name":"Pennsylvania","lat":41.00609,"lng":-76.80612,"zip":"17847","miles_from_dt":7.45},{"city":"White Deer","state_name":"Pennsylvania","lat":41.07508,"lng":-76.8849,"zip":"17887","miles_from_dt":7.54},{"city":"Mifflinburg","state_name":"Pennsylvania","lat":40.95904,"lng":-77.08747,"zip":"17844","miles_from_dt":7.66},{"city":"Potts Grove","state_name":"Pennsylvania","lat":40.98688,"lng":-76.78979,"zip":"17865","miles_from_dt":8.03},{"city":"McEwensville","state_name":"Pennsylvania","lat":41.07232,"lng":-76.81352,"zip":"17749","miles_from_dt":9.52},{"city":"Northumberland","state_name":"Pennsylvania","lat":40.92789,"lng":-76.76712,"zip":"17857","miles_from_dt":9.73},{"city":"Dewart","state_name":"Pennsylvania","lat":41.10677,"lng":-76.87591,"zip":"17730","miles_from_dt":9.74},{"city":"Penns Creek","state_name":"Pennsylvania","lat":40.86069,"lng":-77.05661,"zip":"17862","miles_from_dt":9.89},{"city":"Shamokin Dam","state_name":"Pennsylvania","lat":40.85571,"lng":-76.82319,"zip":"17876","miles_from_dt":10.32},{"city":"Allenwood","state_name":"Pennsylvania","lat":41.1123,"lng":-77.02543,"zip":"17810","miles_from_dt":10.43},{"city":"Watsontown","state_name":"Pennsylvania","lat":41.10332,"lng":-76.82678,"zip":"17777","miles_from_dt":10.73},{"city":"Swengel","state_name":"Pennsylvania","lat":40.89109,"lng":-77.12383,"zip":"17880","miles_from_dt":11.11},{"city":"Hummels Wharf","state_name":"Pennsylvania","lat":40.83432,"lng":-76.83664,"zip":"17831","miles_from_dt":11.17},{"city":"Selinsgrove","state_name":"Pennsylvania","lat":40.80992,"lng":-76.8897,"zip":"17870","miles_from_dt":11.71},{"city":"Kreamer","state_name":"Pennsylvania","lat":40.80255,"lng":-76.96631,"zip":"17833","miles_from_dt":11.95},{"city":"Hartleton","state_name":"Pennsylvania","lat":40.90057,"lng":-77.15546,"zip":"17829","miles_from_dt":12.27},{"city":"Middleburg","state_name":"Pennsylvania","lat":40.80389,"lng":-77.04329,"zip":"17842","miles_from_dt":12.92},{"city":"Sunbury","state_name":"Pennsylvania","lat":40.83669,"lng":-76.75762,"zip":"17801","miles_from_dt":13.58},{"city":"Montgomery","state_name":"Pennsylvania","lat":41.18244,"lng":-76.92144,"zip":"17752","miles_from_dt":14.37},{"city":"Laurelton","state_name":"Pennsylvania","lat":40.88365,"lng":-77.19795,"zip":"17835","miles_from_dt":14.78},{"city":"Washingtonville","state_name":"Pennsylvania","lat":41.05201,"lng":-76.67509,"zip":"17884","miles_from_dt":14.96},{"city":"Freeburg","state_name":"Pennsylvania","lat":40.75482,"lng":-76.96133,"zip":"17827","miles_from_dt":15.22},{"city":"Turbotville","state_name":"Pennsylvania","lat":41.11832,"lng":-76.71756,"zip":"17772","miles_from_dt":15.36},{"city":"Paxtonville","state_name":"Pennsylvania","lat":40.77361,"lng":-77.0788,"zip":"17861","miles_from_dt":15.61},{"city":"Millmont","state_name":"Pennsylvania","lat":40.88308,"lng":-77.21628,"zip":"17845","miles_from_dt":15.67},{"city":"Danville","state_name":"Pennsylvania","lat":40.9917,"lng":-76.63959,"zip":"17821","miles_from_dt":15.88},{"city":"Williamsport","state_name":"Pennsylvania","lat":41.18215,"lng":-77.07728,"zip":"17702","miles_from_dt":15.94},{"city":"Snydertown","state_name":"Pennsylvania","lat":40.87622,"lng":-76.66674,"zip":"17877","miles_from_dt":15.96},{"city":"Riverside","state_name":"Pennsylvania","lat":40.95536,"lng":-76.63098,"zip":"17868","miles_from_dt":16.35},{"city":"Danville","state_name":"Pennsylvania","lat":40.96861,"lng":-76.60365,"zip":"17822","miles_from_dt":17.73},{"city":"Beavertown","state_name":"Pennsylvania","lat":40.78505,"lng":-77.1772,"zip":"17813","miles_from_dt":17.96},{"city":"Troxelville","state_name":"Pennsylvania","lat":40.80301,"lng":-77.20565,"zip":"17882","miles_from_dt":18.18},{"city":"Williamsport","state_name":"Pennsylvania","lat":41.24,"lng":-77.00002,"zip":"17703","miles_from_dt":18.54},{"city":"Port Trevorton","state_name":"Pennsylvania","lat":40.70294,"lng":-76.90687,"zip":"17864","miles_from_dt":18.86},{"city":"Trevorton","state_name":"Pennsylvania","lat":40.78098,"lng":-76.68632,"zip":"17881","miles_from_dt":18.95},{"city":"Williamsport","state_name":"Pennsylvania","lat":41.24061,"lng":-77.03912,"zip":"17705","miles_from_dt":19.02},{"city":"Paxinos","state_name":"Pennsylvania","lat":40.82685,"lng":-76.63402,"zip":"17860","miles_from_dt":19.11},{"city":"Muncy","state_name":"Pennsylvania","lat":41.20841,"lng":-76.73325,"zip":"17756","miles_from_dt":19.47},{"city":"Weikert","state_name":"Pennsylvania","lat":40.87042,"lng":-77.28941,"zip":"17885","miles_from_dt":19.54},{"city":"Antes Fort","state_name":"Pennsylvania","lat":41.18046,"lng":-77.20503,"zip":"17720","miles_from_dt":19.73},{"city":"Mount Pleasant Mills","state_name":"Pennsylvania","lat":40.69212,"lng":-77.01254,"zip":"17853","miles_from_dt":19.85},{"city":"Loganton","state_name":"Pennsylvania","lat":41.03847,"lng":-77.31497,"zip":"17747","miles_from_dt":19.96},{"city":"Dornsife","state_name":"Pennsylvania","lat":40.72099,"lng":-76.72541,"zip":"17823","miles_from_dt":20.89},{"city":"Woodward","state_name":"Pennsylvania","lat":40.90707,"lng":-77.33841,"zip":"16882","miles_from_dt":21.24},{"city":"Herndon","state_name":"Pennsylvania","lat":40.68791,"lng":-76.79449,"zip":"17830","miles_from_dt":21.26},{"city":"Linden","state_name":"Pennsylvania","lat":41.24397,"lng":-77.16139,"zip":"17744","miles_from_dt":21.8},{"city":"Rebersburg","state_name":"Pennsylvania","lat":40.96715,"lng":-77.35939,"zip":"16872","miles_from_dt":21.81},{"city":"Richfield","state_name":"Pennsylvania","lat":40.69067,"lng":-77.12502,"zip":"17086","miles_from_dt":21.82},{"city":"Beaver Springs","state_name":"Pennsylvania","lat":40.76172,"lng":-77.25674,"zip":"17843","miles_from_dt":22.07},{"city":"Rebuck","state_name":"Pennsylvania","lat":40.71464,"lng":-76.69025,"zip":"17867","miles_from_dt":22.3},{"city":"Shamokin","state_name":"Pennsylvania","lat":40.7677,"lng":-76.61317,"zip":"17872","miles_from_dt":22.4},{"city":"Beaver Springs","state_name":"Pennsylvania","lat":40.73626,"lng":-77.23641,"zip":"17812","miles_from_dt":22.54},{"city":"Montoursville","state_name":"Pennsylvania","lat":41.31108,"lng":-76.88421,"zip":"17754","miles_from_dt":23.4},{"city":"Aaronsburg","state_name":"Pennsylvania","lat":40.91995,"lng":-77.38702,"zip":"16820","miles_from_dt":23.57},{"city":"Dalmatia","state_name":"Pennsylvania","lat":40.6275,"lng":-76.89854,"zip":"17017","miles_from_dt":24.08},{"city":"Pillow","state_name":"Pennsylvania","lat":40.64057,"lng":-76.80299,"zip":"17080","miles_from_dt":24.2},{"city":"Coal Township","state_name":"Pennsylvania","lat":40.78866,"lng":-76.55035,"zip":"17866","miles_from_dt":24.22},{"city":"Avis","state_name":"Pennsylvania","lat":41.18155,"lng":-77.31927,"zip":"17721","miles_from_dt":24.3},{"city":"Jersey Shore","state_name":"Pennsylvania","lat":41.2342,"lng":-77.26171,"zip":"17740","miles_from_dt":24.45},{"city":"McElhattan","state_name":"Pennsylvania","lat":41.15147,"lng":-77.35043,"zip":"17748","miles_from_dt":24.55},{"city":"Picture Rocks","state_name":"Pennsylvania","lat":41.28326,"lng":-76.70751,"zip":"17762","miles_from_dt":24.56},{"city":"Elysburg","state_name":"Pennsylvania","lat":40.85652,"lng":-76.49848,"zip":"17824","miles_from_dt":24.63},{"city":"Millville","state_name":"Pennsylvania","lat":41.14647,"lng":-76.51681,"zip":"17846","miles_from_dt":25.19},{"city":"Cogan Station","state_name":"Pennsylvania","lat":41.32546,"lng":-77.08215,"zip":"17728","miles_from_dt":25.27},{"city":"Leck Kill","state_name":"Pennsylvania","lat":40.71446,"lng":-76.60136,"zip":"17836","miles_from_dt":25.34},{"city":"Cocolamus","state_name":"Pennsylvania","lat":40.6596,"lng":-77.19358,"zip":"17014","miles_from_dt":25.43},{"city":"Hughesville","state_name":"Pennsylvania","lat":41.28673,"lng":-76.68149,"zip":"17737","miles_from_dt":25.47},{"city":"Williamsport","state_name":"Pennsylvania","lat":41.34206,"lng":-76.88821,"zip":"17701","miles_from_dt":25.5},{"city":"Lairdsville","state_name":"Pennsylvania","lat":41.23919,"lng":-76.5829,"zip":"17742","miles_from_dt":26.17},{"city":"Klingerstown","state_name":"Pennsylvania","lat":40.68614,"lng":-76.61472,"zip":"17941","miles_from_dt":26.31},{"city":"Berrysburg","state_name":"Pennsylvania","lat":40.60304,"lng":-76.81065,"zip":"17005","miles_from_dt":26.57},{"city":"Liverpool","state_name":"Pennsylvania","lat":40.58841,"lng":-77.00389,"zip":"17045","miles_from_dt":26.86},{"city":"Bloomsburg","state_name":"Pennsylvania","lat":41.02216,"lng":-76.43061,"zip":"17815","miles_from_dt":26.96},{"city":"Coburn","state_name":"Pennsylvania","lat":40.84711,"lng":-77.4347,"zip":"16832","miles_from_dt":27.23},{"city":"Gratz","state_name":"Pennsylvania","lat":40.60833,"lng":-76.74417,"zip":"17030","miles_from_dt":27.35},{"city":"Castanea","state_name":"Pennsylvania","lat":41.12197,"lng":-77.4338,"zip":"17726","miles_from_dt":27.6},{"city":"McAlisterville","state_name":"Pennsylvania","lat":40.65172,"lng":-77.25948,"zip":"17049","miles_from_dt":27.81},{"city":"McClure","state_name":"Pennsylvania","lat":40.72455,"lng":-77.35888,"zip":"17841","miles_from_dt":27.83},{"city":"Woolrich","state_name":"Pennsylvania","lat":41.20551,"lng":-77.38019,"zip":"17779","miles_from_dt":27.85},{"city":"Lykens","state_name":"Pennsylvania","lat":40.60554,"lng":-76.72669,"zip":"17048","miles_from_dt":27.88},{"city":"Elizabethville","state_name":"Pennsylvania","lat":40.5813,"lng":-76.81169,"zip":"17023","miles_from_dt":28.01},{"city":"Marion Heights","state_name":"Pennsylvania","lat":40.80554,"lng":-76.45499,"zip":"17832","miles_from_dt":28.07},{"city":"Unityville","state_name":"Pennsylvania","lat":41.24782,"lng":-76.5416,"zip":"17774","miles_from_dt":28.15},{"city":"Millheim","state_name":"Pennsylvania","lat":40.89697,"lng":-77.47228,"zip":"16854","miles_from_dt":28.24},{"city":"Kulpmont","state_name":"Pennsylvania","lat":40.77982,"lng":-76.46701,"zip":"17834","miles_from_dt":28.31},{"city":"Sacramento","state_name":"Pennsylvania","lat":40.6417,"lng":-76.62625,"zip":"17968","miles_from_dt":28.34},{"city":"Millersburg","state_name":"Pennsylvania","lat":40.56542,"lng":-76.90046,"zip":"17061","miles_from_dt":28.34},{"city":"Catawissa","state_name":"Pennsylvania","lat":40.9011,"lng":-76.40783,"zip":"17820","miles_from_dt":28.44},{"city":"Mackeyville","state_name":"Pennsylvania","lat":41.05517,"lng":-77.47805,"zip":"17750","miles_from_dt":28.54},{"city":"Numidia","state_name":"Pennsylvania","lat":40.84238,"lng":-76.42314,"zip":"17858","miles_from_dt":28.68},{"city":"Spring Glen","state_name":"Pennsylvania","lat":40.6165,"lng":-76.65219,"zip":"17978","miles_from_dt":29.04},{"city":"Mount Carmel","state_name":"Pennsylvania","lat":40.80255,"lng":-76.433,"zip":"17851","miles_from_dt":29.21},{"city":"Pitman","state_name":"Pennsylvania","lat":40.71415,"lng":-76.49785,"zip":"17964","miles_from_dt":29.44}],"targetCityZipCode":"17837","targetCityState":"Pennsylvania"},"__N_SSG":true}