{"pageProps":{"stateName":"Pennsylvania","cityName":"ludlow","nearbyCities":[{"city":"Tiona","state_name":"Pennsylvania","lat":41.76615,"lng":-79.03644,"zip":"16352","miles_from_dt":5.51},{"city":"Sheffield","state_name":"Pennsylvania","lat":41.64671,"lng":-79.06481,"zip":"16347","miles_from_dt":9.85},{"city":"James City","state_name":"Pennsylvania","lat":41.61806,"lng":-78.84418,"zip":"16734","miles_from_dt":10.14},{"city":"Kane","state_name":"Pennsylvania","lat":41.63045,"lng":-78.81,"zip":"16735","miles_from_dt":10.35},{"city":"Lewis Run","state_name":"Pennsylvania","lat":41.80511,"lng":-78.73929,"zip":"16738","miles_from_dt":10.69},{"city":"Clarendon","state_name":"Pennsylvania","lat":41.72294,"lng":-79.13884,"zip":"16313","miles_from_dt":10.83},{"city":"De Young","state_name":"Pennsylvania","lat":41.57439,"lng":-78.91211,"zip":"16728","miles_from_dt":12.11},{"city":"Warren","state_name":"Pennsylvania","lat":41.84396,"lng":-79.1411,"zip":"16366","miles_from_dt":12.61},{"city":"Warren","state_name":"Pennsylvania","lat":41.84644,"lng":-79.14642,"zip":"16367","miles_from_dt":12.93},{"city":"Warren","state_name":"Pennsylvania","lat":41.84749,"lng":-79.14589,"zip":"16369","miles_from_dt":12.95},{"city":"Warren","state_name":"Pennsylvania","lat":41.83943,"lng":-79.15324,"zip":"16365","miles_from_dt":13},{"city":"Warren","state_name":"Pennsylvania","lat":41.84876,"lng":-79.14668,"zip":"16368","miles_from_dt":13.03},{"city":"Bradford","state_name":"Pennsylvania","lat":41.91105,"lng":-78.77385,"zip":"16701","miles_from_dt":13.84},{"city":"Russell","state_name":"Pennsylvania","lat":41.95085,"lng":-79.07548,"zip":"16345","miles_from_dt":15.76},{"city":"Custer City","state_name":"Pennsylvania","lat":41.89881,"lng":-78.66328,"zip":"16725","miles_from_dt":17.3},{"city":"Hazel Hurst","state_name":"Pennsylvania","lat":41.70303,"lng":-78.59514,"zip":"16733","miles_from_dt":17.72},{"city":"Irvine","state_name":"Pennsylvania","lat":41.80642,"lng":-79.27684,"zip":"16329","miles_from_dt":18.23},{"city":"Gifford","state_name":"Pennsylvania","lat":41.85921,"lng":-78.60843,"zip":"16732","miles_from_dt":18.37},{"city":"Cyclone","state_name":"Pennsylvania","lat":41.80456,"lng":-78.57787,"zip":"16726","miles_from_dt":18.7},{"city":"Mount Jewett","state_name":"Pennsylvania","lat":41.69255,"lng":-78.54998,"zip":"16740","miles_from_dt":20.15},{"city":"Marienville","state_name":"Pennsylvania","lat":41.49507,"lng":-79.1297,"zip":"16239","miles_from_dt":20.3},{"city":"Rew","state_name":"Pennsylvania","lat":41.87567,"lng":-78.56941,"zip":"16744","miles_from_dt":20.67},{"city":"Johnsonburg","state_name":"Pennsylvania","lat":41.50714,"lng":-78.69066,"zip":"15845","miles_from_dt":20.87},{"city":"Frewsburg","state_name":"New York","lat":42.04539,"lng":-79.05926,"zip":"14738","miles_from_dt":21.46},{"city":"Steamburg","state_name":"New York","lat":42.06014,"lng":-78.91816,"zip":"14783","miles_from_dt":21.47},{"city":"Youngsville","state_name":"Pennsylvania","lat":41.86751,"lng":-79.3187,"zip":"16371","miles_from_dt":21.56},{"city":"Wilcox","state_name":"Pennsylvania","lat":41.58116,"lng":-78.57935,"zip":"15870","miles_from_dt":21.64},{"city":"Chandlers Valley","state_name":"Pennsylvania","lat":41.93218,"lng":-79.30324,"zip":"16312","miles_from_dt":22.93},{"city":"Tidioute","state_name":"Pennsylvania","lat":41.67583,"lng":-79.37285,"zip":"16351","miles_from_dt":23.34},{"city":"Limestone","state_name":"New York","lat":42.03899,"lng":-78.63516,"zip":"14753","miles_from_dt":25.19},{"city":"Pittsfield","state_name":"Pennsylvania","lat":41.79864,"lng":-79.41749,"zip":"16340","miles_from_dt":25.3},{"city":"Sugar Grove","state_name":"Pennsylvania","lat":41.96323,"lng":-79.3322,"zip":"16350","miles_from_dt":25.38},{"city":"Endeavor","state_name":"Pennsylvania","lat":41.60567,"lng":-79.38428,"zip":"16322","miles_from_dt":25.4},{"city":"Ridgway","state_name":"Pennsylvania","lat":41.39253,"lng":-78.79357,"zip":"15853","miles_from_dt":25.64},{"city":"Rixford","state_name":"Pennsylvania","lat":41.92578,"lng":-78.49042,"zip":"16745","miles_from_dt":25.86},{"city":"Salamanca","state_name":"New York","lat":42.10703,"lng":-78.76977,"zip":"14779","miles_from_dt":26.08},{"city":"Derrick City","state_name":"Pennsylvania","lat":41.98501,"lng":-78.5338,"zip":"16727","miles_from_dt":26.22},{"city":"Smethport","state_name":"Pennsylvania","lat":41.75578,"lng":-78.4214,"zip":"16749","miles_from_dt":26.41},{"city":"East Smethport","state_name":"Pennsylvania","lat":41.81339,"lng":-78.42309,"zip":"16730","miles_from_dt":26.67},{"city":"East Hickory","state_name":"Pennsylvania","lat":41.56835,"lng":-79.40084,"zip":"16321","miles_from_dt":27.27},{"city":"Duke Center","state_name":"Pennsylvania","lat":41.96501,"lng":-78.4788,"zip":"16729","miles_from_dt":27.74},{"city":"Randolph","state_name":"New York","lat":42.15383,"lng":-78.95086,"zip":"14772","miles_from_dt":27.94},{"city":"Vowinckel","state_name":"Pennsylvania","lat":41.41102,"lng":-79.23092,"zip":"16260","miles_from_dt":28},{"city":"Crosby","state_name":"Pennsylvania","lat":41.74674,"lng":-78.39022,"zip":"16724","miles_from_dt":28.02},{"city":"Jamestown","state_name":"New York","lat":42.08091,"lng":-79.25502,"zip":"14701","miles_from_dt":28.3},{"city":"Garland","state_name":"Pennsylvania","lat":41.82606,"lng":-79.47311,"zip":"16416","miles_from_dt":28.43},{"city":"Jamestown","state_name":"New York","lat":42.0966,"lng":-79.23498,"zip":"14702","miles_from_dt":28.6},{"city":"Sigel","state_name":"Pennsylvania","lat":41.3435,"lng":-79.04697,"zip":"15860","miles_from_dt":28.62},{"city":"Crown","state_name":"Pennsylvania","lat":41.41817,"lng":-79.26659,"zip":"16220","miles_from_dt":28.67},{"city":"Saint Marys","state_name":"Pennsylvania","lat":41.45671,"lng":-78.53439,"zip":"15857","miles_from_dt":28.85},{"city":"Kennedy","state_name":"New York","lat":42.15346,"lng":-79.09061,"zip":"14747","miles_from_dt":29.07},{"city":"East Randolph","state_name":"New York","lat":42.17125,"lng":-78.94814,"zip":"14730","miles_from_dt":29.14},{"city":"Tionesta","state_name":"Pennsylvania","lat":41.49359,"lng":-79.38839,"zip":"16353","miles_from_dt":29.48},{"city":"Clarington","state_name":"Pennsylvania","lat":41.35104,"lng":-79.13906,"zip":"15828","miles_from_dt":29.5},{"city":"West Hickory","state_name":"Pennsylvania","lat":41.56586,"lng":-79.44796,"zip":"16370","miles_from_dt":29.54}],"targetCityZipCode":"16333","targetCityState":"Pennsylvania"},"__N_SSG":true}