{"pageProps":{"stateName":"Pennsylvania","cityName":"roaring-branch","nearbyCities":[{"city":"Ralston","state_name":"Pennsylvania","lat":41.50999,"lng":-76.91388,"zip":"17763","miles_from_dt":5.45},{"city":"Grover","state_name":"Pennsylvania","lat":41.61486,"lng":-76.86716,"zip":"17735","miles_from_dt":6.05},{"city":"Morris Run","state_name":"Pennsylvania","lat":41.68097,"lng":-77.0141,"zip":"16939","miles_from_dt":7.58},{"city":"Blossburg","state_name":"Pennsylvania","lat":41.66803,"lng":-77.05845,"zip":"16912","miles_from_dt":7.79},{"city":"Liberty","state_name":"Pennsylvania","lat":41.57693,"lng":-77.14021,"zip":"16930","miles_from_dt":8.73},{"city":"Arnot","state_name":"Pennsylvania","lat":41.67787,"lng":-77.10392,"zip":"16911","miles_from_dt":9.82},{"city":"Canton","state_name":"Pennsylvania","lat":41.63827,"lng":-76.80034,"zip":"17724","miles_from_dt":9.86},{"city":"Trout Run","state_name":"Pennsylvania","lat":41.43137,"lng":-77.04524,"zip":"17771","miles_from_dt":10.68},{"city":"Covington","state_name":"Pennsylvania","lat":41.723,"lng":-77.05519,"zip":"16917","miles_from_dt":11.03},{"city":"Alba","state_name":"Pennsylvania","lat":41.70477,"lng":-76.83124,"zip":"16910","miles_from_dt":11.49},{"city":"Shunk","state_name":"Pennsylvania","lat":41.54632,"lng":-76.7477,"zip":"17768","miles_from_dt":11.79},{"city":"Mainesburg","state_name":"Pennsylvania","lat":41.77574,"lng":-76.94017,"zip":"16932","miles_from_dt":13.89},{"city":"Troy","state_name":"Pennsylvania","lat":41.76969,"lng":-76.79519,"zip":"16947","miles_from_dt":16.19},{"city":"Hillsgrove","state_name":"Pennsylvania","lat":41.43574,"lng":-76.7195,"zip":"18619","miles_from_dt":16.27},{"city":"Williamsport","state_name":"Pennsylvania","lat":41.34206,"lng":-76.88821,"zip":"17701","miles_from_dt":16.71},{"city":"Granville Summit","state_name":"Pennsylvania","lat":41.71506,"lng":-76.70485,"zip":"16926","miles_from_dt":16.82},{"city":"Sylvania","state_name":"Pennsylvania","lat":41.80546,"lng":-76.85648,"zip":"16945","miles_from_dt":16.93},{"city":"Mansfield","state_name":"Pennsylvania","lat":41.81904,"lng":-77.06716,"zip":"16933","miles_from_dt":17.49},{"city":"Forksville","state_name":"Pennsylvania","lat":41.51907,"lng":-76.63954,"zip":"18616","miles_from_dt":17.66},{"city":"Cogan Station","state_name":"Pennsylvania","lat":41.32546,"lng":-77.08215,"zip":"17728","miles_from_dt":18.21},{"city":"Montoursville","state_name":"Pennsylvania","lat":41.31108,"lng":-76.88421,"zip":"17754","miles_from_dt":18.83},{"city":"Morris","state_name":"Pennsylvania","lat":41.56935,"lng":-77.34487,"zip":"16938","miles_from_dt":19.35},{"city":"Waterville","state_name":"Pennsylvania","lat":41.41704,"lng":-77.31257,"zip":"17776","miles_from_dt":20.81},{"city":"Wellsboro","state_name":"Pennsylvania","lat":41.73038,"lng":-77.31841,"zip":"16901","miles_from_dt":20.87},{"city":"Columbia Cross Roads","state_name":"Pennsylvania","lat":41.8618,"lng":-76.77687,"zip":"16914","miles_from_dt":22.15},{"city":"Monroeton","state_name":"Pennsylvania","lat":41.67625,"lng":-76.55639,"zip":"18832","miles_from_dt":22.59},{"city":"Eagles Mere","state_name":"Pennsylvania","lat":41.42713,"lng":-76.57293,"zip":"17731","miles_from_dt":23.1},{"city":"Williamsport","state_name":"Pennsylvania","lat":41.24,"lng":-77.00002,"zip":"17703","miles_from_dt":23.23},{"city":"Williamsport","state_name":"Pennsylvania","lat":41.24061,"lng":-77.03912,"zip":"17705","miles_from_dt":23.4},{"city":"Burlington","state_name":"Pennsylvania","lat":41.78151,"lng":-76.60121,"zip":"18814","miles_from_dt":23.85},{"city":"Picture Rocks","state_name":"Pennsylvania","lat":41.28326,"lng":-76.70751,"zip":"17762","miles_from_dt":24.42},{"city":"Tioga","state_name":"Pennsylvania","lat":41.91422,"lng":-77.13999,"zip":"16946","miles_from_dt":24.92},{"city":"Linden","state_name":"Pennsylvania","lat":41.24397,"lng":-77.16139,"zip":"17744","miles_from_dt":24.94},{"city":"Jersey Mills","state_name":"Pennsylvania","lat":41.41289,"lng":-77.40156,"zip":"17739","miles_from_dt":24.98},{"city":"Hughesville","state_name":"Pennsylvania","lat":41.28673,"lng":-76.68149,"zip":"17737","miles_from_dt":25.01},{"city":"Millerton","state_name":"Pennsylvania","lat":41.94318,"lng":-76.95837,"zip":"16936","miles_from_dt":25.36},{"city":"New Albany","state_name":"Pennsylvania","lat":41.59433,"lng":-76.46515,"zip":"18833","miles_from_dt":26.28},{"city":"Cedar Run","state_name":"Pennsylvania","lat":41.53904,"lng":-77.47914,"zip":"17727","miles_from_dt":26.43},{"city":"Muncy Valley","state_name":"Pennsylvania","lat":41.35234,"lng":-76.55155,"zip":"17758","miles_from_dt":26.71},{"city":"Cammal","state_name":"Pennsylvania","lat":41.43125,"lng":-77.45629,"zip":"17723","miles_from_dt":27.05},{"city":"Montgomery","state_name":"Pennsylvania","lat":41.18244,"lng":-76.92144,"zip":"17752","miles_from_dt":27.28},{"city":"Middlebury Center","state_name":"Pennsylvania","lat":41.87032,"lng":-77.32404,"zip":"16935","miles_from_dt":27.29},{"city":"East Smithfield","state_name":"Pennsylvania","lat":41.87431,"lng":-76.62075,"zip":"18817","miles_from_dt":27.45},{"city":"Gillett","state_name":"Pennsylvania","lat":41.95319,"lng":-76.78997,"zip":"16925","miles_from_dt":27.68},{"city":"Williamsport","state_name":"Pennsylvania","lat":41.18215,"lng":-77.07728,"zip":"17702","miles_from_dt":27.72},{"city":"Slate Run","state_name":"Pennsylvania","lat":41.49939,"lng":-77.50073,"zip":"17769","miles_from_dt":27.94},{"city":"Jersey Shore","state_name":"Pennsylvania","lat":41.2342,"lng":-77.26171,"zip":"17740","miles_from_dt":27.99},{"city":"Muncy","state_name":"Pennsylvania","lat":41.20841,"lng":-76.73325,"zip":"17756","miles_from_dt":28.23},{"city":"Laporte","state_name":"Pennsylvania","lat":41.41136,"lng":-76.4635,"zip":"18626","miles_from_dt":28.71},{"city":"Milan","state_name":"Pennsylvania","lat":41.89356,"lng":-76.60832,"zip":"18831","miles_from_dt":28.87},{"city":"Lawrenceville","state_name":"Pennsylvania","lat":41.97352,"lng":-77.15028,"zip":"16929","miles_from_dt":28.95},{"city":"Towanda","state_name":"Pennsylvania","lat":41.75358,"lng":-76.45615,"zip":"18848","miles_from_dt":29.36},{"city":"Antes Fort","state_name":"Pennsylvania","lat":41.18046,"lng":-77.20503,"zip":"17720","miles_from_dt":29.86}],"targetCityZipCode":"17765","targetCityState":"Pennsylvania"},"__N_SSG":true}