{"pageProps":{"stateName":"Pennsylvania","cityName":"warfordsburg","nearbyCities":[{"city":"Needmore","state_name":"Pennsylvania","lat":39.8612,"lng":-78.13003,"zip":"17238","miles_from_dt":7.04},{"city":"Hancock","state_name":"Maryland","lat":39.68698,"lng":-78.2129,"zip":"21750","miles_from_dt":8.19},{"city":"Big Cove Tannery","state_name":"Pennsylvania","lat":39.81,"lng":-78.07073,"zip":"17212","miles_from_dt":8.99},{"city":"Artemas","state_name":"Pennsylvania","lat":39.75191,"lng":-78.41457,"zip":"17211","miles_from_dt":9.98},{"city":"Crystal Spring","state_name":"Pennsylvania","lat":39.94956,"lng":-78.2109,"zip":"15536","miles_from_dt":10.17},{"city":"Clearville","state_name":"Pennsylvania","lat":39.826,"lng":-78.45001,"zip":"15535","miles_from_dt":11.3},{"city":"Breezewood","state_name":"Pennsylvania","lat":39.98585,"lng":-78.24566,"zip":"15533","miles_from_dt":12.56},{"city":"Little Orleans","state_name":"Maryland","lat":39.65928,"lng":-78.39859,"zip":"21766","miles_from_dt":13.09},{"city":"Everett","state_name":"Pennsylvania","lat":39.9981,"lng":-78.36506,"zip":"15537","miles_from_dt":14.97},{"city":"Harrisonville","state_name":"Pennsylvania","lat":39.99512,"lng":-78.09831,"zip":"17228","miles_from_dt":15.18},{"city":"Big Pool","state_name":"Maryland","lat":39.66808,"lng":-78.01247,"zip":"21711","miles_from_dt":15.3},{"city":"Mercersburg","state_name":"Pennsylvania","lat":39.79997,"lng":-77.94305,"zip":"17236","miles_from_dt":15.78},{"city":"McConnellsburg","state_name":"Pennsylvania","lat":39.95118,"lng":-78.00406,"zip":"17233","miles_from_dt":16.12},{"city":"Berkeley Springs","state_name":"West Virginia","lat":39.55497,"lng":-78.22004,"zip":"25411","miles_from_dt":17.2},{"city":"Flintstone","state_name":"Maryland","lat":39.68878,"lng":-78.54138,"zip":"21530","miles_from_dt":17.93},{"city":"Great Cacapon","state_name":"West Virginia","lat":39.55812,"lng":-78.35887,"zip":"25422","miles_from_dt":18.11},{"city":"Bedford","state_name":"Pennsylvania","lat":39.94931,"lng":-78.55173,"zip":"15522","miles_from_dt":19.39},{"city":"Wells Tannery","state_name":"Pennsylvania","lat":40.07744,"lng":-78.1473,"zip":"16691","miles_from_dt":19.5},{"city":"Clear Spring","state_name":"Maryland","lat":39.66575,"lng":-77.91457,"zip":"21722","miles_from_dt":19.76},{"city":"Lemasters","state_name":"Pennsylvania","lat":39.86021,"lng":-77.85934,"zip":"17231","miles_from_dt":20.6},{"city":"Hedgesville","state_name":"West Virginia","lat":39.52608,"lng":-78.09098,"zip":"25427","miles_from_dt":20.74},{"city":"Hopewell","state_name":"Pennsylvania","lat":40.11592,"lng":-78.29237,"zip":"16650","miles_from_dt":21.71},{"city":"Fort Loudon","state_name":"Pennsylvania","lat":39.9723,"lng":-77.89195,"zip":"17224","miles_from_dt":21.83},{"city":"Waterfall","state_name":"Pennsylvania","lat":40.10737,"lng":-78.10028,"zip":"16689","miles_from_dt":22.21},{"city":"Hustontown","state_name":"Pennsylvania","lat":40.07853,"lng":-78.01144,"zip":"17229","miles_from_dt":22.49},{"city":"Oldtown","state_name":"Maryland","lat":39.58777,"lng":-78.55685,"zip":"21555","miles_from_dt":22.54},{"city":"Saint Thomas","state_name":"Pennsylvania","lat":39.91317,"lng":-77.81695,"zip":"17252","miles_from_dt":23.7},{"city":"Fort Littleton","state_name":"Pennsylvania","lat":40.06521,"lng":-77.9389,"zip":"17223","miles_from_dt":24.08},{"city":"Falling Waters","state_name":"West Virginia","lat":39.58286,"lng":-77.88493,"zip":"25419","miles_from_dt":24.29},{"city":"Six Mile Run","state_name":"Pennsylvania","lat":40.15659,"lng":-78.195,"zip":"16679","miles_from_dt":24.45},{"city":"Defiance","state_name":"Pennsylvania","lat":40.15969,"lng":-78.23259,"zip":"16633","miles_from_dt":24.55},{"city":"Manns Choice","state_name":"Pennsylvania","lat":39.99025,"lng":-78.64493,"zip":"15550","miles_from_dt":25.09},{"city":"Buffalo Mills","state_name":"Pennsylvania","lat":39.89712,"lng":-78.69589,"zip":"15534","miles_from_dt":25.1},{"city":"Riddlesburg","state_name":"Pennsylvania","lat":40.16935,"lng":-78.24324,"zip":"16672","miles_from_dt":25.22},{"city":"Martinsburg","state_name":"West Virginia","lat":39.4842,"lng":-78.00725,"zip":"25403","miles_from_dt":25.3},{"city":"Greencastle","state_name":"Pennsylvania","lat":39.78706,"lng":-77.75709,"zip":"17225","miles_from_dt":25.7},{"city":"Loysburg","state_name":"Pennsylvania","lat":40.16063,"lng":-78.39138,"zip":"16659","miles_from_dt":25.9},{"city":"Wood","state_name":"Pennsylvania","lat":40.17259,"lng":-78.12852,"zip":"16694","miles_from_dt":26.11},{"city":"Paw Paw","state_name":"West Virginia","lat":39.45797,"lng":-78.45038,"zip":"25434","miles_from_dt":26.38},{"city":"Williamsport","state_name":"Maryland","lat":39.582,"lng":-77.82733,"zip":"21795","miles_from_dt":26.78},{"city":"Burnt Cabins","state_name":"Pennsylvania","lat":40.09234,"lng":-77.89008,"zip":"17215","miles_from_dt":27.21},{"city":"Maugansville","state_name":"Maryland","lat":39.69773,"lng":-77.74638,"zip":"21767","miles_from_dt":27.27},{"city":"New Enterprise","state_name":"Pennsylvania","lat":40.17822,"lng":-78.42437,"zip":"16664","miles_from_dt":27.63},{"city":"Martinsburg","state_name":"West Virginia","lat":39.46145,"lng":-77.96982,"zip":"25402","miles_from_dt":27.66},{"city":"Robertsdale","state_name":"Pennsylvania","lat":40.1865,"lng":-78.07926,"zip":"16674","miles_from_dt":27.73},{"city":"Martinsburg","state_name":"West Virginia","lat":39.45642,"lng":-77.97267,"zip":"25401","miles_from_dt":27.88},{"city":"Levels","state_name":"West Virginia","lat":39.48682,"lng":-78.57279,"zip":"25431","miles_from_dt":28.18},{"city":"Dudley","state_name":"Pennsylvania","lat":40.2105,"lng":-78.17308,"zip":"16634","miles_from_dt":28.27},{"city":"Woodbury","state_name":"Pennsylvania","lat":40.20327,"lng":-78.35943,"zip":"16695","miles_from_dt":28.28},{"city":"State Line","state_name":"Pennsylvania","lat":39.72409,"lng":-77.71727,"zip":"17263","miles_from_dt":28.35},{"city":"Fannettsburg","state_name":"Pennsylvania","lat":40.05796,"lng":-77.82019,"zip":"17221","miles_from_dt":28.35},{"city":"Martinsburg","state_name":"West Virginia","lat":39.48631,"lng":-77.89782,"zip":"25404","miles_from_dt":28.5},{"city":"Cumberland","state_name":"Maryland","lat":39.66077,"lng":-78.74317,"zip":"21504","miles_from_dt":28.58},{"city":"Hyndman","state_name":"Pennsylvania","lat":39.77943,"lng":-78.776,"zip":"15545","miles_from_dt":28.6},{"city":"Hagerstown","state_name":"Maryland","lat":39.63737,"lng":-77.74454,"zip":"21749","miles_from_dt":28.77},{"city":"Hagerstown","state_name":"Maryland","lat":39.63447,"lng":-77.74596,"zip":"21747","miles_from_dt":28.78},{"city":"Cumberland","state_name":"Maryland","lat":39.65805,"lng":-78.74626,"zip":"21505","miles_from_dt":28.8},{"city":"Three Springs","state_name":"Pennsylvania","lat":40.17993,"lng":-77.99331,"zip":"17264","miles_from_dt":29.05},{"city":"Saxton","state_name":"Pennsylvania","lat":40.2252,"lng":-78.23421,"zip":"16678","miles_from_dt":29.07},{"city":"Marion","state_name":"Pennsylvania","lat":39.85699,"lng":-77.69743,"zip":"17235","miles_from_dt":29.07},{"city":"Ellerslie","state_name":"Maryland","lat":39.71692,"lng":-78.77474,"zip":"21529","miles_from_dt":29.12},{"city":"Hagerstown","state_name":"Maryland","lat":39.63233,"lng":-77.73902,"zip":"21740","miles_from_dt":29.18},{"city":"Fishertown","state_name":"Pennsylvania","lat":40.12835,"lng":-78.59341,"zip":"15539","miles_from_dt":29.22},{"city":"Schellsburg","state_name":"Pennsylvania","lat":40.05914,"lng":-78.68241,"zip":"15559","miles_from_dt":29.38},{"city":"Slanesville","state_name":"West Virginia","lat":39.43543,"lng":-78.52081,"zip":"25444","miles_from_dt":29.52},{"city":"Cumberland","state_name":"Maryland","lat":39.64968,"lng":-78.75776,"zip":"21501","miles_from_dt":29.58},{"city":"Upperstrasburg","state_name":"Pennsylvania","lat":40.03846,"lng":-77.77297,"zip":"17265","miles_from_dt":29.6},{"city":"Glengary","state_name":"West Virginia","lat":39.37821,"lng":-78.16384,"zip":"25421","miles_from_dt":29.64},{"city":"Cumberland","state_name":"Maryland","lat":39.64143,"lng":-78.75609,"zip":"21502","miles_from_dt":29.71},{"city":"Cumberland","state_name":"Maryland","lat":39.64708,"lng":-78.75968,"zip":"21503","miles_from_dt":29.74},{"city":"Green Spring","state_name":"West Virginia","lat":39.49774,"lng":-78.63463,"zip":"26722","miles_from_dt":29.83},{"city":"New Paris","state_name":"Pennsylvania","lat":40.12525,"lng":-78.61575,"zip":"15554","miles_from_dt":29.84},{"city":"Spring Gap","state_name":"Maryland","lat":39.56508,"lng":-78.70632,"zip":"21560","miles_from_dt":29.84},{"city":"Gerrardstown","state_name":"West Virginia","lat":39.38095,"lng":-78.11969,"zip":"25420","miles_from_dt":29.87},{"city":"Cross Junction","state_name":"Virginia","lat":39.37397,"lng":-78.31172,"zip":"22625","miles_from_dt":29.91},{"city":"Hagerstown","state_name":"Maryland","lat":39.64139,"lng":-77.71879,"zip":"21741","miles_from_dt":29.92},{"city":"Broad Top","state_name":"Pennsylvania","lat":40.22888,"lng":-78.12298,"zip":"16621","miles_from_dt":29.97}],"targetCityZipCode":"17267","targetCityState":"Pennsylvania"},"__N_SSG":true}