{"pageProps":{"stateName":"Georgia","cityName":"byron","nearbyCities":[{"city":"Centerville","state_name":"Georgia","lat":32.63164,"lng":-83.68459,"zip":"31028","miles_from_dt":5.95},{"city":"Warner Robins","state_name":"Georgia","lat":32.64815,"lng":-83.65688,"zip":"31093","miles_from_dt":7.36},{"city":"Macon","state_name":"Georgia","lat":32.72885,"lng":-83.67914,"zip":"31216","miles_from_dt":7.91},{"city":"Fort Valley","state_name":"Georgia","lat":32.56861,"lng":-83.89103,"zip":"31030","miles_from_dt":8.66},{"city":"Warner Robins","state_name":"Georgia","lat":32.64314,"lng":-83.63447,"zip":"31099","miles_from_dt":8.69},{"city":"Warner Robins","state_name":"Georgia","lat":32.58587,"lng":-83.65528,"zip":"31088","miles_from_dt":8.83},{"city":"Lizella","state_name":"Georgia","lat":32.7743,"lng":-83.84664,"zip":"31052","miles_from_dt":9.03},{"city":"Macon","state_name":"Georgia","lat":32.75017,"lng":-83.66114,"zip":"31205","miles_from_dt":9.67},{"city":"Knoxville","state_name":"Georgia","lat":32.72924,"lng":-83.94096,"zip":"31050","miles_from_dt":10.54},{"city":"Warner Robins","state_name":"Georgia","lat":32.61964,"lng":-83.59943,"zip":"31095","miles_from_dt":10.97},{"city":"Macon","state_name":"Georgia","lat":32.79383,"lng":-83.6832,"zip":"31206","miles_from_dt":11.2},{"city":"Macon","state_name":"Georgia","lat":32.80886,"lng":-83.69068,"zip":"31297","miles_from_dt":11.9},{"city":"Warner Robins","state_name":"Georgia","lat":32.61898,"lng":-83.57357,"zip":"31098","miles_from_dt":12.45},{"city":"Bonaire","state_name":"Georgia","lat":32.54533,"lng":-83.59497,"zip":"31005","miles_from_dt":13.3},{"city":"Macon","state_name":"Georgia","lat":32.82859,"lng":-83.64928,"zip":"31207","miles_from_dt":14.28},{"city":"Macon","state_name":"Georgia","lat":32.81433,"lng":-83.61846,"zip":"31201","miles_from_dt":14.58},{"city":"Macon","state_name":"Georgia","lat":32.83118,"lng":-83.63993,"zip":"31208","miles_from_dt":14.73},{"city":"Macon","state_name":"Georgia","lat":32.84996,"lng":-83.67609,"zip":"31204","miles_from_dt":14.82},{"city":"Perry","state_name":"Georgia","lat":32.4406,"lng":-83.74373,"zip":"31069","miles_from_dt":14.94},{"city":"Macon","state_name":"Georgia","lat":32.83405,"lng":-83.63221,"zip":"31202","miles_from_dt":15.15},{"city":"Macon","state_name":"Georgia","lat":32.84009,"lng":-83.63937,"zip":"31213","miles_from_dt":15.26},{"city":"Macon","state_name":"Georgia","lat":32.83749,"lng":-83.63235,"zip":"31294","miles_from_dt":15.34},{"city":"Macon","state_name":"Georgia","lat":32.86733,"lng":-83.6931,"zip":"31203","miles_from_dt":15.55},{"city":"Macon","state_name":"Georgia","lat":32.87813,"lng":-83.8209,"zip":"31220","miles_from_dt":15.55},{"city":"Macon","state_name":"Georgia","lat":32.88049,"lng":-83.81862,"zip":"31221","miles_from_dt":15.69},{"city":"Musella","state_name":"Georgia","lat":32.80757,"lng":-83.98953,"zip":"31066","miles_from_dt":15.99},{"city":"Macon","state_name":"Georgia","lat":32.8087,"lng":-83.5695,"zip":"31296","miles_from_dt":16.34},{"city":"Macon","state_name":"Georgia","lat":32.81058,"lng":-83.57104,"zip":"31295","miles_from_dt":16.35},{"city":"Dry Branch","state_name":"Georgia","lat":32.65376,"lng":-83.501,"zip":"31020","miles_from_dt":16.43},{"city":"Roberta","state_name":"Georgia","lat":32.6987,"lng":-84.06456,"zip":"31078","miles_from_dt":16.69},{"city":"Macon","state_name":"Georgia","lat":32.87909,"lng":-83.66496,"zip":"31209","miles_from_dt":16.91},{"city":"Macon","state_name":"Georgia","lat":32.90486,"lng":-83.7356,"zip":"31210","miles_from_dt":17.45},{"city":"Kathleen","state_name":"Georgia","lat":32.46786,"lng":-83.58009,"zip":"31047","miles_from_dt":17.49},{"city":"Marshallville","state_name":"Georgia","lat":32.43319,"lng":-83.94324,"zip":"31057","miles_from_dt":17.91},{"city":"Macon","state_name":"Georgia","lat":32.90665,"lng":-83.60435,"zip":"31211","miles_from_dt":20.23},{"city":"Reynolds","state_name":"Georgia","lat":32.54709,"lng":-84.10762,"zip":"31076","miles_from_dt":20.34},{"city":"Bolingbroke","state_name":"Georgia","lat":32.95167,"lng":-83.80536,"zip":"31004","miles_from_dt":20.5},{"city":"Macon","state_name":"Georgia","lat":32.84506,"lng":-83.50568,"zip":"31217","miles_from_dt":20.8},{"city":"Elko","state_name":"Georgia","lat":32.33833,"lng":-83.73876,"zip":"31025","miles_from_dt":21.96},{"city":"Clinchfield","state_name":"Georgia","lat":32.33768,"lng":-83.73144,"zip":"31013","miles_from_dt":22.06},{"city":"Smarr","state_name":"Georgia","lat":32.8766,"lng":-84.05844,"zip":"31086","miles_from_dt":22.16},{"city":"Culloden","state_name":"Georgia","lat":32.83656,"lng":-84.11477,"zip":"31016","miles_from_dt":23.03},{"city":"Jeffersonville","state_name":"Georgia","lat":32.66857,"lng":-83.37612,"zip":"31044","miles_from_dt":23.73},{"city":"Montezuma","state_name":"Georgia","lat":32.29249,"lng":-83.9648,"zip":"31063","miles_from_dt":27.13},{"city":"Gray","state_name":"Georgia","lat":33.01039,"lng":-83.57292,"zip":"31032","miles_from_dt":27.38},{"city":"Juliette","state_name":"Georgia","lat":33.05237,"lng":-83.78302,"zip":"31046","miles_from_dt":27.4},{"city":"Yatesville","state_name":"Georgia","lat":32.89947,"lng":-84.15554,"zip":"31097","miles_from_dt":27.48},{"city":"Forsyth","state_name":"Georgia","lat":33.03894,"lng":-83.92977,"zip":"31029","miles_from_dt":27.82},{"city":"Butler","state_name":"Georgia","lat":32.58164,"lng":-84.25531,"zip":"31006","miles_from_dt":28.01},{"city":"Oglethorpe","state_name":"Georgia","lat":32.33226,"lng":-84.10704,"zip":"31068","miles_from_dt":29.19},{"city":"Unadilla","state_name":"Georgia","lat":32.23653,"lng":-83.69966,"zip":"31091","miles_from_dt":29.23},{"city":"Ideal","state_name":"Georgia","lat":32.37905,"lng":-84.1721,"zip":"31041","miles_from_dt":29.62}],"targetCityZipCode":"31008","targetCityState":"Georgia"},"__N_SSG":true}