{"pageProps":{"stateName":"Georgia","cityName":"east-dublin","nearbyCities":[{"city":"Dublin","state_name":"Georgia","lat":32.54794,"lng":-82.90164,"zip":"31040","miles_from_dt":5.11},{"city":"Dublin","state_name":"Georgia","lat":32.49002,"lng":-82.93435,"zip":"31021","miles_from_dt":8.85},{"city":"Rockledge","state_name":"Georgia","lat":32.43857,"lng":-82.73421,"zip":"30454","miles_from_dt":10.58},{"city":"Wrightsville","state_name":"Georgia","lat":32.71875,"lng":-82.70636,"zip":"31096","miles_from_dt":11.96},{"city":"Adrian","state_name":"Georgia","lat":32.54802,"lng":-82.59012,"zip":"31002","miles_from_dt":13.51},{"city":"Dexter","state_name":"Georgia","lat":32.42622,"lng":-83.0534,"zip":"31019","miles_from_dt":17.03},{"city":"Rentz","state_name":"Georgia","lat":32.35428,"lng":-82.95277,"zip":"31075","miles_from_dt":17.03},{"city":"Dudley","state_name":"Georgia","lat":32.51216,"lng":-83.10954,"zip":"31022","miles_from_dt":17.45},{"city":"Kite","state_name":"Georgia","lat":32.68281,"lng":-82.52634,"zip":"31049","miles_from_dt":18.67},{"city":"Soperton","state_name":"Georgia","lat":32.39852,"lng":-82.56498,"zip":"30457","miles_from_dt":19.17},{"city":"Tennille","state_name":"Georgia","lat":32.85239,"lng":-82.86361,"zip":"31089","miles_from_dt":19.35},{"city":"Norristown","state_name":"Georgia","lat":32.50395,"lng":-82.49446,"zip":"30447","miles_from_dt":19.58},{"city":"Harrison","state_name":"Georgia","lat":32.84601,"lng":-82.7062,"zip":"31035","miles_from_dt":19.87},{"city":"Montrose","state_name":"Georgia","lat":32.56301,"lng":-83.16642,"zip":"31065","miles_from_dt":20.25},{"city":"Toomsboro","state_name":"Georgia","lat":32.79599,"lng":-83.0512,"zip":"31090","miles_from_dt":20.4},{"city":"Oconee","state_name":"Georgia","lat":32.85229,"lng":-82.96471,"zip":"31067","miles_from_dt":20.95},{"city":"Cadwell","state_name":"Georgia","lat":32.27636,"lng":-83.00564,"zip":"31009","miles_from_dt":23.22},{"city":"Irwinton","state_name":"Georgia","lat":32.74421,"lng":-83.16964,"zip":"31042","miles_from_dt":23.53},{"city":"Allentown","state_name":"Georgia","lat":32.59688,"lng":-83.22299,"zip":"31003","miles_from_dt":23.59},{"city":"Chester","state_name":"Georgia","lat":32.39422,"lng":-83.17717,"zip":"31012","miles_from_dt":24.28},{"city":"Danville","state_name":"Georgia","lat":32.62075,"lng":-83.23305,"zip":"31017","miles_from_dt":24.33},{"city":"Tarrytown","state_name":"Georgia","lat":32.33018,"lng":-82.51818,"zip":"30470","miles_from_dt":24.34},{"city":"Glenwood","state_name":"Georgia","lat":32.21706,"lng":-82.71436,"zip":"30428","miles_from_dt":25.36},{"city":"Nunez","state_name":"Georgia","lat":32.48754,"lng":-82.36444,"zip":"30448","miles_from_dt":27.23},{"city":"Swainsboro","state_name":"Georgia","lat":32.604,"lng":-82.34825,"zip":"30401","miles_from_dt":27.57},{"city":"Bartow","state_name":"Georgia","lat":32.88467,"lng":-82.51393,"zip":"30413","miles_from_dt":27.84},{"city":"Sandersville","state_name":"Georgia","lat":32.992,"lng":-82.89815,"zip":"31082","miles_from_dt":29.16}],"targetCityZipCode":"31027","targetCityState":"Georgia"},"__N_SSG":true}