{"pageProps":{"stateName":"Georgia","cityName":"girard","nearbyCities":[{"city":"Sardis","state_name":"Georgia","lat":32.98137,"lng":-81.79246,"zip":"30456","miles_from_dt":8.99},{"city":"Martin","state_name":"South Carolina","lat":33.09046,"lng":-81.50026,"zip":"29836","miles_from_dt":9.56},{"city":"Aiken","state_name":"South Carolina","lat":33.24809,"lng":-81.64937,"zip":"29808","miles_from_dt":14.65},{"city":"Allendale","state_name":"South Carolina","lat":32.99358,"lng":-81.3798,"zip":"29810","miles_from_dt":16.04},{"city":"Perkins","state_name":"Georgia","lat":32.91866,"lng":-81.94439,"zip":"30822","miles_from_dt":18.82},{"city":"Waynesboro","state_name":"Georgia","lat":33.08204,"lng":-81.9751,"zip":"30830","miles_from_dt":19.05},{"city":"Sylvania","state_name":"Georgia","lat":32.75114,"lng":-81.60468,"zip":"30467","miles_from_dt":19.78},{"city":"Barnwell","state_name":"South Carolina","lat":33.21185,"lng":-81.37911,"zip":"29812","miles_from_dt":19.94},{"city":"Hilda","state_name":"South Carolina","lat":33.24191,"lng":-81.36178,"zip":"29813","miles_from_dt":22.02},{"city":"Luray","state_name":"South Carolina","lat":32.82529,"lng":-81.34853,"zip":"29932","miles_from_dt":22.8},{"city":"Jackson","state_name":"South Carolina","lat":33.33657,"lng":-81.84293,"zip":"29831","miles_from_dt":23.53},{"city":"Fairfax","state_name":"South Carolina","lat":32.96951,"lng":-81.24542,"zip":"29827","miles_from_dt":24.02},{"city":"Millen","state_name":"Georgia","lat":32.81677,"lng":-81.97549,"zip":"30442","miles_from_dt":24.11},{"city":"Ulmer","state_name":"South Carolina","lat":33.10168,"lng":-81.23641,"zip":"29849","miles_from_dt":24.52},{"city":"Rocky Ford","state_name":"Georgia","lat":32.70111,"lng":-81.80652,"zip":"30455","miles_from_dt":24.74},{"city":"Sycamore","state_name":"South Carolina","lat":33.03781,"lng":-81.22462,"zip":"29846","miles_from_dt":24.78},{"city":"New Ellenton","state_name":"South Carolina","lat":33.41653,"lng":-81.6889,"zip":"29809","miles_from_dt":26.35},{"city":"Gifford","state_name":"South Carolina","lat":32.84821,"lng":-81.23856,"zip":"29923","miles_from_dt":27.25},{"city":"Williston","state_name":"South Carolina","lat":33.39871,"lng":-81.43217,"zip":"29853","miles_from_dt":28.08},{"city":"Augusta","state_name":"Georgia","lat":33.34842,"lng":-81.97239,"zip":"30906","miles_from_dt":28.47},{"city":"Olar","state_name":"South Carolina","lat":33.18385,"lng":-81.18218,"zip":"29843","miles_from_dt":29.08},{"city":"Elko","state_name":"South Carolina","lat":33.383,"lng":-81.36697,"zip":"29826","miles_from_dt":29.08},{"city":"Aiken","state_name":"South Carolina","lat":33.45889,"lng":-81.70076,"zip":"29803","miles_from_dt":29.32}],"targetCityZipCode":"30426","targetCityState":"Georgia"},"__N_SSG":true}