{"pageProps":{"stateName":"Georgia","cityName":"hartwell","nearbyCities":[{"city":"Bowersville","state_name":"Georgia","lat":34.37535,"lng":-83.03748,"zip":"30516","miles_from_dt":7.24},{"city":"Canon","state_name":"Georgia","lat":34.33833,"lng":-83.08661,"zip":"30520","miles_from_dt":10.18},{"city":"Fair Play","state_name":"South Carolina","lat":34.50506,"lng":-82.97441,"zip":"29643","miles_from_dt":10.33},{"city":"Starr","state_name":"South Carolina","lat":34.3791,"lng":-82.72722,"zip":"29684","miles_from_dt":10.58},{"city":"Anderson","state_name":"South Carolina","lat":34.46004,"lng":-82.76057,"zip":"29626","miles_from_dt":10.84},{"city":"Dewy Rose","state_name":"Georgia","lat":34.20307,"lng":-82.94522,"zip":"30634","miles_from_dt":11.3},{"city":"Lavonia","state_name":"Georgia","lat":34.44473,"lng":-83.08771,"zip":"30553","miles_from_dt":11.48},{"city":"Townville","state_name":"South Carolina","lat":34.53624,"lng":-82.87658,"zip":"29689","miles_from_dt":11.99},{"city":"Bowman","state_name":"Georgia","lat":34.18097,"lng":-83.03885,"zip":"30624","miles_from_dt":14.61},{"city":"Franklin Springs","state_name":"Georgia","lat":34.28283,"lng":-83.15232,"zip":"30639","miles_from_dt":14.89},{"city":"Royston","state_name":"Georgia","lat":34.26383,"lng":-83.14624,"zip":"30662","miles_from_dt":15.12},{"city":"Anderson","state_name":"South Carolina","lat":34.51984,"lng":-82.71706,"zip":"29623","miles_from_dt":15.42},{"city":"Anderson","state_name":"South Carolina","lat":34.55577,"lng":-82.76294,"zip":"29625","miles_from_dt":15.67},{"city":"Iva","state_name":"South Carolina","lat":34.267,"lng":-82.64032,"zip":"29655","miles_from_dt":16.9},{"city":"Anderson","state_name":"South Carolina","lat":34.49972,"lng":-82.66071,"zip":"29622","miles_from_dt":17.08},{"city":"Anderson","state_name":"South Carolina","lat":34.43778,"lng":-82.62553,"zip":"29624","miles_from_dt":17.09},{"city":"Martin","state_name":"Georgia","lat":34.48143,"lng":-83.18484,"zip":"30557","miles_from_dt":17.57},{"city":"Lowndesville","state_name":"South Carolina","lat":34.21167,"lng":-82.64535,"zip":"29659","miles_from_dt":18.52},{"city":"Seneca","state_name":"South Carolina","lat":34.63365,"lng":-82.93991,"zip":"29678","miles_from_dt":18.61},{"city":"Sandy Springs","state_name":"South Carolina","lat":34.59519,"lng":-82.73756,"zip":"29677","miles_from_dt":18.74},{"city":"Elberton","state_name":"Georgia","lat":34.10346,"lng":-82.80145,"zip":"30635","miles_from_dt":19.07},{"city":"La France","state_name":"South Carolina","lat":34.61207,"lng":-82.76134,"zip":"29656","miles_from_dt":19.09},{"city":"Anderson","state_name":"South Carolina","lat":34.50598,"lng":-82.60328,"zip":"29621","miles_from_dt":20.12},{"city":"Clemson","state_name":"South Carolina","lat":34.67517,"lng":-82.83978,"zip":"29634","miles_from_dt":21.79},{"city":"Carnesville","state_name":"Georgia","lat":34.36202,"lng":-83.29355,"zip":"30521","miles_from_dt":21.84},{"city":"Pendleton","state_name":"South Carolina","lat":34.64191,"lng":-82.72455,"zip":"29670","miles_from_dt":21.89},{"city":"Seneca","state_name":"South Carolina","lat":34.68597,"lng":-82.94482,"zip":"29679","miles_from_dt":22.23},{"city":"Clemson","state_name":"South Carolina","lat":34.68133,"lng":-82.81716,"zip":"29631","miles_from_dt":22.48},{"city":"Eastanollee","state_name":"Georgia","lat":34.5035,"lng":-83.26888,"zip":"30538","miles_from_dt":22.55},{"city":"Clemson","state_name":"South Carolina","lat":34.68501,"lng":-82.8112,"zip":"29632","miles_from_dt":22.81},{"city":"Comer","state_name":"Georgia","lat":34.07779,"lng":-83.11625,"zip":"30629","miles_from_dt":22.99},{"city":"Danielsville","state_name":"Georgia","lat":34.17896,"lng":-83.24612,"zip":"30633","miles_from_dt":23.03},{"city":"Clemson","state_name":"South Carolina","lat":34.69888,"lng":-82.89315,"zip":"29633","miles_from_dt":23.06},{"city":"Richland","state_name":"South Carolina","lat":34.70479,"lng":-83.02001,"zip":"29675","miles_from_dt":24.25},{"city":"Westminster","state_name":"South Carolina","lat":34.65641,"lng":-83.15284,"zip":"29693","miles_from_dt":24.38},{"city":"Newry","state_name":"South Carolina","lat":34.72399,"lng":-82.91413,"zip":"29665","miles_from_dt":24.77},{"city":"Ila","state_name":"Georgia","lat":34.17269,"lng":-83.29241,"zip":"30647","miles_from_dt":25.5},{"city":"Carlton","state_name":"Georgia","lat":33.98264,"lng":-82.96265,"zip":"30627","miles_from_dt":26.49},{"city":"Central","state_name":"South Carolina","lat":34.73882,"lng":-82.79646,"zip":"29630","miles_from_dt":26.61},{"city":"Seneca","state_name":"South Carolina","lat":34.75036,"lng":-82.94257,"zip":"29672","miles_from_dt":26.65},{"city":"Belton","state_name":"South Carolina","lat":34.51807,"lng":-82.47861,"zip":"29627","miles_from_dt":26.88},{"city":"Toccoa","state_name":"Georgia","lat":34.55549,"lng":-83.32632,"zip":"30577","miles_from_dt":27.1},{"city":"Calhoun Falls","state_name":"South Carolina","lat":34.09253,"lng":-82.55821,"zip":"29628","miles_from_dt":27.58},{"city":"Williamston","state_name":"South Carolina","lat":34.62887,"lng":-82.54786,"zip":"29697","miles_from_dt":27.61},{"city":"Due West","state_name":"South Carolina","lat":34.31402,"lng":-82.4205,"zip":"29639","miles_from_dt":28.29},{"city":"Commerce","state_name":"Georgia","lat":34.22691,"lng":-83.38433,"zip":"30530","miles_from_dt":28.67},{"city":"Colbert","state_name":"Georgia","lat":34.03115,"lng":-83.21364,"zip":"30628","miles_from_dt":28.77},{"city":"West Union","state_name":"South Carolina","lat":34.77458,"lng":-83.00771,"zip":"29696","miles_from_dt":28.79},{"city":"Norris","state_name":"South Carolina","lat":34.76446,"lng":-82.75655,"zip":"29667","miles_from_dt":28.94},{"city":"Toccoa Falls","state_name":"Georgia","lat":34.59663,"lng":-83.35411,"zip":"30598","miles_from_dt":29.9}],"targetCityZipCode":"30643","targetCityState":"Georgia"},"__N_SSG":true}