{"pageProps":{"stateName":"Georgia","cityName":"hazlehurst","nearbyCities":[{"city":"Lumber City","state_name":"Georgia","lat":31.94503,"lng":-82.70922,"zip":"31549","miles_from_dt":10.3},{"city":"Denton","state_name":"Georgia","lat":31.72462,"lng":-82.74889,"zip":"31532","miles_from_dt":10.82},{"city":"West Green","state_name":"Georgia","lat":31.63011,"lng":-82.70705,"zip":"31567","miles_from_dt":14.61},{"city":"Uvalda","state_name":"Georgia","lat":32.01613,"lng":-82.47198,"zip":"30473","miles_from_dt":15.43},{"city":"Baxley","state_name":"Georgia","lat":31.77602,"lng":-82.35016,"zip":"31515","miles_from_dt":15.45},{"city":"Baxley","state_name":"Georgia","lat":31.77792,"lng":-82.34622,"zip":"31513","miles_from_dt":15.64},{"city":"Broxton","state_name":"Georgia","lat":31.67641,"lng":-82.86946,"zip":"31519","miles_from_dt":18.52},{"city":"Alston","state_name":"Georgia","lat":32.07973,"lng":-82.48643,"zip":"30412","miles_from_dt":18.99},{"city":"Scotland","state_name":"Georgia","lat":32.04473,"lng":-82.81957,"zip":"31083","miles_from_dt":19.7},{"city":"McRae Helena","state_name":"Georgia","lat":31.98248,"lng":-82.89046,"zip":"31055","miles_from_dt":19.94},{"city":"Jacksonville","state_name":"Georgia","lat":31.83802,"lng":-82.95561,"zip":"31544","miles_from_dt":20.55},{"city":"Alma","state_name":"Georgia","lat":31.54729,"lng":-82.43992,"zip":"31510","miles_from_dt":21.44},{"city":"Douglas","state_name":"Georgia","lat":31.55021,"lng":-82.8287,"zip":"31533","miles_from_dt":22.95},{"city":"Alamo","state_name":"Georgia","lat":32.1254,"lng":-82.79362,"zip":"30411","miles_from_dt":23.5},{"city":"Nicholls","state_name":"Georgia","lat":31.48265,"lng":-82.61861,"zip":"31554","miles_from_dt":23.52},{"city":"Mount Vernon","state_name":"Georgia","lat":32.16715,"lng":-82.58413,"zip":"30445","miles_from_dt":23.69},{"city":"Ailey","state_name":"Georgia","lat":32.18655,"lng":-82.51767,"zip":"30410","miles_from_dt":25.52},{"city":"Surrency","state_name":"Georgia","lat":31.73653,"lng":-82.18288,"zip":"31563","miles_from_dt":25.65},{"city":"Douglas","state_name":"Georgia","lat":31.50604,"lng":-82.84986,"zip":"31534","miles_from_dt":26.18},{"city":"Glenwood","state_name":"Georgia","lat":32.21706,"lng":-82.71436,"zip":"30428","miles_from_dt":27.82},{"city":"McRae Helena","state_name":"Georgia","lat":32.12056,"lng":-82.93245,"zip":"31037","miles_from_dt":28},{"city":"Wray","state_name":"Georgia","lat":31.64117,"lng":-83.04333,"zip":"31798","miles_from_dt":28.64},{"city":"Milan","state_name":"Georgia","lat":31.98333,"lng":-83.05673,"zip":"31060","miles_from_dt":28.65},{"city":"Lyons","state_name":"Georgia","lat":32.1494,"lng":-82.29026,"zip":"30436","miles_from_dt":29.12},{"city":"Vidalia","state_name":"Georgia","lat":32.21108,"lng":-82.40389,"zip":"30475","miles_from_dt":29.21},{"city":"Douglas","state_name":"Georgia","lat":31.45841,"lng":-82.86504,"zip":"31535","miles_from_dt":29.43},{"city":"Vidalia","state_name":"Georgia","lat":32.22393,"lng":-82.41381,"zip":"30474","miles_from_dt":29.79}],"targetCityZipCode":"31539","targetCityState":"Georgia"},"__N_SSG":true}