{"pageProps":{"stateName":"Georgia","cityName":"hoboken","nearbyCities":[{"city":"Nahunta","state_name":"Georgia","lat":31.17307,"lng":-81.98026,"zip":"31553","miles_from_dt":8.49},{"city":"Blackshear","state_name":"Georgia","lat":31.30946,"lng":-82.2565,"zip":"31516","miles_from_dt":13.42},{"city":"Waycross","state_name":"Georgia","lat":31.22693,"lng":-82.34852,"zip":"31501","miles_from_dt":14.37},{"city":"Waycross","state_name":"Georgia","lat":31.21063,"lng":-82.35954,"zip":"31502","miles_from_dt":14.64},{"city":"Patterson","state_name":"Georgia","lat":31.3745,"lng":-82.09711,"zip":"31557","miles_from_dt":15.34},{"city":"Waycross","state_name":"Georgia","lat":31.17687,"lng":-82.40173,"zip":"31503","miles_from_dt":16.67},{"city":"Offerman","state_name":"Georgia","lat":31.40508,"lng":-82.1152,"zip":"31556","miles_from_dt":17.38},{"city":"Folkston","state_name":"Georgia","lat":30.89223,"lng":-82.12492,"zip":"31537","miles_from_dt":17.95},{"city":"Waynesville","state_name":"Georgia","lat":31.18357,"lng":-81.8084,"zip":"31566","miles_from_dt":18.68},{"city":"White Oak","state_name":"Georgia","lat":31.00975,"lng":-81.82218,"zip":"31568","miles_from_dt":20.31},{"city":"Waresboro","state_name":"Georgia","lat":31.24872,"lng":-82.47093,"zip":"31564","miles_from_dt":21.71},{"city":"Hortense","state_name":"Georgia","lat":31.34455,"lng":-81.82697,"zip":"31543","miles_from_dt":21.88},{"city":"Screven","state_name":"Georgia","lat":31.50312,"lng":-82.02896,"zip":"31560","miles_from_dt":24.75},{"city":"Mershon","state_name":"Georgia","lat":31.49223,"lng":-82.27322,"zip":"31551","miles_from_dt":25.04},{"city":"Bristol","state_name":"Georgia","lat":31.51272,"lng":-82.18325,"zip":"31518","miles_from_dt":25.06},{"city":"Manor","state_name":"Georgia","lat":31.13924,"lng":-82.59575,"zip":"31550","miles_from_dt":28.11},{"city":"Waverly","state_name":"Georgia","lat":31.06868,"lng":-81.64783,"zip":"31565","miles_from_dt":28.68},{"city":"Millwood","state_name":"Georgia","lat":31.29144,"lng":-82.5996,"zip":"31552","miles_from_dt":29.87}],"targetCityZipCode":"31542","targetCityState":"Georgia"},"__N_SSG":true}