{"pageProps":{"stateName":"Georgia","cityName":"lenox","nearbyCities":[{"city":"Sparks","state_name":"Georgia","lat":31.21033,"lng":-83.43158,"zip":"31647","miles_from_dt":5.72},{"city":"Brookfield","state_name":"Georgia","lat":31.41778,"lng":-83.3874,"zip":"31727","miles_from_dt":9.16},{"city":"Omega","state_name":"Georgia","lat":31.33418,"lng":-83.60366,"zip":"31775","miles_from_dt":10.04},{"city":"Tifton","state_name":"Georgia","lat":31.44418,"lng":-83.45151,"zip":"31794","miles_from_dt":10.43},{"city":"Enigma","state_name":"Georgia","lat":31.42128,"lng":-83.3315,"zip":"31749","miles_from_dt":10.95},{"city":"Ellenton","state_name":"Georgia","lat":31.1753,"lng":-83.58736,"zip":"31747","miles_from_dt":11.87},{"city":"Adel","state_name":"Georgia","lat":31.11861,"lng":-83.43731,"zip":"31620","miles_from_dt":12.02},{"city":"Norman Park","state_name":"Georgia","lat":31.24332,"lng":-83.64775,"zip":"31771","miles_from_dt":12.71},{"city":"Tifton","state_name":"Georgia","lat":31.46104,"lng":-83.58386,"zip":"31793","miles_from_dt":14.33},{"city":"Alapaha","state_name":"Georgia","lat":31.37446,"lng":-83.2023,"zip":"31622","miles_from_dt":15.19},{"city":"Nashville","state_name":"Georgia","lat":31.21239,"lng":-83.19248,"zip":"31639","miles_from_dt":15.72},{"city":"Cecil","state_name":"Georgia","lat":31.03923,"lng":-83.39238,"zip":"31627","miles_from_dt":17.72},{"city":"Ty Ty","state_name":"Georgia","lat":31.47611,"lng":-83.67633,"zip":"31795","miles_from_dt":18.78},{"city":"Moultrie","state_name":"Georgia","lat":31.10891,"lng":-83.68099,"zip":"31788","miles_from_dt":19.05},{"city":"Berlin","state_name":"Georgia","lat":31.05492,"lng":-83.61559,"zip":"31722","miles_from_dt":19.39},{"city":"Ray City","state_name":"Georgia","lat":31.06245,"lng":-83.21846,"zip":"31645","miles_from_dt":20.64},{"city":"Chula","state_name":"Georgia","lat":31.59293,"lng":-83.48599,"zip":"31733","miles_from_dt":20.83},{"city":"Ocilla","state_name":"Georgia","lat":31.56102,"lng":-83.27125,"zip":"31774","miles_from_dt":21.01},{"city":"Mystic","state_name":"Georgia","lat":31.56307,"lng":-83.27042,"zip":"31769","miles_from_dt":21.16},{"city":"Barney","state_name":"Georgia","lat":30.9918,"lng":-83.52556,"zip":"31625","miles_from_dt":21.35},{"city":"Sumner","state_name":"Georgia","lat":31.47858,"lng":-83.73257,"zip":"31789","miles_from_dt":21.46},{"city":"Hahira","state_name":"Georgia","lat":30.9876,"lng":-83.36006,"zip":"31632","miles_from_dt":21.58},{"city":"Moultrie","state_name":"Georgia","lat":31.15565,"lng":-83.7939,"zip":"31776","miles_from_dt":22.94},{"city":"Moultrie","state_name":"Georgia","lat":31.19329,"lng":-83.84047,"zip":"31768","miles_from_dt":24.63},{"city":"Irwinville","state_name":"Georgia","lat":31.65664,"lng":-83.41012,"zip":"31760","miles_from_dt":25.12},{"city":"Willacoochee","state_name":"Georgia","lat":31.38327,"lng":-83.02761,"zip":"31650","miles_from_dt":25.22},{"city":"Sycamore","state_name":"Georgia","lat":31.64823,"lng":-83.5693,"zip":"31790","miles_from_dt":25.62},{"city":"Funston","state_name":"Georgia","lat":31.20044,"lng":-83.87287,"zip":"31753","miles_from_dt":26.35},{"city":"Moody Afb","state_name":"Georgia","lat":30.96666,"lng":-83.19237,"zip":"31699","miles_from_dt":26.88},{"city":"Lakeland","state_name":"Georgia","lat":31.103,"lng":-83.04317,"zip":"31635","miles_from_dt":26.95},{"city":"Morven","state_name":"Georgia","lat":30.90627,"lng":-83.51589,"zip":"31638","miles_from_dt":27.01},{"city":"Pavo","state_name":"Georgia","lat":30.9754,"lng":-83.70931,"zip":"31778","miles_from_dt":27.05},{"city":"Valdosta","state_name":"Georgia","lat":30.93334,"lng":-83.23482,"zip":"31605","miles_from_dt":27.63},{"city":"Doerun","state_name":"Georgia","lat":31.33709,"lng":-83.90646,"zip":"31744","miles_from_dt":27.7},{"city":"Poulan","state_name":"Georgia","lat":31.56062,"lng":-83.79316,"zip":"31781","miles_from_dt":27.8},{"city":"Valdosta","state_name":"Georgia","lat":30.86734,"lng":-83.34269,"zip":"31602","miles_from_dt":29.9},{"city":"Valdosta","state_name":"Georgia","lat":30.88111,"lng":-83.28047,"zip":"31604","miles_from_dt":29.93}],"targetCityZipCode":"31637","targetCityState":"Georgia"},"__N_SSG":true}