{"pageProps":{"stateName":"Georgia","cityName":"locust-grove","nearbyCities":[{"city":"Jenkinsburg","state_name":"Georgia","lat":33.33001,"lng":-84.02617,"zip":"30234","miles_from_dt":4.95},{"city":"Mcdonough","state_name":"Georgia","lat":33.45028,"lng":-84.18579,"zip":"30253","miles_from_dt":8.25},{"city":"Jackson","state_name":"Georgia","lat":33.29492,"lng":-83.97501,"zip":"30233","miles_from_dt":8.59},{"city":"Mcdonough","state_name":"Georgia","lat":33.47206,"lng":-84.06416,"zip":"30252","miles_from_dt":8.81},{"city":"Sunny Side","state_name":"Georgia","lat":33.34032,"lng":-84.28858,"zip":"30284","miles_from_dt":10.44},{"city":"Griffin","state_name":"Georgia","lat":33.28635,"lng":-84.28012,"zip":"30223","miles_from_dt":10.86},{"city":"Experiment","state_name":"Georgia","lat":33.2677,"lng":-84.28275,"zip":"30212","miles_from_dt":11.57},{"city":"Hampton","state_name":"Georgia","lat":33.40374,"lng":-84.30575,"zip":"30228","miles_from_dt":12},{"city":"Griffin","state_name":"Georgia","lat":33.20411,"lng":-84.23587,"zip":"30224","miles_from_dt":12.46},{"city":"Lovejoy","state_name":"Georgia","lat":33.43473,"lng":-84.30603,"zip":"30250","miles_from_dt":12.84},{"city":"Orchard Hill","state_name":"Georgia","lat":33.17419,"lng":-84.21516,"zip":"30266","miles_from_dt":13.59},{"city":"Milner","state_name":"Georgia","lat":33.14218,"lng":-84.18606,"zip":"30257","miles_from_dt":15},{"city":"Flovilla","state_name":"Georgia","lat":33.23951,"lng":-83.88162,"zip":"30216","miles_from_dt":15.16},{"city":"Covington","state_name":"Georgia","lat":33.51836,"lng":-83.93073,"zip":"30016","miles_from_dt":15.5},{"city":"Stockbridge","state_name":"Georgia","lat":33.56338,"lng":-84.1961,"zip":"30281","miles_from_dt":15.57},{"city":"Jonesboro","state_name":"Georgia","lat":33.52157,"lng":-84.32405,"zip":"30236","miles_from_dt":17.19},{"city":"Conyers","state_name":"Georgia","lat":33.61243,"lng":-84.0555,"zip":"30094","miles_from_dt":18.36},{"city":"Jonesboro","state_name":"Georgia","lat":33.5229,"lng":-84.353,"zip":"30237","miles_from_dt":18.5},{"city":"Rex","state_name":"Georgia","lat":33.58365,"lng":-84.27208,"zip":"30273","miles_from_dt":18.69},{"city":"Jonesboro","state_name":"Georgia","lat":33.4949,"lng":-84.38181,"zip":"30238","miles_from_dt":18.7},{"city":"Porterdale","state_name":"Georgia","lat":33.5733,"lng":-83.89546,"zip":"30070","miles_from_dt":19.71},{"city":"Barnesville","state_name":"Georgia","lat":33.05844,"lng":-84.12343,"zip":"30204","miles_from_dt":20.09},{"city":"Fayetteville","state_name":"Georgia","lat":33.3888,"lng":-84.45709,"zip":"30215","miles_from_dt":20.34},{"city":"Williamson","state_name":"Georgia","lat":33.17207,"lng":-84.39438,"zip":"30292","miles_from_dt":20.59},{"city":"Morrow","state_name":"Georgia","lat":33.5862,"lng":-84.33046,"zip":"30260","miles_from_dt":20.74},{"city":"Zebulon","state_name":"Georgia","lat":33.09319,"lng":-84.31819,"zip":"30295","miles_from_dt":21.45},{"city":"Brooks","state_name":"Georgia","lat":33.26911,"lng":-84.46634,"zip":"30205","miles_from_dt":21.45},{"city":"Conyers","state_name":"Georgia","lat":33.643,"lng":-83.97147,"zip":"30013","miles_from_dt":21.7},{"city":"Ellenwood","state_name":"Georgia","lat":33.6371,"lng":-84.26289,"zip":"30294","miles_from_dt":21.72},{"city":"Morrow","state_name":"Georgia","lat":33.54979,"lng":-84.4031,"zip":"30287","miles_from_dt":21.91},{"city":"Riverdale","state_name":"Georgia","lat":33.55583,"lng":-84.40091,"zip":"30274","miles_from_dt":22.08},{"city":"Lithonia","state_name":"Georgia","lat":33.67078,"lng":-84.14209,"zip":"30038","miles_from_dt":22.21},{"city":"Covington","state_name":"Georgia","lat":33.60047,"lng":-83.85378,"zip":"30015","miles_from_dt":22.69},{"city":"Atlanta","state_name":"Georgia","lat":33.57683,"lng":-84.39474,"zip":"30374","miles_from_dt":22.77},{"city":"Covington","state_name":"Georgia","lat":33.58109,"lng":-83.8191,"zip":"30014","miles_from_dt":23.1},{"city":"Mansfield","state_name":"Georgia","lat":33.49055,"lng":-83.74224,"zip":"30055","miles_from_dt":23.28},{"city":"Forest Park","state_name":"Georgia","lat":33.62019,"lng":-84.3558,"zip":"30298","miles_from_dt":23.48},{"city":"Norcross","state_name":"Georgia","lat":33.68081,"lng":-84.00732,"zip":"30003","miles_from_dt":23.55},{"city":"Forest Park","state_name":"Georgia","lat":33.61511,"lng":-84.37145,"zip":"30297","miles_from_dt":23.78},{"city":"Forsyth","state_name":"Georgia","lat":33.03894,"lng":-83.92977,"zip":"31029","miles_from_dt":23.79},{"city":"Fayetteville","state_name":"Georgia","lat":33.49222,"lng":-84.48697,"zip":"30214","miles_from_dt":23.98},{"city":"Monticello","state_name":"Georgia","lat":33.29031,"lng":-83.69986,"zip":"31064","miles_from_dt":23.99},{"city":"Riverdale","state_name":"Georgia","lat":33.56351,"lng":-84.44254,"zip":"30296","miles_from_dt":24.28},{"city":"Conley","state_name":"Georgia","lat":33.65502,"lng":-84.32813,"zip":"30288","miles_from_dt":24.57},{"city":"Decatur","state_name":"Georgia","lat":33.69198,"lng":-84.24835,"zip":"30034","miles_from_dt":24.93},{"city":"Decatur","state_name":"Georgia","lat":33.69156,"lng":-84.25328,"zip":"30037","miles_from_dt":25},{"city":"Meansville","state_name":"Georgia","lat":33.01654,"lng":-84.31515,"zip":"30256","miles_from_dt":25.9},{"city":"Atlanta","state_name":"Georgia","lat":33.64631,"lng":-84.38951,"zip":"30380","miles_from_dt":26.1},{"city":"Conyers","state_name":"Georgia","lat":33.71739,"lng":-83.99913,"zip":"30012","miles_from_dt":26.11},{"city":"Atlanta","state_name":"Georgia","lat":33.64785,"lng":-84.3884,"zip":"30388","miles_from_dt":26.14},{"city":"Oxford","state_name":"Georgia","lat":33.67651,"lng":-83.87558,"zip":"30054","miles_from_dt":26.23},{"city":"Atlanta","state_name":"Georgia","lat":33.65034,"lng":-84.38904,"zip":"30398","miles_from_dt":26.3},{"city":"Atlanta","state_name":"Georgia","lat":33.64767,"lng":-84.39374,"zip":"30396","miles_from_dt":26.33},{"city":"Atlanta","state_name":"Georgia","lat":33.64917,"lng":-84.39257,"zip":"30368","miles_from_dt":26.36},{"city":"The Rock","state_name":"Georgia","lat":32.98647,"lng":-84.25255,"zip":"30285","miles_from_dt":26.39},{"city":"Decatur","state_name":"Georgia","lat":33.72563,"lng":-84.20541,"zip":"30035","miles_from_dt":26.5},{"city":"Atlanta","state_name":"Georgia","lat":33.65155,"lng":-84.39425,"zip":"30304","miles_from_dt":26.55},{"city":"Lithonia","state_name":"Georgia","lat":33.7377,"lng":-84.10779,"zip":"30058","miles_from_dt":26.74},{"city":"Atlanta","state_name":"Georgia","lat":33.66058,"lng":-84.38609,"zip":"30354","miles_from_dt":26.76},{"city":"Peachtree City","state_name":"Georgia","lat":33.39375,"lng":-84.56974,"zip":"30269","miles_from_dt":26.85},{"city":"Concord","state_name":"Georgia","lat":33.09671,"lng":-84.46303,"zip":"30206","miles_from_dt":26.95},{"city":"Atlanta","state_name":"Georgia","lat":33.63564,"lng":-84.43329,"zip":"30320","miles_from_dt":27.21},{"city":"Redan","state_name":"Georgia","lat":33.74461,"lng":-84.13599,"zip":"30074","miles_from_dt":27.26},{"city":"Juliette","state_name":"Georgia","lat":33.05237,"lng":-83.78302,"zip":"31046","miles_from_dt":27.84},{"city":"Senoia","state_name":"Georgia","lat":33.26552,"lng":-84.582,"zip":"30276","miles_from_dt":28.01},{"city":"Haralson","state_name":"Georgia","lat":33.22791,"lng":-84.57033,"zip":"30229","miles_from_dt":28.02},{"city":"Peachtree City","state_name":"Georgia","lat":33.39406,"lng":-84.59025,"zip":"31169","miles_from_dt":28.03},{"city":"Shady Dale","state_name":"Georgia","lat":33.42557,"lng":-83.631,"zip":"31085","miles_from_dt":28.09},{"city":"Atlanta","state_name":"Georgia","lat":33.64019,"lng":-84.44962,"zip":"30337","miles_from_dt":28.09},{"city":"Atlanta","state_name":"Georgia","lat":33.71277,"lng":-84.33218,"zip":"30316","miles_from_dt":28.16},{"city":"Newborn","state_name":"Georgia","lat":33.49496,"lng":-83.65068,"zip":"30056","miles_from_dt":28.28},{"city":"Decatur","state_name":"Georgia","lat":33.73987,"lng":-84.2641,"zip":"30032","miles_from_dt":28.35},{"city":"Stone Mountain","state_name":"Georgia","lat":33.75959,"lng":-84.17918,"zip":"30088","miles_from_dt":28.54},{"city":"Peachtree City","state_name":"Georgia","lat":33.4,"lng":-84.60219,"zip":"30270","miles_from_dt":28.76},{"city":"Atlanta","state_name":"Georgia","lat":33.70312,"lng":-84.38272,"zip":"30315","miles_from_dt":29.05},{"city":"Tyrone","state_name":"Georgia","lat":33.47675,"lng":-84.58804,"zip":"30290","miles_from_dt":29.07},{"city":"Union City","state_name":"Georgia","lat":33.57569,"lng":-84.5408,"zip":"30291","miles_from_dt":29.43},{"city":"Red Oak","state_name":"Georgia","lat":33.62313,"lng":-84.50175,"zip":"30272","miles_from_dt":29.51},{"city":"Atlanta","state_name":"Georgia","lat":33.67439,"lng":-84.44161,"zip":"30385","miles_from_dt":29.51}],"targetCityZipCode":"30248","targetCityState":"Georgia"},"__N_SSG":true}