{"pageProps":{"stateName":"Georgia","cityName":"murrayville","nearbyCities":[{"city":"Clermont","state_name":"Georgia","lat":34.47948,"lng":-83.7863,"zip":"30527","miles_from_dt":5.52},{"city":"Dahlonega","state_name":"Georgia","lat":34.52762,"lng":-83.98462,"zip":"30597","miles_from_dt":6.95},{"city":"Gainesville","state_name":"Georgia","lat":34.37128,"lng":-83.82255,"zip":"30503","miles_from_dt":7.78},{"city":"Gainesville","state_name":"Georgia","lat":34.34918,"lng":-83.89486,"zip":"30506","miles_from_dt":8.53},{"city":"Dahlonega","state_name":"Georgia","lat":34.57344,"lng":-84.01576,"zip":"30533","miles_from_dt":10.3},{"city":"Cleveland","state_name":"Georgia","lat":34.6083,"lng":-83.77589,"zip":"30528","miles_from_dt":11.16},{"city":"Gainesville","state_name":"Georgia","lat":34.31844,"lng":-83.81636,"zip":"30501","miles_from_dt":11.27},{"city":"Lula","state_name":"Georgia","lat":34.40093,"lng":-83.65926,"zip":"30554","miles_from_dt":13.68},{"city":"Gainesville","state_name":"Georgia","lat":34.26639,"lng":-83.88751,"zip":"30504","miles_from_dt":14.21},{"city":"Dawsonville","state_name":"Georgia","lat":34.43085,"lng":-84.1439,"zip":"30534","miles_from_dt":15.19},{"city":"Gainesville","state_name":"Georgia","lat":34.26082,"lng":-83.76622,"zip":"30507","miles_from_dt":16.04},{"city":"Oakwood","state_name":"Georgia","lat":34.23747,"lng":-83.89477,"zip":"30566","miles_from_dt":16.22},{"city":"Cornelia","state_name":"Georgia","lat":34.51017,"lng":-83.59103,"zip":"30531","miles_from_dt":16.84},{"city":"Alto","state_name":"Georgia","lat":34.44194,"lng":-83.58446,"zip":"30510","miles_from_dt":17.15},{"city":"Gillsville","state_name":"Georgia","lat":34.29781,"lng":-83.64971,"zip":"30543","miles_from_dt":17.95},{"city":"Demorest","state_name":"Georgia","lat":34.58063,"lng":-83.57652,"zip":"30535","miles_from_dt":18.99},{"city":"Helen","state_name":"Georgia","lat":34.74208,"lng":-83.75813,"zip":"30545","miles_from_dt":19.89},{"city":"Sautee Nacoochee","state_name":"Georgia","lat":34.71219,"lng":-83.68322,"zip":"30571","miles_from_dt":20.05},{"city":"Flowery Branch","state_name":"Georgia","lat":34.17846,"lng":-83.90915,"zip":"30542","miles_from_dt":20.32},{"city":"Chestnut Mountain","state_name":"Georgia","lat":34.17686,"lng":-83.90784,"zip":"30502","miles_from_dt":20.43},{"city":"Talmo","state_name":"Georgia","lat":34.20353,"lng":-83.71556,"zip":"30575","miles_from_dt":20.86},{"city":"Suches","state_name":"Georgia","lat":34.73539,"lng":-84.07364,"zip":"30572","miles_from_dt":21.14},{"city":"Cumming","state_name":"Georgia","lat":34.28928,"lng":-84.17985,"zip":"30028","miles_from_dt":21.17},{"city":"Marble Hill","state_name":"Georgia","lat":34.46009,"lng":-84.2648,"zip":"30148","miles_from_dt":21.84},{"city":"Cumming","state_name":"Georgia","lat":34.20166,"lng":-84.09371,"zip":"30041","miles_from_dt":22.23},{"city":"Maysville","state_name":"Georgia","lat":34.2683,"lng":-83.56787,"zip":"30558","miles_from_dt":22.84},{"city":"Pendergrass","state_name":"Georgia","lat":34.18326,"lng":-83.6814,"zip":"30567","miles_from_dt":23.02},{"city":"Baldwin","state_name":"Georgia","lat":34.45674,"lng":-83.47474,"zip":"30511","miles_from_dt":23.31},{"city":"Braselton","state_name":"Georgia","lat":34.13047,"lng":-83.7975,"zip":"30517","miles_from_dt":24.07},{"city":"Cumming","state_name":"Georgia","lat":34.21622,"lng":-84.17978,"zip":"30040","miles_from_dt":24.51},{"city":"Mount Airy","state_name":"Georgia","lat":34.5596,"lng":-83.46283,"zip":"30563","miles_from_dt":24.69},{"city":"Buford","state_name":"Georgia","lat":34.132,"lng":-84.02578,"zip":"30518","miles_from_dt":24.86},{"city":"Turnerville","state_name":"Georgia","lat":34.68976,"lng":-83.52623,"zip":"30580","miles_from_dt":25.24},{"city":"Homer","state_name":"Georgia","lat":34.35737,"lng":-83.46095,"zip":"30547","miles_from_dt":25.36},{"city":"Clarkesville","state_name":"Georgia","lat":34.72012,"lng":-83.54166,"zip":"30523","miles_from_dt":25.86},{"city":"Buford","state_name":"Georgia","lat":34.08792,"lng":-83.9423,"zip":"30519","miles_from_dt":26.73},{"city":"Blairsville","state_name":"Georgia","lat":34.85667,"lng":-83.97204,"zip":"30512","miles_from_dt":26.97},{"city":"Hoschton","state_name":"Georgia","lat":34.09311,"lng":-83.7646,"zip":"30548","miles_from_dt":27.01},{"city":"Buford","state_name":"Georgia","lat":34.87613,"lng":-83.95281,"zip":"30515","miles_from_dt":28.11},{"city":"Blairsville","state_name":"Georgia","lat":34.87613,"lng":-83.95281,"zip":"30514","miles_from_dt":28.11},{"city":"Ball Ground","state_name":"Georgia","lat":34.3352,"lng":-84.34744,"zip":"30107","miles_from_dt":28.19},{"city":"Tate","state_name":"Georgia","lat":34.40705,"lng":-84.37401,"zip":"30177","miles_from_dt":28.42},{"city":"Nelson","state_name":"Georgia","lat":34.3824,"lng":-84.3693,"zip":"30151","miles_from_dt":28.48},{"city":"Commerce","state_name":"Georgia","lat":34.2155,"lng":-83.482,"zip":"30529","miles_from_dt":28.95},{"city":"Ellijay","state_name":"Georgia","lat":34.65151,"lng":-84.35223,"zip":"30536","miles_from_dt":29.49}],"targetCityZipCode":"30564","targetCityState":"Georgia"},"__N_SSG":true}