{"pageProps":{"stateName":"Georgia","cityName":"rock-spring","nearbyCities":[{"city":"Ringgold","state_name":"Georgia","lat":34.90244,"lng":-85.13306,"zip":"30736","miles_from_dt":8.27},{"city":"Chickamauga","state_name":"Georgia","lat":34.77943,"lng":-85.36028,"zip":"30707","miles_from_dt":8.42},{"city":"Rocky Face","state_name":"Georgia","lat":34.75407,"lng":-85.07786,"zip":"30740","miles_from_dt":8.52},{"city":"La Fayette","state_name":"Georgia","lat":34.68015,"lng":-85.23417,"zip":"30728","miles_from_dt":8.57},{"city":"Fort Oglethorpe","state_name":"Georgia","lat":34.93566,"lng":-85.24482,"zip":"30742","miles_from_dt":9.27},{"city":"Rossville","state_name":"Georgia","lat":34.95168,"lng":-85.28213,"zip":"30741","miles_from_dt":10.9},{"city":"Tunnel Hill","state_name":"Georgia","lat":34.86944,"lng":-85.04072,"zip":"30755","miles_from_dt":10.91},{"city":"Flintstone","state_name":"Georgia","lat":34.92443,"lng":-85.35359,"zip":"30725","miles_from_dt":11.46},{"city":"Graysville","state_name":"Georgia","lat":34.97579,"lng":-85.13959,"zip":"30726","miles_from_dt":12.63},{"city":"Dalton","state_name":"Georgia","lat":34.73472,"lng":-85.00289,"zip":"30720","miles_from_dt":12.97},{"city":"Chattanooga","state_name":"Tennessee","lat":34.9974,"lng":-85.22726,"zip":"37412","miles_from_dt":13.39},{"city":"Lookout Mountain","state_name":"Georgia","lat":34.93681,"lng":-85.3882,"zip":"30750","miles_from_dt":13.46},{"city":"Dalton","state_name":"Georgia","lat":34.77002,"lng":-84.97073,"zip":"30719","miles_from_dt":14.09},{"city":"Chattanooga","state_name":"Tennessee","lat":35.002,"lng":-85.28941,"zip":"37407","miles_from_dt":14.32},{"city":"Chattanooga","state_name":"Tennessee","lat":35.002,"lng":-85.31366,"zip":"37410","miles_from_dt":14.79},{"city":"Rising Fawn","state_name":"Georgia","lat":34.79534,"lng":-85.47846,"zip":"30738","miles_from_dt":14.98},{"city":"Varnell","state_name":"Georgia","lat":34.90103,"lng":-84.97458,"zip":"30756","miles_from_dt":15.24},{"city":"Lookout Mountain","state_name":"Tennessee","lat":34.99445,"lng":-85.3516,"zip":"37350","miles_from_dt":15.28},{"city":"Dalton","state_name":"Georgia","lat":34.76101,"lng":-84.94988,"zip":"30722","miles_from_dt":15.37},{"city":"Chattanooga","state_name":"Tennessee","lat":35.0262,"lng":-85.23041,"zip":"37414","miles_from_dt":15.38},{"city":"Chattanooga","state_name":"Tennessee","lat":35.02655,"lng":-85.23026,"zip":"37411","miles_from_dt":15.4},{"city":"Chattanooga","state_name":"Tennessee","lat":35.0012,"lng":-85.34466,"zip":"37409","miles_from_dt":15.49},{"city":"Wildwood","state_name":"Georgia","lat":34.94164,"lng":-85.4324,"zip":"30757","miles_from_dt":15.59},{"city":"Chattanooga","state_name":"Tennessee","lat":35.02827,"lng":-85.27331,"zip":"37404","miles_from_dt":15.85},{"city":"Chattanooga","state_name":"Tennessee","lat":35.02915,"lng":-85.153,"zip":"37421","miles_from_dt":15.95},{"city":"Trion","state_name":"Georgia","lat":34.57896,"lng":-85.28806,"zip":"30753","miles_from_dt":16.02},{"city":"Chattanooga","state_name":"Tennessee","lat":35.03024,"lng":-85.14847,"zip":"37424","miles_from_dt":16.09},{"city":"Chattanooga","state_name":"Tennessee","lat":35.03048,"lng":-85.31237,"zip":"37408","miles_from_dt":16.6},{"city":"Chattanooga","state_name":"Tennessee","lat":35.03852,"lng":-85.30885,"zip":"37401","miles_from_dt":17.06},{"city":"Dalton","state_name":"Georgia","lat":34.79168,"lng":-84.91187,"zip":"30721","miles_from_dt":17.26},{"city":"Chattanooga","state_name":"Tennessee","lat":35.0476,"lng":-85.29448,"zip":"37403","miles_from_dt":17.42},{"city":"Chattanooga","state_name":"Tennessee","lat":35.04672,"lng":-85.31553,"zip":"37402","miles_from_dt":17.71},{"city":"Chattanooga","state_name":"Tennessee","lat":35.04897,"lng":-85.31217,"zip":"37450","miles_from_dt":17.8},{"city":"Sugar Valley","state_name":"Georgia","lat":34.59214,"lng":-85.03285,"zip":"30746","miles_from_dt":17.89},{"city":"Apison","state_name":"Tennessee","lat":35.01303,"lng":-85.01961,"zip":"37302","miles_from_dt":18.22},{"city":"Chattanooga","state_name":"Tennessee","lat":35.07246,"lng":-85.24541,"zip":"37406","miles_from_dt":18.62},{"city":"Collegedale","state_name":"Tennessee","lat":35.04722,"lng":-85.05158,"zip":"37315","miles_from_dt":19.2},{"city":"Trenton","state_name":"Georgia","lat":34.91136,"lng":-85.53079,"zip":"30752","miles_from_dt":19.42},{"city":"Cohutta","state_name":"Georgia","lat":34.95002,"lng":-84.91993,"zip":"30710","miles_from_dt":19.58},{"city":"Chattanooga","state_name":"Tennessee","lat":35.04052,"lng":-85.41734,"zip":"37419","miles_from_dt":19.97},{"city":"Chattanooga","state_name":"Tennessee","lat":35.09856,"lng":-85.15751,"zip":"37416","miles_from_dt":20.6},{"city":"Lupton City","state_name":"Tennessee","lat":35.10073,"lng":-85.26135,"zip":"37351","miles_from_dt":20.66},{"city":"Summerville","state_name":"Georgia","lat":34.50179,"lng":-85.29407,"zip":"30747","miles_from_dt":21.27},{"city":"Whiteside","state_name":"Tennessee","lat":35.00198,"lng":-85.50353,"zip":"37396","miles_from_dt":21.34},{"city":"Menlo","state_name":"Georgia","lat":34.58317,"lng":-85.47894,"zip":"30731","miles_from_dt":21.36},{"city":"Chattanooga","state_name":"Tennessee","lat":35.12735,"lng":-85.27932,"zip":"37415","miles_from_dt":22.62},{"city":"Higdon","state_name":"Alabama","lat":34.82994,"lng":-85.6125,"zip":"35979","miles_from_dt":22.66},{"city":"Resaca","state_name":"Georgia","lat":34.60183,"lng":-84.89375,"zip":"30735","miles_from_dt":22.98},{"city":"Armuchee","state_name":"Georgia","lat":34.47012,"lng":-85.15532,"zip":"30105","miles_from_dt":23.23},{"city":"Ooltewah","state_name":"Tennessee","lat":35.11551,"lng":-85.0549,"zip":"37363","miles_from_dt":23.36},{"city":"Guild","state_name":"Tennessee","lat":35.02085,"lng":-85.53179,"zip":"37340","miles_from_dt":23.41},{"city":"Chattanooga","state_name":"Tennessee","lat":35.11757,"lng":-85.40429,"zip":"37405","miles_from_dt":24.17},{"city":"Chattanooga","state_name":"Tennessee","lat":35.14105,"lng":-85.34866,"zip":"37422","miles_from_dt":24.47},{"city":"Ider","state_name":"Alabama","lat":34.72218,"lng":-85.64072,"zip":"35981","miles_from_dt":24.85},{"city":"Hixson","state_name":"Tennessee","lat":35.16904,"lng":-85.20899,"zip":"37343","miles_from_dt":25.2},{"city":"McDonald","state_name":"Tennessee","lat":35.12288,"lng":-84.9855,"zip":"37353","miles_from_dt":25.59},{"city":"Calhoun","state_name":"Georgia","lat":34.50135,"lng":-84.95382,"zip":"30703","miles_from_dt":25.6},{"city":"Bryant","state_name":"Alabama","lat":34.91796,"lng":-85.64731,"zip":"35958","miles_from_dt":25.79},{"city":"Calhoun","state_name":"Georgia","lat":34.49535,"lng":-84.95385,"zip":"30701","miles_from_dt":25.93},{"city":"Eton","state_name":"Georgia","lat":34.8253,"lng":-84.75795,"zip":"30724","miles_from_dt":26.04},{"city":"Cleveland","state_name":"Tennessee","lat":35.10054,"lng":-84.92298,"zip":"37311","miles_from_dt":26.35},{"city":"Chatsworth","state_name":"Georgia","lat":34.74711,"lng":-84.74929,"zip":"30705","miles_from_dt":26.78},{"city":"Flat Rock","state_name":"Alabama","lat":34.79696,"lng":-85.68833,"zip":"35966","miles_from_dt":26.91},{"city":"Crandall","state_name":"Georgia","lat":34.92905,"lng":-84.76259,"zip":"30711","miles_from_dt":27.13},{"city":"Valley Head","state_name":"Alabama","lat":34.60858,"lng":-85.63162,"zip":"35989","miles_from_dt":27.25},{"city":"Mentone","state_name":"Alabama","lat":34.52781,"lng":-85.56594,"zip":"35984","miles_from_dt":27.57},{"city":"Plainville","state_name":"Georgia","lat":34.41574,"lng":-85.04349,"zip":"30733","miles_from_dt":28.46},{"city":"Jasper","state_name":"Tennessee","lat":35.06088,"lng":-85.61894,"zip":"37347","miles_from_dt":28.99},{"city":"Signal Mountain","state_name":"Tennessee","lat":35.21243,"lng":-85.3389,"zip":"37377","miles_from_dt":29.05},{"city":"Harrison","state_name":"Tennessee","lat":35.21386,"lng":-85.0834,"zip":"37341","miles_from_dt":29.26},{"city":"Tennga","state_name":"Georgia","lat":34.98212,"lng":-84.73743,"zip":"30751","miles_from_dt":29.8}],"targetCityZipCode":"30739","targetCityState":"Georgia"},"__N_SSG":true}