{"pageProps":{"stateName":"Georgia","cityName":"stillmore","nearbyCities":[{"city":"Twin City","state_name":"Georgia","lat":32.53816,"lng":-82.18563,"zip":"30471","miles_from_dt":7.41},{"city":"Metter","state_name":"Georgia","lat":32.4169,"lng":-82.07112,"zip":"30439","miles_from_dt":8.9},{"city":"Nunez","state_name":"Georgia","lat":32.48754,"lng":-82.36444,"zip":"30448","miles_from_dt":9.08},{"city":"Cobbtown","state_name":"Georgia","lat":32.30363,"lng":-82.12958,"zip":"30420","miles_from_dt":10.54},{"city":"Swainsboro","state_name":"Georgia","lat":32.604,"lng":-82.34825,"zip":"30401","miles_from_dt":13.78},{"city":"Pulaski","state_name":"Georgia","lat":32.39325,"lng":-81.95622,"zip":"30451","miles_from_dt":15.79},{"city":"Norristown","state_name":"Georgia","lat":32.50395,"lng":-82.49446,"zip":"30447","miles_from_dt":16.62},{"city":"Vidalia","state_name":"Georgia","lat":32.22393,"lng":-82.41381,"zip":"30474","miles_from_dt":18.38},{"city":"Collins","state_name":"Georgia","lat":32.18401,"lng":-82.11096,"zip":"30421","miles_from_dt":18.48},{"city":"Garfield","state_name":"Georgia","lat":32.64732,"lng":-82.02337,"zip":"30425","miles_from_dt":18.66},{"city":"Vidalia","state_name":"Georgia","lat":32.21108,"lng":-82.40389,"zip":"30475","miles_from_dt":18.75},{"city":"Tarrytown","state_name":"Georgia","lat":32.33018,"lng":-82.51818,"zip":"30470","miles_from_dt":18.77},{"city":"Portal","state_name":"Georgia","lat":32.55964,"lng":-81.93322,"zip":"30450","miles_from_dt":18.91},{"city":"Lyons","state_name":"Georgia","lat":32.1494,"lng":-82.29026,"zip":"30436","miles_from_dt":20.09},{"city":"Soperton","state_name":"Georgia","lat":32.39852,"lng":-82.56498,"zip":"30457","miles_from_dt":20.21},{"city":"Register","state_name":"Georgia","lat":32.31706,"lng":-81.89417,"zip":"30452","miles_from_dt":20.82},{"city":"Adrian","state_name":"Georgia","lat":32.54802,"lng":-82.59012,"zip":"31002","miles_from_dt":22.87},{"city":"Statesboro","state_name":"Georgia","lat":32.39732,"lng":-81.82694,"zip":"30458","miles_from_dt":23.23},{"city":"Bellville","state_name":"Georgia","lat":32.15618,"lng":-81.98522,"zip":"30414","miles_from_dt":23.69},{"city":"Ailey","state_name":"Georgia","lat":32.18655,"lng":-82.51767,"zip":"30410","miles_from_dt":24.35},{"city":"Kite","state_name":"Georgia","lat":32.68281,"lng":-82.52634,"zip":"31049","miles_from_dt":24.64},{"city":"Reidsville","state_name":"Georgia","lat":32.0833,"lng":-82.11906,"zip":"30499","miles_from_dt":24.98},{"city":"Hagan","state_name":"Georgia","lat":32.15897,"lng":-81.93714,"zip":"30429","miles_from_dt":25.29},{"city":"Claxton","state_name":"Georgia","lat":32.16953,"lng":-81.91978,"zip":"30417","miles_from_dt":25.44},{"city":"Statesboro","state_name":"Georgia","lat":32.42718,"lng":-81.78272,"zip":"30460","miles_from_dt":25.67},{"city":"Statesboro","state_name":"Georgia","lat":32.44755,"lng":-81.78129,"zip":"30459","miles_from_dt":25.76},{"city":"Manassas","state_name":"Georgia","lat":32.08868,"lng":-82.05257,"zip":"30438","miles_from_dt":25.85},{"city":"Midville","state_name":"Georgia","lat":32.81467,"lng":-82.23682,"zip":"30441","miles_from_dt":26.17},{"city":"Mount Vernon","state_name":"Georgia","lat":32.16715,"lng":-82.58413,"zip":"30445","miles_from_dt":28.11},{"city":"Alston","state_name":"Georgia","lat":32.07973,"lng":-82.48643,"zip":"30412","miles_from_dt":28.97},{"city":"Reidsville","state_name":"Georgia","lat":32.01926,"lng":-82.11899,"zip":"30453","miles_from_dt":29.28},{"city":"Statesboro","state_name":"Georgia","lat":32.5072,"lng":-81.71941,"zip":"30461","miles_from_dt":29.77},{"city":"Rockledge","state_name":"Georgia","lat":32.43857,"lng":-82.73421,"zip":"30454","miles_from_dt":29.94},{"city":"Millen","state_name":"Georgia","lat":32.81677,"lng":-81.97549,"zip":"30442","miles_from_dt":29.97}],"targetCityZipCode":"30464","targetCityState":"Georgia"},"__N_SSG":true}